#  2012 10 17 23 30 31.06  37.6463 -119.0463    2.360  0.24 0.00 0.00 0.00          1
MCM 3.495 1.00   P
MDC 1.835 1.00   P
MDPB 1.280 1.00   P
MINS 1.000 1.00   P
MLC 2.835 1.00   P
MMP 1.395 1.00   P
MRD 1.635 1.00   P
#  2012 10 11 20 46  0.90  37.6092 -119.0623    8.630  0.32 0.00 0.00 0.00          2
MDC 2.080 1.00   P
MINS 1.265 1.00   P
MMP 1.000 1.00   P
MRD 1.040 1.00   P
#  2012 10 22  9 36 55.04  37.6338 -119.0353    3.490  0.80 0.00 0.00 0.00          3
MDC 1.880 1.00   P
MDPB 1.185 1.00   P
MINS 1.165 1.00   P
MMP 1.000 1.00   P
MRD 1.240 1.00   P
#  2012 10 29 14  3 29.36  37.6160 -119.0458   23.920  0.85 0.00 0.00 0.00          5
MCM 1.840 1.00   P
MCV 2.180 1.00   P
MDC 1.380 1.00   P
MDPB 1.080 1.00   P
MINS 1.145 1.00   P
MMP 1.120 1.00   P
MRD 1.000 1.00   P
OMMB 1.065 1.00   P
#  2012 10 24  4  2 24.04  37.5540 -119.0913   15.870  0.91 0.00 0.00 0.00          7
MCM 2.700 1.00   P
MCV 2.960 1.00   P
MDC 1.660 1.00   P
MDPB 1.205 1.00   P
MINS 1.665 1.00   P
MLC 2.260 1.00   P
MRD 1.000 1.00   P
#  2012 10 29 15 45 16.52  37.6187 -119.0587   21.970  0.76 0.00 0.00 0.00          8
MCM 1.920 1.00   P
MDC 1.400 1.00   P
MDPB 1.000 1.00   P
MINS 1.165 1.00   P
MLC 1.620 1.00   P
MMP 1.120 1.00   P
MRD 1.060 1.00   P
OMMB 1.085 1.00   P
#  2012 10 22 15 34 46.10  37.6303 -119.0287    4.300  0.75 0.00 0.00 0.00         13
MCM 2.660 1.00   P
MDC 1.840 1.00   P
MDPB 1.205 1.00   P
MINS 1.145 1.00   P
MMP 1.000 1.00   P
MRD 1.220 1.00   P
#  2012 10 10  3 34 46.72  37.6000 -119.0123    4.450  0.01 0.00 0.00 0.00         14
MDC 2.640 1.00   P
MINS 1.885 1.00   P
MMP 1.000 1.00   P
MRD 1.300 1.00   P
#  2012 10  4  4 50 35.94  37.5992 -119.0063    4.680  0.39 0.00 0.00 0.00         18
MCM 2.420 1.00   P
MCV 2.980 1.00   P
MDC 2.760 1.00   P
MINS 1.885 1.00   P
MMP 1.000 1.00   P
MRD 1.300 1.00   P
#  2012 10  5  3 58 46.60  37.6028 -119.0053    5.020  0.45 0.00 0.00 0.00         19
MCV 2.960 1.00   P
MINS 1.865 1.00   P
MLC 1.840 1.00   P
MMP 1.000 1.00   P
MRD 1.280 1.00   P
#  2012 10 22  9 35 43.56  37.6557 -119.0232    0.100  0.82 0.00 0.00 0.00         22
MDC 1.575 1.00   P
MDPB 1.360 1.00   P
MINS 1.000 1.00   P
MMP 1.275 1.00   P
MRD 1.975 1.00   P
#  2012 10 23 19 37 26.62  37.5825 -119.0013    5.650  0.47 0.00 0.00 0.00         23
MCV 3.000 1.00   P
MDC 2.840 1.00   P
MINS 1.905 1.00   P
MMP 1.000 1.00   P
MRD 1.300 1.00   P
#  2012 10 31 23 24 33.48  37.6223 -119.1087   22.740  0.98 0.00 0.00 0.00         24
MCM 1.920 1.00   P
MCV 2.360 1.00   P
MDC 1.360 1.00   P
MINS 1.085 1.00   P
MLC 1.660 1.00   P
MRD 1.000 1.00   P
OMMB 1.065 1.00   P
#  2012 10 29  9 34 13.50  37.6148 -119.0502   22.180  0.75 0.00 0.00 0.00         25
MCM 1.900 1.00   P
MDC 1.440 1.00   P
MDPB 1.000 1.00   P
MINS 1.145 1.00   P
MLC 1.580 1.00   P
MMP 1.140 1.00   P
MRD 1.100 1.00   P
OMMB 1.105 1.00   P
#  2012 10 29 22 59 29.40  37.6258 -119.0375   19.730  1.09 0.00 0.00 0.00         39
MCM 1.800 1.00   P
MCV 2.180 1.00   P
MDC 1.320 1.00   P
MDPB 1.000 1.00   P
MINS 1.065 1.00   P
MLC 1.460 1.00   P
MMP 1.020 1.00   P
MRD 1.060 1.00   P
OMMB 1.005 1.00   P
#  2012 10  4  4 35  8.60  37.6352 -119.0567    2.560  0.38 0.00 0.00 0.00         45
MDC 1.895 1.00   P
MINS 1.000 1.00   P
MMP 1.175 1.00   P
MRD 1.235 1.00   P
#  2012 10 29 13 41 30.08  37.6118 -119.0598   23.630  0.81 0.00 0.00 0.00         47
MCM 1.880 1.00   P
MDC 1.360 1.00   P
MDPB 1.040 1.00   P
MINS 1.085 1.00   P
MLC 1.540 1.00   P
MMP 1.060 1.00   P
MRD 1.000 1.00   P
OMMB 1.025 1.00   P
#  2012 10  7  4 34  8.02  37.6337 -119.0487    3.530 -0.00 0.00 0.00 0.00         53
MCM 3.000 1.00   P
MDC 1.820 1.00   P
MINS 1.025 1.00   P
MMP 1.000 1.00   P
MRD 1.160 1.00   P
#  2012 10 29  6 48  3.90  37.6293 -119.0443   21.830  0.75 0.00 0.00 0.00         54
MCM 1.820 1.00   P
MDC 1.360 1.00   P
MDPB 1.000 1.00   P
MINS 1.105 1.00   P
MMP 1.020 1.00   P
MRD 1.020 1.00   P
OMMB 1.045 1.00   P
#  2012 10 24 10 26 42.18  37.5925 -119.0042    3.650  0.22 0.00 0.00 0.00         55
MCM 2.380 1.00   P
MDPB 1.825 1.00   P
MLC 1.800 1.00   P
MMP 1.000 1.00   P
MRD 1.320 1.00   P
#  2012 10 30  1 41 30.10  37.6310 -119.0258   19.880  0.76 0.00 0.00 0.00         57
MCM 1.775 1.00   P
MCV 2.155 1.00   P
MDC 1.315 1.00   P
MDPB 1.015 1.00   P
MINS 1.100 1.00   P
MLC 1.495 1.00   P
MMP 1.255 1.00   P
MRD 1.095 1.00   P
OMMB 1.000 1.00   P
#  2012 10 29 20 45 55.96  37.6710 -119.0032   18.810  0.78 0.00 0.00 0.00         58
MCM 1.980 1.00   P
MCV 2.400 1.00   P
MDC 1.000 1.00   P
MINS 1.265 1.00   P
MMP 1.300 1.00   P
MRD 1.260 1.00   P
OMMB 1.185 1.00   P
#  2012 10 30  6 50 22.08  37.6312 -119.0335   19.000  0.72 0.00 0.00 0.00         60
MCM 1.820 1.00   P
MDC 1.300 1.00   P
MDPB 1.000 1.00   P
MLC 1.500 1.00   P
MMP 1.180 1.00   P
MRD 1.080 1.00   P
OMMB 1.045 1.00   P
#  2012 10  1  7 41 29.60  37.6325 -119.0428    2.980 -0.35 0.00 0.00 0.00         62
MDC 1.980 1.00   P
MMP 1.000 1.00   P
MRD 1.280 1.00   P
#  2012 10 22  9 36 36.08  37.6305 -119.0335    3.880  0.61 0.00 0.00 0.00         64
MDC 1.920 1.00   P
MDPB 1.245 1.00   P
MINS 1.225 1.00   P
MMP 1.000 1.00   P
MRD 1.280 1.00   P
#  2012 10 31 23 59 29.12  37.6153 -119.0652   21.920  0.61 0.00 0.00 0.00         66
MDC 1.360 1.00   P
MINS 1.165 1.00   P
MLC 1.640 1.00   P
MMP 1.200 1.00   P
MRD 1.000 1.00   P
OMMB 1.065 1.00   P
#  2012 10  3 12 47  2.12  37.6302 -119.0375    3.470  0.10 0.00 0.00 0.00         67
MDC 1.920 1.00   P
MINS 1.365 1.00   P
MMP 1.000 1.00   P
MRD 1.280 1.00   P
#  2012 10 29 13  8 35.60  37.6348 -119.0423   21.510  0.99 0.00 0.00 0.00         68
MCM 1.880 1.00   P
MCV 2.260 1.00   P
MDC 1.420 1.00   P
MDPB 1.000 1.00   P
MINS 1.125 1.00   P
MLC 1.560 1.00   P
MMP 1.120 1.00   P
MRD 1.080 1.00   P
OMMB 1.065 1.00   P
#  2012 10 23 15 46 42.24  37.6303 -119.0958   22.880  0.85 0.00 0.00 0.00         71
MCM 1.660 1.00   P
MCV 2.200 1.00   P
MDC 1.260 1.00   P
MINS 1.065 1.00   P
MLC 1.540 1.00   P
MRD 1.000 1.00   P
#  2012 10 28  0 43 36.68  37.6353 -119.0218    3.380 -0.06 0.00 0.00 0.00         72
MCM 2.600 1.00   P
MDC 1.840 1.00   P
MDPB 1.260 1.00   P
MINS 1.205 1.00   P
MMP 1.000 1.00   P
MRD 1.300 1.00   P
OMMB 1.005 1.00   P
#  2012 10  3 20 29 13.98  37.6327 -119.0425    3.160  1.88 0.00 0.00 0.00         73
MDC 1.980 1.00   P
MINS 1.185 1.00   P
MMP 1.000 1.00   P
MRD 1.260 1.00   P
#  2012 10 29  3 57  0.90  37.6258 -119.0227    5.660  0.42 0.00 0.00 0.00         74
MCM 2.715 1.00   P
MDPB 1.335 1.00   P
MINS 1.360 1.00   P
MMP 1.015 1.00   P
MRD 1.315 1.00   P
OMMB 1.000 1.00   P
#  2012 10  1 14 21  1.66  37.6528 -119.0295    1.770 -0.11 0.00 0.00 0.00         75
MDC 1.455 1.00   P
MINS 1.000 1.00   P
MMP 1.495 1.00   P
MRD 1.555 1.00   P
#  2012 10 29 16 29  8.12  37.6213 -119.0435   20.770  1.08 0.00 0.00 0.00         76
MCM 1.780 1.00   P
MCV 2.160 1.00   P
MDC 1.260 1.00   P
MINS 1.025 1.00   P
MLC 1.460 1.00   P
MMP 1.080 1.00   P
MRD 1.000 1.00   P
OMMB 1.005 1.00   P
#  2012 10 27  4 26 49.84  37.6423 -119.0888   15.910  0.47 0.00 0.00 0.00         77
MCV 2.800 1.00   P
MDC 1.360 1.00   P
MDPB 1.000 1.00   P
MLC 2.060 1.00   P
MMP 1.380 1.00   P
MRD 1.140 1.00   P
OMMB 1.005 1.00   P
#  2012 10 29 23 30  3.24  37.6247 -119.0383   21.150  1.48 0.00 0.00 0.00         78
MCM 1.835 1.00   P
MCV 2.195 1.00   P
MDC 1.335 1.00   P
MDPB 1.015 1.00   P
MINS 1.060 1.00   P
MLC 1.495 1.00   P
MMP 1.035 1.00   P
MRD 1.075 1.00   P
OMMB 1.000 1.00   P
#  2012 10 29  3 16 29.60  37.6202 -119.0523   23.260  0.86 0.00 0.00 0.00         79
MCM 1.880 1.00   P
MCV 2.240 1.00   P
MDC 1.400 1.00   P
MDPB 1.000 1.00   P
MINS 1.145 1.00   P
MLC 1.580 1.00   P
MMP 1.120 1.00   P
MRD 1.080 1.00   P
OMMB 1.085 1.00   P
#  2012 10 29 18 52 18.36  37.6185 -119.0542   21.520  0.84 0.00 0.00 0.00         83
MCM 1.940 1.00   P
MCV 2.220 1.00   P
MDC 1.320 1.00   P
MDPB 1.000 1.00   P
MINS 1.085 1.00   P
MLC 1.620 1.00   P
MMP 1.100 1.00   P
MRD 1.100 1.00   P
OMMB 1.065 1.00   P
#  2012 10 27 10 10 31.30  37.5975 -119.0082    3.390 -0.06 0.00 0.00 0.00         84
MDC 2.875 1.00   P
MDPB 1.875 1.00   P
MMP 1.095 1.00   P
MRD 1.415 1.00   P
OMMB 1.000 1.00   P
#  2012 10 22 16 25 42.50  37.6325 -119.0305    3.490  0.50 0.00 0.00 0.00         85
MDC 1.880 1.00   P
MDPB 1.245 1.00   P
MINS 1.165 1.00   P
MMP 1.000 1.00   P
MRD 1.220 1.00   P
#  2012 10  1  3 46 39.28  37.6537 -119.0232    2.380  0.54 0.00 0.00 0.00         87
MCM 2.795 1.00   P
MDC 1.595 1.00   P
MINS 1.000 1.00   P
MMP 1.295 1.00   P
MRD 1.635 1.00   P
#  2012 10  1  4 17 36.88  37.5978 -119.0055    3.900  0.36 0.00 0.00 0.00         88
MDC 2.800 1.00   P
MMP 1.000 1.00   P
MRD 1.300 1.00   P
#  2012 10  1  4 23 12.14  37.6522 -119.0237    2.070  0.24 0.00 0.00 0.00         98
MDC 1.575 1.00   P
MINS 1.000 1.00   P
MMP 1.335 1.00   P
MRD 1.635 1.00   P
#  2012 10 12  8  2 45.70  37.6355 -119.0287    3.840  0.02 0.00 0.00 0.00        100
MDC 1.820 1.00   P
MINS 1.165 1.00   P
MMP 1.000 1.00   P
MRD 1.340 1.00   P
#  2012 10 24  4 52 25.74  37.5993 -119.0032    3.820  0.17 0.00 0.00 0.00        101
MCV 2.980 1.00   P
MDPB 1.805 1.00   P
MINS 1.925 1.00   P
MLC 1.800 1.00   P
MMP 1.000 1.00   P
MRD 1.340 1.00   P
#  2012 10 29 13 38 21.66  37.6225 -119.0515   22.270  0.66 0.00 0.00 0.00        102
MDC 1.295 1.00   P
MDPB 1.075 1.00   P
MINS 1.040 1.00   P
MMP 1.055 1.00   P
MRD 1.235 1.00   P
OMMB 1.000 1.00   P
#  2012 10 29 21 11  2.70  37.6103 -119.0313   19.410  0.64 0.00 0.00 0.00        103
MCM 1.735 1.00   P
MCV 2.135 1.00   P
MDC 1.455 1.00   P
MDPB 1.275 1.00   P
MINS 1.040 1.00   P
MLC 1.415 1.00   P
MMP 1.035 1.00   P
MRD 1.015 1.00   P
OMMB 1.000 1.00   P
#  2012 10 29 19 47 15.16  37.6328 -119.0355   19.700  0.92 0.00 0.00 0.00        104
MCM 1.815 1.00   P
MCV 2.215 1.00   P
MDC 1.315 1.00   P
MDPB 1.055 1.00   P
MINS 1.120 1.00   P
MLC 1.495 1.00   P
MMP 1.075 1.00   P
MRD 1.055 1.00   P
OMMB 1.000 1.00   P
#  2012 10 29 12 20 38.10  37.6207 -119.0372   22.200  0.83 0.00 0.00 0.00        110
MCM 1.800 1.00   P
MCV 2.180 1.00   P
MDC 1.320 1.00   P
MDPB 1.000 1.00   P
MINS 1.105 1.00   P
MLC 1.480 1.00   P
MMP 1.220 1.00   P
MRD 1.080 1.00   P
OMMB 1.065 1.00   P
#  2012 10  4  5 46  9.96  37.5963 -119.0153    3.870 -0.08 0.00 0.00 0.00        111
MINS 1.945 1.00   P
MMP 1.000 1.00   P
MRD 1.300 1.00   P
#  2012 10 31 23 40  3.10  37.6045 -119.0603   22.920  1.25 0.00 0.00 0.00        112
MCM 1.980 1.00   P
MDC 1.400 1.00   P
MINS 1.125 1.00   P
MMP 1.020 1.00   P
MRD 1.000 1.00   P
OMMB 1.065 1.00   P
#  2012 10 23  4 45 18.26  37.5998 -119.0012    3.930  0.30 0.00 0.00 0.00        113
MCM 2.360 1.00   P
MCV 2.920 1.00   P
MLC 1.760 1.00   P
MMP 1.000 1.00   P
MRD 1.300 1.00   P
#  2012 10  3 20 31 38.80  37.6293 -119.0400    3.660  0.98 0.00 0.00 0.00        114
MCM 3.060 1.00   P
MDC 2.000 1.00   P
MINS 1.185 1.00   P
MMP 1.000 1.00   P
MRD 1.380 1.00   P
#  2012 10  1 15 47  0.34  37.5918 -119.1603    6.460  0.69 0.00 0.00 0.00        115
MDC 2.020 1.00   P
MINS 1.225 1.00   P
MMP 1.380 1.00   P
MRD 1.000 1.00   P
#  2012 10 10 19 18  8.00  37.6310 -119.0448    3.750 -0.00 0.00 0.00 0.00        116
MDC 1.900 1.00   P
MINS 1.125 1.00   P
MMP 1.000 1.00   P
MRD 1.200 1.00   P
#  2012 10 22 14 39 50.02  37.6273 -119.0273    4.330  0.62 0.00 0.00 0.00        117
MCM 2.660 1.00   P
MCV 3.280 1.00   P
MDC 1.840 1.00   P
MDPB 1.145 1.00   P
MINS 1.165 1.00   P
MLC 2.080 1.00   P
MMP 1.000 1.00   P
MRD 1.180 1.00   P
#  2012 10  1  0 49 16.32  37.6543 -119.0203    3.080  0.49 0.00 0.00 0.00        118
MCM 2.755 1.00   P
MDC 1.495 1.00   P
MINS 1.000 1.00   P
MMP 1.095 1.00   P
MRD 1.635 1.00   P
#  2012 10 27  6  2 47.16  37.5987 -119.0045    3.520 -0.02 0.00 0.00 0.00        121
MDPB 1.895 1.00   P
MMP 1.095 1.00   P
MRD 1.395 1.00   P
OMMB 1.000 1.00   P
#  2012 10 29 15 21 28.84  37.6357 -119.0402   21.350  1.24 0.00 0.00 0.00        124
MCM 1.780 1.00   P
MCV 2.160 1.00   P
MDC 1.300 1.00   P
MDPB 1.020 1.00   P
MINS 1.065 1.00   P
MLC 1.500 1.00   P
MMP 1.060 1.00   P
MRD 1.000 1.00   P
OMMB 1.005 1.00   P
#  2012 10 30  2 36 46.56  37.6202 -119.0365   20.020  1.56 0.00 0.00 0.00        125
MCM 1.820 1.00   P
MCV 2.220 1.00   P
MDC 1.320 1.00   P
MDPB 1.000 1.00   P
MINS 1.065 1.00   P
MLC 1.500 1.00   P
MMP 1.060 1.00   P
MRD 1.060 1.00   P
OMMB 1.005 1.00   P
#  2012 10 14 15 33 27.18  37.6263 -119.0287    3.150 -0.10 0.00 0.00 0.00        127
MDC 2.360 1.00   P
MMP 1.000 1.00   P
MRD 1.340 1.00   P
#  2012 10 29 11 52 31.82  37.6217 -119.0482   21.380  0.87 0.00 0.00 0.00        128
MCM 1.800 1.00   P
MCV 2.100 1.00   P
MDC 1.280 1.00   P
MDPB 1.000 1.00   P
MINS 1.065 1.00   P
MLC 1.480 1.00   P
MMP 1.080 1.00   P
MRD 1.000 1.00   P
OMMB 1.045 1.00   P
#  2012 10 17 11 55 51.34  37.6232 -119.0520    2.320 -0.42 0.00 0.00 0.00        129
MDC 2.560 1.00   P
MDPB 1.045 1.00   P
MINS 1.225 1.00   P
MMP 1.000 1.00   P
MRD 1.140 1.00   P
#  2012 10 11 16 49  7.42  37.6338 -119.0420    4.840  0.12 0.00 0.00 0.00        130
MDC 1.820 1.00   P
MINS 1.145 1.00   P
MMP 1.000 1.00   P
MRD 1.340 1.00   P
#  2012 10  2  4 17 47.32  37.6023 -119.0043    4.030  0.06 0.00 0.00 0.00        131
MDC 2.780 1.00   P
MINS 1.925 1.00   P
MMP 1.000 1.00   P
MRD 1.320 1.00   P
#  2012 10 19  1 11 41.62  37.6338 -119.0375    3.200  0.54 0.00 0.00 0.00        135
MDC 1.880 1.00   P
MDPB 1.145 1.00   P
MINS 1.145 1.00   P
MMP 1.000 1.00   P
MRD 1.240 1.00   P
#  2012 10 11 16 49 29.22  37.6365 -119.0347    4.270  0.33 0.00 0.00 0.00        136
MDC 1.860 1.00   P
MINS 1.145 1.00   P
MMP 1.000 1.00   P
MRD 1.300 1.00   P
#  2012 10  3 20 37 34.86  37.6340 -119.0408    2.460  0.83 0.00 0.00 0.00        137
MDC 1.980 1.00   P
MINS 1.145 1.00   P
MMP 1.000 1.00   P
MRD 1.240 1.00   P
#  2012 10 29 14 59 42.10  37.6170 -119.0357   23.770  1.00 0.00 0.00 0.00        138
MCM 1.755 1.00   P
MCV 2.115 1.00   P
MDC 1.315 1.00   P
MDPB 1.035 1.00   P
MINS 1.060 1.00   P
MLC 1.455 1.00   P
MMP 1.035 1.00   P
MRD 1.035 1.00   P
OMMB 1.000 1.00   P
#  2012 10 14 15 33  3.34  37.6423 -119.0098    7.280 -0.09 0.00 0.00 0.00        139
MDC 1.440 1.00   P
MINS 1.225 1.00   P
MMP 1.000 1.00   P
MRD 1.360 1.00   P
#  2012 10 26  7 33 57.60  37.6477 -119.0173    2.770 -0.07 0.00 0.00 0.00        140
MDC 1.360 1.00   P
MDPB 1.000 1.00   P
MRD 1.260 1.00   P
#  2012 10 20 18  3 23.62  37.5807 -119.0343    1.950 -0.25 0.00 0.00 0.00        141
MDPB 1.845 1.00   P
MMP 1.040 1.00   P
MRD 1.000 1.00   P
#  2012 10 20  4 50  3.74  37.6355 -119.0368    2.920  0.26 0.00 0.00 0.00        142
MDC 1.880 1.00   P
MINS 1.845 1.00   S
MINS 1.125 1.00   P
MMP 1.000 1.00   P
MRD 1.260 1.00   P
#  2012 10 29 12 48 53.56  37.6138 -119.0452   22.380  1.17 0.00 0.00 0.00        145
MCM 1.800 1.00   P
MCV 2.180 1.00   P
MDC 1.280 1.00   P
MDPB 1.020 1.00   P
MLC 1.480 1.00   P
MMP 1.040 1.00   P
MRD 1.000 1.00   P
OMMB 1.025 1.00   P
#  2012 10 11 20 20 47.62  37.6120 -119.0250    3.680 -0.18 0.00 0.00 0.00        148
MDC 2.740 1.00   P
MINS 1.765 1.00   P
MMP 1.000 1.00   P
MRD 1.320 1.00   P
#  2012 10 26 16 57  0.16  37.6482 -119.0415    1.800 -0.32 0.00 0.00 0.00        149
MDC 1.915 1.00   P
MDPB 1.435 1.00   P
MINS 1.000 1.00   P
MRD 1.935 1.00   P
#  2012 10 29 14  8 53.36  37.6120 -119.0633   22.750  0.79 0.00 0.00 0.00        150
MCM 1.900 1.00   P
MDC 1.420 1.00   P
MDPB 1.000 1.00   P
MINS 1.225 1.00   P
MLC 1.580 1.00   P
MMP 1.080 1.00   P
MRD 1.040 1.00   P
OMMB 1.105 1.00   P
#  2012 10 29 21  9 41.80  37.6267 -119.0328   19.690  0.91 0.00 0.00 0.00        154
MCM 1.780 1.00   P
MCV 2.160 1.00   P
MDC 1.280 1.00   P
MDPB 1.000 1.00   P
MINS 1.065 1.00   P
MLC 1.480 1.00   P
MMP 1.100 1.00   P
MRD 1.100 1.00   P
OMMB 1.025 1.00   P
#  2012 10 22 14 42 14.38  37.6243 -119.0303    4.880  0.82 0.00 0.00 0.00        156
MCM 2.800 1.00   P
MCV 3.140 1.00   P
MDC 1.920 1.00   P
MDPB 1.165 1.00   P
MINS 1.185 1.00   P
MLC 2.160 1.00   P
MMP 1.000 1.00   P
MRD 1.220 1.00   P
#  2012 10 13 23  9 10.78  37.6543 -119.0237    2.470  0.36 0.00 0.00 0.00        157
MDC 1.255 1.00   P
MINS 1.000 1.00   P
MMP 1.275 1.00   P
MRD 1.655 1.00   P
#  2012 10 20 10 56 27.92  37.6308 -119.0392    4.810  0.47 0.00 0.00 0.00        158
MDC 1.840 1.00   P
MDPB 1.125 1.00   P
MINS 1.085 1.00   P
MMP 1.000 1.00   P
MRD 1.240 1.00   P
#  2012 10  3 11 43 29.56  37.6262 -119.0575    2.540 -0.30 0.00 0.00 0.00        159
MDC 2.480 1.00   P
MINS 1.065 1.00   P
MMP 1.040 1.00   P
MRD 1.000 1.00   P
#  2012 10 30  4 37 14.04  37.6358 -119.0350   18.740  0.67 0.00 0.00 0.00        161
MCM 1.820 1.00   P
MCV 2.260 1.00   P
MDC 1.280 1.00   P
MDPB 1.000 1.00   P
MINS 1.025 1.00   P
MMP 1.120 1.00   P
MRD 1.080 1.00   P
OMMB 1.045 1.00   P
#  2012 10 22 15 32 47.12  37.6000 -119.0043    4.520  0.65 0.00 0.00 0.00        162
MCM 2.400 1.00   P
MLC 1.800 1.00   P
MMP 1.000 1.00   P
MRD 1.300 1.00   P
#  2012 10 10  1 53 18.56  37.6465 -119.0445    2.220  0.32 0.00 0.00 0.00        168
MDC 1.695 1.00   P
MINS 1.000 1.00   P
MMP 1.295 1.00   P
MRD 1.535 1.00   P
#  2012 10 30  0 44 17.92  37.6183 -119.0372   19.030  0.73 0.00 0.00 0.00        170
MCM 1.800 1.00   P
MCV 2.200 1.00   P
MDC 1.440 1.00   P
MDPB 1.000 1.00   P
MINS 1.045 1.00   P
MLC 1.540 1.00   P
MMP 1.120 1.00   P
MRD 1.040 1.00   P
OMMB 1.045 1.00   P
#  2012 10 28  0 31 30.12  37.6452 -119.0593   20.590  0.72 0.00 0.00 0.00        171
MCM 1.940 1.00   P
MDC 1.360 1.00   P
MDPB 1.000 1.00   P
MINS 1.105 1.00   P
MLC 1.600 1.00   P
MMP 1.100 1.00   P
MRD 1.020 1.00   P
#  2012 10 31 15 25 40.50  37.6070 -119.0530   21.370  0.81 0.00 0.00 0.00        172
MCM 1.940 1.00   P
MDC 1.400 1.00   P
MDPB 1.000 1.00   P
MINS 1.125 1.00   P
MLC 1.600 1.00   P
MMP 1.100 1.00   P
MRD 1.000 1.00   P
OMMB 1.065 1.00   P
#  2012 10 29  5  8 40.06  37.6155 -119.0463   22.380  1.02 0.00 0.00 0.00        173
MCM 1.820 1.00   P
MCV 2.180 1.00   P
MDC 1.320 1.00   P
MDPB 1.060 1.00   P
MINS 1.085 1.00   P
MLC 1.500 1.00   P
MMP 1.080 1.00   P
MRD 1.000 1.00   P
OMMB 1.005 1.00   P
#  2012 10 29 15 14 11.92  37.6107 -119.0558   21.770  0.96 0.00 0.00 0.00        175
MCM 1.960 1.00   P
MCV 2.380 1.00   P
MDC 1.360 1.00   P
MDPB 1.040 1.00   P
MINS 1.085 1.00   P
MLC 1.700 1.00   P
MMP 1.080 1.00   P
MRD 1.000 1.00   P
OMMB 1.005 1.00   P
#  2012 10 10 18 46 10.78  37.5988 -119.0107    4.280 -0.06 0.00 0.00 0.00        177
MINS 1.965 1.00   P
MMP 1.000 1.00   P
MRD 1.320 1.00   P
#  2012 10  1  4 13 14.18  37.5893 -119.0062    4.310  0.70 0.00 0.00 0.00        179
MCM 2.400 1.00   P
MCV 2.940 1.00   P
MDC 2.740 1.00   P
MINS 1.905 1.00   P
MLC 1.800 1.00   P
MMP 1.000 1.00   P
MRD 1.300 1.00   P
#  2012 10  3 20 29 27.44  37.6332 -119.0418    2.200  0.99 0.00 0.00 0.00        185
MDC 1.960 1.00   P
MINS 1.145 1.00   P
MMP 1.000 1.00   P
MRD 1.360 1.00   P
#  2012 10 29 22 18 14.70  37.6347 -119.0430   20.550  0.59 0.00 0.00 0.00        186
MCM 1.920 1.00   P
MDC 1.540 1.00   P
MDPB 1.000 1.00   P
MINS 1.185 1.00   P
MLC 2.140 1.00   P
MRD 1.200 1.00   P
OMMB 1.145 1.00   P
#  2012 10 29  5 33  9.02  37.6218 -119.0513   22.220  0.82 0.00 0.00 0.00        187
MCM 1.915 1.00   P
MCV 2.275 1.00   P
MDC 1.275 1.00   P
MDPB 1.075 1.00   P
MINS 1.000 1.00   P
MLC 1.595 1.00   P
MMP 1.135 1.00   P
MRD 1.115 1.00   P
OMMB 1.040 1.00   P
#  2012 10  8  5 32  1.94  37.6323 -119.0465   15.860  0.50 0.00 0.00 0.00        190
MCM 2.040 1.00   P
MCV 2.460 1.00   P
MDC 1.360 1.00   P
MINS 1.065 1.00   P
MLC 1.660 1.00   P
MMP 1.120 1.00   P
MRD 1.000 1.00   P
#  2012 10  1  6 14  9.94  37.6322 -119.0352    3.920  0.36 0.00 0.00 0.00        191
MDC 1.900 1.00   P
MINS 1.165 1.00   P
MMP 1.000 1.00   P
MRD 1.300 1.00   P
#  2012 10 22  5  5 23.50  37.6190 -119.0198    3.240 -0.10 0.00 0.00 0.00        192
MINS 1.725 1.00   P
MMP 1.000 1.00   P
MRD 1.420 1.00   P
#  2012 10  4  9 47  6.90  37.5952 -119.0150    4.140 -0.05 0.00 0.00 0.00        193
MINS 1.965 1.00   P
MMP 1.000 1.00   P
MRD 1.320 1.00   P
