<?xml version='1.0' encoding='utf-8'?>
<q:quakeml xmlns="http://quakeml.org/xmlns/bed/1.2" xmlns:q="http://quakeml.org/xmlns/quakeml/1.2">
  <eventParameters publicID="smi:local/75771d80-c1d9-4d7d-bc4a-d5c5a0c286c1">
    <event publicID="smi:local/2012_10_17t23_30_31_20121017T233031.060000">
      <comment id="smi:local/fd84422d-5c0b-4f27-a68f-c5ac7aab10e6">
        <text>Template: 2012_10_17t23_30_31</text>
      </comment>
      <comment id="smi:local/79e35dda-bdc6-4c00-86c6-015c2aa6a798">
        <text>threshold=6.300000190734863</text>
      </comment>
      <comment id="smi:local/121d150b-aa7b-4f24-9446-d881d4baa717">
        <text>detect_val=8.999999046325684</text>
      </comment>
      <comment id="smi:local/966e3183-f252-44b7-9497-27da4e6d6b51">
        <text>channels used: ('MCM', 'EHZ') ('MDC', 'EHZ') ('MDPB', 'HHE') ('MDPB', 'HHZ') ('MINS', 'HHE') ('MINS', 'HHZ') ('MLC', 'EHZ') ('MMP', 'EHZ') ('MRD', 'EHZ')</text>
      </comment>
      <comment id="smi:local/997c18d6-873b-4a82-a088-4d8edd3f5230">
        <text>FI=0.42244</text>
      </comment>
      <creationInfo>
        <author>EQcorrscan</author>
        <creationTime>2022-12-20T01:25:56.366921Z</creationTime>
      </creationInfo>
      <origin publicID="smi:local/643be01c-cd13-449b-8d95-131de47939ea">
        <time>
          <value>2012-10-17T23:30:31.060000Z</value>
        </time>
        <latitude>
          <value>37.64633333333333</value>
        </latitude>
        <longitude>
          <value>-119.04633333333334</value>
        </longitude>
        <depth>
          <value>-0.14</value>
        </depth>
      </origin>
      <magnitude publicID="smi:local/9da1d972-ecce-4c00-99ce-362c636c0980">
        <mag>
          <value>0.2397197712485197</value>
        </mag>
      </magnitude>
      <pick publicID="smi:local/ca5657d1-2a5e-4b36-9dd9-77fba9b12f22">
        <time>
          <value>2012-10-17T23:30:34.555000Z</value>
        </time>
        <waveformID networkCode="NC" stationCode="MCM" locationCode="02" channelCode="EHZ"></waveformID>
        <phaseHint>P</phaseHint>
      </pick>
      <pick publicID="smi:local/d6166bd5-46c8-4f46-b648-0d5daed77f76">
        <time>
          <value>2012-10-17T23:30:32.895000Z</value>
        </time>
        <waveformID networkCode="NC" stationCode="MDC" locationCode="02" channelCode="EHZ"></waveformID>
        <phaseHint>P</phaseHint>
      </pick>
      <pick publicID="smi:local/b325b430-fb58-4aa5-8d7e-1c818292cc7b">
        <time>
          <value>2012-10-17T23:30:32.340000Z</value>
        </time>
        <waveformID networkCode="NC" stationCode="MDPB" locationCode="" channelCode="HHZ"></waveformID>
        <phaseHint>P</phaseHint>
      </pick>
      <pick publicID="smi:local/1d4d334c-ddfc-4978-b59f-0d6dd3ca35a5">
        <time>
          <value>2012-10-17T23:30:32.060000Z</value>
        </time>
        <waveformID networkCode="NC" stationCode="MINS" locationCode="" channelCode="HHZ"></waveformID>
        <phaseHint>P</phaseHint>
      </pick>
      <pick publicID="smi:local/289c034d-11f7-4019-a1fe-c847483f970d">
        <time>
          <value>2012-10-17T23:30:33.895000Z</value>
        </time>
        <waveformID networkCode="NC" stationCode="MLC" locationCode="" channelCode="EHZ"></waveformID>
        <phaseHint>P</phaseHint>
      </pick>
      <pick publicID="smi:local/baaacebc-5d2a-4059-b1d9-1aa493decc47">
        <time>
          <value>2012-10-17T23:30:32.455000Z</value>
        </time>
        <waveformID networkCode="NC" stationCode="MMP" locationCode="" channelCode="EHZ"></waveformID>
        <phaseHint>P</phaseHint>
      </pick>
      <pick publicID="smi:local/0a770b7b-9ea1-4c31-b092-5d5b8e023478">
        <time>
          <value>2012-10-17T23:30:32.695000Z</value>
        </time>
        <waveformID networkCode="NC" stationCode="MRD" locationCode="02" channelCode="EHZ"></waveformID>
        <phaseHint>P</phaseHint>
      </pick>
    </event>
    <event publicID="smi:local/2012_10_11t20_46_00_20121011T204600.900000">
      <comment id="smi:local/3c107aab-569e-45f2-8b63-1c05ad41b1c5">
        <text>Template: 2012_10_11t20_46_00</text>
      </comment>
      <comment id="smi:local/6ef8c34d-97e3-4ab4-a226-fbafa6e38ee5">
        <text>threshold=3.5</text>
      </comment>
      <comment id="smi:local/6078cd77-a326-420c-ad92-3146ffb40b74">
        <text>detect_val=4.999999046325684</text>
      </comment>
      <comment id="smi:local/4b30321d-f6ce-4269-a8d8-5e98d56f0033">
        <text>channels used: ('MDC', 'EHZ') ('MINS', 'HHE') ('MINS', 'HHZ') ('MMP', 'EHZ') ('MRD', 'EHZ')</text>
      </comment>
      <comment id="smi:local/ba85d0de-af52-48b4-8908-a7ed639d81b0">
        <text>FI=0.17312</text>
      </comment>
      <creationInfo>
        <author>EQcorrscan</author>
        <creationTime>2022-12-20T00:51:42.281050Z</creationTime>
      </creationInfo>
      <origin publicID="smi:local/a30f0deb-f4db-48ea-9349-313adca9199b">
        <time>
          <value>2012-10-11T20:46:00.900000Z</value>
        </time>
        <latitude>
          <value>37.60916666666667</value>
        </latitude>
        <longitude>
          <value>-119.06233333333333</value>
        </longitude>
        <depth>
          <value>6.13</value>
        </depth>
      </origin>
      <magnitude publicID="smi:local/7a05b11e-0d06-4770-ba06-b358ff941661">
        <mag>
          <value>0.3198539536264862</value>
        </mag>
      </magnitude>
      <pick publicID="smi:local/1f67515f-393c-4a7c-ae86-40b5e4431324">
        <time>
          <value>2012-10-11T20:46:02.980000Z</value>
        </time>
        <waveformID networkCode="NC" stationCode="MDC" locationCode="02" channelCode="EHZ"></waveformID>
        <phaseHint>P</phaseHint>
      </pick>
      <pick publicID="smi:local/86ef2ec7-c2e5-4624-a476-9925703986b2">
        <time>
          <value>2012-10-11T20:46:02.165000Z</value>
        </time>
        <waveformID networkCode="NC" stationCode="MINS" locationCode="" channelCode="HHZ"></waveformID>
        <phaseHint>P</phaseHint>
      </pick>
      <pick publicID="smi:local/72ccae14-e1d8-4286-a5e0-4fcd5ac8b8e1">
        <time>
          <value>2012-10-11T20:46:01.900000Z</value>
        </time>
        <waveformID networkCode="NC" stationCode="MMP" locationCode="" channelCode="EHZ"></waveformID>
        <phaseHint>P</phaseHint>
      </pick>
      <pick publicID="smi:local/5a4dabcd-e40a-48d9-83d2-f43a81ad35cb">
        <time>
          <value>2012-10-11T20:46:01.940000Z</value>
        </time>
        <waveformID networkCode="NC" stationCode="MRD" locationCode="02" channelCode="EHZ"></waveformID>
        <phaseHint>P</phaseHint>
      </pick>
    </event>
    <event publicID="smi:local/2012_10_22t09_36_55_20121022T093655.040000">
      <comment id="smi:local/44974fb5-0f59-434e-b32e-93e26bff4a25">
        <text>Template: 2012_10_22t09_36_55</text>
      </comment>
      <comment id="smi:local/6443a0bf-58f4-45fb-8fc6-005c90575005">
        <text>threshold=4.900000095367432</text>
      </comment>
      <comment id="smi:local/f3c02043-dbf6-4c34-b630-62fdfc6b2ae4">
        <text>detect_val=6.999999046325684</text>
      </comment>
      <comment id="smi:local/81c93376-5127-456f-a3f1-34b20f16e60e">
        <text>channels used: ('MDC', 'EHZ') ('MDPB', 'HHE') ('MDPB', 'HHZ') ('MINS', 'HHE') ('MINS', 'HHZ') ('MMP', 'EHZ') ('MRD', 'EHZ')</text>
      </comment>
      <comment id="smi:local/7b98c6e2-a29d-498e-b6c6-ca8283911738">
        <text>FI=0.45330</text>
      </comment>
      <creationInfo>
        <author>EQcorrscan</author>
        <creationTime>2022-12-20T02:02:38.647939Z</creationTime>
      </creationInfo>
      <origin publicID="smi:local/bf48cff2-f548-41c3-8646-11771520aaa1">
        <time>
          <value>2012-10-22T09:36:55.040000Z</value>
        </time>
        <latitude>
          <value>37.633833333333335</value>
        </latitude>
        <longitude>
          <value>-119.03533333333333</value>
        </longitude>
        <depth>
          <value>0.99</value>
        </depth>
      </origin>
      <magnitude publicID="smi:local/7fc202cd-b2fe-477c-b77c-e9ce4a42b844">
        <mag>
          <value>0.7998678538755456</value>
        </mag>
      </magnitude>
      <pick publicID="smi:local/888f5b96-bfb0-402f-91c9-9df4ecc2d6ed">
        <time>
          <value>2012-10-22T09:36:56.920000Z</value>
        </time>
        <waveformID networkCode="NC" stationCode="MDC" locationCode="02" channelCode="EHZ"></waveformID>
        <phaseHint>P</phaseHint>
      </pick>
      <pick publicID="smi:local/6f12ae7c-0586-4818-ae33-0a734a59523b">
        <time>
          <value>2012-10-22T09:36:56.225000Z</value>
        </time>
        <waveformID networkCode="NC" stationCode="MDPB" locationCode="" channelCode="HHZ"></waveformID>
        <phaseHint>P</phaseHint>
      </pick>
      <pick publicID="smi:local/c3c2f7ce-b62c-48d0-91a6-fa8eff8582f0">
        <time>
          <value>2012-10-22T09:36:56.205000Z</value>
        </time>
        <waveformID networkCode="NC" stationCode="MINS" locationCode="" channelCode="HHZ"></waveformID>
        <phaseHint>P</phaseHint>
      </pick>
      <pick publicID="smi:local/13bada30-c5c9-40b0-b3aa-d850dd151276">
        <time>
          <value>2012-10-22T09:36:56.040000Z</value>
        </time>
        <waveformID networkCode="NC" stationCode="MMP" locationCode="" channelCode="EHZ"></waveformID>
        <phaseHint>P</phaseHint>
      </pick>
      <pick publicID="smi:local/2e75a8e5-f07d-4b09-beae-4bf888d878cc">
        <time>
          <value>2012-10-22T09:36:56.280000Z</value>
        </time>
        <waveformID networkCode="NC" stationCode="MRD" locationCode="02" channelCode="EHZ"></waveformID>
        <phaseHint>P</phaseHint>
      </pick>
    </event>
    <event publicID="smi:local/2012_10_22t09_36_55_20121022T093616.540000">
      <comment id="smi:local/b1f92a3d-2e34-4c02-8af2-ae744f336cc1">
        <text>Template: 2012_10_22t09_36_55</text>
      </comment>
      <comment id="smi:local/396bfd60-66d2-4668-8f22-ede6973fe53b">
        <text>threshold=4.900000095367432</text>
      </comment>
      <comment id="smi:local/5471ec84-bfd3-42f7-990a-79ef13237a6e">
        <text>detect_val=5.070911884307861</text>
      </comment>
      <comment id="smi:local/7a20f5e7-4ade-4f1f-a948-92943056c428">
        <text>channels used: ('MDC', 'EHZ') ('MDPB', 'HHE') ('MDPB', 'HHZ') ('MINS', 'HHE') ('MINS', 'HHZ') ('MMP', 'EHZ') ('MRD', 'EHZ')</text>
      </comment>
      <comment id="smi:local/422152ba-d338-401e-b772-6084d1b47022">
        <text>FI=0.34244</text>
      </comment>
      <creationInfo>
        <author>EQcorrscan</author>
        <creationTime>2022-12-20T02:02:38.644270Z</creationTime>
      </creationInfo>
      <origin publicID="smi:local/0db9e6fc-7086-4152-a55b-41f6d426dacd">
        <time>
          <value>2012-10-22T09:36:16.540000Z</value>
        </time>
        <latitude>
          <value>37.633833333333335</value>
        </latitude>
        <longitude>
          <value>-119.03533333333333</value>
        </longitude>
        <depth>
          <value>0.99</value>
        </depth>
      </origin>
      <magnitude publicID="smi:local/ec5a72c6-a50c-4773-9467-74dcd2252440">
        <mag>
          <value>0.9018075464761447</value>
        </mag>
      </magnitude>
      <pick publicID="smi:local/14252e43-9a91-43bf-bed8-d26a58a53309">
        <time>
          <value>2012-10-22T09:36:18.420000Z</value>
        </time>
        <waveformID networkCode="NC" stationCode="MDC" locationCode="02" channelCode="EHZ"></waveformID>
        <phaseHint>P</phaseHint>
      </pick>
      <pick publicID="smi:local/8b592aab-8312-44d0-9a4a-8b3a18790a45">
        <time>
          <value>2012-10-22T09:36:17.725000Z</value>
        </time>
        <waveformID networkCode="NC" stationCode="MDPB" locationCode="" channelCode="HHZ"></waveformID>
        <phaseHint>P</phaseHint>
      </pick>
      <pick publicID="smi:local/1a09c1ab-b778-473d-833e-7c84dde278ec">
        <time>
          <value>2012-10-22T09:36:17.705000Z</value>
        </time>
        <waveformID networkCode="NC" stationCode="MINS" locationCode="" channelCode="HHZ"></waveformID>
        <phaseHint>P</phaseHint>
      </pick>
      <pick publicID="smi:local/69fada32-ad0a-4d43-b234-d2f295f733ef">
        <time>
          <value>2012-10-22T09:36:17.540000Z</value>
        </time>
        <waveformID networkCode="NC" stationCode="MMP" locationCode="" channelCode="EHZ"></waveformID>
        <phaseHint>P</phaseHint>
      </pick>
      <pick publicID="smi:local/afb22487-e971-41e7-84be-cf3d4d49c895">
        <time>
          <value>2012-10-22T09:36:17.780000Z</value>
        </time>
        <waveformID networkCode="NC" stationCode="MRD" locationCode="02" channelCode="EHZ"></waveformID>
        <phaseHint>P</phaseHint>
      </pick>
    </event>
    <event publicID="smi:local/2012_10_29t14_03_29_20121029T140329.360000">
      <comment id="smi:local/8bada9ae-518f-4ae9-a124-75c83e0a9913">
        <text>Template: 2012_10_29t14_03_29</text>
      </comment>
      <comment id="smi:local/e4761614-6aee-4269-9b4f-dc19fd0a650d">
        <text>threshold=7.699999809265137</text>
      </comment>
      <comment id="smi:local/3d4c0a47-ef26-40f9-96a2-45870d226994">
        <text>detect_val=10.99999713897705</text>
      </comment>
      <comment id="smi:local/dcfa52ae-4707-4ac8-a373-ca71591f017b">
        <text>channels used: ('MCM', 'EHZ') ('MCV', 'EHZ') ('MDC', 'EHZ') ('MDPB', 'HHE') ('MDPB', 'HHZ') ('MINS', 'HHN') ('MINS', 'HHZ') ('MMP', 'EHZ') ('MRD', 'EHZ') ('OMMB', 'HHE') ('OMMB', 'HHZ')</text>
      </comment>
      <comment id="smi:local/d2fe45ce-0cf1-487f-8acc-50c4b29b165e">
        <text>FI=0.29597</text>
      </comment>
      <creationInfo>
        <author>EQcorrscan</author>
        <creationTime>2022-12-20T02:52:13.946622Z</creationTime>
      </creationInfo>
      <origin publicID="smi:local/792b7b6f-96e6-41af-b2ac-289ea3517786">
        <time>
          <value>2012-10-29T14:03:29.360000Z</value>
        </time>
        <latitude>
          <value>37.616</value>
        </latitude>
        <longitude>
          <value>-119.04583333333333</value>
        </longitude>
        <depth>
          <value>21.42</value>
        </depth>
      </origin>
      <magnitude publicID="smi:local/69230025-7104-476b-8d31-33d551223414">
        <mag>
          <value>0.8497839927231283</value>
        </mag>
      </magnitude>
      <pick publicID="smi:local/4acd0d65-0967-4cb0-8afd-39b008d65c50">
        <time>
          <value>2012-10-29T14:03:31.200000Z</value>
        </time>
        <waveformID networkCode="NC" stationCode="MCM" locationCode="02" channelCode="EHZ"></waveformID>
        <phaseHint>P</phaseHint>
      </pick>
      <pick publicID="smi:local/2a9e88e9-2d3a-481e-9b55-21b386202a92">
        <time>
          <value>2012-10-29T14:03:31.540000Z</value>
        </time>
        <waveformID networkCode="NC" stationCode="MCV" locationCode="" channelCode="EHZ"></waveformID>
        <phaseHint>P</phaseHint>
      </pick>
      <pick publicID="smi:local/dc49e16b-3c50-4891-afe4-df2cf396cfa9">
        <time>
          <value>2012-10-29T14:03:30.740000Z</value>
        </time>
        <waveformID networkCode="NC" stationCode="MDC" locationCode="02" channelCode="EHZ"></waveformID>
        <phaseHint>P</phaseHint>
      </pick>
      <pick publicID="smi:local/055ef146-0793-49cb-867c-fd6ce9828933">
        <time>
          <value>2012-10-29T14:03:30.440000Z</value>
        </time>
        <waveformID networkCode="NC" stationCode="MDPB" locationCode="" channelCode="HHZ"></waveformID>
        <phaseHint>P</phaseHint>
      </pick>
      <pick publicID="smi:local/7ce7b25e-75ac-4562-a108-9232fcd304ab">
        <time>
          <value>2012-10-29T14:03:30.505000Z</value>
        </time>
        <waveformID networkCode="NC" stationCode="MINS" locationCode="" channelCode="HHZ"></waveformID>
        <phaseHint>P</phaseHint>
      </pick>
      <pick publicID="smi:local/ac5783c1-b957-42c2-8769-5a5fa83688d7">
        <time>
          <value>2012-10-29T14:03:30.480000Z</value>
        </time>
        <waveformID networkCode="NC" stationCode="MMP" locationCode="" channelCode="EHZ"></waveformID>
        <phaseHint>P</phaseHint>
      </pick>
      <pick publicID="smi:local/6e6fafb0-f6f3-4dc2-b96d-2baca922c16e">
        <time>
          <value>2012-10-29T14:03:30.360000Z</value>
        </time>
        <waveformID networkCode="NC" stationCode="MRD" locationCode="02" channelCode="EHZ"></waveformID>
        <phaseHint>P</phaseHint>
      </pick>
      <pick publicID="smi:local/199a616d-bf01-4ac3-8651-e40c0f95b052">
        <time>
          <value>2012-10-29T14:03:30.425000Z</value>
        </time>
        <waveformID networkCode="NN" stationCode="OMMB" locationCode="" channelCode="HHZ"></waveformID>
        <phaseHint>P</phaseHint>
      </pick>
    </event>
    <event publicID="smi:local/2012_10_29t14_03_29_20121029T133645.380000">
      <comment id="smi:local/e4854c6e-786a-4ae8-ae55-83279338416b">
        <text>Template: 2012_10_29t14_03_29</text>
      </comment>
      <comment id="smi:local/efde982f-2a07-4d05-adae-ee5f44c783e8">
        <text>threshold=7.699999809265137</text>
      </comment>
      <comment id="smi:local/453708c6-35e6-4326-83f1-9c7257d723c8">
        <text>detect_val=7.905357837677002</text>
      </comment>
      <comment id="smi:local/5112758f-1a82-4082-a4ff-50b35041294d">
        <text>channels used: ('MCM', 'EHZ') ('MCV', 'EHZ') ('MDC', 'EHZ') ('MDPB', 'HHE') ('MDPB', 'HHZ') ('MINS', 'HHN') ('MINS', 'HHZ') ('MMP', 'EHZ') ('MRD', 'EHZ') ('OMMB', 'HHE') ('OMMB', 'HHZ')</text>
      </comment>
      <comment id="smi:local/d05543bf-4f0e-429b-8204-39c383ca359d">
        <text>FI=0.18212</text>
      </comment>
      <creationInfo>
        <author>EQcorrscan</author>
        <creationTime>2022-12-20T02:52:13.944203Z</creationTime>
      </creationInfo>
      <origin publicID="smi:local/14b78fcf-045c-42a9-801d-82ade3337598">
        <time>
          <value>2012-10-29T13:36:45.380000Z</value>
        </time>
        <latitude>
          <value>37.616</value>
        </latitude>
        <longitude>
          <value>-119.04583333333333</value>
        </longitude>
        <depth>
          <value>21.42</value>
        </depth>
      </origin>
      <magnitude publicID="smi:local/0539ea42-9b6e-4575-b6ac-baa46caee1f4">
        <mag>
          <value>0.9485182932552084</value>
        </mag>
      </magnitude>
      <pick publicID="smi:local/a9cdf6d1-f019-4c23-993c-09b886f4eb20">
        <time>
          <value>2012-10-29T13:36:47.220000Z</value>
        </time>
        <waveformID networkCode="NC" stationCode="MCM" locationCode="02" channelCode="EHZ"></waveformID>
        <phaseHint>P</phaseHint>
      </pick>
      <pick publicID="smi:local/84965bb3-17fa-45d9-9f0b-eaad4f85be46">
        <time>
          <value>2012-10-29T13:36:47.560000Z</value>
        </time>
        <waveformID networkCode="NC" stationCode="MCV" locationCode="" channelCode="EHZ"></waveformID>
        <phaseHint>P</phaseHint>
      </pick>
      <pick publicID="smi:local/52c879e0-fba8-414b-8961-e78416a05027">
        <time>
          <value>2012-10-29T13:36:46.760000Z</value>
        </time>
        <waveformID networkCode="NC" stationCode="MDC" locationCode="02" channelCode="EHZ"></waveformID>
        <phaseHint>P</phaseHint>
      </pick>
      <pick publicID="smi:local/31706aaf-ad48-4f72-a0bc-441cf3a98dc7">
        <time>
          <value>2012-10-29T13:36:46.460000Z</value>
        </time>
        <waveformID networkCode="NC" stationCode="MDPB" locationCode="" channelCode="HHZ"></waveformID>
        <phaseHint>P</phaseHint>
      </pick>
      <pick publicID="smi:local/606cfd36-0983-4b60-b244-c0a3c676f844">
        <time>
          <value>2012-10-29T13:36:46.525000Z</value>
        </time>
        <waveformID networkCode="NC" stationCode="MINS" locationCode="" channelCode="HHZ"></waveformID>
