<?xml version='1.0' encoding='utf-8'?>
<q:quakeml xmlns="http://quakeml.org/xmlns/bed/1.2" xmlns:q="http://quakeml.org/xmlns/quakeml/1.2">
  <eventParameters publicID="smi:local/870cdded-8408-43a5-8547-0ecc7c4ee5e6">
    <event publicID="smi:local/2012_11_17t11_36_28_20130107T190026.200000">
      <comment id="smi:local/4252b7b6-522c-45f4-97da-5505c0155eed">
        <text>Template: 2012_11_17t11_36_28</text>
      </comment>
      <comment id="smi:local/f407ee76-6452-4d46-a9b6-3b93f79741a9">
        <text>threshold=9.0</text>
      </comment>
      <comment id="smi:local/81571ee1-a2a8-400d-9671-568b4618faa0">
        <text>detect_val=9.615111351013184</text>
      </comment>
      <comment id="smi:local/62322fa5-692b-4f5d-b239-8bc9e4e12ec2">
        <text>channels used: ('MB02', 'HHZ') ('MB03', 'HHZ') ('MB05', 'HHZ') ('MB06', 'HHZ') ('MB07', 'HHZ') ('MB09', 'HHZ') ('MB10', 'HHZ') ('MB11', 'HHZ') ('MCM', 'EHZ') ('MCV', 'EHZ') ('MDC', 'EHZ') ('MINS', 'HHZ') ('MLC', 'EHZ') ('MMP', 'EHZ') ('MRD', 'EHZ')</text>
      </comment>
      <creationInfo>
        <author>EQcorrscan</author>
        <creationTime>2021-09-01T18:05:29.244691Z</creationTime>
      </creationInfo>
      <pick publicID="smi:local/b57d0149-1cc0-4055-a9ff-325743594b05">
        <time>
          <value>2013-01-07T19:00:27.620000Z</value>
        </time>
        <waveformID networkCode="8E" stationCode="MB02" locationCode="" channelCode="HHZ"></waveformID>
      </pick>
      <pick publicID="smi:local/1da1202a-3fce-45e9-bd60-9723cbbc17fa">
        <time>
          <value>2013-01-07T19:00:28.840000Z</value>
        </time>
        <waveformID networkCode="8E" stationCode="MB03" locationCode="" channelCode="HHZ"></waveformID>
      </pick>
      <pick publicID="smi:local/fb2c7a59-a2f4-43c6-abe5-9b8ccdad204a">
        <time>
          <value>2013-01-07T19:00:27.780000Z</value>
        </time>
        <waveformID networkCode="8E" stationCode="MB05" locationCode="" channelCode="HHZ"></waveformID>
      </pick>
      <pick publicID="smi:local/cc1ae63f-2d62-4407-b9b9-31c93f31e4ab">
        <time>
          <value>2013-01-07T19:00:27.600000Z</value>
        </time>
        <waveformID networkCode="8E" stationCode="MB06" locationCode="" channelCode="HHZ"></waveformID>
      </pick>
      <pick publicID="smi:local/dda7e769-d73c-4837-a631-a0499460c928">
        <time>
          <value>2013-01-07T19:00:28.260000Z</value>
        </time>
        <waveformID networkCode="8E" stationCode="MB07" locationCode="" channelCode="HHZ"></waveformID>
      </pick>
      <pick publicID="smi:local/df8e0cc9-06e7-49c5-ad07-4bef13d27075">
        <time>
          <value>2013-01-07T19:00:27.260000Z</value>
        </time>
        <waveformID networkCode="8E" stationCode="MB09" locationCode="" channelCode="HHZ"></waveformID>
      </pick>
      <pick publicID="smi:local/0fb1e313-13ab-4ffe-9c63-fc847309ff6c">
        <time>
          <value>2013-01-07T19:00:28.040000Z</value>
        </time>
        <waveformID networkCode="8E" stationCode="MB10" locationCode="" channelCode="HHZ"></waveformID>
      </pick>
      <pick publicID="smi:local/05f2b7a3-c0a9-451f-a298-8d706c630704">
        <time>
          <value>2013-01-07T19:00:27.280000Z</value>
        </time>
        <waveformID networkCode="8E" stationCode="MB11" locationCode="" channelCode="HHZ"></waveformID>
      </pick>
      <pick publicID="smi:local/ef050d09-6287-48a9-8a40-40a13cc3ddae">
        <time>
          <value>2013-01-07T19:00:27.620000Z</value>
        </time>
        <waveformID networkCode="NC" stationCode="MCM" locationCode="02" channelCode="EHZ"></waveformID>
      </pick>
      <pick publicID="smi:local/7e9d0ee9-455a-4bc9-a225-51e3b5385421">
        <time>
          <value>2013-01-07T19:00:27.800000Z</value>
        </time>
        <waveformID networkCode="NC" stationCode="MCV" locationCode="" channelCode="EHZ"></waveformID>
      </pick>
      <pick publicID="smi:local/59538cf8-19ce-4668-bc8e-faa33cd409f5">
        <time>
          <value>2013-01-07T19:00:27.860000Z</value>
        </time>
        <waveformID networkCode="NC" stationCode="MDC" locationCode="02" channelCode="EHZ"></waveformID>
      </pick>
      <pick publicID="smi:local/ddc4a548-549d-48cd-8ff7-489afa8b0d22">
        <time>
          <value>2013-01-07T19:00:27.685000Z</value>
        </time>
        <waveformID networkCode="NC" stationCode="MINS" locationCode="" channelCode="HHZ"></waveformID>
      </pick>
      <pick publicID="smi:local/caad7d02-3d75-4e21-aee5-db60145a1c1c">
        <time>
          <value>2013-01-07T19:00:27.200000Z</value>
        </time>
        <waveformID networkCode="NC" stationCode="MLC" locationCode="" channelCode="EHZ"></waveformID>
      </pick>
      <pick publicID="smi:local/fa1f9fe2-541f-4027-b1d4-55e723683891">
        <time>
          <value>2013-01-07T19:00:28.660000Z</value>
        </time>
        <waveformID networkCode="NC" stationCode="MMP" locationCode="" channelCode="EHZ"></waveformID>
      </pick>
      <pick publicID="smi:local/bb39bf51-1bfc-4adb-85be-3d94a1e5db70">
        <time>
          <value>2013-01-07T19:00:27.780000Z</value>
        </time>
        <waveformID networkCode="NC" stationCode="MRD" locationCode="02" channelCode="EHZ"></waveformID>
      </pick>
    </event>
    <event publicID="smi:local/2012_12_19t01_41_23_20130121T102155.080000">
      <comment id="smi:local/5894e95d-5815-433a-ac3e-5da4c60bddd8">
        <text>Template: 2012_12_19t01_41_23</text>
      </comment>
      <comment id="smi:local/fc42f45d-430e-4a00-8e27-2323696c3ba1">
        <text>threshold=9.0</text>
      </comment>
      <comment id="smi:local/a8ded7b1-0f44-4cf4-8e71-ea31bdbe8ada">
        <text>detect_val=9.264341354370117</text>
      </comment>
      <comment id="smi:local/b11c967a-68e8-41b5-8dcc-03fff7a10292">
        <text>channels used: ('MB01', 'HHZ') ('MB02', 'HHZ') ('MB03', 'HHZ') ('MB05', 'HHZ') ('MB06', 'HHZ') ('MB08', 'HHZ') ('MB09', 'HHZ') ('MB10', 'HHZ') ('MB11', 'HHZ') ('MCM', 'EHZ') ('MCV', 'EHZ') ('MDC', 'EHZ') ('MINS', 'HHZ') ('MLC', 'EHZ') ('MRD', 'EHZ')</text>
      </comment>
      <creationInfo>
        <author>EQcorrscan</author>
        <creationTime>2021-09-01T19:29:48.401634Z</creationTime>
      </creationInfo>
      <pick publicID="smi:local/65824a42-3d32-4f97-ba40-13791495c36a">
        <time>
          <value>2013-01-21T10:21:58.260000Z</value>
        </time>
        <waveformID networkCode="8E" stationCode="MB01" locationCode="" channelCode="HHZ"></waveformID>
      </pick>
      <pick publicID="smi:local/e2628b80-fec4-48ba-8e95-a5ca0d34fa2b">
        <time>
          <value>2013-01-21T10:21:58.460000Z</value>
        </time>
        <waveformID networkCode="8E" stationCode="MB02" locationCode="" channelCode="HHZ"></waveformID>
      </pick>
      <pick publicID="smi:local/a9a9a0a7-47bd-472a-bb37-fb5a9004aab3">
        <time>
          <value>2013-01-21T10:21:58.480000Z</value>
        </time>
        <waveformID networkCode="8E" stationCode="MB03" locationCode="" channelCode="HHZ"></waveformID>
      </pick>
      <pick publicID="smi:local/5083c5d9-202d-43a8-b3ad-7c39d807a9b8">
        <time>
          <value>2013-01-21T10:21:57.900000Z</value>
        </time>
        <waveformID networkCode="8E" stationCode="MB05" locationCode="" channelCode="HHZ"></waveformID>
      </pick>
      <pick publicID="smi:local/44defe4d-3efa-413c-a60e-f2300080411d">
        <time>
          <value>2013-01-21T10:21:58.140000Z</value>
        </time>
        <waveformID networkCode="8E" stationCode="MB06" locationCode="" channelCode="HHZ"></waveformID>
      </pick>
      <pick publicID="smi:local/ababa14a-231d-47c8-95f2-83c9310d8ebf">
        <time>
          <value>2013-01-21T10:21:58.740000Z</value>
        </time>
        <waveformID networkCode="8E" stationCode="MB08" locationCode="" channelCode="HHZ"></waveformID>
      </pick>
      <pick publicID="smi:local/2f4b65a4-88b3-471c-b652-8116eb84e265">
        <time>
          <value>2013-01-21T10:22:01.420000Z</value>
        </time>
        <waveformID networkCode="8E" stationCode="MB09" locationCode="" channelCode="HHZ"></waveformID>
      </pick>
      <pick publicID="smi:local/6d2de339-b8ea-4cd2-aafe-630158a2851d">
        <time>
          <value>2013-01-21T10:21:58.520000Z</value>
        </time>
        <waveformID networkCode="8E" stationCode="MB10" locationCode="" channelCode="HHZ"></waveformID>
      </pick>
      <pick publicID="smi:local/02285d91-d423-4ebc-8d14-b52d6bd80313">
        <time>
          <value>2013-01-21T10:21:57.680000Z</value>
        </time>
        <waveformID networkCode="8E" stationCode="MB11" locationCode="" channelCode="HHZ"></waveformID>
      </pick>
      <pick publicID="smi:local/62385a67-5b00-4c1a-9687-64f1d439b8af">
        <time>
          <value>2013-01-21T10:21:56.480000Z</value>
        </time>
        <waveformID networkCode="NC" stationCode="MCM" locationCode="02" channelCode="EHZ"></waveformID>
      </pick>
      <pick publicID="smi:local/3607d226-5fae-4072-90df-b7a1ab913dfa">
        <time>
          <value>2013-01-21T10:21:56.080000Z</value>
        </time>
        <waveformID networkCode="NC" stationCode="MCV" locationCode="" channelCode="EHZ"></waveformID>
      </pick>
      <pick publicID="smi:local/ae27491c-3460-490e-806d-4c0acd970834">
        <time>
          <value>2013-01-21T10:21:59.240000Z</value>
        </time>
        <waveformID networkCode="NC" stationCode="MDC" locationCode="02" channelCode="EHZ"></waveformID>
      </pick>
      <pick publicID="smi:local/c3d214e4-2e57-4b52-bf31-944bad69f5c2">
        <time>
          <value>2013-01-21T10:21:58.665000Z</value>
        </time>
        <waveformID networkCode="NC" stationCode="MINS" locationCode="" channelCode="HHZ"></waveformID>
      </pick>
      <pick publicID="smi:local/cd7243f6-0c54-49eb-a730-f7c3784d9969">
        <time>
          <value>2013-01-21T10:21:56.760000Z</value>
        </time>
        <waveformID networkCode="NC" stationCode="MLC" locationCode="" channelCode="EHZ"></waveformID>
      </pick>
      <pick publicID="smi:local/a9b8a4fc-7240-4091-bf03-ac0e0d90d5ef">
        <time>
          <value>2013-01-21T10:21:58.060000Z</value>
        </time>
        <waveformID networkCode="NC" stationCode="MRD" locationCode="02" channelCode="EHZ"></waveformID>
      </pick>
    </event>
    <event publicID="smi:local/2013_01_08t08_53_40_20130108T085340.540000">
      <comment id="smi:local/13f8fff8-456a-41f9-a0dd-27dda1e0161d">
        <text>Template: 2013_01_08t08_53_40</text>
      </comment>
      <comment id="smi:local/ef2bcea5-793f-488b-9438-957ac3c1858d">
        <text>threshold=3.5999999046325684</text>
      </comment>
      <comment id="smi:local/ee216161-20a4-4b1d-90ce-c77e1e3922c3">
        <text>detect_val=5.999999046325684</text>
      </comment>
      <comment id="smi:local/90566504-ee69-4e5e-927f-b412088d4a53">
        <text>channels used: ('MCM', 'EHZ') ('MCV', 'EHZ') ('MDC', 'EHZ') ('MINS', 'HHN') ('MINS', 'HHZ') ('MRD', 'EHZ')</text>
      </comment>
      <creationInfo>
        <author>EQcorrscan</author>
        <creationTime>2021-09-01T18:11:12.541695Z</creationTime>
      </creationInfo>
      <pick publicID="smi:local/ced39f94-ddcc-4f51-a0a4-90654e8b9834">
        <time>
          <value>2013-01-08T08:53:42.695000Z</value>
        </time>
        <waveformID networkCode="NC" stationCode="MCM" locationCode="02" channelCode="EHZ"></waveformID>
      </pick>
      <pick publicID="smi:local/845c3f8a-9e9e-4a4d-9326-05b264afce06">
        <time>
          <value>2013-01-08T08:53:43.295000Z</value>
        </time>
        <waveformID networkCode="NC" stationCode="MCV" locationCode="" channelCode="EHZ"></waveformID>
      </pick>
      <pick publicID="smi:local/6e60ffe0-42ed-4021-8701-77d9c8a86dbb">
        <time>
          <value>2013-01-08T08:53:41.835000Z</value>
        </time>
        <waveformID networkCode="NC" stationCode="MDC" locationCode="02" channelCode="EHZ"></waveformID>
      </pick>
      <pick publicID="smi:local/f1fbd81d-7664-43ac-bb96-91159861ba27">
        <time>
          <value>2013-01-08T08:53:43.560000Z</value>
        </time>
        <waveformID networkCode="NC" stationCode="MINS" locationCode="" channelCode="HHN"></waveformID>
      </pick>
      <pick publicID="smi:local/09380532-b80e-47c7-8465-ce13c2b4f95c">
        <time>
          <value>2013-01-08T08:53:41.540000Z</value>
        </time>
        <waveformID networkCode="NC" stationCode="MINS" locationCode="" channelCode="HHZ"></waveformID>
      </pick>
      <pick publicID="smi:local/f1d17eca-42f1-40ae-9702-08f7ff1488dd">
        <time>
          <value>2013-01-08T08:53:41.615000Z</value>
        </time>
        <waveformID networkCode="NC" stationCode="MRD" locationCode="02" channelCode="EHZ"></waveformID>
      </pick>
    </event>
    <event publicID="smi:local/2013_01_08t08_53_40_20130114T123801.220000">
      <comment id="smi:local/ff4c1a1e-0dca-4edf-8680-6b823133a243">
        <text>Template: 2013_01_08t08_53_40</text>
      </comment>
      <comment id="smi:local/32fa9b88-37b9-4ee6-986c-f69f5b4b98b2">
        <text>threshold=3.5999999046325684</text>
      </comment>
      <comment id="smi:local/41333da2-aecd-4121-a108-896e116f5104">
        <text>detect_val=3.874789237976074</text>
      </comment>
      <comment id="smi:local/2f7a2160-7b26-4681-b5be-3ff30da8a2d0">
        <text>channels used: ('MCM', 'EHZ') ('MCV', 'EHZ') ('MDC', 'EHZ') ('MINS', 'HHN') ('MINS', 'HHZ') ('MRD', 'EHZ')</text>
      </comment>
      <creationInfo>
        <author>EQcorrscan</author>
        <creationTime>2021-09-01T18:46:40.573224Z</creationTime>
      </creationInfo>
      <pick publicID="smi:local/6a45db48-ac7f-4563-9775-61163017594b">
        <time>
          <value>2013-01-14T12:38:03.375000Z</value>
        </time>
        <waveformID networkCode="NC" stationCode="MCM" locationCode="02" channelCode="EHZ"></waveformID>
      </pick>
      <pick publicID="smi:local/819315de-5967-4acc-b742-7608cac606cf">
        <time>
          <value>2013-01-14T12:38:03.975000Z</value>
        </time>
        <waveformID networkCode="NC" stationCode="MCV" locationCode="" channelCode="EHZ"></waveformID>
      </pick>
      <pick publicID="smi:local/7b0158d7-34cf-4372-a9b7-6a442efa4078">
        <time>
          <value>2013-01-14T12:38:02.515000Z</value>
        </time>
        <waveformID networkCode="NC" stationCode="MDC" locationCode="02" channelCode="EHZ"></waveformID>
      </pick>
      <pick publicID="smi:local/1b76e758-0f2e-4162-962f-8d811b6dbb8c">
        <time>
          <value>2013-01-14T12:38:04.240000Z</value>
        </time>
        <waveformID networkCode="NC" stationCode="MINS" locationCode="" channelCode="HHN"></waveformID>
      </pick>
      <pick publicID="smi:local/fdff97e4-8180-4929-8962-f81dd29cfb95">
        <time>
          <value>2013-01-14T12:38:02.220000Z</value>
        </time>
        <waveformID networkCode="NC" stationCode="MINS" locationCode="" channelCode="HHZ"></waveformID>
      </pick>
      <pick publicID="smi:local/a3261213-d75d-40ca-b00e-addb8a9be2f0">
        <time>
          <value>2013-01-14T12:38:02.295000Z</value>
        </time>
        <waveformID networkCode="NC" stationCode="MRD" locationCode="02" channelCode="EHZ"></waveformID>
      </pick>
    </event>
    <event publicID="smi:local/2013_01_08t08_53_40_20130117T073400.700000">
      <comment id="smi:local/4ae70887-9afa-4628-b9a9-e44c1e70ddd7">
        <text>Template: 2013_01_08t08_53_40</text>
      </comment>
      <comment id="smi:local/c50bcc24-0900-45c7-90e7-3eb5dd48c030">
        <text>threshold=3.5999999046325684</text>
      </comment>
      <comment id="smi:local/2db1a004-a4be-4563-b40e-cc6b0c69b285">
        <text>detect_val=3.60367488861084</text>
      </comment>
      <comment id="smi:local/a09c9496-f4d3-4053-8c99-ca2beac69bf7">
        <text>channels used: ('MCM', 'EHZ') ('MCV', 'EHZ') ('MDC', 'EHZ') ('MINS', 'HHN') ('MINS', 'HHZ') ('MRD', 'EHZ')</text>
      </comment>
      <creationInfo>
        <author>EQcorrscan</author>
        <creationTime>2021-09-01T19:04:38.027880Z</creationTime>
      </creationInfo>
      <pick publicID="smi:local/8d84280e-80b0-4e85-bb91-7f78a6b1a5cc">
        <time>
          <value>2013-01-17T07:34:02.855000Z</value>
        </time>
        <waveformID networkCode="NC" stationCode="MCM" locationCode="02" channelCode="EHZ"></waveformID>
      </pick>
      <pick publicID="smi:local/95caaea3-5e9f-47f9-83ca-8c702791f70d">
        <time>
          <value>2013-01-17T07:34:03.455000Z</value>
        </time>
        <waveformID networkCode="NC" stationCode="MCV" locationCode="" channelCode="EHZ"></waveformID>
      </pick>
      <pick publicID="smi:local/92e8aa7d-dd21-4fbc-8cf1-47cd304682ac">
        <time>
          <value>2013-01-17T07:34:01.995000Z</value>
        </time>
        <waveformID networkCode="NC" stationCode="MDC" locationCode="02" channelCode="EHZ"></waveformID>
      </pick>
      <pick publicID="smi:local/ec7308bd-2c08-4c10-bd34-844227ff705b">
        <time>
          <value>2013-01-17T07:34:03.720000Z</value>
        </time>
        <waveformID networkCode="NC" stationCode="MINS" locationCode="" channelCode="HHN"></waveformID>
      </pick>
      <pick publicID="smi:local/bef46ba9-e10f-4325-ae02-ee2d0455579c">
        <time>
          <value>2013-01-17T07:34:01.700000Z</value>
        </time>
        <waveformID networkCode="NC" stationCode="MINS" locationCode="" channelCode="HHZ"></waveformID>
      </pick>
      <pick publicID="smi:local/f0dda8ac-789c-42c6-aa8e-614cc679d5c0">
        <time>
          <value>2013-01-17T07:34:01.775000Z</value>
        </time>
        <waveformID networkCode="NC" stationCode="MRD" locationCode="02" channelCode="EHZ"></waveformID>
      </pick>
    </event>
    <event publicID="smi:local/2012_12_13t13_48_59_20130101T181353.100000">
      <comment id="smi:local/71ed4d93-aa60-4cf0-b3ab-a55a2ce6b9ea">
        <text>Template: 2012_12_13t13_48_59</text>
      </comment>
      <comment id="smi:local/b14f377b-cea2-4376-bf6f-db57b1821597">
        <text>threshold=2.4000000953674316</text>
      </comment>
      <comment id="smi:local/4d32bb06-2471-4471-a003-f5a961f48243">
        <text>detect_val=3.2277512550354004</text>
      </comment>
      <comment id="smi:local/2081dafc-ee6b-4ab1-8341-8b8c81149236">
        <text>channels used: ('MDC', 'EHZ') ('MINS', 'HHE') ('MINS', 'HHZ') ('MRD', 'EHZ')</text>
      </comment>
      <creationInfo>
        <author>EQcorrscan</author>
        <creationTime>2021-09-01T17:31:08.457782Z</creationTime>
      </creationInfo>
      <pick publicID="smi:local/e616a065-d2f3-4ca3-b82e-6dcc61479df2">
        <time>
          <value>2013-01-01T18:13:54.820000Z</value>
        </time>
        <waveformID networkCode="NC" stationCode="MDC" locationCode="02" channelCode="EHZ"></waveformID>
      </pick>
      <pick publicID="smi:local/b947c9f6-15c7-4c6b-899a-da3dcfa92736">
        <time>
          <value>2013-01-01T18:13:56.405000Z</value>
        </time>
        <waveformID networkCode="NC" stationCode="MINS" locationCode="" channelCode="HHE"></waveformID>
      </pick>
      <pick publicID="smi:local/b8883af4-a9e2-44cb-bfc3-9ac7aeea0860">
        <time>
          <value>2013-01-01T18:13:54.385000Z</value>
        </time>
        <waveformID networkCode="NC" stationCode="MINS" locationCode="" channelCode="HHZ"></waveformID>
      </pick>
      <pick publicID="smi:local/399b43ec-4030-450a-873b-657e9da2599f">
        <time>
          <value>2013-01-01T18:13:54.600000Z</value>
        </time>
        <waveformID networkCode="NC" stationCode="MRD" locationCode="02" channelCode="EHZ"></waveformID>
      </pick>
    </event>
    <event publicID="smi:local/2012_12_13t13_48_59_20130101T181334.780000">
      <comment id="smi:local/88df134f-300b-4aae-a375-9d43633ea276">
        <text>Template: 2012_12_13t13_48_59</text>
      </comment>
