<?xml version='1.0' encoding='utf-8'?>
<q:quakeml xmlns="http://quakeml.org/xmlns/bed/1.2" xmlns:q="http://quakeml.org/xmlns/quakeml/1.2">
  <eventParameters publicID="smi:local/18a0129c-328a-4726-ab6b-dcfa2b5f657d">
    <event publicID="smi:local/d9d51380-86d8-4569-95a7-e5eb7f4af24c">
      <origin publicID="smi:local/fd949bb0-ac20-416a-b921-208259940318">
        <time>
          <value>2021-08-03T12:53:06.120000Z</value>
        </time>
        <latitude>
          <value>52.0308</value>
        </latitude>
        <longitude>
          <value>-176.0837</value>
        </longitude>
        <depth>
          <value>8300.0</value>
        </depth>
        <comment id="smi:local/e827f7ac-09dd-4d16-8405-b86d7c3b32ad">
          <text>CLUSTER 0 CORE EVENT; IN PEC, DT = 1.15</text>
        </comment>
        <arrival publicID="smi:local/73bd3bd1-3c17-446a-b541-b9626871a890">
          <pickID>smi:local/be66cb8d-b2c0-4336-8a12-b128062ebaf4</pickID>
          <phase>S</phase>
          <timeWeight>-1.0</timeWeight>
        </arrival>
        <arrival publicID="smi:local/9bd60edf-50ce-46aa-86f3-5261d9e31ccb">
          <pickID>smi:local/6a21ebf4-215f-4d96-80ad-c66fd4045f34</pickID>
          <phase>P</phase>
          <timeWeight>1.0</timeWeight>
        </arrival>
        <arrival publicID="smi:local/aa508143-54ee-4c8d-8a17-ba5dd382768a">
          <pickID>smi:local/ff2b99d6-2870-48de-be0c-70822f04b121</pickID>
          <phase>S</phase>
          <timeWeight>-1.0</timeWeight>
        </arrival>
        <arrival publicID="smi:local/4e3e2d56-61f5-4bfb-ab7d-493c0fb1253a">
          <pickID>smi:local/6a45acdd-4c2d-472c-ad13-570fef1fe66d</pickID>
          <phase>P</phase>
          <timeWeight>1.0</timeWeight>
        </arrival>
        <arrival publicID="smi:local/fd64b286-1dfc-434c-b3f9-bfdc1b9ce227">
          <pickID>smi:local/51a3d932-ecc2-4d7c-8ec4-fe9a7dc4af3e</pickID>
          <phase>S</phase>
          <timeWeight>-1.0</timeWeight>
        </arrival>
        <arrival publicID="smi:local/f53b4569-6d0b-431f-9749-c73f8818a652">
          <pickID>smi:local/7d3d7c2c-0b32-414e-b7db-a3eaec13aea0</pickID>
          <phase>P</phase>
          <timeWeight>1.0</timeWeight>
        </arrival>
        <arrival publicID="smi:local/27a1a870-6372-4b34-97ee-efee60557055">
          <pickID>smi:local/6b790d8e-e190-481f-8ee4-496ad7c67f2a</pickID>
          <phase>P</phase>
          <timeWeight>1.0</timeWeight>
        </arrival>
        <arrival publicID="smi:local/3b716d06-460d-4f4a-82d6-17a381f84a3a">
          <pickID>smi:local/38a04844-15f5-4a52-9e11-e67318e59d16</pickID>
          <phase>S</phase>
          <timeWeight>-1.0</timeWeight>
        </arrival>
        <arrival publicID="smi:local/46297c59-4133-429d-b71d-a3b32272a147">
          <pickID>smi:local/b7faa078-131b-419a-a947-e70ac1bc2e6a</pickID>
          <phase>P</phase>
          <timeWeight>1.0</timeWeight>
        </arrival>
      </origin>
      <magnitude publicID="smi:local/magnitude/91328896">
        <mag>
          <value>-0.06</value>
        </mag>
      </magnitude>
      <pick publicID="smi:local/be66cb8d-b2c0-4336-8a12-b128062ebaf4">
        <time>
          <value>2021-08-03T12:53:08.280000Z</value>
        </time>
        <waveformID networkCode="AV" stationCode="GSCK" locationCode="" channelCode="BHE"></waveformID>
        <phaseHint>S</phaseHint>
      </pick>
      <pick publicID="smi:local/6a21ebf4-215f-4d96-80ad-c66fd4045f34">
        <time>
          <value>2021-08-03T12:53:06.640000Z</value>
        </time>
        <waveformID networkCode="AV" stationCode="GSCK" locationCode="" channelCode="BHZ"></waveformID>
        <phaseHint>P</phaseHint>
      </pick>
      <pick publicID="smi:local/ff2b99d6-2870-48de-be0c-70822f04b121">
        <time>
          <value>2021-08-03T12:53:09.520000Z</value>
        </time>
        <waveformID networkCode="AV" stationCode="GSIG" locationCode="" channelCode="BHE"></waveformID>
        <phaseHint>S</phaseHint>
      </pick>
      <pick publicID="smi:local/6a45acdd-4c2d-472c-ad13-570fef1fe66d">
        <time>
          <value>2021-08-03T12:53:07.260000Z</value>
        </time>
        <waveformID networkCode="AV" stationCode="GSIG" locationCode="" channelCode="BHZ"></waveformID>
        <phaseHint>P</phaseHint>
      </pick>
      <pick publicID="smi:local/51a3d932-ecc2-4d7c-8ec4-fe9a7dc4af3e">
        <time>
          <value>2021-08-03T12:53:07.280000Z</value>
        </time>
        <waveformID networkCode="AV" stationCode="GSMY" locationCode="" channelCode="BHE"></waveformID>
        <phaseHint>S</phaseHint>
      </pick>
      <pick publicID="smi:local/7d3d7c2c-0b32-414e-b7db-a3eaec13aea0">
        <time>
          <value>2021-08-03T12:53:06.120000Z</value>
        </time>
        <waveformID networkCode="AV" stationCode="GSMY" locationCode="" channelCode="BHZ"></waveformID>
        <phaseHint>P</phaseHint>
      </pick>
      <pick publicID="smi:local/6b790d8e-e190-481f-8ee4-496ad7c67f2a">
        <time>
          <value>2021-08-03T12:53:07.000000Z</value>
        </time>
        <waveformID networkCode="AV" stationCode="GSSP" locationCode="" channelCode="BHZ"></waveformID>
        <phaseHint>P</phaseHint>
      </pick>
      <pick publicID="smi:local/38a04844-15f5-4a52-9e11-e67318e59d16">
        <time>
          <value>2021-08-03T12:53:08.580000Z</value>
        </time>
        <waveformID networkCode="AV" stationCode="GSTR" locationCode="" channelCode="BHE"></waveformID>
        <phaseHint>S</phaseHint>
      </pick>
      <pick publicID="smi:local/b7faa078-131b-419a-a947-e70ac1bc2e6a">
        <time>
          <value>2021-08-03T12:53:06.900000Z</value>
        </time>
        <waveformID networkCode="AV" stationCode="GSTR" locationCode="" channelCode="BHZ"></waveformID>
        <phaseHint>P</phaseHint>
      </pick>
    </event>
    <event publicID="smi:local/2ed0d88a-8c52-48d3-8cea-760965e591ec">
      <origin publicID="smi:local/bb99967f-8777-4394-a459-a31b4ad01cd1">
        <time>
          <value>2021-07-31T03:19:18.820000Z</value>
        </time>
        <latitude>
          <value>52.0777</value>
        </latitude>
        <longitude>
          <value>-176.104</value>
        </longitude>
        <depth>
          <value>6530.0</value>
        </depth>
        <comment id="smi:local/ad39c092-9f16-417f-b7e4-0c0eab845c3f">
          <text>CLUSTER 1 CORE EVENT; IN PEC, DT = 0.44</text>
        </comment>
        <arrival publicID="smi:local/fb486116-0cbf-417f-b7a2-d7defebb7577">
          <pickID>smi:local/01ab823e-665f-4760-a73f-e0df7fe2d9ea</pickID>
          <phase>S</phase>
          <timeWeight>-1.0</timeWeight>
        </arrival>
        <arrival publicID="smi:local/06cf8a34-bb99-4e76-a1ea-2148cb236073">
          <pickID>smi:local/43f3a04e-dd19-4c92-baf6-cec808ace2df</pickID>
          <phase>P</phase>
          <timeWeight>1.0</timeWeight>
        </arrival>
        <arrival publicID="smi:local/babb1496-42d6-4f1f-b2ac-c2168b9a428b">
          <pickID>smi:local/22144968-d9d8-4186-8081-176f5e4e94db</pickID>
          <phase>S</phase>
          <timeWeight>1.0</timeWeight>
        </arrival>
        <arrival publicID="smi:local/d95fb17a-bce1-4e54-b601-062aadf1de37">
          <pickID>smi:local/72c47d1e-ed74-4e06-8c43-1c171097b66f</pickID>
          <phase>P</phase>
          <timeWeight>1.0</timeWeight>
        </arrival>
        <arrival publicID="smi:local/21f4b73b-d19e-4376-9e01-f463169b68b1">
          <pickID>smi:local/e69b5c35-1485-48ce-9181-92fb82434940</pickID>
          <phase>S</phase>
          <timeWeight>-1.0</timeWeight>
        </arrival>
        <arrival publicID="smi:local/7d2fff23-f9b3-4183-adfc-c175f7fc90bb">
          <pickID>smi:local/048fef20-60a2-4c95-b57c-54e710155575</pickID>
          <phase>P</phase>
          <timeWeight>1.0</timeWeight>
        </arrival>
        <arrival publicID="smi:local/67ba2afb-7003-4484-aa97-4441a75570de">
          <pickID>smi:local/3e60ab37-c5df-4a9f-94f3-1fc906cf8c3f</pickID>
          <phase>S</phase>
          <timeWeight>1.0</timeWeight>
        </arrival>
        <arrival publicID="smi:local/ac011d36-6245-4c43-908b-2d6bda296f63">
          <pickID>smi:local/d1232782-089e-45d4-a771-fc20932a13f6</pickID>
          <phase>P</phase>
          <timeWeight>1.0</timeWeight>
        </arrival>
        <arrival publicID="smi:local/3977a7de-ccab-417a-8ba8-ff97d33dc13e">
          <pickID>smi:local/1b9140a2-a4b7-4843-8420-10f57dfd909a</pickID>
          <phase>S</phase>
          <timeWeight>-1.0</timeWeight>
        </arrival>
        <arrival publicID="smi:local/edbeae9d-01b0-4950-bff9-999e7b275a91">
          <pickID>smi:local/9d1adebd-ec4b-4e29-8c03-51b21d807e18</pickID>
          <phase>P</phase>
          <timeWeight>1.0</timeWeight>
        </arrival>
      </origin>
      <magnitude publicID="smi:local/magnitude/91325746">
        <mag>
          <value>0.63</value>
        </mag>
      </magnitude>
      <pick publicID="smi:local/01ab823e-665f-4760-a73f-e0df7fe2d9ea">
        <time>
          <value>2021-07-31T03:19:21.780000Z</value>
        </time>
        <waveformID networkCode="AV" stationCode="GSCK" locationCode="" channelCode="BHE"></waveformID>
        <phaseHint>S</phaseHint>
      </pick>
      <pick publicID="smi:local/43f3a04e-dd19-4c92-baf6-cec808ace2df">
        <time>
          <value>2021-07-31T03:19:20.200000Z</value>
        </time>
        <waveformID networkCode="AV" stationCode="GSCK" locationCode="" channelCode="BHZ"></waveformID>
        <phaseHint>P</phaseHint>
      </pick>
      <pick publicID="smi:local/22144968-d9d8-4186-8081-176f5e4e94db">
        <time>
          <value>2021-07-31T03:19:23.660000Z</value>
        </time>
        <waveformID networkCode="AV" stationCode="GSIG" locationCode="" channelCode="BHN"></waveformID>
        <phaseHint>S</phaseHint>
      </pick>
      <pick publicID="smi:local/72c47d1e-ed74-4e06-8c43-1c171097b66f">
        <time>
          <value>2021-07-31T03:19:21.240000Z</value>
        </time>
        <waveformID networkCode="AV" stationCode="GSIG" locationCode="" channelCode="BHZ"></waveformID>
        <phaseHint>P</phaseHint>
      </pick>
      <pick publicID="smi:local/e69b5c35-1485-48ce-9181-92fb82434940">
        <time>
          <value>2021-07-31T03:19:20.700000Z</value>
        </time>
        <waveformID networkCode="AV" stationCode="GSMY" locationCode="" channelCode="BHE"></waveformID>
        <phaseHint>S</phaseHint>
      </pick>
      <pick publicID="smi:local/048fef20-60a2-4c95-b57c-54e710155575">
        <time>
          <value>2021-07-31T03:19:19.680000Z</value>
        </time>
        <waveformID networkCode="AV" stationCode="GSMY" locationCode="" channelCode="BHZ"></waveformID>
        <phaseHint>P</phaseHint>
      </pick>
      <pick publicID="smi:local/3e60ab37-c5df-4a9f-94f3-1fc906cf8c3f">
        <time>
          <value>2021-07-31T03:19:21.000000Z</value>
        </time>
        <waveformID networkCode="AV" stationCode="GSSP" locationCode="" channelCode="BHN"></waveformID>
        <phaseHint>S</phaseHint>
      </pick>
      <pick publicID="smi:local/d1232782-089e-45d4-a771-fc20932a13f6">
        <time>
          <value>2021-07-31T03:19:19.740000Z</value>
        </time>
        <waveformID networkCode="AV" stationCode="GSSP" locationCode="" channelCode="BHZ"></waveformID>
        <phaseHint>P</phaseHint>
      </pick>
      <pick publicID="smi:local/1b9140a2-a4b7-4843-8420-10f57dfd909a">
        <time>
          <value>2021-07-31T03:19:20.940000Z</value>
        </time>
        <waveformID networkCode="AV" stationCode="GSTR" locationCode="" channelCode="BHN"></waveformID>
        <phaseHint>S</phaseHint>
      </pick>
      <pick publicID="smi:local/9d1adebd-ec4b-4e29-8c03-51b21d807e18">
        <time>
          <value>2021-07-31T03:19:19.620000Z</value>
        </time>
        <waveformID networkCode="AV" stationCode="GSTR" locationCode="" channelCode="BHZ"></waveformID>
        <phaseHint>P</phaseHint>
      </pick>
    </event>
    <event publicID="smi:local/56d9f797-1806-4ad4-9f14-c546c13ce393">
      <origin publicID="smi:local/a66f5ce7-ea3c-4999-a1ce-4d5997442b77">
        <time>
          <value>2021-07-31T08:17:45.650000Z</value>
        </time>
        <latitude>
          <value>52.0508</value>
        </latitude>
        <longitude>
          <value>-176.0807</value>
        </longitude>
        <depth>
          <value>9190.0</value>
        </depth>
        <comment id="smi:local/2313e293-c909-4944-a310-1122c43fd0bf">
          <text>CLUSTER 2 CORE EVENT; IN PEC, DT = 1.37</text>
        </comment>
        <arrival publicID="smi:local/47b572b0-bf62-4f47-a538-6c87ec443923">
          <pickID>smi:local/28140617-4da3-4314-8868-abaaf63a3ae2</pickID>
          <phase>S</phase>
          <timeWeight>-1.0</timeWeight>
        </arrival>
        <arrival publicID="smi:local/03b0dced-6968-44ed-9786-64feebdeec6f">
          <pickID>smi:local/8823ffa9-16f8-4c2c-99cf-01fdc71b17a2</pickID>
          <phase>P</phase>
          <timeWeight>1.0</timeWeight>
        </arrival>
        <arrival publicID="smi:local/4c543560-bf5e-4631-9127-9c83b045cbe8">
          <pickID>smi:local/4283f169-557c-4747-9285-1b09710ecbbf</pickID>
          <phase>S</phase>
          <timeWeight>-1.0</timeWeight>
        </arrival>
        <arrival publicID="smi:local/7f698e15-04d9-44c4-8c55-e28f2cb865a3">
          <pickID>smi:local/944726f1-b44a-43f0-8802-428c53376b78</pickID>
          <phase>P</phase>
          <timeWeight>1.0</timeWeight>
        </arrival>
        <arrival publicID="smi:local/9c69530a-ad4d-4d0c-908e-c49abee8b2df">
          <pickID>smi:local/e4bb1063-336d-4bf7-9063-691dc7a8dadf</pickID>
          <phase>S</phase>
          <timeWeight>-1.0</timeWeight>
        </arrival>
        <arrival publicID="smi:local/67b28c0e-4d11-452c-a8b8-76a0c7580d02">
          <pickID>smi:local/6ffd0db6-1f32-4100-81b8-e14632271a2c</pickID>
          <phase>P</phase>
          <timeWeight>1.0</timeWeight>
        </arrival>
        <arrival publicID="smi:local/bbf2c658-53a5-4bb9-8b81-685f07d545f6">
          <pickID>smi:local/263e456b-67c4-4dbf-af58-f563b723136f</pickID>
          <phase>S</phase>
          <timeWeight>0.5</timeWeight>
        </arrival>
        <arrival publicID="smi:local/a8e535cf-8b83-4c6f-abc2-dfa82361a469">
          <pickID>smi:local/a31eb5db-06e3-42d0-91d3-62d060359cfd</pickID>
          <phase>P</phase>
          <timeWeight>0.5</timeWeight>
        </arrival>
        <arrival publicID="smi:local/0c076495-00ee-46ae-af47-60c8ac03246f">
          <pickID>smi:local/ef6b2690-c986-49e7-8040-2851b886e378</pickID>
          <phase>S</phase>
          <timeWeight>-1.0</timeWeight>
        </arrival>
        <arrival publicID="smi:local/855aaeb7-9c50-4fe5-be37-f7ecd67d4fba">
          <pickID>smi:local/13822ea4-ea37-4ae4-b72d-6de15153c1fa</pickID>
          <phase>P</phase>
          <timeWeight>1.0</timeWeight>
        </arrival>
      </origin>
      <magnitude publicID="smi:local/magnitude/91325991">
        <mag>
          <value>-0.19</value>
        </mag>
      </magnitude>
      <pick publicID="smi:local/28140617-4da3-4314-8868-abaaf63a3ae2">
        <time>
          <value>2021-07-31T08:17:47.840000Z</value>
        </time>
        <waveformID networkCode="AV" stationCode="GSCK" locationCode="" channelCode="BHN"></waveformID>
        <phaseHint>S</phaseHint>
      </pick>
      <pick publicID="smi:local/8823ffa9-16f8-4c2c-99cf-01fdc71b17a2">
        <time>
          <value>2021-07-31T08:17:46.220000Z</value>
        </time>
        <waveformID networkCode="AV" stationCode="GSCK" locationCode="" channelCode="BHZ"></waveformID>
        <phaseHint>P</phaseHint>
      </pick>
      <pick publicID="smi:local/4283f169-557c-4747-9285-1b09710ecbbf">
        <time>
          <value>2021-07-31T08:17:49.140000Z</value>
        </time>
        <waveformID networkCode="AV" stationCode="GSIG" locationCode="" channelCode="BHN"></waveformID>
        <phaseHint>S</phaseHint>
      </pick>
      <pick publicID="smi:local/944726f1-b44a-43f0-8802-428c53376b78">
        <time>
          <value>2021-07-31T08:17:46.840000Z</value>
        </time>
        <waveformID networkCode="AV" stationCode="GSIG" locationCode="" channelCode="BHZ"></waveformID>
        <phaseHint>P</phaseHint>
      </pick>
      <pick publicID="smi:local/e4bb1063-336d-4bf7-9063-691dc7a8dadf">
        <time>
          <value>2021-07-31T08:17:46.900000Z</value>
        </time>
        <waveformID networkCode="AV" stationCode="GSMY" locationCode="" channelCode="BHN"></waveformID>
        <phaseHint>S</phaseHint>
      </pick>
      <pick publicID="smi:local/6ffd0db6-1f32-4100-81b8-e14632271a2c">
        <time>
          <value>2021-07-31T08:17:45.640000Z</value>
        </time>
        <waveformID networkCode="AV" stationCode="GSMY" locationCode="" channelCode="BHZ"></waveformID>
        <phaseHint>P</phaseHint>
      </pick>
      <pick publicID="smi:local/263e456b-67c4-4dbf-af58-f563b723136f">
        <time>
          <value>2021-07-31T08:17:48.060000Z</value>
        </time>
        <waveformID networkCode="AV" stationCode="GSSP" locationCode="" channelCode="BHN"></waveformID>
        <phaseHint>S</phaseHint>
      </pick>
      <pick publicID="smi:local/a31eb5db-06e3-42d0-91d3-62d060359cfd">
        <time>
          <value>2021-07-31T08:17:46.340000Z</value>
        </time>
        <waveformID networkCode="AV" stationCode="GSSP" locationCode="" channelCode="BHZ"></waveformID>
        <phaseHint>P</phaseHint>
      </pick>
      <pick publicID="smi:local/ef6b2690-c986-49e7-8040-2851b886e378">
        <time>
          <value>2021-07-31T08:17:47.600000Z</value>
        </time>
        <waveformID networkCode="AV" stationCode="GSTR" locationCode="" channelCode="BHE"></waveformID>
        <phaseHint>S</phaseHint>
      </pick>
      <pick publicID="smi:local/13822ea4-ea37-4ae4-b72d-6de15153c1fa">
        <time>
          <value>2021-07-31T08:17:45.960000Z</value>
        </time>
        <waveformID networkCode="AV" stationCode="GSTR" locationCode="" channelCode="BHZ"></waveformID>
        <phaseHint>P</phaseHint>
      </pick>
    </event>
    <event publicID="smi:local/1dfd53f1-db87-4a0c-bdf6-cdf2716d9684">
      <origin publicID="smi:local/51b3b7fa-3f80-414f-b196-890746f4d50f">
        <time>
          <value>2021-07-31T20:46:42.100000Z</value>
        </time>
        <latitude>
          <value>52.0658</value>
        </latitude>
        <longitude>
          <value>-176.0507</value>
        </longitude>
        <depth>
          <value>11280.0</value>
        </depth>
        <comment id="smi:local/b0e4a722-0e38-4fbc-944e-9cfb85c91471">
          <text>CLUSTER 3 CORE EVENT; IN PEC, DT = 3.15</text>
        </comment>
        <arrival publicID="smi:local/1c3b2914-78ac-4909-9979-78eb9c78cde5">
          <pickID>smi:local/37534b13-6d16-406e-a0e2-441aa6efc614</pickID>
          <phase>S</phase>
          <timeWeight>-1.0</timeWeight>
        </arrival>
        <arrival publicID="smi:local/3171d922-d2bf-4997-bd1e-83321cdcaf0a">
          <pickID>smi:local/d404c596-ece4-43e9-acf5-e885f4e283f4</pickID>
          <phase>P</phase>
          <timeWeight>1.0</timeWeight>
        </arrival>
        <arrival publicID="smi:local/23930e13-798d-457e-9e3a-7deb0d0d19db">
          <pickID>smi:local/4b3a8edf-aecc-4966-8f52-4b389d63591a</pickID>
          <phase>S</phase>
          <timeWeight>-1.0</timeWeight>
        </arrival>
        <arrival publicID="smi:local/25f2d3fc-dccf-447c-a130-82d980d5981c">
          <pickID>smi:local/7bcf0741-e0ea-4b29-9110-676075298c17</pickID>
          <phase>P</phase>
          <timeWeight>1.0</timeWeight>
        </arrival>
        <arrival publicID="smi:local/1594b95c-0969-450a-9c5d-01502fc5481f">
          <pickID>smi:local/da314caf-5566-413c-8c8d-db658b791056</pickID>
          <phase>S</phase>
          <timeWeight>1.0</timeWeight>
        </arrival>
