<?xml version='1.0' encoding='utf-8'?>
<q:quakeml xmlns="http://quakeml.org/xmlns/bed/1.2" xmlns:q="http://quakeml.org/xmlns/quakeml/1.2">
  <eventParameters publicID="smi:local/4c1df2f4-085f-49df-b75d-364f1d94dc5e">
    <event publicID="smi:local/f0d149e8-ccb0-4c39-a6ce-39af541ada68">
      <origin publicID="smi:local/b4cdb04e-a375-4421-81b9-f108d3ec772c">
        <time>
          <value>2021-07-31T01:49:13.090000Z</value>
        </time>
        <latitude>
          <value>52.0455</value>
        </latitude>
        <longitude>
          <value>-176.0725</value>
        </longitude>
        <depth>
          <value>8300.0</value>
        </depth>
        <comment id="smi:local/041200ca-8dc3-433b-9c8f-70ccf15a3cff">
          <text>CLUSTER 0 EVENT; IN PEC, DT = 1.25</text>
        </comment>
        <arrival publicID="smi:local/b158f440-2b1b-47f9-8453-803c5a6c3347">
          <pickID>smi:local/d7519461-04f5-4873-b30b-667f4532e53d</pickID>
          <phase>S</phase>
          <timeWeight>1.0</timeWeight>
        </arrival>
        <arrival publicID="smi:local/c5506e32-c320-4230-a84e-0d861338ce4b">
          <pickID>smi:local/ae04c43a-2325-4e4c-b3c4-74b8124ae3ec</pickID>
          <phase>P</phase>
          <timeWeight>1.0</timeWeight>
        </arrival>
        <arrival publicID="smi:local/f9efa6b4-12fc-4513-9d25-fc5f0a45a279">
          <pickID>smi:local/dea38d6e-3226-4a0d-975e-d875c827a744</pickID>
          <phase>S</phase>
          <timeWeight>-1.0</timeWeight>
        </arrival>
        <arrival publicID="smi:local/39fb914e-a6c7-475f-beba-bfc61e70def2">
          <pickID>smi:local/5979223f-9841-4cf8-b338-2d36ebc23f51</pickID>
          <phase>P</phase>
          <timeWeight>1.0</timeWeight>
        </arrival>
        <arrival publicID="smi:local/0ae15e0f-ad88-45ce-b3a7-ca7c395836e2">
          <pickID>smi:local/e48fecf0-7ee3-453e-9cf5-2f0f53d8e024</pickID>
          <phase>S</phase>
          <timeWeight>0.5</timeWeight>
        </arrival>
        <arrival publicID="smi:local/86db53c4-7637-403d-8197-4eb4424adf82">
          <pickID>smi:local/711bab58-a5e2-4ac1-80b0-c5ac55e23ff3</pickID>
          <phase>P</phase>
          <timeWeight>1.0</timeWeight>
        </arrival>
        <arrival publicID="smi:local/a5ae8f42-6849-4cd4-9000-42212fb9fda2">
          <pickID>smi:local/bf809912-b07e-4c09-b1f3-4772d426db61</pickID>
          <phase>S</phase>
          <timeWeight>1.0</timeWeight>
        </arrival>
        <arrival publicID="smi:local/1a721125-2707-4776-ae11-739a6cc9a889">
          <pickID>smi:local/8f2dfec7-3c4b-48c1-819a-68583c53701a</pickID>
          <phase>P</phase>
          <timeWeight>1.0</timeWeight>
        </arrival>
        <arrival publicID="smi:local/aadcfbdd-8ee1-4f36-8d1b-7cb9bc5c32c9">
          <pickID>smi:local/57047c79-0140-4b44-a98a-f319d2cd8c11</pickID>
          <phase>P</phase>
          <timeWeight>1.0</timeWeight>
        </arrival>
        <arrival publicID="smi:local/59df87ec-6e9a-42b5-9fcc-4bdab58523b4">
          <pickID>smi:local/b5cf616b-9e4b-420b-ab6d-6aa08c04a0b1</pickID>
          <phase>S</phase>
          <timeWeight>1.0</timeWeight>
        </arrival>
        <arrival publicID="smi:local/6b6c45c8-47d3-4314-9d92-8ec2a81bb269">
          <pickID>smi:local/22e2cbe5-47b0-4618-8917-e3096a801f60</pickID>
          <phase>P</phase>
          <timeWeight>1.0</timeWeight>
        </arrival>
      </origin>
      <magnitude publicID="smi:local/magnitude/91325671">
        <mag>
          <value>0.17</value>
        </mag>
      </magnitude>
      <pick publicID="smi:local/d7519461-04f5-4873-b30b-667f4532e53d">
        <time>
          <value>2021-07-31T01:49:21.020000Z</value>
        </time>
        <waveformID networkCode="AV" stationCode="ETKA" locationCode="" channelCode="BHE"></waveformID>
        <phaseHint>S</phaseHint>
      </pick>
      <pick publicID="smi:local/ae04c43a-2325-4e4c-b3c4-74b8124ae3ec">
        <time>
          <value>2021-07-31T01:49:16.960000Z</value>
        </time>
        <waveformID networkCode="AV" stationCode="ETKA" locationCode="" channelCode="BHZ"></waveformID>
        <phaseHint>P</phaseHint>
      </pick>
      <pick publicID="smi:local/dea38d6e-3226-4a0d-975e-d875c827a744">
        <time>
          <value>2021-07-31T01:49:15.260000Z</value>
        </time>
        <waveformID networkCode="AV" stationCode="GSCK" locationCode="" channelCode="BHE"></waveformID>
        <phaseHint>S</phaseHint>
      </pick>
      <pick publicID="smi:local/5979223f-9841-4cf8-b338-2d36ebc23f51">
        <time>
          <value>2021-07-31T01:49:13.620000Z</value>
        </time>
        <waveformID networkCode="AV" stationCode="GSCK" locationCode="" channelCode="BHZ"></waveformID>
        <phaseHint>P</phaseHint>
      </pick>
      <pick publicID="smi:local/e48fecf0-7ee3-453e-9cf5-2f0f53d8e024">
        <time>
          <value>2021-07-31T01:49:16.400000Z</value>
        </time>
        <waveformID networkCode="AV" stationCode="GSIG" locationCode="" channelCode="BHE"></waveformID>
        <phaseHint>S</phaseHint>
      </pick>
      <pick publicID="smi:local/711bab58-a5e2-4ac1-80b0-c5ac55e23ff3">
        <time>
          <value>2021-07-31T01:49:14.240000Z</value>
        </time>
        <waveformID networkCode="AV" stationCode="GSIG" locationCode="" channelCode="BHZ"></waveformID>
        <phaseHint>P</phaseHint>
      </pick>
      <pick publicID="smi:local/bf809912-b07e-4c09-b1f3-4772d426db61">
        <time>
          <value>2021-07-31T01:49:14.260000Z</value>
        </time>
        <waveformID networkCode="AV" stationCode="GSMY" locationCode="" channelCode="BHE"></waveformID>
        <phaseHint>S</phaseHint>
      </pick>
      <pick publicID="smi:local/8f2dfec7-3c4b-48c1-819a-68583c53701a">
        <time>
          <value>2021-07-31T01:49:13.100000Z</value>
        </time>
        <waveformID networkCode="AV" stationCode="GSMY" locationCode="" channelCode="BHZ"></waveformID>
        <phaseHint>P</phaseHint>
      </pick>
      <pick publicID="smi:local/57047c79-0140-4b44-a98a-f319d2cd8c11">
        <time>
          <value>2021-07-31T01:49:13.860000Z</value>
        </time>
        <waveformID networkCode="AV" stationCode="GSSP" locationCode="" channelCode="BHZ"></waveformID>
        <phaseHint>P</phaseHint>
      </pick>
      <pick publicID="smi:local/b5cf616b-9e4b-420b-ab6d-6aa08c04a0b1">
        <time>
          <value>2021-07-31T01:49:15.080000Z</value>
        </time>
        <waveformID networkCode="AV" stationCode="GSTR" locationCode="" channelCode="BHN"></waveformID>
        <phaseHint>S</phaseHint>
      </pick>
      <pick publicID="smi:local/22e2cbe5-47b0-4618-8917-e3096a801f60">
        <time>
          <value>2021-07-31T01:49:13.480000Z</value>
        </time>
        <waveformID networkCode="AV" stationCode="GSTR" locationCode="" channelCode="BHZ"></waveformID>
        <phaseHint>P</phaseHint>
      </pick>
    </event>
    <event publicID="smi:local/d9d51380-86d8-4569-95a7-e5eb7f4af24c">
      <origin publicID="smi:local/fd949bb0-ac20-416a-b921-208259940318">
        <time>
          <value>2021-08-03T12:53:06.120000Z</value>
        </time>
        <latitude>
          <value>52.0308</value>
        </latitude>
        <longitude>
          <value>-176.0837</value>
        </longitude>
        <depth>
          <value>8300.0</value>
        </depth>
        <comment id="smi:local/e827f7ac-09dd-4d16-8405-b86d7c3b32ad">
          <text>CLUSTER 0 CORE EVENT; IN PEC, DT = 1.15</text>
        </comment>
        <arrival publicID="smi:local/73bd3bd1-3c17-446a-b541-b9626871a890">
          <pickID>smi:local/be66cb8d-b2c0-4336-8a12-b128062ebaf4</pickID>
          <phase>S</phase>
          <timeWeight>-1.0</timeWeight>
        </arrival>
        <arrival publicID="smi:local/9bd60edf-50ce-46aa-86f3-5261d9e31ccb">
          <pickID>smi:local/6a21ebf4-215f-4d96-80ad-c66fd4045f34</pickID>
          <phase>P</phase>
          <timeWeight>1.0</timeWeight>
        </arrival>
        <arrival publicID="smi:local/aa508143-54ee-4c8d-8a17-ba5dd382768a">
          <pickID>smi:local/ff2b99d6-2870-48de-be0c-70822f04b121</pickID>
          <phase>S</phase>
          <timeWeight>-1.0</timeWeight>
        </arrival>
        <arrival publicID="smi:local/4e3e2d56-61f5-4bfb-ab7d-493c0fb1253a">
          <pickID>smi:local/6a45acdd-4c2d-472c-ad13-570fef1fe66d</pickID>
          <phase>P</phase>
          <timeWeight>1.0</timeWeight>
        </arrival>
        <arrival publicID="smi:local/fd64b286-1dfc-434c-b3f9-bfdc1b9ce227">
          <pickID>smi:local/51a3d932-ecc2-4d7c-8ec4-fe9a7dc4af3e</pickID>
          <phase>S</phase>
          <timeWeight>-1.0</timeWeight>
        </arrival>
        <arrival publicID="smi:local/f53b4569-6d0b-431f-9749-c73f8818a652">
          <pickID>smi:local/7d3d7c2c-0b32-414e-b7db-a3eaec13aea0</pickID>
          <phase>P</phase>
          <timeWeight>1.0</timeWeight>
        </arrival>
        <arrival publicID="smi:local/27a1a870-6372-4b34-97ee-efee60557055">
          <pickID>smi:local/6b790d8e-e190-481f-8ee4-496ad7c67f2a</pickID>
          <phase>P</phase>
          <timeWeight>1.0</timeWeight>
        </arrival>
        <arrival publicID="smi:local/3b716d06-460d-4f4a-82d6-17a381f84a3a">
          <pickID>smi:local/38a04844-15f5-4a52-9e11-e67318e59d16</pickID>
          <phase>S</phase>
          <timeWeight>-1.0</timeWeight>
        </arrival>
        <arrival publicID="smi:local/46297c59-4133-429d-b71d-a3b32272a147">
          <pickID>smi:local/b7faa078-131b-419a-a947-e70ac1bc2e6a</pickID>
          <phase>P</phase>
          <timeWeight>1.0</timeWeight>
        </arrival>
      </origin>
      <magnitude publicID="smi:local/magnitude/91328896">
        <mag>
          <value>-0.06</value>
        </mag>
      </magnitude>
      <pick publicID="smi:local/be66cb8d-b2c0-4336-8a12-b128062ebaf4">
        <time>
          <value>2021-08-03T12:53:08.280000Z</value>
        </time>
        <waveformID networkCode="AV" stationCode="GSCK" locationCode="" channelCode="BHE"></waveformID>
        <phaseHint>S</phaseHint>
      </pick>
      <pick publicID="smi:local/6a21ebf4-215f-4d96-80ad-c66fd4045f34">
        <time>
          <value>2021-08-03T12:53:06.640000Z</value>
        </time>
        <waveformID networkCode="AV" stationCode="GSCK" locationCode="" channelCode="BHZ"></waveformID>
        <phaseHint>P</phaseHint>
      </pick>
      <pick publicID="smi:local/ff2b99d6-2870-48de-be0c-70822f04b121">
        <time>
          <value>2021-08-03T12:53:09.520000Z</value>
        </time>
        <waveformID networkCode="AV" stationCode="GSIG" locationCode="" channelCode="BHE"></waveformID>
        <phaseHint>S</phaseHint>
      </pick>
      <pick publicID="smi:local/6a45acdd-4c2d-472c-ad13-570fef1fe66d">
        <time>
          <value>2021-08-03T12:53:07.260000Z</value>
        </time>
        <waveformID networkCode="AV" stationCode="GSIG" locationCode="" channelCode="BHZ"></waveformID>
        <phaseHint>P</phaseHint>
      </pick>
      <pick publicID="smi:local/51a3d932-ecc2-4d7c-8ec4-fe9a7dc4af3e">
        <time>
          <value>2021-08-03T12:53:07.280000Z</value>
        </time>
        <waveformID networkCode="AV" stationCode="GSMY" locationCode="" channelCode="BHE"></waveformID>
        <phaseHint>S</phaseHint>
      </pick>
      <pick publicID="smi:local/7d3d7c2c-0b32-414e-b7db-a3eaec13aea0">
        <time>
          <value>2021-08-03T12:53:06.120000Z</value>
        </time>
        <waveformID networkCode="AV" stationCode="GSMY" locationCode="" channelCode="BHZ"></waveformID>
        <phaseHint>P</phaseHint>
      </pick>
      <pick publicID="smi:local/6b790d8e-e190-481f-8ee4-496ad7c67f2a">
        <time>
          <value>2021-08-03T12:53:07.000000Z</value>
        </time>
        <waveformID networkCode="AV" stationCode="GSSP" locationCode="" channelCode="BHZ"></waveformID>
        <phaseHint>P</phaseHint>
      </pick>
      <pick publicID="smi:local/38a04844-15f5-4a52-9e11-e67318e59d16">
        <time>
          <value>2021-08-03T12:53:08.580000Z</value>
        </time>
        <waveformID networkCode="AV" stationCode="GSTR" locationCode="" channelCode="BHE"></waveformID>
        <phaseHint>S</phaseHint>
      </pick>
      <pick publicID="smi:local/b7faa078-131b-419a-a947-e70ac1bc2e6a">
        <time>
          <value>2021-08-03T12:53:06.900000Z</value>
        </time>
        <waveformID networkCode="AV" stationCode="GSTR" locationCode="" channelCode="BHZ"></waveformID>
        <phaseHint>P</phaseHint>
      </pick>
    </event>
    <event publicID="smi:local/71958803-fceb-449c-a2d4-cbfa556df890">
      <origin publicID="smi:local/4442fc02-e345-432d-8bc0-7fb5be0d9757">
        <time>
          <value>2021-08-05T06:38:57.580000Z</value>
        </time>
        <latitude>
          <value>52.0407</value>
        </latitude>
        <longitude>
          <value>-176.081</value>
        </longitude>
        <depth>
          <value>6910.0</value>
        </depth>
        <comment id="smi:local/b003fd8d-5da5-4d8a-9bc9-fe3c99d7025b">
          <text>CLUSTER 0 EVENT; IN PEC, DT = 0.96</text>
        </comment>
        <arrival publicID="smi:local/dd2cd4a1-6793-449d-b0af-41c291dda7eb">
          <pickID>smi:local/c630ffa4-afd1-4668-9d62-4f2f8c931804</pickID>
          <phase>S</phase>
          <timeWeight>-1.0</timeWeight>
        </arrival>
        <arrival publicID="smi:local/1138ab8e-4077-4b7e-82dc-c6e96b16676d">
          <pickID>smi:local/2990b361-3771-4896-80c7-c726905b0d34</pickID>
          <phase>P</phase>
          <timeWeight>1.0</timeWeight>
        </arrival>
        <arrival publicID="smi:local/61ea60b9-36e4-4591-a6f5-b8789ad7b23d">
          <pickID>smi:local/c21052e0-df95-48b4-82d0-8adc1432ca11</pickID>
          <phase>S</phase>
          <timeWeight>-1.0</timeWeight>
        </arrival>
        <arrival publicID="smi:local/04f08ccf-3e64-4807-b6a0-b18eaec2d1c8">
          <pickID>smi:local/11c37234-1c7f-455e-809a-248b72a93c45</pickID>
          <phase>P</phase>
          <timeWeight>1.0</timeWeight>
        </arrival>
        <arrival publicID="smi:local/49b5104d-45a1-4b11-8e50-ce3ff40a5541">
          <pickID>smi:local/250d5754-ae26-4c54-adf9-043ac31377db</pickID>
          <phase>S</phase>
          <timeWeight>-1.0</timeWeight>
        </arrival>
        <arrival publicID="smi:local/a2d40154-1452-4a64-b36f-91b7785c176d">
          <pickID>smi:local/6415a2d4-62a7-4de6-9cf1-c9d5cc853ab5</pickID>
          <phase>P</phase>
          <timeWeight>1.0</timeWeight>
        </arrival>
        <arrival publicID="smi:local/f8a86b25-c0ae-4e78-abcd-5619b62fcd72">
          <pickID>smi:local/066856b5-af20-4bcb-9e7f-fd21091f54bc</pickID>
          <phase>S</phase>
          <timeWeight>0.5</timeWeight>
        </arrival>
        <arrival publicID="smi:local/9295a479-0552-4437-a85f-9f5a2adc55fc">
          <pickID>smi:local/868658ef-1887-4e65-93bb-a3a72517a878</pickID>
          <phase>P</phase>
          <timeWeight>1.0</timeWeight>
        </arrival>
      </origin>
      <magnitude publicID="smi:local/magnitude/91037428">
        <mag>
          <value>-0.41</value>
        </mag>
      </magnitude>
      <pick publicID="smi:local/c630ffa4-afd1-4668-9d62-4f2f8c931804">
        <time>
          <value>2021-08-05T06:38:59.740000Z</value>
        </time>
        <waveformID networkCode="AV" stationCode="GSCK" locationCode="" channelCode="BHE"></waveformID>
        <phaseHint>S</phaseHint>
      </pick>
      <pick publicID="smi:local/2990b361-3771-4896-80c7-c726905b0d34">
        <time>
          <value>2021-08-05T06:38:58.100000Z</value>
        </time>
        <waveformID networkCode="AV" stationCode="GSCK" locationCode="" channelCode="BHZ"></waveformID>
        <phaseHint>P</phaseHint>
      </pick>
      <pick publicID="smi:local/c21052e0-df95-48b4-82d0-8adc1432ca11">
        <time>
          <value>2021-08-05T06:39:01.000000Z</value>
        </time>
        <waveformID networkCode="AV" stationCode="GSIG" locationCode="" channelCode="BHN"></waveformID>
        <phaseHint>S</phaseHint>
      </pick>
      <pick publicID="smi:local/11c37234-1c7f-455e-809a-248b72a93c45">
        <time>
          <value>2021-08-05T06:38:58.900000Z</value>
        </time>
        <waveformID networkCode="AV" stationCode="GSIG" locationCode="" channelCode="BHZ"></waveformID>
        <phaseHint>P</phaseHint>
      </pick>
      <pick publicID="smi:local/250d5754-ae26-4c54-adf9-043ac31377db">
        <time>
          <value>2021-08-05T06:38:58.760000Z</value>
        </time>
        <waveformID networkCode="AV" stationCode="GSMY" locationCode="" channelCode="BHE"></waveformID>
        <phaseHint>S</phaseHint>
      </pick>
      <pick publicID="smi:local/6415a2d4-62a7-4de6-9cf1-c9d5cc853ab5">
        <time>
          <value>2021-08-05T06:38:57.600000Z</value>
        </time>
        <waveformID networkCode="AV" stationCode="GSMY" locationCode="" channelCode="BHZ"></waveformID>
        <phaseHint>P</phaseHint>
      </pick>
      <pick publicID="smi:local/066856b5-af20-4bcb-9e7f-fd21091f54bc">
        <time>
          <value>2021-08-05T06:38:59.600000Z</value>
        </time>
        <waveformID networkCode="AV" stationCode="GSTR" locationCode="" channelCode="BHN"></waveformID>
        <phaseHint>S</phaseHint>
      </pick>
      <pick publicID="smi:local/868658ef-1887-4e65-93bb-a3a72517a878">
        <time>
          <value>2021-08-05T06:38:58.360000Z</value>
        </time>
        <waveformID networkCode="AV" stationCode="GSTR" locationCode="" channelCode="BHZ"></waveformID>
        <phaseHint>P</phaseHint>
      </pick>
    </event>
    <event publicID="smi:local/2ed0d88a-8c52-48d3-8cea-760965e591ec">
      <origin publicID="smi:local/bb99967f-8777-4394-a459-a31b4ad01cd1">
        <time>
          <value>2021-07-31T03:19:18.820000Z</value>
        </time>
        <latitude>
          <value>52.0777</value>
        </latitude>
        <longitude>
          <value>-176.104</value>
        </longitude>
        <depth>
          <value>6530.0</value>
        </depth>
        <comment id="smi:local/ad39c092-9f16-417f-b7e4-0c0eab845c3f">
          <text>CLUSTER 1 CORE EVENT; IN PEC, DT = 0.44</text>
        </comment>
        <arrival publicID="smi:local/fb486116-0cbf-417f-b7a2-d7defebb7577">
          <pickID>smi:local/01ab823e-665f-4760-a73f-e0df7fe2d9ea</pickID>
          <phase>S</phase>
          <timeWeight>-1.0</timeWeight>
        </arrival>
        <arrival publicID="smi:local/06cf8a34-bb99-4e76-a1ea-2148cb236073">
          <pickID>smi:local/43f3a04e-dd19-4c92-baf6-cec808ace2df</pickID>
          <phase>P</phase>
          <timeWeight>1.0</timeWeight>
        </arrival>
        <arrival publicID="smi:local/babb1496-42d6-4f1f-b2ac-c2168b9a428b">
          <pickID>smi:local/22144968-d9d8-4186-8081-176f5e4e94db</pickID>
          <phase>S</phase>
          <timeWeight>1.0</timeWeight>
        </arrival>
        <arrival publicID="smi:local/d95fb17a-bce1-4e54-b601-062aadf1de37">
          <pickID>smi:local/72c47d1e-ed74-4e06-8c43-1c171097b66f</pickID>
          <phase>P</phase>
          <timeWeight>1.0</timeWeight>
        </arrival>
        <arrival publicID="smi:local/21f4b73b-d19e-4376-9e01-f463169b68b1">
          <pickID>smi:local/e69b5c35-1485-48ce-9181-92fb82434940</pickID>
          <phase>S</phase>
          <timeWeight>-1.0</timeWeight>
        </arrival>
        <arrival publicID="smi:local/7d2fff23-f9b3-4183-adfc-c175f7fc90bb">
          <pickID>smi:local/048fef20-60a2-4c95-b57c-54e710155575</pickID>
          <phase>P</phase>
          <timeWeight>1.0</timeWeight>
        </arrival>
        <arrival publicID="smi:local/67ba2afb-7003-4484-aa97-4441a75570de">
          <pickID>smi:local/3e60ab37-c5df-4a9f-94f3-1fc906cf8c3f</pickID>
          <phase>S</phase>
          <timeWeight>1.0</timeWeight>
        </arrival>
        <arrival publicID="smi:local/ac011d36-6245-4c43-908b-2d6bda296f63">
