#  2009  3 22 19 23  6.36  60.4968 -152.7760    7.680  0.60 0.00 0.00 0.00       2871
RD02 4.680 1.00   P
RDN 3.800 1.00   P
RDWB 4.820 1.00   S
REF 5.080 1.00   S
REF 3.900 1.00   P
RSO 4.361 1.00   P
#  2009  3  8 12 42 39.60  60.4878 -152.7358    2.780  0.50 0.00 0.00 0.00       2874
RDJH 3.260 1.00   P
RDN 1.680 1.00   P
RDWB 1.780 1.00   P
REF 1.000 1.00   P
RSO 1.540 1.00   P
#  2009  3 22 14  5 57.96  60.4855 -152.7712    3.760  0.70 0.00 0.00 0.00       2875
RDJH 4.639 1.00   S
RDN 1.099 1.00   P
RDWB 1.039 1.00   P
REF 1.159 1.00   P
RSO 1.000 1.00   P
#  2009  3 22  8 55 35.58  60.4910 -152.7673    3.720  0.20 0.00 0.00 0.00       2878
RDN 1.280 1.00   P
RDWB 1.060 1.00   P
REF 1.000 1.00   P
RSO 1.301 1.00   P
#  2009  3 23  1 31 25.72  60.5035 -152.7682    7.450 -0.10 0.00 0.00 0.00       2897
RD03 3.300 1.00   P
RDN 1.000 1.00   P
REF 1.460 1.00   P
RSO 1.380 1.00   P
#  2009  3 23  4 55 46.88  60.4783 -152.7468    4.260  1.10 0.00 0.00 0.00       2912
RDN 1.000 1.00   P
REF 1.280 1.00   P
RSO 1.400 1.00   P
#  2009  3 23 14 26 53.86  60.4897 -152.7545    2.970  0.80 0.00 0.00 0.00       2913
NCT 2.521 1.00   P
RDN 1.000 1.00   P
RED 2.940 1.00   S
REF 1.020 1.00   P
#  2009  3 23  2 26 45.78  60.4872 -152.7822    6.720  0.30 0.00 0.00 0.00       2914
RD03 1.800 1.00   P
RDN 1.620 1.00   P
REF 2.860 1.00   S
REF 1.680 1.00   P
RSO 1.500 1.00   P
#  2009  3 30 15 35  0.84  60.4888 -152.7642    3.470  0.40 0.00 0.00 0.00       2917
NCT 2.700 1.00   P
RDN 1.000 1.00   P
RDWB 1.160 1.00   P
REF 1.020 1.00   P
#  2009  3 22 20 31 13.78  60.4895 -152.7652    6.080 -0.60 0.00 0.00 0.00       2918
RDN 1.400 1.00   P
RDWB 1.460 1.00   P
REF 1.000 1.00   P
RSO 1.121 1.00   P
#  2009  3 22 17 58 24.70  60.4955 -152.7808    4.370 -0.60 0.00 0.00 0.00       2919
RDN 1.100 1.00   P
RDWB 1.000 1.00   P
REF 1.020 1.00   P
RSO 1.461 1.00   P
#  2009  3 23  2 21 12.46  60.4838 -152.7523    9.260  0.50 0.00 0.00 0.00       2923
RDN 1.080 1.00   P
REF 1.000 1.00   P
RSO 1.260 1.00   P
#  2009  3 21 21 48 45.26  60.4743 -152.7682    6.150 -0.10 0.00 0.00 0.00       2924
RDN 1.219 1.00   P
RDWB 1.099 1.00   P
REF 1.119 1.00   P
RSO 1.000 1.00   P
#  2009  3 17 21 16 35.44  60.5083 -152.7723    4.290  0.40 0.00 0.00 0.00       2939
RDN 1.000 1.00   P
RDWB 1.260 1.00   P
REF 1.280 1.00   P
RSO 1.669 1.00   P
#  2009  3 12 23 59  8.36  60.4627 -152.7675    7.740  0.50 0.00 0.00 0.00       2940
RDN 1.680 1.00   P
RDWB 1.200 1.00   P
REF 1.000 1.00   P
RSO 1.081 1.00   P
#  2009  3 14 14 16 22.08  60.4735 -152.7790    6.820 -0.10 0.00 0.00 0.00       2941
RDN 1.299 1.00   P
RDWB 1.219 1.00   P
REF 1.179 1.00   P
RSO 1.000 1.00   P
#  2009  3 23  5 22 26.34  60.4948 -152.7942    7.460  0.60 0.00 0.00 0.00       2942
RDN 1.180 1.00   P
REF 1.000 1.00   P
RSO 1.040 1.00   P
#  2009  3 23 14 24 41.06  60.4875 -152.7463    1.660  0.20 0.00 0.00 0.00       2943
NCT 2.441 1.00   P
RDN 1.000 1.00   P
RED 3.040 1.00   S
REF 2.420 1.00   S
REF 1.060 1.00   P
#  2009  3 22 19 19 32.06  60.4915 -152.7662    5.280  0.30 0.00 0.00 0.00       2944
RDN 1.159 1.00   P
RDWB 1.179 1.00   P
REF 1.139 1.00   P
RSO 1.000 1.00   P
#  2009  3 22 20 47  5.66  60.4907 -152.7727    6.420  0.40 0.00 0.00 0.00       2945
RDN 1.000 1.00   P
RDWB 1.080 1.00   P
REF 1.080 1.00   P
RSO 1.401 1.00   P
#  2009  3 18  3  7 42.32  60.4903 -152.8092    5.520 -0.20 0.00 0.00 0.00       2946
RDN 1.220 1.00   P
RDWB 1.060 1.00   P
REF 1.000 1.00   P
RSO 1.241 1.00   P
#  2009  3 22 19  3 33.64  60.4773 -152.7663    3.950 -0.30 0.00 0.00 0.00       2947
RDN 1.600 1.00   P
RDWB 1.020 1.00   P
REF 1.000 1.00   P
#  2009  3 23  2 51 48.46  60.4888 -152.7807    3.880  0.30 0.00 0.00 0.00       2948
RDN 1.100 1.00   P
REF 1.200 1.00   P
RSO 1.000 1.00   P
#  2009  3 12  4 30 54.56  60.4658 -152.7592    3.240  0.60 0.00 0.00 0.00       2949
RDN 2.159 1.00   P
RDWB 1.539 1.00   P
REF 1.079 1.00   P
RSO 1.000 1.00   P
#  2009  3 23  3  7 28.68  60.4845 -152.7678    4.440 -0.60 0.00 0.00 0.00       2951
RDN 1.280 1.00   P
REF 1.560 1.00   P
RSO 1.000 1.00   P
#  2009  3 22 18 11 13.82  60.4855 -152.7662    5.090 -0.20 0.00 0.00 0.00       2952
RDWB 1.060 1.00   P
REF 1.760 1.00   S
REF 1.000 1.00   P
RSO 1.301 1.00   P
#  2009  3  9 13 29 29.72  60.4877 -152.7648    4.410 -0.30 0.00 0.00 0.00       2953
RDN 1.360 1.00   P
RDWB 1.040 1.00   P
REF 1.000 1.00   P
RSO 1.041 1.00   P
#  2009  3 22 11 24 46.78  60.4773 -152.7912    7.790  0.60 0.00 0.00 0.00       2956
RDN 1.740 1.00   P
RDWB 1.000 1.00   P
REF 1.240 1.00   P
RSO 1.741 1.00   P
#  2009  3 22  5 19 37.98  60.4872 -152.7632    3.290  0.30 0.00 0.00 0.00       2957
RDN 1.119 1.00   P
RDWB 1.199 1.00   P
REF 1.059 1.00   P
RSO 1.000 1.00   P
#  2009  3 21 15 56 15.46  60.5110 -152.7790    3.060 -0.40 0.00 0.00 0.00       2988
RDN 1.000 1.00   P
RDWB 1.340 1.00   P
REF 1.640 1.00   P
RSO 1.381 1.00   P
#  2009  3 12 11 16 53.42  60.4902 -152.7605    1.460  0.40 0.00 0.00 0.00       2996
RDJH 2.420 1.00   P
RDN 1.360 1.00   P
RDWB 1.620 1.00   P
REF 1.700 1.00   S
REF 1.000 1.00   P
RSO 1.201 1.00   P
#  2009  3 27  6 41 39.00  60.4905 -152.7670    3.200  1.70 0.00 0.00 0.00       2997
NCT 2.600 1.00   P
RDN 1.000 1.00   P
RDWB 1.880 1.00   S
RED 2.980 1.00   S
REF 1.860 1.00   S
REF 1.080 1.00   P
#  2009  3 23  7 39 42.06  60.4978 -152.7682    3.190  0.40 0.00 0.00 0.00       3005
RDN 1.000 1.00   P
REF 1.920 1.00   S
REF 1.080 1.00   P
RSO 1.340 1.00   P
#  2009  3 22  8 22 32.72  60.4955 -152.7667    4.670  0.20 0.00 0.00 0.00       3006
RDN 1.000 1.00   P
RDWB 1.180 1.00   P
REF 1.120 1.00   P
RSO 1.101 1.00   P
#  2009  3 23  3 49 40.04  60.4872 -152.7758    3.540  0.60 0.00 0.00 0.00       3007
RDN 1.000 1.00   P
REF 1.380 1.00   P
RSO 1.300 1.00   P
#  2009  3 22 15 19  4.70  60.4972 -152.7755    6.370 -0.40 0.00 0.00 0.00       3008
RDWB 1.000 1.00   P
REF 1.100 1.00   P
RSO 1.321 1.00   P
#  2009  3 21 14 50  5.00  60.4907 -152.7868    5.370  0.20 0.00 0.00 0.00       3057
RDN 1.000 1.00   P
RDWB 1.000 1.00   P
REF 1.060 1.00   P
RSO 1.061 1.00   P
#  2009  3 22 13 31 24.62  60.4882 -152.7677    3.240  0.20 0.00 0.00 0.00       3059
RDJH 5.679 1.00   S
RDN 1.039 1.00   P
RDWB 1.199 1.00   P
RSO 1.000 1.00   P
#  2009  3 22 19 58 29.74  60.4863 -152.7675    3.730  0.60 0.00 0.00 0.00       3063
RDN 1.000 1.00   P
REF 1.880 1.00   S
REF 1.040 1.00   P
RSO 1.321 1.00   P
#  2009  3  6  7 18  7.74  60.5092 -152.7783    3.690 -0.20 0.00 0.00 0.00       3066
RDN 1.000 1.00   P
RDWB 1.260 1.00   P
REF 1.440 1.00   P
RSO 1.441 1.00   P
#  2009  3 22  7 32  4.64  60.4835 -152.7763    5.290  0.50 0.00 0.00 0.00       3072
RD03 3.320 1.00   P
RDN 3.760 1.00   P
RDWB 4.500 1.00   S
REF 4.760 1.00   S
REF 3.840 1.00   P
RSO 3.661 1.00   P
#  2009  3 24 20 52 38.36  60.4938 -152.7698    3.200  0.60 0.00 0.00 0.00       3089
NCT 2.400 1.00   P
RDN 1.000 1.00   P
REF 1.740 1.00   S
REF 1.060 1.00   P
#  2009  3 31  3  1 24.02  60.4923 -152.7668    3.190  0.60 0.00 0.00 0.00       3090
NCT 3.140 1.00   P
RDN 1.000 1.00   P
RDWB 1.120 1.00   P
REF 1.120 1.00   P
#  2009  3 22 17 30 16.80  60.4988 -152.7887    3.880 -0.10 0.00 0.00 0.00       3095
RDN 1.400 1.00   P
RDWB 1.000 1.00   P
REF 1.380 1.00   P
RSO 1.561 1.00   P
#  2009  3 18 13 53 43.16  60.4800 -152.7743    4.070 -0.40 0.00 0.00 0.00       3096
RDN 1.379 1.00   P
RDWB 1.039 1.00   P
RSO 1.000 1.00   P
#  2009  3 16  5 26 32.38  60.4885 -152.7745    5.860 -0.40 0.00 0.00 0.00       3097
RDN 1.100 1.00   P
RDWB 1.420 1.00   P
REF 1.000 1.00   P
RSO 1.081 1.00   P
#  2009  3 22 17 10 32.64  60.5080 -152.7655    4.700 -0.00 0.00 0.00 0.00       3098
RDN 1.060 1.00   P
RDWB 1.560 1.00   P
REF 1.000 1.00   P
RSO 1.661 1.00   P
#  2009  3 13 21 16 44.16  60.5035 -152.7712    7.630  0.50 0.00 0.00 0.00       3103
RDN 1.000 1.00   P
RDWB 1.640 1.00   P
REF 1.520 1.00   P
RSO 1.481 1.00   P
#  2009  3 23  4 56 56.20  60.4938 -152.7567    6.120  0.20 0.00 0.00 0.00       3104
RDN 1.140 1.00   P
REF 1.000 1.00   P
RSO 1.440 1.00   P
#  2009  3 23  4 44  2.60  60.4845 -152.7877    6.730 -0.00 0.00 0.00 0.00       3105
RDN 1.040 1.00   P
REF 1.000 1.00   P
RSO 1.920 1.00   P
#  2009  3 23  3 32 47.12  60.4917 -152.7752    4.290  0.70 0.00 0.00 0.00       3106
RDN 1.000 1.00   P
REF 1.140 1.00   P
RSO 1.820 1.00   P
#  2009  3 23  2 46 43.08  60.4800 -152.7737    4.890  0.80 0.00 0.00 0.00       3107
RDN 1.020 1.00   P
REF 1.060 1.00   P
RSO 1.000 1.00   P
#  2009  3  1 23 15 25.76  60.4848 -152.7645    6.490  0.50 0.00 0.00 0.00       3109
RDN 1.056 1.00   P
RDWB 1.156 1.00   P
REF 1.116 1.00   P
RSO 1.000 1.00   P
#  2009  3 22 21 28 50.96  60.4907 -152.7768    6.340 -0.60 0.00 0.00 0.00       3128
RDN 1.359 1.00   P
RDWB 1.119 1.00   P
REF 2.219 1.00   S
REF 1.199 1.00   P
RSO 1.000 1.00   P
#  2009  3 23  3 38 29.62  60.4943 -152.7462    5.370  0.50 0.00 0.00 0.00       3150
RDN 1.260 1.00   P
REF 1.000 1.00   P
RSO 1.400 1.00   P
#  2009  3 23  7 54  1.52  60.4807 -152.7663    5.660  0.40 0.00 0.00 0.00       3151
RDN 1.000 1.00   P
REF 1.120 1.00   P
RSO 1.380 1.00   P
#  2009  3 23 14 43 13.16  60.4890 -152.7738    3.220  0.80 0.00 0.00 0.00       3162
NCT 2.421 1.00   P
RDN 1.000 1.00   P
RED 2.780 1.00   S
REF 1.740 1.00   S
REF 1.120 1.00   P
#  2009  3 23  1 31 51.00  60.4868 -152.7812    5.920  0.30 0.00 0.00 0.00       3179
RDN 1.000 1.00   P
REF 1.140 1.00   P
RSO 1.200 1.00   P
#  2009  3 22 16 11 38.70  60.4788 -152.7665    4.130 -0.40 0.00 0.00 0.00       3180
RDN 1.979 1.00   P
RDWB 1.179 1.00   P
REF 1.119 1.00   P
RSO 1.000 1.00   P
#  2009  3 21 23 36 19.30  60.4862 -152.7688    3.300  0.70 0.00 0.00 0.00       3185
RDJH 2.679 1.00   P
RDN 1.079 1.00   P
RDWB 1.899 1.00   S
REF 1.819 1.00   S
REF 1.159 1.00   P
RSO 1.000 1.00   P
#  2009  3 12  2 48 59.74  60.4925 -152.7622    4.500  0.40 0.00 0.00 0.00       3192
RDN 1.020 1.00   P
REF 1.900 1.00   S
REF 1.000 1.00   P
RSO 1.081 1.00   P
#  2009  3 27  5 14 40.24  60.4818 -152.7670    4.060  0.90 0.00 0.00 0.00       3195
RDN 1.000 1.00   P
RDWB 1.020 1.00   P
REF 1.120 1.00   P
#  2009  3 22 10  4  4.42  60.4808 -152.7768    3.530  1.00 0.00 0.00 0.00       3196
RD02 1.000 1.00   P
RDJH 9.500 1.00   S
RDN 6.060 1.00   P
RDWB 6.500 1.00   S
REF 7.040 1.00   S
REF 5.860 1.00   P
RSO 5.861 1.00   P
#  2009  3 16  1 28 39.48  60.5027 -152.7758    6.190  0.30 0.00 0.00 0.00       3199
RDN 1.220 1.00   P
RDWB 1.300 1.00   P
REF 1.000 1.00   P
RSO 1.101 1.00   P
#  2009  3  2  7 25 14.10  60.4885 -152.7153    8.680  0.80 0.00 0.00 0.00       3216
RDN 1.000 1.00   P
RDWB 1.680 1.00   P
REF 1.100 1.00   P
RSO 1.340 1.00   P
#  2009  3 23  1 51 52.58  60.4732 -152.7717    5.760  0.90 0.00 0.00 0.00       3218
NCT 2.561 1.00   P
RDN 1.000 1.00   P
REF 1.100 1.00   P
RSO 1.180 1.00   P
#  2009  3 23 13 27 22.98  60.4892 -152.7613    2.570  0.90 0.00 0.00 0.00       3245
NCT 2.521 1.00   P
RDN 1.020 1.00   P
RED 2.900 1.00   S
REF 2.700 1.00   S
REF 1.000 1.00   P
#  2009  3 23  4 30 59.32  60.4712 -152.7782    4.090  0.10 0.00 0.00 0.00       3246
RDN 1.660 1.00   P
REF 1.000 1.00   P
RSO 1.240 1.00   P
#  2009  3 28  5 23 32.46  60.4942 -152.7493    4.980  0.30 0.00 0.00 0.00       3247
NCT 2.380 1.00   P
RDN 1.000 1.00   P
RDWB 1.320 1.00   P
REF 1.040 1.00   P
#  2009  3 17 12 17 42.00  60.4988 -152.7352   10.050  0.50 0.00 0.00 0.00       3248
RDN 1.000 1.00   P
RDWB 3.000 1.00   S
REF 2.420 1.00   S
REF 1.300 1.00   P
RSO 1.909 1.00   P
#  2009  3 22  2 43 55.68  60.4982 -152.7648    3.250 -0.80 0.00 0.00 0.00       3249
RDN 1.000 1.00   P
RDWB 1.060 1.00   P
REF 1.140 1.00   P
RSO 1.301 1.00   P
#  2009  3 15 19 30 23.18  60.4982 -152.7117    4.820 -0.10 0.00 0.00 0.00       3257
RDN 1.740 1.00   P
RDWB 2.320 1.00   P
REF 1.000 1.00   P
RSO 2.140 1.00   P
#  2009  3 24 21 43  4.52  60.4907 -152.7683    3.090  0.50 0.00 0.00 0.00       3258
NCT 2.560 1.00   P
RDN 1.000 1.00   P
REF 1.100 1.00   P
#  2009  3 23  3 27 20.68  60.4908 -152.7747    4.990  0.30 0.00 0.00 0.00       3259
RD03 2.940 1.00   P
RDN 1.000 1.00   P
REF 1.960 1.00   S
REF 1.060 1.00   P
RSO 1.420 1.00   P
#  2009  3 23  2  8 32.76  60.4777 -152.7578    8.160 -0.30 0.00 0.00 0.00       3261
RDN 1.500 1.00   P
REF 1.100 1.00   P
RSO 1.000 1.00   P
#  2009  3 23  2 28 56.82  60.4840 -152.7673    3.620 -0.40 0.00 0.00 0.00       3264
RDN 1.180 1.00   P
REF 1.660 1.00   S
REF 1.000 1.00   P
RSO 1.220 1.00   P
#  2009  3 22 15 40 29.20  60.4935 -152.7700    5.500  0.60 0.00 0.00 0.00       3265
RDN 1.120 1.00   P
RDWB 1.020 1.00   P
REF 1.000 1.00   P
RSO 1.281 1.00   P
#  2009  3 22 17 13 41.02  60.5033 -152.7733    8.460 -0.50 0.00 0.00 0.00       3266
RDN 1.060 1.00   P
RDWB 1.540 1.00   P
REF 1.000 1.00   P
RSO 1.641 1.00   P
#  2009  3 19  2 14 52.12  60.4852 -152.7547    3.750 -0.90 0.00 0.00 0.00       3267
RDN 1.780 1.00   P
RDWB 1.560 1.00   P
REF 1.000 1.00   P
RSO 1.580 1.00   P
#  2009  3 22  9 25  6.16  60.4853 -152.7643    5.700  0.40 0.00 0.00 0.00       3269
RDN 1.099 1.00   P
RDWB 1.039 1.00   P
REF 1.139 1.00   P
RSO 1.000 1.00   P
#  2009  3  9 13 37 13.94  60.4785 -152.7493    1.190  0.00 0.00 0.00 0.00       3289
RDN 1.639 1.00   P
RDWB 1.659 1.00   P
REF 1.379 1.00   P
RSO 1.000 1.00   P
#  2009  3 22  6 26 47.42  60.4882 -152.7687    3.460  0.90 0.00 0.00 0.00       3290
NCT 2.619 1.00   P
RDJH 4.599 1.00   S
RDN 1.099 1.00   P
RDWB 1.159 1.00   P
REF 1.179 1.00   P
RSO 1.000 1.00   P
#  2009  3 21 11 26 30.74  60.4982 -152.7882    7.380  0.40 0.00 0.00 0.00       3291
RDN 1.000 1.00   P
RDWB 1.080 1.00   P
REF 1.140 1.00   P
RSO 1.301 1.00   P
#  2009  3 22 20 26 47.78  60.4878 -152.7642    3.570  0.20 0.00 0.00 0.00       3392
RD03 4.700 1.00   P
RDN 3.920 1.00   P
RDWB 4.260 1.00   S
REF 4.140 1.00   S
REF 3.280 1.00   P
RSO 3.821 1.00   P
#  2009  3 22  7 24 59.44  60.4912 -152.7673    3.170 -0.30 0.00 0.00 0.00       3406
RDN 1.019 1.00   P
RDWB 1.079 1.00   P
REF 1.079 1.00   P
RSO 1.000 1.00   P
#  2009  3 25  2 31 46.36  60.5538 -152.7477    4.340  0.50 0.00 0.00 0.00       3409
NCT 2.140 1.00   P
RDN 1.000 1.00   P
RDWB 1.900 1.00   P
#  2009  3 21 14 55 27.30  60.4693 -152.7778    5.170  0.50 0.00 0.00 0.00       3410
RDJH 4.659 1.00   S
RDN 1.079 1.00   P
RDWB 1.179 1.00   P
REF 1.179 1.00   P
RSO 1.000 1.00   P
#  2009  3 23  3 54 35.78  60.4882 -152.7617    3.360  0.50 0.00 0.00 0.00       3411
RDN 1.340 1.00   P
REF 1.000 1.00   P
RSO 1.360 1.00   P
#  2009  3 22  9 59 55.24  60.4782 -152.7668    5.830  0.50 0.00 0.00 0.00       3437
RDN 1.119 1.00   P
RDWB 1.179 1.00   P
REF 1.199 1.00   P
RSO 1.000 1.00   P
#  2009  3 24  0 17 57.44  60.4890 -152.7653    2.750  0.50 0.00 0.00 0.00       3444
NCT 2.580 1.00   P
RDN 1.000 1.00   P
RED 2.860 1.00   S
REF 1.000 1.00   P
#  2009  3 22 23 20 24.66  60.4848 -152.7672    6.260 -0.10 0.00 0.00 0.00       3447
RDN 1.239 1.00   P
RDWB 1.099 1.00   P
REF 2.639 1.00   S
REF 1.119 1.00   P
RSO 1.000 1.00   P
#  2009  3  1 11 41  2.36  60.4870 -152.7703    5.440  0.70 0.00 0.00 0.00       3448
RDN 1.000 1.00   P
RDWB 1.100 1.00   P
REF 1.040 1.00   P
RSO 1.764 1.00   P
#  2009  3 17 15 17 27.06  60.4972 -152.7667    2.980  0.10 0.00 0.00 0.00       3449
RDN 1.360 1.00   P
RDWB 1.460 1.00   P
REF 1.000 1.00   P
RSO 1.690 1.00   P
#  2009  3 22 18  4 22.54  60.4977 -152.7742    4.030 -0.40 0.00 0.00 0.00       3450
RDN 1.080 1.00   P
RDWB 1.720 1.00   S
REF 2.100 1.00   S
REF 1.060 1.00   P
#  2009  3 22 13 21  5.04  60.4875 -152.7613    6.400  0.10 0.00 0.00 0.00       3451
RDN 1.159 1.00   P
RDWB 1.179 1.00   P
REF 1.159 1.00   P
RSO 1.000 1.00   P
#  2009  3 28 17 26 55.24  60.4802 -152.7865    6.350  0.90 0.00 0.00 0.00       3457
NCT 2.260 1.00   P
RDN 1.160 1.00   P
RDWB 1.840 1.00   S
REF 2.320 1.00   S
REF 1.220 1.00   P
#  2009  3 22  8  7 30.02  60.4872 -152.7678    6.300  0.50 0.00 0.00 0.00       3458
RDN 1.000 1.00   P
RDWB 1.040 1.00   P
REF 1.000 1.00   P
RSO 1.261 1.00   P
#  2009  3 12 19 21 58.70  60.4797 -152.7563    4.700  0.40 0.00 0.00 0.00       3459
RDN 1.099 1.00   P
RDWB 1.379 1.00   P
REF 1.359 1.00   P
RSO 1.000 1.00   P
#  2009  3 21 16 43 16.44  60.4757 -152.7678    3.840  0.20 0.00 0.00 0.00       3461
RDN 1.019 1.00   P
RDWB 1.079 1.00   P
REF 1.199 1.00   P
RSO 1.000 1.00   P
#  2009  3 22 17 21 15.86  60.4890 -152.7657    4.230  0.30 0.00 0.00 0.00       3462
RDN 1.059 1.00   P
RDWB 1.179 1.00   P
REF 1.859 1.00   S
REF 1.119 1.00   P
RSO 1.000 1.00   P
#  2009  3 23  2 39 58.08  60.4970 -152.7672    2.810  0.10 0.00 0.00 0.00       3592
RDN 1.180 1.00   P
REF 1.000 1.00   P
RSO 1.340 1.00   P
#  2009  3 27  7  8 35.60  60.4917 -152.7670    2.720  1.60 0.00 0.00 0.00       3593
NCT 2.560 1.00   P
RDN 1.000 1.00   P
RDWB 1.800 1.00   S
RED 2.940 1.00   S
REF 1.800 1.00   S
REF 1.060 1.00   P
#  2009  3 12  9 49 44.68  60.4877 -152.7787    8.590  0.80 0.00 0.00 0.00       3621
RDN 1.020 1.00   P
RDWB 1.000 1.00   P
REF 1.040 1.00   P
RSO 1.001 1.00   P
#  2009  3 21 20 32 13.00  60.5007 -152.7637    4.920  0.20 0.00 0.00 0.00       3623
RDN 1.000 1.00   P
RDWB 1.140 1.00   P
REF 1.840 1.00   S
REF 1.100 1.00   P
RSO 1.381 1.00   P
#  2009  3 22 23  5 28.28  60.4890 -152.7603    3.690 -0.10 0.00 0.00 0.00       3633
RDN 1.100 1.00   P
RDWB 1.820 1.00   S
REF 1.480 1.00   S
REF 1.000 1.00   P
RSO 1.281 1.00   P
#  2009  3 19 15  4 58.22  60.4860 -152.7803    5.700 -0.10 0.00 0.00 0.00       3634
RDN 1.060 1.00   P
RDWB 1.040 1.00   P
REF 1.000 1.00   P
RSO 1.360 1.00   P
#  2009  3 13 17 48 49.44  60.4968 -152.7545    8.160 -0.10 0.00 0.00 0.00       3636
NCT 2.021 1.00   P
RDJH 4.060 1.00   S
RDN 1.000 1.00   P
RDWB 2.300 1.00   S
REF 2.060 1.00   S
REF 1.060 1.00   P
RSO 1.201 1.00   P
#  2009  3 29 15 52 35.86  60.5013 -152.7575    5.220  0.60 0.00 0.00 0.00       3637
NCT 2.280 1.00   P
RDN 1.000 1.00   P
RDWB 2.100 1.00   S
REF 1.900 1.00   S
REF 1.060 1.00   P
#  2009  3 22 15  0 15.78  60.4915 -152.7747    3.590  0.60 0.00 0.00 0.00       3638
RDJH 4.739 1.00   S
RDN 1.079 1.00   P
RDWB 1.119 1.00   P
REF 2.099 1.00   S
REF 1.139 1.00   P
RSO 1.000 1.00   P
#  2009  3  2  5 39  4.84  60.4762 -152.7603    4.500 -0.10 0.00 0.00 0.00       3639
RDN 1.600 1.00   P
RDWB 1.900 1.00   P
REF 1.280 1.00   P
RSO 1.000 1.00   P
#  2009  3 22 14 19 23.70  60.4892 -152.7668    4.910 -0.20 0.00 0.00 0.00       3640
RDN 1.440 1.00   P
RDWB 1.000 1.00   P
REF 1.020 1.00   P
RSO 1.381 1.00   P
#  2009  3 22 19  0 33.20  60.4772 -152.7683    3.570  0.70 0.00 0.00 0.00       3641
RDE 2.919 1.00   P
RDJH 2.599 1.00   P
RDN 1.159 1.00   P
RDWB 1.919 1.00   S
REF 1.979 1.00   S
REF 1.199 1.00   P
RSO 1.000 1.00   P
#  2009  3 27  2  4 31.44  60.4838 -152.7678    3.660  1.20 0.00 0.00 0.00       3643
NCT 2.440 1.00   P
RDWB 1.720 1.00   S
REF 1.740 1.00   S
REF 1.000 1.00   P
#  2009  3 22 17  6 16.42  60.4750 -152.7640    4.440  0.10 0.00 0.00 0.00       3662
RDN 1.679 1.00   P
RDWB 1.179 1.00   P
REF 1.139 1.00   P
RSO 1.000 1.00   P
#  2009  3 22 20  8 22.72  60.4860 -152.7637    5.390 -0.50 0.00 0.00 0.00       3663
RDN 1.000 1.00   P
REF 1.980 1.00   S
REF 1.320 1.00   P
#  2009  3 21 14 45 59.06  60.4755 -152.7653    4.790  0.30 0.00 0.00 0.00       3664
RD03 1.779 1.00   P
RDN 1.359 1.00   P
RDWB 1.179 1.00   P
REF 1.899 1.00   S
REF 1.179 1.00   P
RSO 1.000 1.00   P
#  2009  3 14  8 20 46.20  60.4820 -152.7778    9.670  0.30 0.00 0.00 0.00       3696
RDJH 3.980 1.00   S
RDN 1.100 1.00   P
RDWB 1.000 1.00   P
REF 1.120 1.00   P
RSO 1.081 1.00   P
#  2009  3 13  4 44 26.20  60.4912 -152.7553    7.560 -0.30 0.00 0.00 0.00       3697
NCT 2.141 1.00   P
RDJH 2.040 1.00   P
RDN 1.020 1.00   P
RDWB 1.120 1.00   P
REF 1.000 1.00   P
RSO 1.121 1.00   P
#  2009  3 21  8 14  0.04  60.4862 -152.7683    3.560 -0.60 0.00 0.00 0.00       3698
RDN 1.480 1.00   P
RDWB 1.000 1.00   P
REF 1.020 1.00   P
RSO 1.281 1.00   P
