#  2009  2 27  8 23 17.66  60.4785 -152.7688    7.890  0.60 0.00 0.00 0.00        587
RDN 1.080 1.00   P
RDWB 1.200 1.00   P
REF 1.120 1.00   P
RSO 1.000 1.00   P
#  2009  2  8  0 35 27.24  60.4985 -152.7585    3.300  0.40 0.00 0.00 0.00        595
NCT 2.600 1.00   P
RDN 1.000 1.00   P
REF 1.180 1.00   P
RSO 1.440 1.00   P
#  2009  2 16  5  7 39.92  60.4843 -152.7577    1.100  0.60 0.00 0.00 0.00        596
NCT 3.540 1.00   P
RDJH 3.320 1.00   P
RDN 1.360 1.00   P
REF 1.400 1.00   P
RSO 1.000 1.00   P
#  2009  2  8 10 23 43.02  60.4995 -152.8098    1.160  1.20 0.00 0.00 0.00        598
NCT 1.320 1.00   P
RDN 1.000 1.00   P
RED 1.760 1.00   P
REF 1.120 1.00   P
#  2009  2  6 11 10 34.58  60.4710 -152.7183    6.140  0.90 0.00 0.00 0.00        599
NCT 2.680 1.00   P
RDN 1.159 1.00   P
REF 1.119 1.00   P
RSO 1.000 1.00   P
#  2009  2 27  1 10 40.74  60.4893 -152.7647    3.400  0.90 0.00 0.00 0.00        600
NCT 2.680 1.00   P
RDN 1.000 1.00   P
RDWB 1.060 1.00   P
REF 1.000 1.00   P
RSO 1.040 1.00   P
#  2009  2 26 16 40  9.10  60.5070 -152.7550    1.570  0.10 0.00 0.00 0.00        601
NCT 3.581 1.00   P
RDN 1.000 1.00   P
RDWB 2.420 1.00   P
REF 2.060 1.00   P
RSO 2.441 1.00   P
#  2009  2 27  7 39 42.02  60.4885 -152.7725    6.950  0.20 0.00 0.00 0.00        602
RDN 1.020 1.00   P
RDWB 1.140 1.00   P
REF 1.980 1.00   S
REF 1.080 1.00   P
RSO 1.000 1.00   P
#  2009  2  5  9 26 49.38  60.4763 -152.7362    2.760 -0.10 0.00 0.00 0.00        603
NCT 3.440 1.00   P
RDN 1.859 1.00   P
REF 1.039 1.00   P
RSO 1.000 1.00   P
#  2009  2 27  3 22  0.24  60.4875 -152.7072    9.330  0.90 0.00 0.00 0.00        611
RDN 1.680 1.00   P
RDWB 1.860 1.00   P
REF 1.000 1.00   P
RSO 1.940 1.00   P
#  2009  2  9  6 58 35.56  60.5105 -152.7437    3.880  0.10 0.00 0.00 0.00        613
NCT 2.680 1.00   P
RDN 1.000 1.00   P
REF 1.160 1.00   P
RSO 1.980 1.00   P
#  2009  2  2 11 16 18.32  60.4963 -152.7633    0.920  0.10 0.00 0.00 0.00        614
NCT 2.800 1.00   P
RDN 1.000 1.00   P
REF 1.260 1.00   P
RSO 1.420 1.00   P
#  2009  2 27  3 21 33.42  60.4682 -152.7393    5.570  1.10 0.00 0.00 0.00        615
NCT 3.340 1.00   P
RDN 1.000 1.00   P
RDWB 1.820 1.00   P
REF 1.780 1.00   P
RSO 1.040 1.00   P
#  2009  2 17 21 50 11.88  60.4833 -152.7473    4.380  0.90 0.00 0.00 0.00        616
RDJH 4.580 1.00   S
RDN 1.000 1.00   P
REF 1.040 1.00   P
RSO 1.263 1.00   P
#  2009  2 14 23 45 14.10  60.4940 -152.7940    2.730 -0.50 0.00 0.00 0.00        619
NCT 2.250 1.00   P
RDJH 2.600 1.00   P
RDN 1.000 1.00   P
REF 1.080 1.00   P
RSO 1.010 1.00   P
#  2009  2  9  7 34  3.72  60.4930 -152.7690    2.990  0.40 0.00 0.00 0.00        620
NCT 2.520 1.00   P
RDN 1.000 1.00   P
REF 1.240 1.00   P
RSO 1.280 1.00   P
#  2009  2 22 10 21 21.86  60.4742 -152.7188    7.540  0.30 0.00 0.00 0.00        621
NCT 2.820 1.00   P
RDJH 2.500 1.00   P
RDN 1.320 1.00   P
REF 1.000 1.00   P
RSO 1.080 1.00   P
#  2009  2 17 22 55 12.78  60.4782 -152.7865    3.410  0.20 0.00 0.00 0.00        622
NCT 2.620 1.00   P
RDJH 2.537 1.00   P
RDN 1.077 1.00   P
RED 3.477 1.00   P
REF 1.117 1.00   P
RSO 1.000 1.00   P
#  2009  2 26 14 59 34.82  60.4695 -152.7385    4.770 -0.40 0.00 0.00 0.00        624
RDN 1.159 1.00   P
RDWB 1.759 1.00   P
REF 1.079 1.00   P
RSO 1.000 1.00   P
#  2009  2 28 20 56 40.52  60.5040 -152.7710    1.590  0.40 0.00 0.00 0.00        627
RDJH 2.440 1.00   P
RDN 1.000 1.00   P
RDWB 1.240 1.00   P
REF 1.300 1.00   P
RSO 1.321 1.00   P
#  2009  2  4  2  6 43.00  60.4997 -152.7763    1.430 -0.00 0.00 0.00 0.00        634
NCT 2.581 1.00   P
RDN 1.000 1.00   P
REF 1.420 1.00   P
RSO 1.401 1.00   P
#  2009  2 27  5 15 57.64  60.4785 -152.7545   10.140  0.70 0.00 0.00 0.00        635
RDN 1.480 1.00   P
RDWB 1.300 1.00   P
REF 1.000 1.00   P
RSO 1.160 1.00   P
#  2009  2 25 23 40 40.84  60.5048 -152.7645    1.220  0.50 0.00 0.00 0.00        649
RDN 1.000 1.00   P
REF 2.420 1.00   P
RSO 3.040 1.00   P
#  2009  2  9 13 38 16.92  60.4958 -152.7437    4.240  0.20 0.00 0.00 0.00        650
RDE 2.860 1.00   P
RDN 1.000 1.00   P
REF 1.080 1.00   P
RSO 1.540 1.00   P
#  2009  2  6  5 24 33.84  60.4885 -152.7398    4.900  0.60 0.00 0.00 0.00        651
RDN 1.000 1.00   P
REF 1.320 1.00   P
#  2009  2 27 11 58 42.00  60.5230 -152.7577    3.060 -0.50 0.00 0.00 0.00        652
RDJH 4.040 1.00   S
RDN 1.000 1.00   P
RDWB 1.900 1.00   P
REF 1.780 1.00   P
RSO 2.180 1.00   P
#  2009  2  8 11 33 44.34  60.5052 -152.7277    4.440  0.50 0.00 0.00 0.00        653
NCT 2.300 1.00   P
RDN 1.000 1.00   P
REF 1.100 1.00   P
RSO 1.900 1.00   P
#  2009  2 26  5 15 25.96  60.4837 -152.7637    7.070  1.00 0.00 0.00 0.00        654
RDN 1.420 1.00   P
RDWB 1.360 1.00   P
REF 1.000 1.00   P
RSO 1.481 1.00   P
#  2009  2  8 22 32 19.48  60.5013 -152.7560    3.820  0.20 0.00 0.00 0.00        656
NCT 2.560 1.00   P
RDN 1.000 1.00   P
REF 1.260 1.00   P
RSO 1.480 1.00   P
#  2009  2 18 21 54 46.18  60.4857 -152.7297    6.320  0.70 0.00 0.00 0.00        658
NCT 2.720 1.00   P
RDJH 2.580 1.00   P
RDN 1.000 1.00   P
REF 1.200 1.00   P
#  2009  2 22 15 30 16.90  60.4808 -152.7490    5.620  0.30 0.00 0.00 0.00        660
RDJH 4.520 1.00   S
RDN 1.320 1.00   P
REF 1.400 1.00   P
RSO 1.000 1.00   P
#  2009  2 27 20 44 43.44  60.5113 -152.7937    4.290 -0.20 0.00 0.00 0.00        661
RDN 1.000 1.00   P
RDWB 1.120 1.00   P
REF 1.260 1.00   P
RSO 1.220 1.00   P
#  2009  2 17 16  2 10.52  60.4780 -152.7283    6.050  0.40 0.00 0.00 0.00        662
NCT 2.643 1.00   P
RDJH 2.600 1.00   P
RDN 1.020 1.00   P
REF 1.000 1.00   P
RSO 1.543 1.00   P
#  2009  2 27 19 12 17.50  60.4733 -152.7542   11.060  1.30 0.00 0.00 0.00        663
RDN 1.680 1.00   P
RDWB 1.260 1.00   P
REF 1.000 1.00   P
RSO 1.580 1.00   P
#  2009  2  8  4  7  2.62  60.4947 -152.7762    3.410  0.50 0.00 0.00 0.00        664
NCT 2.560 1.00   P
RDN 1.000 1.00   P
REF 1.120 1.00   P
#  2009  2  8 10 17 28.92  60.4930 -152.7610    3.200  0.60 0.00 0.00 0.00        665
NCT 2.540 1.00   P
RDN 1.000 1.00   P
REF 1.100 1.00   P
RSO 1.020 1.00   P
#  2009  2 22 10 17 47.38  60.4790 -152.7438    6.180  0.80 0.00 0.00 0.00        666
RDJH 2.640 1.00   P
RDN 1.100 1.00   P
REF 1.120 1.00   P
RSO 1.000 1.00   P
#  2009  2 19 11  4 39.14  60.4908 -152.7405    5.160  0.30 0.00 0.00 0.00        667
RDN 1.270 1.00   P
REF 1.150 1.00   P
RSO 1.000 1.00   P
#  2009  2 26  5 25  0.82  60.4925 -152.7642    3.520  0.60 0.00 0.00 0.00        668
RDJH 2.380 1.00   P
RDN 1.000 1.00   P
RDWB 1.120 1.00   P
REF 1.000 1.00   P
RSO 1.061 1.00   P
#  2009  2  3  0 37 16.70  60.4815 -152.7567    4.690  0.30 0.00 0.00 0.00        669
RDN 1.179 1.00   P
REF 1.039 1.00   P
RSO 1.000 1.00   P
#  2009  2 26 11 46 14.68  60.4683 -152.7638    2.210 -0.30 0.00 0.00 0.00        670
RDN 1.819 1.00   P
RDWB 1.699 1.00   P
REF 1.639 1.00   P
RSO 1.000 1.00   P
#  2009  2 27  1 10  1.94  60.4878 -152.7695    7.530  0.80 0.00 0.00 0.00        671
RDN 1.240 1.00   P
RDWB 1.000 1.00   P
REF 1.220 1.00   P
RSO 1.240 1.00   P
#  2009  2  1 18 48 12.26  60.5058 -152.7418    3.720  0.30 0.00 0.00 0.00        672
NCT 2.540 1.00   P
RDN 1.000 1.00   P
REF 1.280 1.00   P
RSO 1.840 1.00   P
#  2009  2 27  3 26  6.98  60.4743 -152.7650    5.380  0.80 0.00 0.00 0.00        677
NCT 2.920 1.00   P
RDN 1.160 1.00   P
RDWB 1.280 1.00   P
REF 1.180 1.00   P
RSO 1.000 1.00   P
#  2009  2 28 19 48 49.58  60.4987 -152.7878    6.190 -0.30 0.00 0.00 0.00        678
RDN 1.000 1.00   P
RDWB 1.000 1.00   P
REF 1.240 1.00   P
RSO 1.101 1.00   P
#  2009  2 16 18 36 54.52  60.4832 -152.7600    3.260  0.50 0.00 0.00 0.00        681
NCT 2.820 1.00   P
RDJH 2.780 1.00   P
RDN 1.260 1.00   P
REF 1.240 1.00   P
RSO 1.000 1.00   P
#  2009  2  1 14  8 27.96  60.4985 -152.7460    3.870 -0.20 0.00 0.00 0.00        682
NCT 2.560 1.00   P
RDN 1.000 1.00   P
REF 1.320 1.00   P
RSO 1.260 1.00   P
#  2009  2 26  8  5 45.60  60.4935 -152.7677    3.310  0.80 0.00 0.00 0.00        684
RDJH 2.620 1.00   P
RDN 1.040 1.00   P
RDWB 1.660 1.00   P
REF 1.000 1.00   P
RSO 1.041 1.00   P
#  2009  2  2 16  3 16.90  60.4947 -152.7125    5.090 -0.30 0.00 0.00 0.00        685
NCT 2.980 1.00   P
RDN 1.460 1.00   P
REF 1.000 1.00   P
RSO 1.940 1.00   P
#  2009  2 16  1 18 31.92  60.4708 -152.7367    7.110  0.30 0.00 0.00 0.00        686
RDJH 2.600 1.00   P
RDN 1.000 1.00   P
REF 1.080 1.00   P
RSO 1.100 1.00   P
#  2009  2  3 10 30 47.20  60.4878 -152.7652    3.770  0.60 0.00 0.00 0.00        687
NCT 2.841 1.00   P
RDN 1.000 1.00   P
REF 1.080 1.00   P
RSO 1.101 1.00   P
#  2009  2 23  3 44 50.98  60.4900 -152.7567    3.920 -0.00 0.00 0.00 0.00        688
RDN 1.000 1.00   P
REF 1.000 1.00   P
RSO 1.100 1.00   P
#  2009  2 19  6 27 37.82  60.5027 -152.7772    3.050 -0.10 0.00 0.00 0.00        690
NCT 2.510 1.00   P
RDJH 4.380 1.00   S
RDN 1.000 1.00   P
REF 1.340 1.00   P
RSO 1.410 1.00   P
#  2009  2 26 23 42 56.10  60.4632 -152.7545    8.260  0.60 0.00 0.00 0.00        691
RDN 1.239 1.00   P
RDWB 1.199 1.00   P
REF 1.119 1.00   P
RSO 1.000 1.00   P
#  2009  2 15 15 29 14.56  60.5138 -152.7685    3.270 -0.00 0.00 0.00 0.00        692
NCT 2.501 1.00   P
RDN 1.000 1.00   P
REF 1.580 1.00   P
#  2009  2  2 14 18 41.04  60.5027 -152.7662    1.380  0.30 0.00 0.00 0.00        693
NCT 2.620 1.00   P
RDN 1.000 1.00   P
REF 1.880 1.00   S
REF 1.320 1.00   P
RSO 1.300 1.00   P
#  2009  2  1 22 51 48.42  60.4948 -152.7465    3.590  0.20 0.00 0.00 0.00        694
NCT 2.480 1.00   P
RDN 1.000 1.00   P
REF 1.240 1.00   P
RSO 1.420 1.00   P
#  2009  2  9 12 57 12.36  60.4935 -152.7775    0.030  0.80 0.00 0.00 0.00        695
NCT 2.640 1.00   P
RDN 1.160 1.00   P
REF 2.120 1.00   S
REF 1.080 1.00   P
RSO 1.000 1.00   P
#  2009  2  4 15 30 21.22  60.3152 -152.6740   13.770  0.90 0.00 0.00 0.00        696
NCT 3.541 1.00   P
RDN 2.400 1.00   P
RED 3.320 1.00   S
REF 4.760 1.00   S
REF 1.920 1.00   P
RSO 1.681 1.00   P
#  2009  2  1 15 19 34.84  60.4952 -152.7580    3.500  0.40 0.00 0.00 0.00        697
NCT 2.540 1.00   P
RDN 1.000 1.00   P
REF 1.260 1.00   P
RSO 1.180 1.00   P
#  2009  2 26  7 53 51.02  60.4953 -152.7822    5.530  0.70 0.00 0.00 0.00        701
RDN 1.000 1.00   P
RDWB 1.260 1.00   P
REF 1.240 1.00   P
RSO 1.121 1.00   P
#  2009  2 22 14 39 32.98  60.4878 -152.7852    3.540  0.90 0.00 0.00 0.00        704
RDJH 2.920 1.00   P
RDN 1.340 1.00   P
REF 1.420 1.00   P
RSO 1.000 1.00   P
#  2009  2  2 13 51 15.90  60.5007 -152.7670    1.550  0.10 0.00 0.00 0.00        705
NCT 2.760 1.00   P
RDN 1.000 1.00   P
REF 1.500 1.00   P
RSO 1.440 1.00   P
#  2009  2 27  2  6 35.62  60.4715 -152.7685    5.150  0.60 0.00 0.00 0.00        707
NCT 2.760 1.00   P
RDN 1.060 1.00   P
RDWB 1.260 1.00   P
REF 1.080 1.00   P
RSO 1.000 1.00   P
#  2009  2  8  0  2 21.96  60.4902 -152.7612    3.040  0.30 0.00 0.00 0.00        708
NCT 2.560 1.00   P
RSO 1.000 1.00   P
#  2009  2 18 18 46 26.16  60.4923 -152.7442    4.620  0.40 0.00 0.00 0.00        712
NCT 2.880 1.00   P
RDJH 2.880 1.00   P
RDN 1.000 1.00   P
REF 1.440 1.00   P
RSO 1.740 1.00   P
#  2009  2  8  2 53 12.72  60.4932 -152.7585    3.790  0.60 0.00 0.00 0.00        713
NCT 2.520 1.00   P
RDN 1.000 1.00   P
REF 1.020 1.00   P
RSO 1.360 1.00   P
#  2009  2 19  2 35 23.86  60.4820 -152.7560    5.180  0.20 0.00 0.00 0.00        714
NCT 2.530 1.00   P
RDJH 2.480 1.00   P
RDN 1.080 1.00   P
REF 1.000 1.00   P
RSO 1.070 1.00   P
#  2009  2  4  6 36 29.32  60.4995 -152.8068    2.760  0.80 0.00 0.00 0.00        715
NCT 1.901 1.00   P
RDN 1.000 1.00   P
REF 1.200 1.00   P
RSO 1.181 1.00   P
#  2009  2 10  0 37 34.04  60.4913 -152.7830    1.500  0.50 0.00 0.00 0.00        721
NCT 2.660 1.00   P
RDN 1.020 1.00   P
REF 1.140 1.00   P
RSO 1.000 1.00   P
#  2009  2  7 23  4 47.80  60.5017 -152.7487    3.630  0.40 0.00 0.00 0.00        722
NCT 2.520 1.00   P
RDN 1.000 1.00   P
REF 1.100 1.00   P
RSO 1.620 1.00   P
#  2009  2 28 12 55 51.20  60.5113 -152.7842    4.090 -0.00 0.00 0.00 0.00        723
RDN 1.000 1.00   P
RDWB 1.220 1.00   P
REF 1.380 1.00   P
RSO 1.401 1.00   P
#  2009  2 16 16 53 42.66  60.5008 -152.7488    3.970  0.20 0.00 0.00 0.00        728
NCT 2.780 1.00   P
RDJH 2.520 1.00   P
RDN 1.000 1.00   P
REF 1.080 1.00   P
RSO 1.560 1.00   P
#  2009  2 26  5 59 48.54  60.4742 -152.7457    4.220  0.10 0.00 0.00 0.00        729
RDN 1.140 1.00   P
RDWB 1.480 1.00   P
REF 1.000 1.00   P
RSO 1.181 1.00   P
#  2009  2 27 21 24  2.36  60.4907 -152.7737    6.010  0.60 0.00 0.00 0.00        730
RDN 1.060 1.00   P
RDWB 1.000 1.00   P
REF 1.860 1.00   P
RSO 1.060 1.00   P
#  2009  2 27  7 53  3.32  60.4793 -152.7762    4.940  0.10 0.00 0.00 0.00        731
RDWB 1.260 1.00   P
REF 1.200 1.00   P
RSO 1.000 1.00   P
#  2009  2  1 18 49 12.10  60.4998 -152.7767    3.370  0.80 0.00 0.00 0.00        735
NCT 2.580 1.00   P
RDN 1.000 1.00   P
REF 1.300 1.00   P
RSO 1.240 1.00   P
#  2009  2 26  7 32 11.60  60.4717 -152.7213    2.240  0.40 0.00 0.00 0.00        736
RDN 2.220 1.00   P
RDWB 2.120 1.00   P
REF 1.000 1.00   P
RSO 1.581 1.00   P
#  2009  2 19  7 27 51.28  60.4933 -152.7535    3.860  0.40 0.00 0.00 0.00        737
NCT 2.630 1.00   P
RDJH 2.540 1.00   P
RDN 1.020 1.00   P
REF 1.000 1.00   P
RSO 1.470 1.00   P
#  2009  2  8 23 49 31.34  60.5042 -152.7687    1.400  0.20 0.00 0.00 0.00        738
NCT 2.520 1.00   P
RDN 1.000 1.00   P
REF 1.300 1.00   P
RSO 1.760 1.00   P
#  2009  2  5 22 53 27.44  60.3165 -152.6390   13.610  1.90 0.00 0.00 0.00        739
NCT 2.880 1.00   P
RDT 2.780 1.00   P
RSO 1.000 1.00   P
#  2009  2 18 19 37  2.02  60.4942 -152.7528    3.380  0.40 0.00 0.00 0.00        740
RDJH 5.000 1.00   S
RDN 1.000 1.00   P
REF 1.500 1.00   P
RSO 1.800 1.00   P
#  2009  2 21  5 47 23.78  60.4978 -152.7805    2.850  0.50 0.00 0.00 0.00        741
RDE 2.988 1.00   P
RDJH 2.440 1.00   P
RDN 1.000 1.00   P
REF 1.300 1.00   P
RSO 1.128 1.00   P
#  2009  2 27  7 22 26.80  60.5032 -152.7682    2.590  0.80 0.00 0.00 0.00        742
RDN 1.040 1.00   P
RDWB 1.140 1.00   P
REF 1.000 1.00   P
RSO 1.740 1.00   P
#  2009  2  8 11 19 46.32  60.4910 -152.7890    0.160  0.70 0.00 0.00 0.00        743
NCT 2.460 1.00   P
RDN 1.420 1.00   P
RED 1.340 1.00   P
REF 1.600 1.00   P
RSO 1.000 1.00   P
#  2009  2 22 14 39 50.50  60.4953 -152.7292    3.170  0.80 0.00 0.00 0.00        744
NCT 2.920 1.00   P
RDN 1.080 1.00   P
REF 1.000 1.00   P
RSO 1.280 1.00   P
#  2009  2  1  6 42  9.60  60.4738 -152.7460    2.440 -0.10 0.00 0.00 0.00        745
RDN 1.520 1.00   P
REF 1.640 1.00   P
RSO 1.000 1.00   P
#  2009  2 26  9 19 56.72  60.4813 -152.7767    6.240  0.90 0.00 0.00 0.00        746
RDN 1.159 1.00   P
RDWB 1.219 1.00   P
REF 1.139 1.00   P
RSO 1.000 1.00   P
#  2009  2 26  7 55 22.24  60.4938 -152.7915    7.770  0.10 0.00 0.00 0.00        752
RDN 1.000 1.00   P
RDWB 1.060 1.00   P
REF 1.100 1.00   P
RSO 1.061 1.00   P
#  2009  2  1  1 57 37.72  60.4780 -152.7305    6.200  0.70 0.00 0.00 0.00        758
RDN 1.440 1.00   P
REF 1.000 1.00   P
RSO 1.000 1.00   P
#  2009  2 26  6 59  7.48  60.4850 -152.7698    5.450  0.30 0.00 0.00 0.00        759
RDN 1.119 1.00   P
RDWB 1.259 1.00   P
REF 1.139 1.00   P
RSO 1.000 1.00   P
#  2009  2  8  9 20 41.90  60.4865 -152.7422    5.530  0.60 0.00 0.00 0.00        764
RDN 1.100 1.00   P
REF 1.000 1.00   P
RSO 1.120 1.00   P
#  2009  2 26 11  5 49.44  60.5112 -152.7132    4.340  0.50 0.00 0.00 0.00        765
RDN 1.000 1.00   P
RDWB 1.840 1.00   P
REF 1.000 1.00   P
RSO 1.981 1.00   P
#  2009  2 26 11 52 35.80  60.4743 -152.7743    4.400  0.90 0.00 0.00 0.00        766
RDJH 2.559 1.00   P
RDN 1.099 1.00   P
RDWB 1.159 1.00   P
REF 1.079 1.00   P
RSO 1.000 1.00   P
#  2009  2  1 23 23  3.68  60.5172 -152.7317    6.370  0.10 0.00 0.00 0.00        767
NCT 2.500 1.00   P
RDN 1.000 1.00   P
REF 1.160 1.00   P
RSO 1.900 1.00   P
#  2009  2 19  9 41 35.20  60.5067 -152.7470    3.950  0.40 0.00 0.00 0.00        775
NCT 2.550 1.00   P
RDJH 4.020 1.00   S
RDN 1.000 1.00   P
REF 1.320 1.00   P
RSO 1.490 1.00   P
#  2009  2 26  3  3 23.72  60.5013 -152.6807   11.510  1.00 0.00 0.00 0.00        776
RDN 1.000 1.00   P
RDWB 3.400 1.00   S
REF 2.380 1.00   S
REF 1.040 1.00   P
RSO 1.601 1.00   P
#  2009  2 15  6 39 36.84  60.5648 -152.8438   39.240  1.10 0.00 0.00 0.00        777
NCT 1.520 1.00   P
RDJH 1.499 1.00   P
RDN 1.179 1.00   P
REF 6.539 1.00   S
#  2009  2 21  8 40 34.60  60.5030 -152.7340    3.260  0.10 0.00 0.00 0.00        778
RDJH 4.320 1.00   S
RDN 1.000 1.00   P
REF 1.300 1.00   P
RSO 1.428 1.00   P
#  2009  2  2 15 35 30.10  60.4990 -152.7843    1.430  0.10 0.00 0.00 0.00        779
NCT 2.560 1.00   P
RDN 1.000 1.00   P
REF 1.280 1.00   P
RSO 1.260 1.00   P
#  2009  2 16  2 22 57.90  60.4728 -152.7402    5.800  0.10 0.00 0.00 0.00        780
NCT 2.600 1.00   P
RDJH 2.660 1.00   P
RDN 1.020 1.00   P
REF 1.100 1.00   P
RSO 1.000 1.00   P
#  2009  2 26 18 44 12.96  60.5008 -152.7855    7.640  0.90 0.00 0.00 0.00        781
RDN 1.000 1.00   P
RDWB 2.100 1.00   S
REF 2.360 1.00   S
REF 1.140 1.00   P
RSO 1.341 1.00   P
#  2009  2  9  2 32 14.06  60.4982 -152.7667    2.840  0.30 0.00 0.00 0.00        783
NCT 2.420 1.00   P
RDN 1.000 1.00   P
REF 1.300 1.00   P
RSO 1.260 1.00   P
#  2009  2  8  8 47 51.82  60.4905 -152.7670    3.180  0.70 0.00 0.00 0.00        786
NCT 2.460 1.00   P
RDN 1.000 1.00   P
REF 1.060 1.00   P
RSO 1.040 1.00   P
#  2009  2 22 11 14  8.14  60.5073 -152.7435    4.080  0.40 0.00 0.00 0.00        788
RDJH 2.520 1.00   P
RDN 1.000 1.00   P
REF 1.140 1.00   P
RSO 1.700 1.00   P
#  2009  2 28 12 57  5.12  60.4933 -152.7888    3.530  0.50 0.00 0.00 0.00        789
RDJH 4.340 1.00   S
RDN 1.020 1.00   P
RDWB 1.040 1.00   P
REF 1.000 1.00   P
RSO 1.261 1.00   P
#  2009  2 26 17  0  5.62  60.5083 -152.7872    4.960 -0.10 0.00 0.00 0.00        790
RDN 1.000 1.00   P
RDWB 1.080 1.00   P
REF 1.260 1.00   P
#  2009  2 26 12 12 29.06  60.4850 -152.7568    7.880  0.60 0.00 0.00 0.00        791
RDN 1.019 1.00   P
RDWB 1.079 1.00   P
REF 1.119 1.00   P
RSO 1.000 1.00   P
#  2009  2 26  5  2 36.94  60.4907 -152.7645    5.700  0.20 0.00 0.00 0.00        798
RDN 1.059 1.00   P
RDWB 1.159 1.00   P
REF 1.019 1.00   P
RSO 1.000 1.00   P
#  2009  2 23 16 38 42.16  60.4792 -152.7465    6.190  0.60 0.00 0.00 0.00        799
RDN 1.000 1.00   P
REF 1.080 1.00   P
RSO 1.020 1.00   P
#  2009  2  2 12 40 48.98  60.5128 -152.7692    3.140  0.30 0.00 0.00 0.00        801
NCT 2.420 1.00   P
RDN 1.000 1.00   P
REF 1.480 1.00   P
RSO 1.660 1.00   P
#  2009  2  1 12 44 17.80  60.4928 -152.7643    3.530  0.10 0.00 0.00 0.00        802
RDN 1.000 1.00   P
REF 1.240 1.00   P
RSO 1.200 1.00   P
#  2009  2 15  0 29 42.52  60.4948 -152.7858    1.370  0.40 0.00 0.00 0.00        804
NCT 2.401 1.00   P
RDN 1.000 1.00   P
REF 1.120 1.00   P
RSO 1.221 1.00   P
#  2009  2 27  2  9 26.38  60.4700 -152.7743    4.040  0.70 0.00 0.00 0.00        805
RDN 1.060 1.00   P
RDWB 1.320 1.00   P
REF 1.300 1.00   P
RSO 1.000 1.00   P
#  2009  2  1  2  4 58.70  60.4923 -152.7610    4.030 -0.00 0.00 0.00 0.00        806
RDN 1.000 1.00   P
REF 1.280 1.00   P
RSO 1.320 1.00   P
#  2009  2  4  5 49 19.16  60.4968 -152.7583    3.710  0.60 0.00 0.00 0.00        808
NCT 2.461 1.00   P
RDN 1.000 1.00   P
REF 1.220 1.00   P
RSO 1.161 1.00   P
#  2009  2 26  2 53 35.04  60.5070 -152.7820    2.890  0.50 0.00 0.00 0.00        816
RDN 1.000 1.00   P
RDWB 1.060 1.00   P
REF 1.120 1.00   P
RSO 1.881 1.00   P
#  2009  2  4 19 50 12.24  60.5073 -152.7200    1.530  0.30 0.00 0.00 0.00        817
NCT 3.021 1.00   P
RDN 1.140 1.00   P
REF 1.000 1.00   P
RSO 1.741 1.00   P
#  2009  2 28 21 22  5.06  60.4997 -152.7773    9.780  0.70 0.00 0.00 0.00        818
RDN 1.080 1.00   P
RDWB 1.460 1.00   P
REF 1.000 1.00   P
RSO 1.481 1.00   P
#  2009  2  2 18 42 33.52  60.4917 -152.7493    3.460  0.30 0.00 0.00 0.00        819
RDN 1.000 1.00   P
REF 1.200 1.00   P
RSO 1.240 1.00   P
#  2009  2  5 21 56 59.68  60.5012 -152.7245    4.070  0.40 0.00 0.00 0.00        820
RDN 1.339 1.00   P
REF 1.439 1.00   P
RSO 1.000 1.00   P
