#  2009  3  9 15 22 58.40  60.4928 -152.7925    6.680  0.40 0.00 0.00 0.00       2465
RDN 1.000 1.00   P
RDWB 1.060 1.00   P
REF 1.500 1.00   P
RSO 1.021 1.00   P
#  2009  3 15  6 58 14.08  60.4920 -152.7982    7.350  0.50 0.00 0.00 0.00       2478
RDN 1.400 1.00   P
RDWB 1.000 1.00   P
REF 1.520 1.00   P
RSO 1.380 1.00   P
#  2009  3 23  3 16 56.84  60.4898 -152.7032    5.080  0.60 0.00 0.00 0.00       2480
RDN 1.440 1.00   P
REF 1.000 1.00   P
RSO 1.280 1.00   P
#  2009  3 13 16 30 16.08  60.4835 -152.7677    3.780 -0.20 0.00 0.00 0.00       2481
RDN 1.099 1.00   P
RDWB 1.179 1.00   P
REF 1.139 1.00   P
RSO 1.000 1.00   P
#  2009  3 23  1  9  9.12  60.4770 -152.7642    4.380  0.30 0.00 0.00 0.00       2487
RDN 1.500 1.00   P
REF 1.180 1.00   P
RSO 1.000 1.00   P
#  2009  3 23  2 54 59.20  60.4772 -152.7685    6.530 -0.10 0.00 0.00 0.00       2491
RDN 1.580 1.00   P
REF 1.000 1.00   P
RSO 1.100 1.00   P
#  2009  3 22 15 59 57.00  60.4898 -152.7645    3.430  0.40 0.00 0.00 0.00       2492
RDN 1.039 1.00   P
RDWB 1.139 1.00   P
REF 1.079 1.00   P
RSO 1.000 1.00   P
#  2009  3 31 10 27 44.84  60.4923 -152.7687    3.600  0.50 0.00 0.00 0.00       2493
RDN 1.020 1.00   P
RDWB 1.320 1.00   P
REF 1.000 1.00   P
#  2009  3 22 10 56 13.36  60.4905 -152.7653    3.520  0.80 0.00 0.00 0.00       2494
RDJH 5.340 1.00   S
RDN 1.000 1.00   P
RDWB 1.120 1.00   P
REF 1.780 1.00   S
REF 1.040 1.00   P
RSO 1.021 1.00   P
#  2009  3 22 13 22 16.36  60.4873 -152.7677    3.200  0.40 0.00 0.00 0.00       2495
RDJH 2.680 1.00   P
RDN 1.000 1.00   P
RDWB 1.300 1.00   P
REF 1.260 1.00   P
RSO 1.181 1.00   P
#  2009  3 23  4 22 31.24  60.4772 -152.7715    7.800  0.60 0.00 0.00 0.00       2496
RDN 1.800 1.00   P
REF 1.000 1.00   P
RSO 1.680 1.00   P
#  2009  3  8  9 52 51.46  60.5198 -152.7542    5.500  0.10 0.00 0.00 0.00       2498
RDN 1.000 1.00   P
RDWB 1.920 1.00   P
REF 1.480 1.00   P
RSO 2.060 1.00   P
#  2009  3 23 15  1 52.26  60.4938 -152.7752    0.240  0.20 0.00 0.00 0.00       2502
RDE 3.321 1.00   P
RDN 1.000 1.00   P
RED 1.600 1.00   P
REF 1.000 1.00   P
#  2009  3 16  2 49 27.44  60.4910 -152.7738    8.530  0.40 0.00 0.00 0.00       2503
RDN 1.079 1.00   P
RDWB 1.119 1.00   P
REF 1.099 1.00   P
RSO 1.000 1.00   P
#  2009  3 23  3 10 55.66  60.4895 -152.7753    4.370  0.40 0.00 0.00 0.00       2504
RDN 1.060 1.00   P
REF 2.000 1.00   S
REF 1.080 1.00   P
RSO 1.000 1.00   P
#  2009  3  5 14  7 17.46  60.4838 -152.7458    8.400 -0.10 0.00 0.00 0.00       2506
NCT 2.120 1.00   P
RDJH 4.000 1.00   S
RDN 1.000 1.00   P
RDWB 2.280 1.00   S
RDWB 1.100 1.00   P
REF 2.000 1.00   S
REF 1.000 1.00   P
RSO 1.100 1.00   P
#  2009  3 23 14 40 44.66  60.4905 -152.7678    2.880  0.30 0.00 0.00 0.00       2507
NCT 2.541 1.00   P
RDN 1.000 1.00   P
RED 2.920 1.00   S
REF 2.060 1.00   S
REF 1.040 1.00   P
#  2009  3 22 17 10 16.08  60.4985 -152.7698    5.270  0.40 0.00 0.00 0.00       2508
RDN 1.000 1.00   P
RDWB 1.100 1.00   P
REF 1.160 1.00   P
RSO 1.501 1.00   P
#  2009  3 22 16 55 30.24  60.4827 -152.7648    3.780  0.60 0.00 0.00 0.00       2514
NCT 2.659 1.00   P
RDJH 2.719 1.00   P
RDN 1.079 1.00   P
RDWB 1.179 1.00   P
REF 1.119 1.00   P
RSO 1.000 1.00   P
#  2009  3 22 21 41 47.12  60.4998 -152.7455    7.720 -0.40 0.00 0.00 0.00       2515
RDN 1.060 1.00   P
RDWB 1.100 1.00   P
REF 1.000 1.00   P
RSO 1.421 1.00   P
#  2009  3 21  4 46 10.70  60.4837 -152.7708    5.450  0.50 0.00 0.00 0.00       2516
RD03 1.659 1.00   P
RDN 1.159 1.00   P
RDWB 1.019 1.00   P
REF 1.079 1.00   P
RSO 1.000 1.00   P
#  2009  3 22 17 13 11.30  60.5117 -152.7798   10.470  0.20 0.00 0.00 0.00       2587
RDN 1.000 1.00   P
RDWB 1.660 1.00   P
REF 1.200 1.00   P
RSO 1.341 1.00   P
#  2009  3 12 14 50 29.70  60.4903 -152.7735    3.820  0.50 0.00 0.00 0.00       2591
RDJH 2.520 1.00   P
RDN 1.000 1.00   P
RDWB 1.140 1.00   P
REF 1.120 1.00   P
RSO 1.081 1.00   P
#  2009  3 22 20 13 20.32  60.5047 -152.7868    5.690 -0.00 0.00 0.00 0.00       2592
RDWB 1.660 1.00   S
REF 2.120 1.00   S
REF 1.100 1.00   P
RSO 1.601 1.00   P
#  2009  3 22 13 57 52.44  60.4663 -152.7810    5.700  0.30 0.00 0.00 0.00       2596
RDN 1.900 1.00   P
RDWB 1.000 1.00   P
REF 1.340 1.00   P
RSO 1.321 1.00   P
#  2009  3 22 23 44 42.26  60.4857 -152.7752    4.850  0.20 0.00 0.00 0.00       2599
RDN 1.140 1.00   P
RDWB 1.020 1.00   P
REF 1.000 1.00   P
RSO 1.701 1.00   P
#  2009  3 27  6 13 59.90  60.4923 -152.7680    2.860  1.70 0.00 0.00 0.00       2600
NCT 2.540 1.00   P
RDN 1.000 1.00   P
RDWB 1.820 1.00   S
RED 2.920 1.00   S
REF 1.840 1.00   S
REF 1.100 1.00   P
#  2009  3 23  2 21  0.24  60.5015 -152.7475    6.150 -0.60 0.00 0.00 0.00       2619
RDN 1.080 1.00   P
REF 1.000 1.00   P
RSO 1.560 1.00   P
#  2009  3 22 18 56 34.36  60.5132 -152.7748    6.110  0.30 0.00 0.00 0.00       2620
RDN 1.000 1.00   P
RDWB 1.240 1.00   P
REF 2.320 1.00   S
REF 1.060 1.00   P
RSO 1.641 1.00   P
#  2009  3 23  4 29 15.28  60.4957 -152.7763    1.590  0.10 0.00 0.00 0.00       2621
RDN 1.000 1.00   P
REF 1.160 1.00   P
RSO 1.560 1.00   P
#  2009  3 22 15  7 42.34  60.4895 -152.7700    3.270  0.50 0.00 0.00 0.00       2622
RD02 1.160 1.00   P
RDN 1.000 1.00   P
RDWB 1.780 1.00   S
REF 1.920 1.00   S
REF 1.040 1.00   P
RSO 1.021 1.00   P
#  2009  3 19  3 40 57.22  60.4888 -152.7803    4.230  0.10 0.00 0.00 0.00       2649
RDN 1.260 1.00   P
RDWB 1.000 1.00   P
REF 1.140 1.00   P
RSO 1.280 1.00   P
#  2009  3  9 18 25 19.16  60.4818 -152.7680    6.790  0.80 0.00 0.00 0.00       2650
RDN 1.120 1.00   P
RDWB 1.160 1.00   P
REF 1.000 1.00   P
RSO 1.181 1.00   P
#  2009  3 16  2 52 59.66  60.4828 -152.7817    4.320  0.30 0.00 0.00 0.00       2653
RDN 1.660 1.00   P
RDWB 1.000 1.00   P
REF 1.060 1.00   P
RSO 1.361 1.00   P
#  2009  3  1 23 43 54.00  60.4938 -152.7980    7.360  0.60 0.00 0.00 0.00       2655
RDN 1.016 1.00   P
RDWB 1.076 1.00   P
REF 1.236 1.00   P
RSO 1.000 1.00   P
#  2009  3 15  5 58  6.36  60.4830 -152.7602    3.320  0.50 0.00 0.00 0.00       2656
RDN 1.220 1.00   P
RDWB 1.340 1.00   P
REF 1.040 1.00   P
RSO 1.000 1.00   P
#  2009  3  9  9 58 50.98  60.4978 -152.7097   12.390  1.10 0.00 0.00 0.00       2657
RDN 1.000 1.00   P
RDWB 1.060 1.00   P
RSO 1.161 1.00   P
#  2009  3 27  4 34 26.92  60.4857 -152.7677    3.380  1.50 0.00 0.00 0.00       2658
NCT 2.560 1.00   P
RDN 1.000 1.00   P
RDWB 1.820 1.00   S
RED 2.800 1.00   S
REF 1.820 1.00   S
REF 1.080 1.00   P
#  2009  3 15 23 55 58.94  60.4935 -152.7610    7.710  0.30 0.00 0.00 0.00       2672
RDN 1.160 1.00   P
RDWB 1.200 1.00   P
REF 1.000 1.00   P
RSO 1.240 1.00   P
#  2009  3 16  4 33 59.88  60.5107 -152.7672    6.560  0.50 0.00 0.00 0.00       2673
RDN 1.000 1.00   P
RDWB 1.140 1.00   P
REF 1.280 1.00   P
RSO 1.481 1.00   P
#  2009  3  2 20 38 22.92  60.5080 -152.7822    2.330 -0.40 0.00 0.00 0.00       2675
RDN 1.000 1.00   P
RDWB 1.260 1.00   P
REF 2.480 1.00   S
REF 1.720 1.00   P
RSO 1.640 1.00   P
#  2009  3 25 15 35 43.62  60.4905 -152.7690    2.710  0.70 0.00 0.00 0.00       2676
RDN 1.000 1.00   P
RDWB 1.020 1.00   P
#  2009  3 28 15 58 55.20  60.4973 -152.7427    4.930  1.00 0.00 0.00 0.00       2677
RDWB 2.300 1.00   S
REF 1.000 1.00   P
#  2009  3 22 20  7 51.76  60.4845 -152.7658    5.410 -0.30 0.00 0.00 0.00       2678
RDWB 1.020 1.00   P
REF 1.000 1.00   P
RSO 1.261 1.00   P
#  2009  3 11 19 20 45.04  60.4788 -152.7583    3.140  0.40 0.00 0.00 0.00       2682
RDJH 4.760 1.00   S
RDN 1.320 1.00   P
RDWB 1.160 1.00   P
REF 1.000 1.00   P
RSO 1.020 1.00   P
#  2009  3 22  4 13  2.44  60.4897 -152.7745    3.430  0.30 0.00 0.00 0.00       2683
RDN 1.059 1.00   P
RDWB 1.099 1.00   P
REF 1.159 1.00   P
RSO 1.000 1.00   P
#  2009  3 22 23 40 59.94  60.5160 -152.7740    7.840  0.10 0.00 0.00 0.00       2684
RDN 1.000 1.00   P
RDWB 1.080 1.00   P
REF 1.180 1.00   P
RSO 1.221 1.00   P
#  2009  3 22 22 52 11.68  60.4828 -152.7727    4.500 -0.00 0.00 0.00 0.00       2686
RDN 1.839 1.00   P
RDWB 1.519 1.00   P
REF 1.539 1.00   P
RSO 1.000 1.00   P
#  2009  3 22  7 33 30.30  60.5002 -152.7680    4.220  0.40 0.00 0.00 0.00       2694
RDN 1.000 1.00   P
RDWB 1.080 1.00   P
REF 1.060 1.00   P
RSO 1.361 1.00   P
#  2009  3  9 12 43 17.88  60.4812 -152.8193    8.930  0.70 0.00 0.00 0.00       2695
RDN 1.099 1.00   P
RDWB 1.159 1.00   P
REF 1.079 1.00   P
RSO 1.000 1.00   P
#  2009  3 22 18 17 48.70  60.4920 -152.7673    3.750  0.40 0.00 0.00 0.00       2704
RDN 1.220 1.00   P
RDWB 1.000 1.00   P
REF 1.080 1.00   P
RSO 1.541 1.00   P
#  2009  3 22 19 41 39.36  60.4920 -152.7725    3.500  0.80 0.00 0.00 0.00       2708
RDE 3.020 1.00   P
RDJH 2.500 1.00   P
RDN 1.000 1.00   P
RDWB 1.000 1.00   P
REF 1.080 1.00   P
RSO 1.141 1.00   P
#  2009  3 22 12 57  6.78  60.4760 -152.7612    5.350  0.20 0.00 0.00 0.00       2709
RDN 1.180 1.00   P
RDWB 1.000 1.00   P
REF 1.060 1.00   P
RSO 1.041 1.00   P
#  2009  3 23  2  1 22.80  60.4838 -152.7773    5.370 -0.40 0.00 0.00 0.00       2710
RDN 1.460 1.00   P
REF 1.000 1.00   P
RSO 1.180 1.00   P
#  2009  3  7  6 29 24.48  60.4843 -152.7527    8.670  0.80 0.00 0.00 0.00       2715
NCT 2.100 1.00   P
RDN 1.060 1.00   P
RDWB 2.220 1.00   S
RED 2.620 1.00   S
REF 2.140 1.00   S
REF 1.000 1.00   P
RSO 1.060 1.00   P
#  2009  3 22 16 55 58.78  60.4915 -152.7643    5.630 -0.00 0.00 0.00 0.00       2716
RDN 1.000 1.00   P
RDWB 1.340 1.00   P
REF 1.320 1.00   P
RSO 1.321 1.00   P
#  2009  3 22  9 31 48.88  60.4905 -152.7800    5.660  0.80 0.00 0.00 0.00       2717
RDN 1.000 1.00   P
RDWB 1.020 1.00   P
REF 1.120 1.00   P
RSO 1.001 1.00   P
#  2009  3 22 20  6 58.16  60.4943 -152.7598    6.180 -0.00 0.00 0.00 0.00       2719
RDN 1.280 1.00   P
RDWB 1.000 1.00   P
REF 1.060 1.00   P
RSO 1.441 1.00   P
#  2009  3 22 22 48 58.22  60.4980 -152.7860    5.480 -0.20 0.00 0.00 0.00       2721
RDN 1.080 1.00   P
RDWB 1.000 1.00   P
REF 1.060 1.00   P
RSO 1.441 1.00   P
#  2009  3 23  4 55 24.14  60.4967 -152.7717    3.730 -0.00 0.00 0.00 0.00       2723
RDN 1.000 1.00   P
REF 1.140 1.00   P
RSO 1.740 1.00   P
#  2009  3 23  5 51 58.54  60.4978 -152.7655    4.220  1.30 0.00 0.00 0.00       2724
NCT 3.181 1.00   P
RDN 1.300 1.00   P
REF 1.000 1.00   P
#  2009  3 22 15 12  5.38  60.4862 -152.7672    3.850 -0.20 0.00 0.00 0.00       2725
RDN 1.260 1.00   P
RDWB 1.000 1.00   P
REF 1.740 1.00   S
REF 1.020 1.00   P
RSO 1.321 1.00   P
#  2009  3 23  3 57 24.86  60.4888 -152.7613    3.980  0.00 0.00 0.00 0.00       2726
RDN 1.640 1.00   P
REF 1.000 1.00   P
RSO 1.660 1.00   P
#  2009  3 22 11  9 37.90  60.4767 -152.7705    5.380  0.20 0.00 0.00 0.00       2727
RDJH 2.560 1.00   P
RDN 1.320 1.00   P
RDWB 1.000 1.00   P
REF 1.120 1.00   P
RSO 1.161 1.00   P
#  2009  3 15 19 40 25.48  60.4660 -152.7513   10.150  0.80 0.00 0.00 0.00       2728
RDN 1.580 1.00   P
RDWB 1.400 1.00   P
REF 1.260 1.00   P
RSO 1.000 1.00   P
#  2009  3 23  2 42 39.40  60.5065 -152.7477    5.770  0.70 0.00 0.00 0.00       2731
RDN 1.000 1.00   P
REF 1.100 1.00   P
RSO 1.420 1.00   P
#  2009  3 17 15 25 27.16  60.4833 -152.7687    6.430 -0.10 0.00 0.00 0.00       2732
RDN 1.111 1.00   P
RDWB 1.310 1.00   P
REF 1.030 1.00   P
RSO 1.000 1.00   P
#  2009  3 14 11 23 59.04  60.5085 -152.7782    4.390 -0.30 0.00 0.00 0.00       2733
RDN 1.000 1.00   P
RDWB 1.200 1.00   P
REF 1.320 1.00   P
RSO 1.241 1.00   P
#  2009  3 23  4 52 22.68  60.4883 -152.7842    7.010  0.40 0.00 0.00 0.00       2746
RDN 1.280 1.00   P
REF 1.000 1.00   P
RSO 1.220 1.00   P
#  2009  3 22 19 37 23.88  60.4735 -152.7678    4.040 -0.40 0.00 0.00 0.00       2755
RDN 1.559 1.00   P
RDWB 1.079 1.00   P
REF 1.099 1.00   P
RSO 1.000 1.00   P
#  2009  3 23  0 42 41.32  60.4878 -152.7682    3.630  0.30 0.00 0.00 0.00       2756
RDN 1.540 1.00   P
REF 1.000 1.00   P
RSO 1.440 1.00   P
#  2009  3 22 14 49 37.66  60.4867 -152.7788    5.740  0.60 0.00 0.00 0.00       2757
RDN 1.620 1.00   P
RDWB 1.000 1.00   P
REF 1.200 1.00   P
RSO 1.561 1.00   P
#  2009  3 22 20 55 28.54  60.4833 -152.7658    4.490  0.50 0.00 0.00 0.00       2758
RDWB 1.239 1.00   P
REF 1.259 1.00   P
RSO 1.000 1.00   P
#  2009  3 21 20 14 37.36  60.4918 -152.7625    3.200  0.70 0.00 0.00 0.00       2759
NCT 2.621 1.00   P
RDN 1.000 1.00   P
RDWB 1.140 1.00   P
REF 1.060 1.00   P
RSO 1.021 1.00   P
#  2009  3 22 10 18 11.74  60.4742 -152.7625    4.850 -0.10 0.00 0.00 0.00       2760
RDN 1.439 1.00   P
RDWB 1.199 1.00   P
REF 1.159 1.00   P
RSO 1.000 1.00   P
#  2009  3 22 10  9 59.00  60.4882 -152.7707    4.950  0.40 0.00 0.00 0.00       2771
RDN 1.019 1.00   P
RDWB 1.079 1.00   P
REF 1.859 1.00   S
REF 1.179 1.00   P
RSO 1.000 1.00   P
#  2009  3 22 18 53 32.20  60.4907 -152.7642    5.590 -0.40 0.00 0.00 0.00       2773
RDN 1.000 1.00   P
REF 1.860 1.00   S
REF 1.100 1.00   P
RSO 1.061 1.00   P
#  2009  3 22 14 13 56.86  60.5110 -152.7305    5.190  0.80 0.00 0.00 0.00       2774
RDWB 1.120 1.00   P
REF 1.000 1.00   P
RSO 1.561 1.00   P
#  2009  3 13 19 18 41.12  60.4772 -152.7752    5.780  0.40 0.00 0.00 0.00       2775
RDN 1.000 1.00   P
RDWB 1.040 1.00   P
REF 1.040 1.00   P
RSO 1.001 1.00   P
#  2009  3 23  3 24 35.74  60.4783 -152.7292    2.970 -0.70 0.00 0.00 0.00       2776
RDN 1.740 1.00   P
REF 1.000 1.00   P
RSO 1.380 1.00   P
#  2009  3 17 12 47 45.20  60.4720 -152.7833    7.550  0.50 0.00 0.00 0.00       2778
RDN 2.020 1.00   P
RDWB 1.000 1.00   P
REF 1.140 1.00   P
RSO 1.030 1.00   P
#  2009  3 22  9 48 57.36  60.4668 -152.7810    7.990  0.50 0.00 0.00 0.00       2791
RDN 1.580 1.00   P
RDWB 1.000 1.00   P
REF 1.140 1.00   P
RSO 1.541 1.00   P
#  2009  3 21 22 22  1.38  60.4833 -152.7678    3.580  0.40 0.00 0.00 0.00       2792
RDJH 5.639 1.00   S
RDN 1.059 1.00   P
RDWB 1.179 1.00   P
REF 1.179 1.00   P
RSO 1.000 1.00   P
#  2009  3 10 21 31 17.52  60.4817 -152.7838    6.540  0.10 0.00 0.00 0.00       2793
RDN 1.080 1.00   P
RDWB 1.120 1.00   P
REF 1.140 1.00   P
RSO 1.000 1.00   P
#  2009  3 22 10 28 11.18  60.4948 -152.7777    5.180  0.40 0.00 0.00 0.00       2795
RDN 1.160 1.00   P
RDWB 1.000 1.00   P
REF 1.080 1.00   P
RSO 1.321 1.00   P
#  2009  3 22 16 50 57.74  60.4730 -152.7735    9.420  0.90 0.00 0.00 0.00       2796
RDN 1.239 1.00   P
RDWB 1.059 1.00   P
REF 1.239 1.00   P
RSO 1.000 1.00   P
#  2009  3  6  3  5 53.50  60.5045 -152.7847    5.850  0.10 0.00 0.00 0.00       2797
RDN 1.000 1.00   P
RDWB 1.140 1.00   P
REF 1.240 1.00   P
RSO 1.301 1.00   P
#  2009  3 25  8 13 29.60  60.4905 -152.7722    2.950  0.60 0.00 0.00 0.00       2798
NCT 2.480 1.00   P
RDN 1.000 1.00   P
RDWB 1.000 1.00   P
#  2009  3 22  9 18 17.90  60.4980 -152.7658    5.300  0.40 0.00 0.00 0.00       2799
RDN 1.359 1.00   P
RDWB 1.519 1.00   P
REF 1.479 1.00   P
RSO 1.000 1.00   P
#  2009  3 21 22 53 24.62  60.4872 -152.7700    6.280  0.30 0.00 0.00 0.00       2805
RD03 1.460 1.00   P
RDN 1.000 1.00   P
RDWB 1.080 1.00   P
REF 1.100 1.00   P
RSO 1.181 1.00   P
#  2009  3 21 23  4 11.52  60.4848 -152.7808    5.380 -0.00 0.00 0.00 0.00       2812
RDN 1.000 1.00   P
RDWB 1.060 1.00   P
REF 1.020 1.00   P
RSO 1.321 1.00   P
#  2009  3 22 18 59 35.94  60.4835 -152.7670    3.720  0.50 0.00 0.00 0.00       2814
RDN 1.079 1.00   P
RDWB 1.199 1.00   P
REF 1.119 1.00   P
RSO 1.000 1.00   P
#  2009  3 22 22 50 42.60  60.4865 -152.7635    5.560 -0.40 0.00 0.00 0.00       2815
RDN 1.400 1.00   P
RDWB 1.020 1.00   P
REF 1.000 1.00   P
RSO 1.141 1.00   P
#  2009  3 22 19 57  6.46  60.4893 -152.7695    3.160  1.40 0.00 0.00 0.00       2816
NCT 2.539 1.00   P
RDJH 4.699 1.00   S
RDN 1.039 1.00   P
RDWB 1.879 1.00   S
REF 1.919 1.00   S
REF 1.139 1.00   P
RSO 1.000 1.00   P
#  2009  3 22 18 32  9.84  60.5000 -152.7728    3.840 -0.30 0.00 0.00 0.00       2817
RDN 1.120 1.00   P
RDWB 1.000 1.00   P
REF 1.080 1.00   P
RSO 1.321 1.00   P
#  2009  3 30 11 12 22.70  60.5033 -152.7835    0.020  1.00 0.00 0.00 0.00       2818
NCT 2.580 1.00   P
RDN 1.280 1.00   P
RDWB 2.180 1.00   S
REF 2.680 1.00   S
REF 1.000 1.00   P
#  2009  3 12  3 34 13.84  60.4947 -152.7707    3.620 -0.00 0.00 0.00 0.00       2819
RDN 1.000 1.00   P
RDWB 1.140 1.00   P
REF 1.080 1.00   P
RSO 1.481 1.00   P
#  2009  3 22 20 21 20.60  60.4918 -152.7745    3.310  2.00 0.00 0.00 0.00       2820
RDE 3.000 1.00   P
RDJH 2.480 1.00   P
RDN 1.000 1.00   P
RDWB 1.800 1.00   S
REF 2.120 1.00   S
REF 1.100 1.00   P
RSO 1.001 1.00   P
#  2009  3 22 19 51 20.34  60.4990 -152.7495    6.710  0.50 0.00 0.00 0.00       2821
RDN 1.340 1.00   P
RDWB 1.000 1.00   P
REF 1.000 1.00   P
RSO 1.721 1.00   P
#  2009  3  2  7 24 59.64  60.4643 -152.7788    9.340  0.60 0.00 0.00 0.00       2827
RDN 1.380 1.00   P
RDWB 1.020 1.00   P
REF 1.040 1.00   P
RSO 1.000 1.00   P
#  2009  3 27  6 16 43.62  60.4850 -152.7688    4.120  0.70 0.00 0.00 0.00       2830
NCT 2.580 1.00   P
RDN 1.000 1.00   P
RDWB 1.040 1.00   P
REF 1.280 1.00   P
#  2009  3 23  3 37 48.08  60.4887 -152.7623    5.470 -0.10 0.00 0.00 0.00       2832
RDN 1.000 1.00   P
REF 1.160 1.00   P
RSO 1.400 1.00   P
#  2009  3 23  3  1 42.58  60.4898 -152.7700    3.450  0.40 0.00 0.00 0.00       2838
NCT 2.481 1.00   P
RDN 1.000 1.00   P
REF 1.100 1.00   P
RSO 1.060 1.00   P
#  2009  3 23  2 53 14.00  60.4837 -152.7163    2.800 -0.70 0.00 0.00 0.00       2841
RDN 2.220 1.00   P
REF 1.000 1.00   P
RSO 2.220 1.00   P
#  2009  3 23  4  3 17.52  60.4787 -152.7588    6.130  0.20 0.00 0.00 0.00       2842
RDN 1.040 1.00   P
REF 1.000 1.00   P
RSO 1.280 1.00   P
#  2009  3 22 22 59 56.08  60.4983 -152.7497    9.700  0.30 0.00 0.00 0.00       2843
RDN 1.000 1.00   P
RDWB 1.580 1.00   P
REF 1.560 1.00   P
RSO 2.341 1.00   P
#  2009  3 24  6 57 54.82  60.4895 -152.7678    3.570 -0.20 0.00 0.00 0.00       2846
NCT 2.440 1.00   P
RDN 1.000 1.00   P
REF 1.040 1.00   P
#  2009  3 22  7 16  4.62  60.4895 -152.7705    6.840  0.20 0.00 0.00 0.00       2847
RDN 1.000 1.00   P
RDWB 1.120 1.00   P
REF 2.140 1.00   S
REF 1.160 1.00   P
RSO 1.001 1.00   P
#  2009  3 23  3 10 20.16  60.4972 -152.7780    4.890  0.50 0.00 0.00 0.00       2848
RDN 1.100 1.00   P
REF 1.000 1.00   P
RSO 1.180 1.00   P
#  2009  3 22 18 16 44.08  60.4858 -152.7837    5.340 -0.00 0.00 0.00 0.00       2849
RDN 1.460 1.00   P
RDWB 1.000 1.00   P
REF 1.080 1.00   P
RSO 1.321 1.00   P
#  2009  3 22 17 33 25.42  60.4902 -152.7818    6.060 -0.60 0.00 0.00 0.00       2851
RDN 1.120 1.00   P
RDWB 1.000 1.00   P
REF 1.100 1.00   P
#  2009  3 22 14  9  8.72  60.4965 -152.7760    3.730  0.40 0.00 0.00 0.00       2853
RDN 1.000 1.00   P
RDWB 1.020 1.00   P
REF 1.060 1.00   P
RSO 1.761 1.00   P
#  2009  3  1  4  0 56.62  60.4653 -152.7763    6.060 -0.00 0.00 0.00 0.00       2856
RDN 1.556 1.00   P
RDWB 1.636 1.00   P
REF 1.696 1.00   P
RSO 1.000 1.00   P
#  2009  3 23  4  1 21.44  60.4963 -152.7772    3.510  0.10 0.00 0.00 0.00       2861
RDN 1.020 1.00   P
REF 1.000 1.00   P
RSO 1.440 1.00   P
#  2009  3 23  2 50  5.28  60.4873 -152.7663    5.100 -0.10 0.00 0.00 0.00       2863
RDN 1.000 1.00   P
REF 1.140 1.00   P
RSO 1.560 1.00   P
#  2009  3 13 16 46 21.64  60.4743 -152.7695    2.500  0.40 0.00 0.00 0.00       2864
NCT 3.220 1.00   P
RDJH 2.619 1.00   P
RDN 1.339 1.00   P
RDWB 2.039 1.00   S
REF 2.099 1.00   S
REF 1.199 1.00   P
RSO 1.000 1.00   P
#  2009  3 17  2  2 58.12  60.4817 -152.7650    6.690 -0.00 0.00 0.00 0.00       2865
RDN 1.000 1.00   P
RDWB 1.240 1.00   P
REF 1.180 1.00   P
RSO 1.810 1.00   P
#  2009  3 22 17 23 21.50  60.5017 -152.7843    5.430 -0.30 0.00 0.00 0.00       2866
RDN 1.120 1.00   P
RDWB 1.000 1.00   P
REF 1.120 1.00   P
RSO 1.621 1.00   P
#  2009  3 21  9 59 55.36  60.4960 -152.7677    2.250 -0.00 0.00 0.00 0.00       2867
RDN 1.000 1.00   P
RDWB 1.060 1.00   P
REF 1.000 1.00   P
RSO 1.201 1.00   P
#  2009  3 22 18 52 55.32  60.4845 -152.7722    3.600  0.80 0.00 0.00 0.00       2868
RDE 2.999 1.00   P
RDJH 2.579 1.00   P
RDN 1.139 1.00   P
RDWB 1.159 1.00   P
REF 2.099 1.00   S
REF 1.179 1.00   P
RSO 1.000 1.00   P
#  2009  3 22 21 13 45.90  60.4973 -152.7827    7.070  0.50 0.00 0.00 0.00       2869
RDN 1.080 1.00   P
RDWB 1.000 1.00   P
REF 1.280 1.00   P
RSO 1.561 1.00   P
