#  2009  3 22 11 59 38.38  60.4957 -152.7665    3.380  0.40 0.00 0.00 0.00       1038
RDN 1.000 1.00   P
RDWB 1.080 1.00   P
REF 1.040 1.00   P
RSO 1.321 1.00   P
#  2009  3  6 15 55 35.08  60.4780 -152.7092    4.870  0.30 0.00 0.00 0.00       1040
RDN 1.640 1.00   P
RDWB 2.340 1.00   P
REF 1.000 1.00   P
RSO 1.421 1.00   P
#  2009  3 22 15 58 20.32  60.4945 -152.7605    6.850  0.10 0.00 0.00 0.00       1041
RDN 1.100 1.00   P
RDWB 1.820 1.00   P
REF 1.000 1.00   P
RSO 1.481 1.00   P
#  2009  3 23  7 55 49.72  60.4933 -152.7697    3.740  0.30 0.00 0.00 0.00       1057
RD02 3.340 1.00   P
RDN 2.780 1.00   P
REF 3.580 1.00   S
REF 2.840 1.00   P
RSO 2.860 1.00   P
#  2009  3 15 17 53 10.42  60.4795 -152.7517    7.620  0.40 0.00 0.00 0.00       1058
RDN 1.380 1.00   P
RDWB 1.560 1.00   P
REF 1.580 1.00   P
RSO 1.000 1.00   P
#  2009  3 19  2 14 23.52  60.4873 -152.7713    4.190 -0.00 0.00 0.00 0.00       1059
RDN 1.100 1.00   P
RDWB 1.280 1.00   P
REF 1.000 1.00   P
RSO 1.220 1.00   P
#  2009  3 31  1  2 57.56  60.4950 -152.7525    4.960  0.90 0.00 0.00 0.00       1060
NCT 2.300 1.00   P
RDN 1.000 1.00   P
RDWB 1.240 1.00   P
RED 1.660 1.00   P
REF 1.660 1.00   S
REF 1.060 1.00   P
#  2009  3 23  0 45 43.64  60.4905 -152.7705    3.580  1.20 0.00 0.00 0.00       1062
NCT 2.601 1.00   P
RDN 1.020 1.00   P
REF 2.140 1.00   S
REF 1.140 1.00   P
RSO 1.000 1.00   P
#  2009  3 23  3  4 35.56  60.5022 -152.7732    5.300 -0.10 0.00 0.00 0.00       1065
RDN 1.000 1.00   P
REF 1.040 1.00   P
RSO 1.380 1.00   P
#  2009  3 21 21 29 23.20  60.4873 -152.7715    3.220 -0.00 0.00 0.00 0.00       1066
RDJH 3.159 1.00   P
RDN 1.159 1.00   P
RDWB 1.159 1.00   P
REF 1.179 1.00   P
RSO 1.000 1.00   P
#  2009  3 16 13 40 52.70  60.5038 -152.7870    0.430  0.80 0.00 0.00 0.00       1068
NCT 2.300 1.00   P
RDJH 2.499 1.00   P
RDN 1.039 1.00   P
REF 2.039 1.00   S
REF 1.079 1.00   P
RSO 1.000 1.00   P
#  2009  3 22 11 12 28.20  60.4827 -152.7630    3.710  0.60 0.00 0.00 0.00       1069
RD01 4.640 1.00   P
RD03 1.540 1.00   P
RDN 1.100 1.00   P
RDWB 2.060 1.00   S
REF 1.880 1.00   S
REF 1.140 1.00   P
RSO 1.021 1.00   P
#  2009  3 13 20  5 25.50  60.5013 -152.7742    5.100 -0.10 0.00 0.00 0.00       1070
RDN 1.099 1.00   P
RDWB 1.319 1.00   P
REF 1.379 1.00   P
RSO 1.000 1.00   P
#  2009  3 22 16 43 42.12  60.4908 -152.7715    3.600 -0.20 0.00 0.00 0.00       1071
RDWB 1.000 1.00   P
REF 1.020 1.00   P
RSO 1.421 1.00   P
#  2009  3 22 16 50 22.26  60.4670 -152.7848    5.340  1.20 0.00 0.00 0.00       1115
NCT 2.539 1.00   P
RDJH 2.479 1.00   P
RDN 1.039 1.00   P
RDWB 1.039 1.00   P
REF 2.479 1.00   S
REF 1.159 1.00   P
RSO 1.000 1.00   P
#  2009  3 31 22 58  4.62  60.5005 -152.7605    0.010  1.10 0.00 0.00 0.00       1116
NCT 2.700 1.00   P
RDN 1.000 1.00   P
RDWB 1.300 1.00   P
RED 1.980 1.00   P
REF 1.280 1.00   P
#  2009  3 22  0 24 40.10  60.4757 -152.7642    5.390  0.40 0.00 0.00 0.00       1117
RDN 1.699 1.00   P
RDWB 1.179 1.00   P
REF 1.139 1.00   P
RSO 1.000 1.00   P
#  2009  3 22 16 33 35.54  60.4857 -152.7670    3.950  0.20 0.00 0.00 0.00       1141
RDN 1.220 1.00   P
RDWB 1.000 1.00   P
REF 1.000 1.00   P
RSO 1.221 1.00   P
#  2009  3 19  9 57 58.74  60.4937 -152.7730    5.610  0.30 0.00 0.00 0.00       1142
RDN 1.040 1.00   P
RDWB 1.320 1.00   P
REF 1.180 1.00   P
RSO 1.000 1.00   P
#  2009  3 22 15 37  1.14  60.4872 -152.7690    2.870 -0.00 0.00 0.00 0.00       1146
RDN 1.139 1.00   P
RDWB 1.179 1.00   P
REF 1.899 1.00   S
REF 1.179 1.00   P
RSO 1.000 1.00   P
#  2009  3 23  1 51  9.60  60.4783 -152.7670    8.330  0.50 0.00 0.00 0.00       1192
RDN 1.580 1.00   P
REF 1.000 1.00   P
RSO 1.720 1.00   P
#  2009  3 22 14 48  7.00  60.4793 -152.7865    5.730  1.00 0.00 0.00 0.00       1193
RDJH 2.499 1.00   P
RDN 1.079 1.00   P
RDWB 1.079 1.00   P
REF 1.179 1.00   P
RSO 1.000 1.00   P
#  2009  3 12 17  3 31.78  60.4880 -152.7637    1.250 -0.10 0.00 0.00 0.00       1194
RDN 1.680 1.00   P
RDWB 1.400 1.00   P
REF 1.000 1.00   P
RSO 1.421 1.00   P
#  2009  3 22 23 56  2.04  60.4932 -152.7682    5.700  0.40 0.00 0.00 0.00       1195
RDWB 1.000 1.00   P
REF 1.020 1.00   P
RSO 1.701 1.00   P
#  2009  3 22 10 45  5.46  60.4830 -152.7757    2.730  0.50 0.00 0.00 0.00       1224
RDN 1.140 1.00   P
RDWB 1.000 1.00   P
REF 1.940 1.00   S
REF 1.160 1.00   P
RSO 1.421 1.00   P
#  2009  3 22 22 50  6.14  60.4888 -152.7668    4.380 -0.50 0.00 0.00 0.00       1225
RDWB 1.000 1.00   P
REF 1.040 1.00   P
RSO 1.141 1.00   P
#  2009  3 23  1 21 36.88  60.4837 -152.7747    5.720  0.50 0.00 0.00 0.00       1268
RDN 1.320 1.00   P
REF 1.100 1.00   P
RSO 1.000 1.00   P
#  2009  3 22 20 25 58.36  60.4847 -152.7722    4.370  0.10 0.00 0.00 0.00       1269
RDN 1.240 1.00   P
RDWB 1.000 1.00   P
REF 1.020 1.00   P
RSO 1.321 1.00   P
#  2009  3 17  2  3 15.42  60.4658 -152.7758    7.270  0.30 0.00 0.00 0.00       1271
RDN 1.580 1.00   P
RDWB 1.300 1.00   P
REF 1.000 1.00   P
RSO 1.609 1.00   P
#  2009  3 21 23 49 30.78  60.4845 -152.7657    3.430  0.60 0.00 0.00 0.00       1272
RDJH 4.579 1.00   S
RDN 1.019 1.00   P
RDWB 1.159 1.00   P
REF 1.119 1.00   P
RSO 1.000 1.00   P
#  2009  3 18 18 44 53.66  60.4873 -152.7708    6.760  0.50 0.00 0.00 0.00       1275
RDN 1.320 1.00   P
RDWB 1.360 1.00   P
REF 1.000 1.00   P
RSO 1.581 1.00   P
#  2009  3 23  1 31 13.46  60.4940 -152.7800    4.640 -0.30 0.00 0.00 0.00       1276
RDN 1.120 1.00   P
REF 1.000 1.00   P
RSO 1.380 1.00   P
#  2009  3 22 17 19 13.50  60.4665 -152.7543    7.200 -0.80 0.00 0.00 0.00       1279
RDWB 1.760 1.00   P
REF 1.000 1.00   P
RSO 1.501 1.00   P
#  2009  3 22  3  7 20.42  60.4993 -152.7663    0.030  0.60 0.00 0.00 0.00       1280
RDJH 3.600 1.00   S
RDN 1.000 1.00   P
RDWB 1.160 1.00   P
REF 1.920 1.00   S
REF 1.080 1.00   P
RSO 1.361 1.00   P
#  2009  3 21 21 44 56.72  60.4843 -152.7635    4.930  0.50 0.00 0.00 0.00       1283
NCT 2.421 1.00   P
RDJH 2.460 1.00   P
RDN 1.000 1.00   P
RDWB 1.880 1.00   S
REF 1.860 1.00   S
REF 1.060 1.00   P
RSO 1.001 1.00   P
#  2009  3 22 17 30 58.44  60.4998 -152.7353    8.390  0.10 0.00 0.00 0.00       1286
RDN 1.220 1.00   P
RDWB 1.000 1.00   P
REF 1.020 1.00   P
RSO 1.781 1.00   P
#  2009  3 27  4  2 56.20  60.4842 -152.7688    3.430  1.40 0.00 0.00 0.00       1289
NCT 2.580 1.00   P
RDN 1.000 1.00   P
RDWB 1.840 1.00   S
REF 1.840 1.00   S
REF 1.080 1.00   P
#  2009  3 22  4 13 53.36  60.4843 -152.7692    4.190  0.10 0.00 0.00 0.00       1304
RDN 1.099 1.00   P
RDWB 1.179 1.00   P
REF 1.219 1.00   P
RSO 1.000 1.00   P
#  2009  3 22 18 38 18.62  60.4807 -152.7663    3.440 -0.20 0.00 0.00 0.00       1305
RDN 1.559 1.00   P
REF 1.959 1.00   S
REF 1.139 1.00   P
RSO 1.000 1.00   P
#  2009  3 22  2  6 12.52  60.4982 -152.7335    5.060 -0.10 0.00 0.00 0.00       1306
RDN 1.200 1.00   P
RDWB 1.700 1.00   P
REF 1.000 1.00   P
RSO 1.961 1.00   P
#  2009  3 17  6 48  7.46  60.4773 -152.8007    8.970  0.80 0.00 0.00 0.00       1310
RDN 1.310 1.00   P
RDWB 1.591 1.00   P
REF 2.510 1.00   S
REF 1.591 1.00   P
RSO 1.000 1.00   P
#  2009  3 22 12 21 20.74  60.4903 -152.7753    3.940 -0.20 0.00 0.00 0.00       1315
RD03 2.260 1.00   P
RDN 1.200 1.00   P
RDWB 1.860 1.00   S
REF 2.120 1.00   S
REF 1.200 1.00   P
RSO 1.341 1.00   P
#  2009  3 22 19 55 52.74  60.5052 -152.7238    4.220 -0.60 0.00 0.00 0.00       1330
RDN 1.000 1.00   P
RDWB 2.380 1.00   P
REF 1.160 1.00   P
RSO 1.961 1.00   P
#  2009  3 13 22 16 55.76  60.4795 -152.7508    2.670  0.60 0.00 0.00 0.00       1332
NCT 3.260 1.00   P
RDJH 3.059 1.00   P
RDN 1.259 1.00   P
RDWB 1.899 1.00   P
REF 1.079 1.00   P
RSO 1.000 1.00   P
#  2009  3 25  3 11 48.84  60.4903 -152.7687    3.110  0.40 0.00 0.00 0.00       1333
NCT 2.500 1.00   P
RDN 1.000 1.00   P
RDWB 1.040 1.00   P
#  2009  3 23  5 17 51.30  60.4900 -152.7715    3.120  0.20 0.00 0.00 0.00       1334
RDN 1.060 1.00   P
REF 1.180 1.00   P
RSO 1.000 1.00   P
#  2009  3  1  3 13 15.18  60.4972 -152.7393    7.910  0.80 0.00 0.00 0.00       1337
RDN 1.000 1.00   P
RDWB 1.140 1.00   P
REF 1.080 1.00   P
RSO 1.124 1.00   P
#  2009  3 22 18 41 12.32  60.4863 -152.7655    4.330 -0.30 0.00 0.00 0.00       1340
RDN 1.480 1.00   P
RDWB 1.000 1.00   P
REF 1.660 1.00   S
REF 1.000 1.00   P
RSO 1.241 1.00   P
#  2009  3 24 15 32 25.64  60.4883 -152.7677    2.770  0.30 0.00 0.00 0.00       1347
NCT 2.540 1.00   P
RDN 1.020 1.00   P
REF 1.760 1.00   S
REF 1.000 1.00   P
#  2009  3 11  2 42 29.22  60.5053 -152.7747    4.370  0.30 0.00 0.00 0.00       1348
RDN 1.000 1.00   P
RDWB 1.240 1.00   P
REF 1.400 1.00   P
RSO 1.200 1.00   P
#  2009  3 22 19 29 12.42  60.4808 -152.7700    3.580 -0.00 0.00 0.00 0.00       1349
RDN 1.319 1.00   P
RDWB 1.059 1.00   P
REF 1.839 1.00   S
REF 1.119 1.00   P
RSO 1.000 1.00   P
#  2009  3 22 19 56 25.88  60.4997 -152.7245    6.970 -0.40 0.00 0.00 0.00       1352
RDN 1.100 1.00   P
RDWB 1.420 1.00   P
REF 1.000 1.00   P
RSO 1.021 1.00   P
#  2009  3 22 17 11 17.54  60.4760 -152.7667    4.810 -0.20 0.00 0.00 0.00       1354
RDN 1.280 1.00   P
RDWB 1.080 1.00   P
REF 1.000 1.00   P
RSO 1.161 1.00   P
#  2009  3 18  2  9 35.50  60.4737 -152.7712    8.380  0.30 0.00 0.00 0.00       1355
RDN 1.239 1.00   P
RDWB 1.099 1.00   P
REF 1.059 1.00   P
RSO 1.000 1.00   P
#  2009  3 24  4 44 12.72  60.4928 -152.7505    4.920  0.30 0.00 0.00 0.00       1356
NCT 2.400 1.00   P
RDN 1.000 1.00   P
REF 1.720 1.00   S
REF 1.040 1.00   P
#  2009  3 23  2  0 34.50  60.4843 -152.7735    4.020  0.10 0.00 0.00 0.00       1357
RDN 1.100 1.00   P
REF 1.160 1.00   P
RSO 1.000 1.00   P
#  2009  3 22  8 39 50.44  60.4852 -152.7758    5.080  0.20 0.00 0.00 0.00       1470
RDN 1.059 1.00   P
RDWB 1.119 1.00   P
REF 1.239 1.00   P
RSO 1.000 1.00   P
#  2009  3 19  9 46  8.78  60.4797 -152.7858    8.130 -0.10 0.00 0.00 0.00       1477
RDN 1.000 1.00   P
RDWB 1.100 1.00   P
REF 1.180 1.00   P
RSO 1.060 1.00   P
#  2009  3 22 17 21 39.64  60.4903 -152.7667    3.420 -0.10 0.00 0.00 0.00       1478
RDN 1.440 1.00   P
RDWB 1.000 1.00   P
REF 1.040 1.00   P
RSO 1.041 1.00   P
#  2009  3 22 10 10 55.02  60.4860 -152.7652    3.650  0.70 0.00 0.00 0.00       1479
RDJH 2.600 1.00   P
RDN 1.000 1.00   P
RDWB 1.140 1.00   P
REF 1.120 1.00   P
RSO 1.101 1.00   P
#  2009  3 13 10 29 24.86  60.4985 -152.7658    8.980  0.90 0.00 0.00 0.00       1480
RDN 1.240 1.00   P
RDWB 1.380 1.00   P
REF 1.000 1.00   P
RSO 1.741 1.00   P
#  2009  3 23  3 48  2.00  60.4988 -152.7653    4.970  0.40 0.00 0.00 0.00       1481
RDN 1.000 1.00   P
REF 1.080 1.00   P
RSO 1.520 1.00   P
#  2009  3 22 18 42 29.90  60.4903 -152.7698    6.690 -0.20 0.00 0.00 0.00       1482
RDN 1.000 1.00   P
RDWB 1.200 1.00   P
REF 1.180 1.00   P
RSO 1.501 1.00   P
#  2009  3 22 19 24 43.10  60.4932 -152.7528    5.450  1.10 0.00 0.00 0.00       1540
RDWB 1.100 1.00   P
REF 1.000 1.00   P
RSO 1.581 1.00   P
#  2009  3 22 12  7 26.28  60.4895 -152.7710    3.380  0.60 0.00 0.00 0.00       1554
RDN 1.000 1.00   P
RDWB 1.060 1.00   P
REF 1.140 1.00   P
RSO 1.041 1.00   P
#  2009  3 22 23 33  7.88  60.4875 -152.7910    4.910  0.30 0.00 0.00 0.00       1555
RDN 1.720 1.00   P
RDWB 1.000 1.00   P
REF 1.220 1.00   P
RSO 1.641 1.00   P
#  2009  3 19  5 36 38.72  60.5027 -152.7298    5.300  0.40 0.00 0.00 0.00       1560
RDN 1.040 1.00   P
RDWB 1.600 1.00   P
REF 1.000 1.00   P
RSO 1.520 1.00   P
#  2009  3 22 12 52 56.08  60.4900 -152.7723    4.260  0.10 0.00 0.00 0.00       1561
RDN 1.119 1.00   P
RDWB 1.039 1.00   P
REF 1.179 1.00   P
RSO 1.000 1.00   P
#  2009  3 22 22 20 30.98  60.4873 -152.7663    4.800  0.20 0.00 0.00 0.00       1570
RDN 1.000 1.00   P
RDWB 1.100 1.00   P
REF 1.100 1.00   P
RSO 1.361 1.00   P
#  2009  3 29  4 12  7.86  60.4993 -152.7533    4.550  0.80 0.00 0.00 0.00       1571
NCT 2.400 1.00   P
RDN 1.000 1.00   P
RDWB 2.140 1.00   S
REF 1.760 1.00   S
REF 1.080 1.00   P
#  2009  3 22  8 23 46.52  60.4860 -152.7598    3.690  0.40 0.00 0.00 0.00       1572
RDN 1.419 1.00   P
RDWB 1.499 1.00   P
REF 1.459 1.00   P
RSO 1.000 1.00   P
#  2009  3 11 14 56 48.66  60.4648 -152.7772    5.280  0.10 0.00 0.00 0.00       1585
RDJH 2.860 1.00   P
RDN 1.000 1.00   P
RDWB 1.340 1.00   P
REF 2.500 1.00   S
REF 1.360 1.00   P
RSO 1.220 1.00   P
#  2009  3 15 13 36 35.70  60.5062 -152.7918    1.550  0.40 0.00 0.00 0.00       1586
RDN 1.000 1.00   P
RDWB 1.280 1.00   P
REF 1.680 1.00   P
RSO 2.040 1.00   P
#  2009  3 23  3 52 14.08  60.5012 -152.7918    7.350 -0.00 0.00 0.00 0.00       1587
RDN 1.000 1.00   P
REF 1.100 1.00   P
RSO 1.340 1.00   P
#  2009  3 16  1 52 12.64  60.5068 -152.7585    1.550  0.30 0.00 0.00 0.00       1588
RDN 1.000 1.00   P
RDWB 1.740 1.00   P
REF 1.400 1.00   P
RSO 1.921 1.00   P
#  2009  3 23  3 40 16.00  60.4687 -152.7642    3.960  0.10 0.00 0.00 0.00       1589
RDN 1.800 1.00   P
REF 1.000 1.00   P
RSO 1.300 1.00   P
#  2009  3 22  7 21  8.60  60.5003 -152.7705    2.780  0.10 0.00 0.00 0.00       1590
RDN 1.000 1.00   P
RDWB 1.060 1.00   P
REF 1.100 1.00   P
RSO 1.401 1.00   P
#  2009  3 22  9 32 52.38  60.5030 -152.7715    5.790  0.90 0.00 0.00 0.00       1591
RDN 1.000 1.00   P
RDWB 1.120 1.00   P
REF 1.100 1.00   P
RSO 1.481 1.00   P
#  2009  3 22  6 37 45.96  60.4910 -152.7748    5.320  0.60 0.00 0.00 0.00       1592
RDN 1.039 1.00   P
RDWB 1.099 1.00   P
REF 1.159 1.00   P
RSO 1.000 1.00   P
#  2009  3  9 15 30  1.28  60.4858 -152.7447    2.460  0.30 0.00 0.00 0.00       1594
RDN 1.280 1.00   P
RDWB 3.180 1.00   S
REF 1.360 1.00   S
REF 1.000 1.00   P
RSO 1.201 1.00   P
#  2009  3 23  4 51  0.42  60.4902 -152.7717    3.140  0.50 0.00 0.00 0.00       1595
NCT 2.581 1.00   P
RDN 1.080 1.00   P
REF 1.180 1.00   P
RSO 1.000 1.00   P
#  2009  3 22 19 31  1.70  60.4947 -152.7738    3.290  0.20 0.00 0.00 0.00       1596
RDN 1.000 1.00   P
RDWB 2.360 1.00   S
REF 2.400 1.00   S
REF 1.180 1.00   P
RSO 1.181 1.00   P
#  2009  3 22 20 33  9.68  60.4738 -152.7650    4.720  0.40 0.00 0.00 0.00       1597
RDN 1.059 1.00   P
RDWB 1.199 1.00   P
REF 1.139 1.00   P
RSO 1.000 1.00   P
#  2009  3 15 20 49 21.78  60.4862 -152.7727    3.250  0.10 0.00 0.00 0.00       1598
RDE 3.040 1.00   P
RDJH 2.900 1.00   P
RDN 1.060 1.00   P
RDWB 1.120 1.00   P
REF 1.100 1.00   P
RSO 1.000 1.00   P
#  2009  3 21 18 50 24.24  60.4852 -152.7642    6.000  0.30 0.00 0.00 0.00       1600
RDN 1.000 1.00   P
RDWB 1.220 1.00   P
REF 1.180 1.00   P
RSO 1.401 1.00   P
#  2009  3 21 23 18 48.36  60.4917 -152.7727    3.040 -0.20 0.00 0.00 0.00       1618
RDN 1.420 1.00   P
RDWB 1.000 1.00   P
REF 1.060 1.00   P
RSO 1.461 1.00   P
#  2009  3 22 17 25  3.98  60.4688 -152.7467    5.390 -0.90 0.00 0.00 0.00       1624
RDN 1.700 1.00   P
RDWB 1.420 1.00   P
REF 1.000 1.00   P
RSO 1.281 1.00   P
#  2009  3 22 17 45 53.00  60.5025 -152.7800    3.900  0.30 0.00 0.00 0.00       1625
RDN 1.000 1.00   P
RDWB 1.120 1.00   P
REF 1.140 1.00   P
RSO 1.441 1.00   P
#  2009  3 23  3 44  5.18  60.4933 -152.7723    1.300  0.20 0.00 0.00 0.00       1631
RDN 1.000 1.00   P
REF 1.100 1.00   P
RSO 1.400 1.00   P
#  2009  3 22 13 57 32.64  60.4897 -152.7565    3.070  0.10 0.00 0.00 0.00       1632
RDJH 2.639 1.00   P
RDN 1.099 1.00   P
RDWB 1.199 1.00   P
REF 1.119 1.00   P
RSO 1.000 1.00   P
#  2009  3 22 18 31 17.26  60.4885 -152.7615    5.570  0.20 0.00 0.00 0.00       1633
RDN 1.000 1.00   P
RDWB 1.140 1.00   P
REF 1.820 1.00   S
REF 1.080 1.00   P
RSO 1.481 1.00   P
#  2009  3 22  9 12 44.66  60.4980 -152.7638    4.190  0.20 0.00 0.00 0.00       1636
RDN 1.000 1.00   P
RDWB 1.080 1.00   P
REF 1.040 1.00   P
RSO 1.321 1.00   P
#  2009  3 23  3 16  3.80  60.4868 -152.7673    5.270 -0.30 0.00 0.00 0.00       1651
RDN 1.000 1.00   P
REF 1.060 1.00   P
RSO 1.520 1.00   P
#  2009  3 22 23 40 20.42  60.4835 -152.7772    4.460  0.20 0.00 0.00 0.00       1655
RDN 1.220 1.00   P
RDWB 1.000 1.00   P
REF 1.080 1.00   P
RSO 1.461 1.00   P
#  2009  3 22 13  1 21.34  60.4710 -152.7822    5.030 -0.10 0.00 0.00 0.00       1656
RDWB 1.059 1.00   P
REF 1.359 1.00   P
RSO 1.000 1.00   P
#  2009  3 22 18 22 10.30  60.4683 -152.7775    8.590  0.90 0.00 0.00 0.00       1657
RDN 1.520 1.00   P
RDWB 1.000 1.00   P
REF 1.280 1.00   P
RSO 1.061 1.00   P
#  2009  3 23  2 33 34.60  60.4803 -152.7652    4.150 -0.80 0.00 0.00 0.00       1658
RDN 1.740 1.00   P
REF 1.000 1.00   P
RSO 1.220 1.00   P
#  2009  3  1  1 31 43.52  60.4800 -152.7475   10.320  0.40 0.00 0.00 0.00       1671
RDN 1.000 1.00   P
RDWB 1.260 1.00   P
REF 1.240 1.00   P
RSO 1.204 1.00   P
#  2009  3 13  1 13 19.30  60.4807 -152.7573    5.160  0.30 0.00 0.00 0.00       1672
NCT 3.041 1.00   P
RDN 1.000 1.00   P
RDWB 1.160 1.00   P
REF 1.060 1.00   P
RSO 1.021 1.00   P
#  2009  3 18  2 15 35.70  60.4880 -152.8095   11.730  0.90 0.00 0.00 0.00       1673
RDN 1.000 1.00   P
RDWB 1.020 1.00   P
REF 1.140 1.00   P
RSO 1.021 1.00   P
#  2009  3 22 18 29  3.04  60.4878 -152.7650    5.600  0.10 0.00 0.00 0.00       1674
RDN 1.380 1.00   P
RDWB 1.000 1.00   P
REF 1.280 1.00   P
RSO 1.281 1.00   P
#  2009  3 22 10 22 33.02  60.4668 -152.7413    6.770  0.60 0.00 0.00 0.00       1680
RDN 1.399 1.00   P
RDWB 1.299 1.00   P
REF 1.979 1.00   S
REF 1.259 1.00   P
RSO 1.000 1.00   P
#  2009  3 22  6 30 43.24  60.4805 -152.7757    3.870 -0.20 0.00 0.00 0.00       1681
RDN 1.760 1.00   P
RDWB 1.000 1.00   P
REF 1.000 1.00   P
RSO 1.301 1.00   P
#  2009  3 21 19 41 22.86  60.4770 -152.7752    3.940  0.30 0.00 0.00 0.00       1684
NCT 2.640 1.00   P
RDN 1.059 1.00   P
RDWB 1.159 1.00   P
REF 1.159 1.00   P
RSO 1.000 1.00   P
#  2009  3 22  9 16  3.74  60.4875 -152.7697    4.010  0.30 0.00 0.00 0.00       1691
RDN 1.119 1.00   P
RDWB 1.139 1.00   P
REF 1.139 1.00   P
RSO 1.000 1.00   P
#  2009  3 12  4 56 18.36  60.4982 -152.7793    4.800 -0.30 0.00 0.00 0.00       1692
RDN 1.220 1.00   P
RDWB 1.000 1.00   P
REF 1.320 1.00   P
RSO 1.501 1.00   P
#  2009  3 17 22  8 19.28  60.4953 -152.7610    4.910  0.40 0.00 0.00 0.00       1693
RDN 1.000 1.00   P
RDWB 1.000 1.00   P
REF 1.040 1.00   P
RSO 1.210 1.00   P
#  2009  3 23  0  2 49.54  60.4895 -152.7710    1.470 -0.10 0.00 0.00 0.00       1695
RDN 1.000 1.00   P
REF 1.040 1.00   P
RSO 1.660 1.00   P
#  2009  3 22 20 45 18.64  60.4962 -152.7522    6.190  0.30 0.00 0.00 0.00       1697
RDN 1.000 1.00   P
RDWB 1.580 1.00   P
REF 1.180 1.00   P
RSO 1.961 1.00   P
#  2009  3 23  2 45 34.20  60.4737 -152.7755    6.570  0.40 0.00 0.00 0.00       1698
RDN 1.080 1.00   P
REF 1.280 1.00   P
RSO 1.000 1.00   P
#  2009  3  2  5 42 10.40  60.4872 -152.7693    3.560 -0.10 0.00 0.00 0.00       1700
RDN 1.260 1.00   P
RDWB 1.020 1.00   P
REF 1.000 1.00   P
RSO 1.020 1.00   P
#  2009  3 17  6  5 17.06  60.4852 -152.7707    5.340  0.60 0.00 0.00 0.00       1703
RDN 1.071 1.00   P
RDWB 1.151 1.00   P
REF 1.131 1.00   P
RSO 1.000 1.00   P
#  2009  3 17 18  8 41.12  60.4662 -152.7735    4.960  0.20 0.00 0.00 0.00       1706
RDJH 2.691 1.00   P
RDN 1.091 1.00   P
RDWB 1.230 1.00   P
REF 1.071 1.00   P
RSO 1.000 1.00   P
#  2009  3 22 23 24 25.96  60.5005 -152.7995    6.710  0.10 0.00 0.00 0.00       1707
RDN 1.040 1.00   P
RDWB 1.000 1.00   P
REF 1.060 1.00   P
RSO 1.861 1.00   P
#  2009  3 12 19 52 25.50  60.4743 -152.7405    4.230  0.80 0.00 0.00 0.00       1727
RDJH 4.760 1.00   S
RDN 2.040 1.00   P
RDWB 1.740 1.00   P
REF 1.000 1.00   P
RSO 1.341 1.00   P
#  2009  3 22  8 59 45.50  60.4892 -152.7758    4.700 -0.90 0.00 0.00 0.00       1728
RDN 2.079 1.00   P
REF 2.039 1.00   S
RSO 1.000 1.00   P
#  2009  3 22 16 40  0.06  60.4895 -152.7677    3.720  0.20 0.00 0.00 0.00       1732
RDN 1.059 1.00   P
RDWB 1.099 1.00   P
REF 1.119 1.00   P
RSO 1.000 1.00   P
#  2009  3 22 20 28 55.96  60.4908 -152.7813    3.350  0.10 0.00 0.00 0.00       1772
RDN 1.140 1.00   P
RDWB 1.000 1.00   P
REF 1.020 1.00   P
RSO 1.341 1.00   P
#  2009  3 22  7 55 36.44  60.4900 -152.7688    4.970  0.20 0.00 0.00 0.00       1790
RDN 1.160 1.00   P
RDWB 1.020 1.00   P
REF 1.000 1.00   P
RSO 1.421 1.00   P
#  2009  3 22 14 29 26.30  60.4898 -152.7735    3.450 -0.00 0.00 0.00 0.00       1792
RDWB 1.000 1.00   P
REF 1.220 1.00   P
RSO 1.281 1.00   P
