#  2009  2 23 11 57 55.30  60.4963 -152.7442    3.980  0.20 0.00 0.00 0.00        821
RDJH 2.560 1.00   P
RDN 1.020 1.00   P
REF 1.000 1.00   P
RSO 1.520 1.00   P
#  2009  2  2  5 58 22.98  60.5020 -152.7503    1.390  0.10 0.00 0.00 0.00        822
RDN 1.000 1.00   P
REF 1.320 1.00   P
RSO 1.500 1.00   P
#  2009  2 26 11  5 26.00  60.4965 -152.7180    6.940  0.10 0.00 0.00 0.00        824
RDN 1.580 1.00   P
RDWB 1.840 1.00   P
REF 1.000 1.00   P
RSO 1.901 1.00   P
#  2009  2 27  2 37  6.86  60.4678 -152.7733    6.290  1.00 0.00 0.00 0.00        825
RDN 1.060 1.00   P
RDWB 1.140 1.00   P
REF 1.200 1.00   P
RSO 1.000 1.00   P
#  2009  2 14  1 13  3.56  60.4928 -152.7613    3.690  0.30 0.00 0.00 0.00        826
NCT 2.570 1.00   P
RDN 1.000 1.00   P
REF 1.100 1.00   P
RSO 1.130 1.00   P
#  2009  2  2 14  1 37.92  60.4957 -152.7460    5.780  0.50 0.00 0.00 0.00        827
NCT 2.200 1.00   P
RDN 1.120 1.00   P
REF 1.000 1.00   P
RSO 1.240 1.00   P
#  2009  2 16 18 29 14.38  60.4785 -152.7292    6.470  0.90 0.00 0.00 0.00        828
NCT 2.700 1.00   P
RDJH 2.580 1.00   P
RDN 1.000 1.00   P
REF 1.060 1.00   P
RSO 1.340 1.00   P
#  2009  2 26  7 29 39.44  60.4798 -152.7372    2.720  0.50 0.00 0.00 0.00        829
NCT 3.741 1.00   P
RDN 2.180 1.00   P
RDWB 2.260 1.00   P
REF 1.000 1.00   P
RSO 1.861 1.00   P
#  2009  2 22 13 35  9.98  60.5008 -152.7393    5.760  0.70 0.00 0.00 0.00        830
RDN 1.000 1.00   P
REF 1.160 1.00   P
RSO 1.320 1.00   P
#  2009  2 26  8  6  3.40  60.4672 -152.7552    6.270  0.80 0.00 0.00 0.00        831
RDJH 4.980 1.00   S
RDN 1.000 1.00   P
RDWB 1.500 1.00   P
REF 1.060 1.00   P
RSO 1.441 1.00   P
#  2009  2  3  7  5 38.62  60.4718 -152.7315    6.940  0.60 0.00 0.00 0.00        833
RDN 1.000 1.00   P
REF 1.080 1.00   P
RSO 1.001 1.00   P
#  2009  2 27  7  2 27.70  60.4697 -152.7748    7.580  0.40 0.00 0.00 0.00        834
RDN 1.400 1.00   P
RDWB 1.480 1.00   P
REF 1.500 1.00   P
RSO 1.000 1.00   P
#  2009  2 16  7 37 55.12  60.5057 -152.7207    3.710  0.10 0.00 0.00 0.00        840
RDJH 2.580 1.00   P
RDN 1.040 1.00   P
REF 1.000 1.00   P
RSO 1.940 1.00   P
#  2009  2 26 23 43 11.88  60.4950 -152.7813    9.980  0.90 0.00 0.00 0.00        841
RDN 1.020 1.00   P
RDWB 1.080 1.00   P
REF 1.000 1.00   P
RSO 1.301 1.00   P
#  2009  2 27  8 10 33.80  60.4668 -152.7688    8.490  0.30 0.00 0.00 0.00        842
RDN 1.060 1.00   P
RDWB 1.700 1.00   P
REF 1.720 1.00   P
RSO 1.000 1.00   P
#  2009  2  9  3 53 43.62  60.4703 -152.7333    7.510  1.20 0.00 0.00 0.00        843
NCT 2.720 1.00   P
RDN 1.160 1.00   P
REF 1.200 1.00   P
RSO 1.000 1.00   P
#  2009  2 27 11 27 16.78  60.4787 -152.7672    0.020 -0.00 0.00 0.00 0.00        846
RDJH 2.740 1.00   P
RDN 1.000 1.00   P
RDWB 1.180 1.00   P
REF 1.100 1.00   P
RSO 1.000 1.00   P
#  2009  2 27  3 27 59.30  60.4678 -152.7593    6.230  0.60 0.00 0.00 0.00        847
NCT 2.640 1.00   P
RDN 1.000 1.00   P
RDWB 1.080 1.00   P
REF 1.040 1.00   P
#  2009  2  5 21 59  6.72  60.4960 -152.7367    6.060  0.30 0.00 0.00 0.00        848
NCT 2.521 1.00   P
RDN 1.040 1.00   P
REF 1.000 1.00   P
RSO 1.941 1.00   P
#  2009  2 27 12 51  1.40  60.4815 -152.7688    4.020  0.30 0.00 0.00 0.00        849
RDN 1.220 1.00   P
RDWB 1.460 1.00   P
REF 1.240 1.00   P
RSO 1.000 1.00   P
#  2009  2 27 11 11 34.82  60.4877 -152.7697    5.710  0.20 0.00 0.00 0.00        850
RDN 1.060 1.00   P
RDWB 1.160 1.00   P
REF 1.080 1.00   P
RSO 1.000 1.00   P
#  2009  2 26  4 15 47.14  60.5012 -152.7618    6.530  0.40 0.00 0.00 0.00        851
RDN 1.000 1.00   P
RDWB 1.500 1.00   P
REF 1.480 1.00   P
RSO 1.461 1.00   P
#  2009  2 27  9  3  3.72  60.4803 -152.7647    5.790  0.70 0.00 0.00 0.00        852
RDN 1.300 1.00   P
RDWB 1.100 1.00   P
REF 1.180 1.00   P
RSO 1.000 1.00   P
#  2009  2 28 13  3 54.30  60.4660 -152.7348    5.310  0.30 0.00 0.00 0.00        854
RDN 1.500 1.00   P
RDWB 1.560 1.00   P
REF 1.560 1.00   S
REF 1.000 1.00   P
RSO 1.401 1.00   P
#  2009  2  8  6  9 28.58  60.4942 -152.7550    3.280 -0.10 0.00 0.00 0.00        856
NCT 2.520 1.00   P
RDN 1.000 1.00   P
REF 1.060 1.00   P
RSO 1.300 1.00   P
#  2009  2 27  2 26 25.34  60.4657 -152.7807    6.400  0.50 0.00 0.00 0.00        857
RDN 1.280 1.00   P
RDWB 1.180 1.00   P
REF 1.120 1.00   P
RSO 1.000 1.00   P
#  2009  2  8  4 13 22.92  60.4930 -152.7668    3.550  0.70 0.00 0.00 0.00        860
NCT 2.460 1.00   P
RDN 1.000 1.00   P
REF 1.720 1.00   S
REF 1.140 1.00   P
#  2009  2 19  0 26 52.96  60.4888 -152.7608    3.990  0.20 0.00 0.00 0.00        863
NCT 2.730 1.00   P
RDN 1.000 1.00   P
REF 1.240 1.00   P
RSO 1.350 1.00   P
#  2009  2  3  3 15 32.34  60.4972 -152.7530    3.540 -0.30 0.00 0.00 0.00        864
NCT 2.721 1.00   P
RDN 1.000 1.00   P
REF 1.680 1.00   P
RSO 1.461 1.00   P
#  2009  2 26  7 20 32.76  60.4882 -152.7682    4.950  0.10 0.00 0.00 0.00        865
RDN 1.000 1.00   P
RDWB 1.120 1.00   P
REF 1.100 1.00   P
RSO 1.001 1.00   P
#  2009  2  8 23 12 27.20  60.4918 -152.7737    1.020  0.60 0.00 0.00 0.00        866
NCT 2.940 1.00   P
RDN 1.000 1.00   P
REF 2.140 1.00   S
REF 1.240 1.00   P
#  2009  2 24  3 47 21.50  60.4877 -152.7317    3.570  0.30 0.00 0.00 0.00        867
RDJH 4.440 1.00   S
RDN 1.240 1.00   P
REF 1.000 1.00   P
RSO 1.160 1.00   P
#  2009  2 21  2  5 27.10  60.5143 -152.7308    2.530 -0.10 0.00 0.00 0.00        868
RDN 1.000 1.00   P
REF 1.340 1.00   P
RSO 2.388 1.00   P
#  2009  2 26 10 46 52.28  60.4705 -152.7733    4.810  0.50 0.00 0.00 0.00        869
RDJH 2.699 1.00   P
RDN 1.079 1.00   P
RDWB 1.219 1.00   P
REF 2.239 1.00   S
REF 1.159 1.00   P
RSO 1.000 1.00   P
#  2009  2  5  7 22 35.20  60.5110 -152.7507    3.870  0.80 0.00 0.00 0.00        870
NCT 2.541 1.00   P
RDN 1.000 1.00   P
REF 2.220 1.00   S
REF 1.180 1.00   P
RSO 1.661 1.00   P
#  2009  2 27  6  1 15.76  60.4730 -152.7490    5.140  0.70 0.00 0.00 0.00        871
RDN 1.100 1.00   P
RDWB 1.760 1.00   P
REF 1.100 1.00   P
RSO 1.000 1.00   P
#  2009  2 13 19 14 37.80  60.5002 -152.7652    0.250  0.60 0.00 0.00 0.00        876
RDN 1.000 1.00   P
#  2009  2  8 22 36 47.46  60.4985 -152.7270    3.590  0.50 0.00 0.00 0.00        878
RDN 1.000 1.00   P
REF 1.060 1.00   P
RSO 1.280 1.00   P
#  2009  2 27 11  1  2.86  60.5080 -152.7253    6.860  0.90 0.00 0.00 0.00        879
RDN 1.600 1.00   P
RDWB 1.560 1.00   P
REF 1.000 1.00   P
RSO 2.040 1.00   P
#  2009  2  6 12 36 14.36  60.4783 -152.7730    7.860  1.40 0.00 0.00 0.00        880
NCT 2.260 1.00   P
RDN 1.039 1.00   P
REF 1.239 1.00   P
RSO 1.000 1.00   P
#  2009  2 22 10 52  7.88  60.5117 -152.7080    4.610  0.40 0.00 0.00 0.00        881
RDJH 2.700 1.00   P
RDN 1.000 1.00   P
REF 1.180 1.00   P
RSO 2.040 1.00   P
#  2009  2  8  9 18 26.50  60.4837 -152.7918    1.760  0.80 0.00 0.00 0.00        882
NCT 1.780 1.00   P
RDN 1.000 1.00   P
REF 1.460 1.00   S
REF 1.120 1.00   P
#  2009  2 28 13 59 37.88  60.5042 -152.7387    4.310 -0.70 0.00 0.00 0.00        883
RDN 1.140 1.00   P
RDWB 1.840 1.00   P
REF 1.000 1.00   P
RSO 1.681 1.00   P
#  2009  2 26  7 27 55.32  60.4993 -152.7547    5.830  0.90 0.00 0.00 0.00        884
RDN 1.000 1.00   P
RDWB 1.740 1.00   P
REF 1.160 1.00   P
RSO 1.501 1.00   P
#  2009  2 27  2 46 51.72  60.4798 -152.7738    9.090  1.00 0.00 0.00 0.00        885
RDN 1.040 1.00   P
RDWB 1.100 1.00   P
REF 1.120 1.00   P
RSO 1.000 1.00   P
#  2009  2 15 12 39 48.82  60.4927 -152.7495    4.260  0.80 0.00 0.00 0.00        887
NCT 2.501 1.00   P
RDN 1.060 1.00   P
REF 1.000 1.00   P
RSO 1.121 1.00   P
#  2009  2 28 12 24 59.68  60.4847 -152.7680    4.030  0.30 0.00 0.00 0.00        888
RDN 1.059 1.00   P
RDWB 1.199 1.00   P
REF 1.159 1.00   P
RSO 1.000 1.00   P
#  2009  2 18 13 16  3.36  60.4635 -152.7573    4.150  1.00 0.00 0.00 0.00        889
NCT 2.640 1.00   P
RDJH 2.580 1.00   P
RDN 1.000 1.00   P
REF 1.060 1.00   P
#  2009  2 26 13 32 58.10  60.4695 -152.7982    5.680  0.50 0.00 0.00 0.00        890
RDWB 1.039 1.00   P
REF 1.439 1.00   P
RSO 1.000 1.00   P
#  2009  2 26  6 12 42.86  60.4885 -152.7552    6.210  0.60 0.00 0.00 0.00        900
RDN 1.079 1.00   P
RDWB 2.059 1.00   S
REF 1.799 1.00   S
REF 1.099 1.00   P
RSO 1.000 1.00   P
#  2009  2 26 10 44  6.20  60.5148 -152.7308    3.380  0.90 0.00 0.00 0.00        903
NCT 2.641 1.00   P
RDN 1.000 1.00   P
RDWB 3.520 1.00   S
REF 2.200 1.00   S
REF 1.060 1.00   P
RSO 2.161 1.00   P
#  2009  2 22 15  9 23.84  60.4777 -152.7803    2.850  1.00 0.00 0.00 0.00        904
NCT 3.000 1.00   P
RDJH 2.960 1.00   P
RDN 1.340 1.00   P
REF 1.460 1.00   P
RSO 1.000 1.00   P
#  2009  2  9 10 19 49.04  60.4930 -152.7957    3.120  0.30 0.00 0.00 0.00        905
NCT 2.480 1.00   P
RDN 1.000 1.00   P
REF 2.440 1.00   S
REF 1.000 1.00   P
RSO 1.120 1.00   P
#  2009  2 27 22 48 41.68  60.4765 -152.7508    6.660  0.30 0.00 0.00 0.00        906
RDN 1.000 1.00   P
RDWB 1.120 1.00   P
REF 1.220 1.00   P
RSO 1.300 1.00   P
#  2009  2 27  7 53 54.96  60.4803 -152.7648    0.010  1.20 0.00 0.00 0.00        907
NCT 4.000 1.00   P
RDN 2.500 1.00   P
RDWB 3.240 1.00   S
REF 3.120 1.00   S
REF 2.480 1.00   P
RSO 1.000 1.00   P
#  2009  2 27 21 25 56.78  60.4988 -152.7798    4.380  0.10 0.00 0.00 0.00        908
RDN 1.000 1.00   P
RDWB 1.120 1.00   P
REF 1.120 1.00   P
RSO 1.200 1.00   P
#  2009  2 19  0 29 46.32  60.5042 -152.7380    3.680  0.10 0.00 0.00 0.00        913
RDJH 2.940 1.00   P
RDN 1.000 1.00   P
REF 1.200 1.00   P
RSO 1.310 1.00   P
#  2009  2  8  4 22 44.94  60.4990 -152.7448    3.600 -0.20 0.00 0.00 0.00        914
NCT 2.520 1.00   P
RDN 1.000 1.00   P
REF 1.080 1.00   P
RSO 1.380 1.00   P
#  2009  2  8 15 10 59.68  60.5015 -152.7432    4.200  0.20 0.00 0.00 0.00        915
NCT 3.080 1.00   P
RDN 1.000 1.00   P
REF 1.100 1.00   P
#  2009  2 11  1 15 50.36  60.4908 -152.7672    3.430 -0.00 0.00 0.00 0.00        916
RDE 2.840 1.00   P
RDN 1.039 1.00   P
REF 1.099 1.00   P
RSO 1.000 1.00   P
#  2009  2 13  1 29 15.48  60.6125 -152.8738   14.270  0.30 0.00 0.00 0.00        917
RDE 1.840 1.00   P
RDJH 1.000 1.00   P
#  2009  2 26  5 50 49.32  60.5125 -152.7320    7.410  0.90 0.00 0.00 0.00        918
RDN 1.100 1.00   P
RDWB 1.640 1.00   P
REF 1.000 1.00   P
RSO 1.641 1.00   P
#  2009  2 26  5 21 51.00  60.4970 -152.7622    3.810  1.00 0.00 0.00 0.00        919
RDN 1.599 1.00   P
RDWB 1.319 1.00   P
REF 1.119 1.00   P
RSO 1.000 1.00   P
#  2009  2 26  7 29 56.92  60.4850 -152.7673    3.170  0.90 0.00 0.00 0.00        920
RDJH 2.839 1.00   P
RDN 1.219 1.00   P
RDWB 1.259 1.00   P
REF 1.199 1.00   P
RSO 1.000 1.00   P
#  2009  2 22  4 51 39.24  60.4732 -152.7333    6.370  0.10 0.00 0.00 0.00        921
RDJH 4.640 1.00   S
RDN 1.000 1.00   P
REF 1.120 1.00   P
RSO 1.340 1.00   P
#  2009  2  9 22 31 55.52  60.4958 -152.7513    4.350  0.10 0.00 0.00 0.00        922
NCT 2.480 1.00   P
RDN 1.000 1.00   P
REF 1.100 1.00   P
RSO 1.340 1.00   P
#  2009  2 23  1 15 28.20  60.4792 -152.7380    5.980  0.70 0.00 0.00 0.00        923
RDN 1.060 1.00   P
REF 1.080 1.00   P
RSO 1.000 1.00   P
#  2009  2  8 14 46 51.18  60.5027 -152.7978    4.100  0.60 0.00 0.00 0.00        924
NCT 2.540 1.00   P
RDN 1.000 1.00   P
REF 1.860 1.00   P
RSO 1.460 1.00   P
#  2009  2  7 11  5 53.78  60.4747 -152.7395    0.030  0.50 0.00 0.00 0.00        925
NCT 3.900 1.00   P
RDN 2.700 1.00   P
REF 2.740 1.00   S
REF 2.280 1.00   P
RSO 1.000 1.00   P
#  2009  2  3  2  6 35.10  60.4928 -152.7568    3.170  0.50 0.00 0.00 0.00        926
NCT 2.661 1.00   P
RDN 1.000 1.00   P
REF 1.220 1.00   P
RSO 1.161 1.00   P
#  2009  2 16  2 23 12.50  60.4857 -152.7433    6.050  0.20 0.00 0.00 0.00        927
NCT 2.780 1.00   P
RDN 1.120 1.00   P
REF 1.000 1.00   P
RSO 1.260 1.00   P
#  2009  2 26  7 54 54.74  60.4817 -152.7690    4.110  0.20 0.00 0.00 0.00        928
RDN 1.239 1.00   P
RDWB 1.279 1.00   P
REF 1.199 1.00   P
RSO 1.000 1.00   P
#  2009  2  1  5 51 51.18  60.4940 -152.7478    5.710  0.60 0.00 0.00 0.00        930
NCT 2.260 1.00   P
RDN 1.020 1.00   P
REF 1.000 1.00   P
RSO 1.120 1.00   P
#  2009  2  8  5 39 46.50  60.5005 -152.7450    4.010 -0.00 0.00 0.00 0.00        931
NCT 2.480 1.00   P
RDN 1.000 1.00   P
REF 1.060 1.00   P
RSO 1.420 1.00   P
#  2009  2  1  2 19 43.88  60.4842 -152.7413    3.110  0.30 0.00 0.00 0.00        932
NCT 2.660 1.00   P
RDN 1.060 1.00   P
REF 1.260 1.00   S
REF 1.040 1.00   P
RSO 1.000 1.00   P
#  2009  2 27 12 16 47.34  60.4805 -152.7585    3.580  0.80 0.00 0.00 0.00        933
RDN 1.340 1.00   P
RDWB 1.360 1.00   P
REF 1.320 1.00   P
RSO 1.000 1.00   P
#  2009  2 25  7 11 23.76  60.4868 -152.7763    3.500  0.60 0.00 0.00 0.00        935
RDN 1.060 1.00   P
REF 1.100 1.00   P
RSO 1.000 1.00   P
#  2009  2  8  8 33 30.66  60.4862 -152.7738    1.620  0.90 0.00 0.00 0.00        937
RDN 1.440 1.00   P
REF 2.120 1.00   S
REF 1.480 1.00   P
RSO 1.000 1.00   P
#  2009  2 26  8 39 25.92  60.4918 -152.7752    6.950 -0.00 0.00 0.00 0.00        938
RDN 1.200 1.00   P
RDWB 1.280 1.00   P
REF 1.000 1.00   P
RSO 1.161 1.00   P
#  2009  2  3  5 52 11.02  60.4953 -152.7558    3.800  0.30 0.00 0.00 0.00        942
NCT 2.481 1.00   P
RDN 1.000 1.00   P
REF 1.240 1.00   P
RSO 1.161 1.00   P
#  2009  2 26 15 34  1.44  60.4867 -152.7618    3.030  0.00 0.00 0.00 0.00        948
RDN 1.260 1.00   P
RDWB 1.040 1.00   P
REF 1.000 1.00   P
RSO 1.061 1.00   P
#  2009  2 25 22 46 31.34  60.4905 -152.7668    3.290  0.30 0.00 0.00 0.00        950
RDJH 2.620 1.00   P
RDN 1.080 1.00   P
REF 1.140 1.00   P
RSO 1.000 1.00   P
#  2009  2  8  6 37 17.34  60.4917 -152.7338    3.380 -0.00 0.00 0.00 0.00        952
NCT 3.040 1.00   P
RDN 1.200 1.00   P
REF 1.000 1.00   P
RSO 1.380 1.00   P
#  2009  2 17 13  4 52.50  60.4962 -152.7202    1.470 -0.50 0.00 0.00 0.00        953
NCT 3.363 1.00   P
RDJH 3.420 1.00   P
RDN 1.180 1.00   P
REF 1.000 1.00   P
RSO 2.083 1.00   P
#  2009  2 10 13 12 12.46  60.5172 -152.7483    4.280  0.20 0.00 0.00 0.00        954
RDN 1.000 1.00   P
REF 1.520 1.00   P
#  2009  2 26  5  0 36.16  60.4807 -152.7595    6.030  0.60 0.00 0.00 0.00        955
RDN 1.179 1.00   P
RDWB 1.159 1.00   P
REF 1.159 1.00   P
RSO 1.000 1.00   P
#  2009  2  9  3 15 58.02  60.4915 -152.7715    3.050  0.60 0.00 0.00 0.00        958
NCT 2.540 1.00   P
RDN 1.080 1.00   P
REF 1.120 1.00   P
RSO 1.000 1.00   P
#  2009  2 26  7 53  5.84  60.4952 -152.7698    3.570  0.80 0.00 0.00 0.00        961
NCT 2.601 1.00   P
RDJH 2.740 1.00   P
RDN 1.000 1.00   P
RDWB 1.160 1.00   P
REF 1.040 1.00   P
RSO 1.581 1.00   P
#  2009  2  1 21 13 18.74  60.4970 -152.7373    5.440 -0.10 0.00 0.00 0.00        962
RDN 1.300 1.00   P
REF 1.000 1.00   P
RSO 1.660 1.00   P
#  2009  2 19  0 29 29.40  60.4893 -152.7590    4.730  0.50 0.00 0.00 0.00        963
RDJH 2.670 1.00   P
RDN 1.010 1.00   P
REF 1.130 1.00   P
RSO 1.000 1.00   P
#  2009  2 27 11 26  2.22  60.4755 -152.7510    3.670 -0.10 0.00 0.00 0.00        964
RDN 1.200 1.00   P
REF 1.900 1.00   S
REF 1.160 1.00   P
RSO 1.000 1.00   P
#  2009  2 28  6 20 54.62  60.5077 -152.7738    3.310 -0.00 0.00 0.00 0.00        965
RDN 1.000 1.00   P
RDWB 1.160 1.00   P
REF 1.280 1.00   P
RSO 1.341 1.00   P
#  2009  2 26 16 16 23.64  60.5140 -152.7680    6.990  0.10 0.00 0.00 0.00        970
RDN 1.040 1.00   P
RDWB 1.000 1.00   P
REF 1.480 1.00   P
RSO 1.401 1.00   P
#  2009  2  8 10 38 12.54  60.4893 -152.7668    2.510  0.80 0.00 0.00 0.00        971
NCT 2.580 1.00   P
RDN 1.080 1.00   P
REF 1.760 1.00   S
REF 1.140 1.00   P
RSO 1.000 1.00   P
#  2009  2  9 15 47 15.46  60.4943 -152.7638    1.550  0.30 0.00 0.00 0.00        972
NCT 2.560 1.00   P
RDN 1.000 1.00   P
REF 1.140 1.00   P
RSO 1.080 1.00   P
#  2009  2 18 21 16 49.98  60.4703 -152.7563    6.010  0.20 0.00 0.00 0.00        973
RDJH 2.660 1.00   P
RDN 1.020 1.00   P
REF 1.140 1.00   P
RSO 1.000 1.00   P
#  2009  2 23 16 38 22.54  60.4817 -152.7602    5.440  0.40 0.00 0.00 0.00        974
RDN 1.000 1.00   P
REF 1.000 1.00   P
RSO 1.040 1.00   P
#  2009  2  9 18  9 53.70  60.4925 -152.7668    4.090  0.50 0.00 0.00 0.00        975
NCT 2.140 1.00   P
RDN 1.000 1.00   P
REF 1.040 1.00   P
RSO 1.460 1.00   P
#  2009  2  8  6 18  9.86  60.4927 -152.7668    3.670  0.50 0.00 0.00 0.00        976
NCT 2.440 1.00   P
RDN 1.000 1.00   P
REF 1.120 1.00   P
RSO 1.040 1.00   P
#  2009  2 26 18 50  9.32  60.4943 -152.7728    1.600  0.40 0.00 0.00 0.00        977
RDN 1.020 1.00   P
RDWB 1.140 1.00   P
REF 1.000 1.00   P
RSO 1.421 1.00   P
#  2009  2 22  4 51  8.26  60.4860 -152.7252    7.010  0.10 0.00 0.00 0.00        978
RDJH 4.540 1.00   S
RDN 1.000 1.00   P
REF 1.220 1.00   P
RSO 1.600 1.00   P
#  2009  2  4 10 32 42.20  60.4667 -152.7462    6.900  1.00 0.00 0.00 0.00        980
NCT 2.700 1.00   P
RDN 1.139 1.00   P
REF 1.159 1.00   P
RSO 1.000 1.00   P
#  2009  2 25 19 31  3.04  60.4872 -152.7800    1.020  0.80 0.00 0.00 0.00        981
RDN 1.080 1.00   P
REF 1.100 1.00   P
RSO 1.000 1.00   P
#  2009  2  2 18 29 49.64  60.4902 -152.7583    6.130  0.10 0.00 0.00 0.00        982
NCT 2.100 1.00   P
RDN 1.060 1.00   P
REF 1.000 1.00   P
RSO 1.000 1.00   P
#  2009  2  4  3 43 34.58  60.6202 -152.8600    7.820  0.20 0.00 0.00 0.00        983
NCT 1.000 1.00   P
RDN 1.839 1.00   P
REF 4.879 1.00   S
REF 2.479 1.00   P
RSO 2.740 1.00   P
#  2009  2 26 13 36 30.82  60.4888 -152.7825    9.330  0.90 0.00 0.00 0.00        984
RDN 1.260 1.00   P
RDWB 1.000 1.00   P
REF 1.220 1.00   P
RSO 1.221 1.00   P
#  2009  2  2 14 30 54.00  60.4992 -152.7488    3.950  0.30 0.00 0.00 0.00        985
NCT 2.280 1.00   P
RDN 1.060 1.00   P
REF 1.000 1.00   P
RSO 1.200 1.00   P
#  2009  2 26 13 38 10.48  60.4932 -152.7770    5.290  0.50 0.00 0.00 0.00        986
RDN 1.000 1.00   P
RDWB 1.140 1.00   P
REF 1.060 1.00   P
RSO 1.221 1.00   P
#  2009  2 26  7 38 20.68  60.4950 -152.7772    6.920  0.60 0.00 0.00 0.00        988
RDN 1.000 1.00   P
REF 1.040 1.00   P
RSO 1.121 1.00   P
#  2009  2 19 23 20 48.90  60.4905 -152.7678    3.550 -0.10 0.00 0.00 0.00        990
RDJH 4.670 1.00   S
RDN 1.010 1.00   P
REF 1.030 1.00   P
RSO 1.000 1.00   P
#  2009  2  4  1 48  9.10  60.4747 -152.7573    6.120  0.50 0.00 0.00 0.00        991
RDN 1.039 1.00   P
REF 1.119 1.00   P
RSO 1.000 1.00   P
#  2009  2 26  2 54  6.90  60.4765 -152.7612    8.080  0.50 0.00 0.00 0.00        992
RDN 1.039 1.00   P
RDWB 1.119 1.00   P
REF 1.139 1.00   P
RSO 1.000 1.00   P
#  2009  2 26 12 32 43.92  60.5008 -152.7872    4.060  0.50 0.00 0.00 0.00        993
RDN 1.140 1.00   P
RDWB 1.000 1.00   P
REF 1.100 1.00   P
RSO 1.481 1.00   P
#  2009  2 26  9 21 33.86  60.4740 -152.7570    7.590  0.30 0.00 0.00 0.00        994
RDN 1.379 1.00   P
RDWB 1.139 1.00   P
REF 1.119 1.00   P
RSO 1.000 1.00   P
#  2009  3 22 18 29 47.08  60.5120 -152.7305    7.350 -0.80 0.00 0.00 0.00       1000
RDN 1.280 1.00   P
RDWB 1.900 1.00   P
REF 1.000 1.00   P
RSO 1.441 1.00   P
#  2009  3 22 12  7 13.52  60.4888 -152.7642    2.230  0.20 0.00 0.00 0.00       1001
RDN 1.159 1.00   P
RDWB 1.239 1.00   P
REF 1.199 1.00   P
RSO 1.000 1.00   P
#  2009  3  5 20 55 29.06  60.4705 -152.7618    6.080  0.70 0.00 0.00 0.00       1031
RDN 1.220 1.00   P
RDWB 1.140 1.00   P
REF 1.000 1.00   P
RSO 1.180 1.00   P
#  2009  3 22 16 38 47.48  60.4827 -152.7680    4.100  0.70 0.00 0.00 0.00       1032
RDN 1.079 1.00   P
RDWB 1.199 1.00   P
REF 1.139 1.00   P
RSO 1.000 1.00   P
#  2009  3 28 16 10 45.92  60.5070 -152.7788    5.300  1.60 0.00 0.00 0.00       1033
RDN 1.000 1.00   P
RDWB 1.080 1.00   P
REF 1.440 1.00   P
#  2009  3 23  0 37 48.60  60.4847 -152.7790    6.390 -0.30 0.00 0.00 0.00       1034
RDN 1.060 1.00   P
REF 1.000 1.00   P
RSO 1.540 1.00   P
#  2009  3 22  7 57 51.30  60.4793 -152.7783    4.570 -0.30 0.00 0.00 0.00       1035
RDN 1.679 1.00   P
RDWB 1.199 1.00   P
REF 1.199 1.00   P
RSO 1.000 1.00   P
#  2009  3 22 18 36 42.08  60.4982 -152.7242    6.860  1.50 0.00 0.00 0.00       1036
RDJH 3.860 1.00   S
RDN 1.000 1.00   P
RDWB 1.120 1.00   P
REF 1.800 1.00   S
REF 1.040 1.00   P
RSO 1.321 1.00   P
