#  2009  3 21 16 18 13.10  60.4837 -152.7590    3.650  0.50 0.00 0.00 0.00       1793
NCT 2.600 1.00   P
RDJH 4.639 1.00   S
RDN 1.039 1.00   P
RDWB 2.039 1.00   S
REF 2.219 1.00   S
REF 1.119 1.00   P
RSO 1.000 1.00   P
#  2009  3 17  1 11 27.08  60.5132 -152.7817    1.570 -0.30 0.00 0.00 0.00       1794
RDN 1.000 1.00   P
RDWB 1.360 1.00   P
REF 1.200 1.00   P
RSO 1.889 1.00   P
#  2009  3 19 14 41 16.92  60.5557 -152.6907   10.020  0.60 0.00 0.00 0.00       1798
NCT 2.000 1.00   P
RDJH 2.600 1.00   S
RDN 1.120 1.00   P
RDWB 3.520 1.00   S
REF 2.860 1.00   S
REF 1.340 1.00   P
RSO 1.820 1.00   P
#  2009  3 22 11  5 57.68  60.4940 -152.7663    3.250  0.60 0.00 0.00 0.00       1799
RDJH 2.640 1.00   P
RDN 1.000 1.00   P
RDWB 1.100 1.00   P
REF 1.780 1.00   S
REF 1.040 1.00   P
RSO 1.321 1.00   P
#  2009  3 22 10 52 44.54  60.4940 -152.7703    3.960  0.10 0.00 0.00 0.00       1803
RDN 1.280 1.00   P
REF 1.880 1.00   S
REF 1.080 1.00   P
RSO 1.401 1.00   P
#  2009  3 14 18 43 25.00  60.4810 -152.7705    5.340  0.30 0.00 0.00 0.00       1812
RDN 1.079 1.00   P
RDWB 1.179 1.00   P
REF 1.159 1.00   P
RSO 1.000 1.00   P
#  2009  3 18 19 56 55.14  60.4928 -152.7833    6.760 -0.00 0.00 0.00 0.00       1817
RDN 1.000 1.00   P
RDWB 1.100 1.00   P
REF 1.060 1.00   P
RSO 1.401 1.00   P
#  2009  3 23  4 43 52.42  60.4963 -152.7460    3.550  0.50 0.00 0.00 0.00       1820
RDN 1.000 1.00   P
REF 1.060 1.00   P
RSO 1.560 1.00   P
#  2009  3 22 16 27 47.36  60.4730 -152.7823    7.070 -0.50 0.00 0.00 0.00       1821
RDN 1.100 1.00   P
RDWB 1.060 1.00   P
REF 1.000 1.00   P
#  2009  3 22 17 59  1.42  60.5007 -152.7183    5.870 -0.70 0.00 0.00 0.00       1822
RDN 1.600 1.00   P
RDWB 2.160 1.00   P
REF 1.000 1.00   P
RSO 1.521 1.00   P
#  2009  3 13  0 10 50.02  60.4658 -152.7727    1.210  0.60 0.00 0.00 0.00       1823
RDN 1.959 1.00   P
RDWB 2.039 1.00   P
REF 2.099 1.00   P
RSO 1.000 1.00   P
#  2009  3 22 14 30 44.18  60.4625 -152.7580    6.110  0.80 0.00 0.00 0.00       1824
NCT 3.000 1.00   P
RDJH 2.920 1.00   P
RDN 1.100 1.00   P
RDWB 1.040 1.00   P
REF 1.000 1.00   P
RSO 1.121 1.00   P
#  2009  3 22  8 50 57.04  60.5013 -152.7760    7.580  1.00 0.00 0.00 0.00       1826
RDN 1.000 1.00   P
RDWB 1.080 1.00   P
REF 1.120 1.00   P
RSO 1.561 1.00   P
#  2009  3 22 17 52  6.14  60.4863 -152.7470    5.520 -0.00 0.00 0.00 0.00       1827
RDN 1.040 1.00   P
RDWB 1.360 1.00   P
REF 1.000 1.00   P
RSO 1.581 1.00   P
#  2009  3  5  1  3  0.56  60.4730 -152.7640    7.330  0.10 0.00 0.00 0.00       1828
RDWB 1.120 1.00   P
REF 1.140 1.00   P
RSO 1.000 1.00   P
#  2009  3 23 12 58 42.48  60.4808 -152.7275    0.020  1.40 0.00 0.00 0.00       1829
NCT 3.581 1.00   P
RED 3.900 1.00   S
REF 1.860 1.00   S
REF 1.000 1.00   P
#  2009  3 22 18 58 42.20  60.4980 -152.7893    2.360  0.40 0.00 0.00 0.00       1830
RDN 1.020 1.00   P
RDWB 1.000 1.00   P
REF 2.220 1.00   S
REF 1.000 1.00   P
RSO 1.481 1.00   P
#  2009  3 27  7 30  8.22  60.4928 -152.7677    3.130  1.50 0.00 0.00 0.00       1831
NCT 2.540 1.00   P
RDN 1.000 1.00   P
RDWB 1.840 1.00   S
RED 3.040 1.00   S
REF 1.800 1.00   S
REF 1.100 1.00   P
#  2009  3 21  8 36 28.42  60.5013 -152.7650    2.650  0.40 0.00 0.00 0.00       1836
RDN 1.000 1.00   P
RDWB 1.240 1.00   P
REF 1.280 1.00   P
RSO 1.441 1.00   P
#  2009  3 23  2 40 47.98  60.4923 -152.7675    4.020 -0.20 0.00 0.00 0.00       1840
RDN 1.180 1.00   P
REF 1.000 1.00   P
RSO 1.220 1.00   P
#  2009  3 22 20 40 48.30  60.4863 -152.7462    9.050  0.30 0.00 0.00 0.00       1841
RDN 1.000 1.00   P
RDWB 1.120 1.00   P
REF 1.120 1.00   P
RSO 1.541 1.00   P
#  2009  3 23  0 33  6.54  60.4937 -152.7892    6.880 -0.00 0.00 0.00 0.00       1842
RDN 1.240 1.00   P
REF 1.200 1.00   P
RSO 1.000 1.00   P
#  2009  3 22 22 16 43.12  60.4772 -152.7628    5.080 -0.60 0.00 0.00 0.00       1872
RDN 1.380 1.00   P
RDWB 1.020 1.00   P
REF 1.000 1.00   P
RSO 1.281 1.00   P
#  2009  3 22  3 56 41.78  60.4842 -152.7693    3.250  0.40 0.00 0.00 0.00       1873
RD02 1.000 1.00   P
RDJH 4.880 1.00   S
RDN 1.460 1.00   P
RDWB 2.140 1.00   S
REF 2.220 1.00   S
REF 1.480 1.00   P
RSO 1.301 1.00   P
#  2009  3 23  1  8 33.70  60.4860 -152.7852    6.000 -0.00 0.00 0.00 0.00       1874
RDN 1.340 1.00   P
REF 1.000 1.00   P
RSO 1.020 1.00   P
#  2009  3 14  8 18 42.18  60.5090 -152.7347    6.950  0.50 0.00 0.00 0.00       1875
RDN 1.000 1.00   P
RDWB 1.740 1.00   P
REF 1.040 1.00   P
RSO 1.981 1.00   P
#  2009  3 22 20 53  2.84  60.4830 -152.7660    5.450 -0.40 0.00 0.00 0.00       1877
RDWB 1.000 1.00   P
REF 1.160 1.00   P
RSO 1.321 1.00   P
#  2009  3  8  4 59 51.84  60.4780 -152.7773    4.260  0.10 0.00 0.00 0.00       1878
RDN 1.480 1.00   P
RDWB 1.040 1.00   P
REF 1.000 1.00   P
RSO 1.080 1.00   P
#  2009  3 11 19 11 54.86  60.4995 -152.7815    1.700  0.30 0.00 0.00 0.00       1879
RDN 1.000 1.00   P
RDWB 1.180 1.00   P
REF 1.320 1.00   P
RSO 1.220 1.00   P
#  2009  3 14  9 23 39.66  60.4710 -152.7863    7.140  0.40 0.00 0.00 0.00       1880
RDN 1.039 1.00   P
RDWB 1.159 1.00   P
REF 1.139 1.00   P
RSO 1.000 1.00   P
#  2009  3 17 14 57 10.92  60.5047 -152.7707    8.440 -0.10 0.00 0.00 0.00       1881
RDN 1.000 1.00   P
RDWB 1.380 1.00   P
REF 1.440 1.00   P
RSO 1.210 1.00   P
#  2009  3 22 20 59 51.62  60.4805 -152.7723    4.290 -0.00 0.00 0.00 0.00       1889
RDN 1.319 1.00   P
RDWB 1.179 1.00   P
REF 1.179 1.00   P
RSO 1.000 1.00   P
#  2009  3 23  5 18 17.60  60.4867 -152.7693    3.400  0.30 0.00 0.00 0.00       1966
RDN 1.000 1.00   P
REF 1.120 1.00   P
RSO 1.280 1.00   P
#  2009  3 22 16 25 21.54  60.4920 -152.7448    3.870 -0.50 0.00 0.00 0.00       1970
RDN 1.100 1.00   P
RDWB 1.900 1.00   P
REF 1.000 1.00   P
RSO 1.381 1.00   P
#  2009  3 10 18  6 14.04  60.4888 -152.7603    8.350  0.60 0.00 0.00 0.00       1977
RDN 1.320 1.00   P
RDWB 1.520 1.00   P
REF 1.260 1.00   P
RSO 1.000 1.00   P
#  2009  3 22  9 57 13.36  60.5020 -152.7780    6.510  0.60 0.00 0.00 0.00       1979
RDN 1.000 1.00   P
RDWB 1.200 1.00   P
REF 1.180 1.00   P
RSO 1.521 1.00   P
#  2009  3 23  3 43  0.34  60.4912 -152.7590    2.980 -0.10 0.00 0.00 0.00       1998
RDN 1.080 1.00   P
REF 1.000 1.00   P
RSO 1.620 1.00   P
#  2009  3 23  1 57 49.38  60.4853 -152.7647    6.310 -0.40 0.00 0.00 0.00       1999
RDN 1.000 1.00   P
REF 1.120 1.00   P
RSO 1.420 1.00   P
#  2009  3 27  7  9 32.26  60.4937 -152.7707    3.040  1.30 0.00 0.00 0.00       2000
NCT 2.960 1.00   P
RDN 1.000 1.00   P
RDWB 1.580 1.00   P
REF 1.620 1.00   P
#  2009  3 23  3  9 55.58  60.4882 -152.7698    3.560  0.40 0.00 0.00 0.00       2016
RDN 1.000 1.00   P
REF 1.140 1.00   P
RSO 1.000 1.00   P
#  2009  3 21 18 40 27.64  60.4840 -152.7665    5.170  0.40 0.00 0.00 0.00       2017
RD03 1.299 1.00   P
RDN 1.039 1.00   P
RDWB 1.139 1.00   P
REF 1.139 1.00   P
RSO 1.000 1.00   P
#  2009  3 22 22 50 17.80  60.4915 -152.7692    5.300  0.10 0.00 0.00 0.00       2027
RDN 1.480 1.00   P
RDWB 1.000 1.00   P
REF 1.040 1.00   P
RSO 1.641 1.00   P
#  2009  3 22  2 17 39.82  60.5005 -152.7670    5.330  0.50 0.00 0.00 0.00       2034
RDN 1.000 1.00   P
RDWB 1.180 1.00   P
REF 1.120 1.00   P
RSO 1.361 1.00   P
#  2009  3 22 15 23 35.58  60.4800 -152.7618    5.460  0.30 0.00 0.00 0.00       2035
RDN 1.500 1.00   P
RDWB 1.000 1.00   P
REF 1.020 1.00   P
RSO 1.381 1.00   P
#  2009  3 29 17 59 43.30  60.4980 -152.7540    4.390  0.70 0.00 0.00 0.00       2036
NCT 2.420 1.00   P
RDN 1.000 1.00   P
RDWB 2.160 1.00   S
REF 1.760 1.00   S
REF 1.100 1.00   P
#  2009  3 22 23 31  4.74  60.4818 -152.7492    3.260  0.70 0.00 0.00 0.00       2037
RDN 1.340 1.00   P
RDWB 1.420 1.00   P
REF 1.000 1.00   P
RSO 1.041 1.00   P
#  2009  3 18 13 39 29.28  60.4897 -152.7782    6.840  0.10 0.00 0.00 0.00       2045
RDN 1.000 1.00   P
RDWB 1.060 1.00   P
REF 1.100 1.00   P
RSO 1.021 1.00   P
#  2009  3 22 22 46 24.58  60.4862 -152.7698    3.640 -0.10 0.00 0.00 0.00       2046
REF 1.760 1.00   S
REF 1.060 1.00   P
RSO 1.161 1.00   P
#  2009  3 22 17 19 26.08  60.4828 -152.7660    3.820 -0.00 0.00 0.00 0.00       2076
RDN 1.099 1.00   P
RDWB 1.159 1.00   P
REF 1.859 1.00   S
RSO 1.000 1.00   P
#  2009  3 23  0  2 59.04  60.4952 -152.7690    7.570  1.10 0.00 0.00 0.00       2077
RDN 1.060 1.00   P
REF 1.000 1.00   P
RSO 1.500 1.00   P
#  2009  3 22  6  1 21.44  60.4820 -152.7688    3.720  0.40 0.00 0.00 0.00       2080
RDJH 2.659 1.00   P
RDN 1.159 1.00   P
RDWB 1.119 1.00   P
REF 1.159 1.00   P
RSO 1.000 1.00   P
#  2009  3 22 17 43  9.84  60.5012 -152.7773    3.710  0.10 0.00 0.00 0.00       2082
RDN 1.000 1.00   P
RDWB 1.080 1.00   P
REF 1.060 1.00   P
RSO 1.421 1.00   P
#  2009  3 19  8 25 26.26  60.4980 -152.8110    7.990 -0.60 0.00 0.00 0.00       2083
RDN 1.000 1.00   P
RDWB 1.000 1.00   P
REF 1.400 1.00   P
RSO 1.700 1.00   P
#  2009  3 22 11  0 16.16  60.5078 -152.7532    6.030 -0.20 0.00 0.00 0.00       2084
RDN 1.500 1.00   P
RDWB 1.760 1.00   P
REF 2.600 1.00   S
REF 1.000 1.00   P
RSO 1.901 1.00   P
#  2009  3 21  3 48 21.42  60.4852 -152.7668    4.430  0.40 0.00 0.00 0.00       2086
RD02 1.000 1.00   P
RDN 1.040 1.00   P
RDWB 1.200 1.00   P
REF 1.160 1.00   P
RSO 1.061 1.00   P
#  2009  3 22  9 18 50.02  60.5007 -152.7547    7.780  0.50 0.00 0.00 0.00       2146
RDN 1.000 1.00   P
RDWB 1.000 1.00   P
REF 1.040 1.00   P
RSO 1.321 1.00   P
#  2009  3 22  6 42 44.12  60.4870 -152.7685    5.650  0.70 0.00 0.00 0.00       2150
RD02 5.980 1.00   P
RDN 6.040 1.00   P
RDWB 6.920 1.00   S
REF 6.960 1.00   S
REF 6.120 1.00   P
RSO 6.001 1.00   P
#  2009  3 22 16 40  9.24  60.4983 -152.7417    6.360  0.90 0.00 0.00 0.00       2156
RDN 1.000 1.00   P
RDWB 1.700 1.00   P
REF 1.060 1.00   P
RSO 1.841 1.00   P
#  2009  3 22 18 35  6.26  60.4757 -152.7432    8.020  0.10 0.00 0.00 0.00       2159
RDN 1.000 1.00   P
RDWB 1.000 1.00   P
REF 1.020 1.00   P
RSO 1.201 1.00   P
#  2009  3 22  6 17 42.74  60.4880 -152.7720    3.440  0.50 0.00 0.00 0.00       2160
RDN 1.139 1.00   P
RDWB 1.079 1.00   P
REF 1.159 1.00   P
RSO 1.000 1.00   P
#  2009  3 15 14 52 48.20  60.4792 -152.7855    6.800 -0.00 0.00 0.00 0.00       2162
RDN 1.180 1.00   P
RDWB 1.120 1.00   P
REF 1.140 1.00   P
RSO 1.000 1.00   P
#  2009  3 14 23 17 26.88  60.4990 -152.7712    4.320  0.40 0.00 0.00 0.00       2164
RDN 1.000 1.00   P
RDWB 1.240 1.00   P
REF 1.300 1.00   P
RSO 1.221 1.00   P
#  2009  3 19  9 51 28.18  60.4800 -152.8032    6.290 -0.30 0.00 0.00 0.00       2165
RDN 1.460 1.00   P
RDWB 1.220 1.00   P
REF 1.280 1.00   P
RSO 1.000 1.00   P
#  2009  3 22  9 46 42.10  60.4942 -152.7153    3.720 -0.00 0.00 0.00 0.00       2166
RDN 1.560 1.00   P
RDWB 2.300 1.00   P
REF 1.000 1.00   P
RSO 1.781 1.00   P
#  2009  3 27  3 47  0.88  60.4813 -152.7670    3.620  0.60 0.00 0.00 0.00       2167
RDE 2.860 1.00   P
RDN 1.000 1.00   P
RDWB 1.000 1.00   P
REF 1.040 1.00   P
#  2009  3 22  9 10 33.88  60.4967 -152.7648    5.290 -0.30 0.00 0.00 0.00       2169
RDN 1.000 1.00   P
REF 1.160 1.00   P
RSO 1.501 1.00   P
#  2009  3 14 14 15 58.42  60.4912 -152.7713    1.130 -0.70 0.00 0.00 0.00       2170
RDN 1.439 1.00   P
RDWB 1.819 1.00   P
REF 2.019 1.00   P
RSO 1.000 1.00   P
#  2009  3 13  9 57 11.24  60.4948 -152.7673    5.330  0.20 0.00 0.00 0.00       2171
RDN 1.100 1.00   P
RDWB 1.140 1.00   P
REF 1.840 1.00   S
REF 1.000 1.00   P
RSO 1.201 1.00   P
#  2009  3 23  6 40 54.22  60.4983 -152.7750    2.300  1.50 0.00 0.00 0.00       2173
NCT 2.441 1.00   P
RDT 4.481 1.00   P
RED 1.780 1.00   P
REF 1.000 1.00   P
#  2009  3 22 20 15 24.70  60.4907 -152.7673    6.840 -0.60 0.00 0.00 0.00       2177
RDN 1.100 1.00   P
RDWB 1.000 1.00   P
REF 1.040 1.00   P
RSO 1.741 1.00   P
#  2009  3 21 12 53 11.74  60.4827 -152.7510    4.530  0.70 0.00 0.00 0.00       2178
RDN 1.119 1.00   P
RDWB 1.039 1.00   P
REF 1.119 1.00   P
RSO 1.000 1.00   P
#  2009  3 22 12 21 35.70  60.4887 -152.7710    3.050  0.50 0.00 0.00 0.00       2193
RDJH 2.580 1.00   P
RDN 1.000 1.00   P
RDWB 1.100 1.00   P
REF 1.220 1.00   P
RSO 1.041 1.00   P
#  2009  3 13  6 14 58.00  60.4868 -152.7647    6.880  0.50 0.00 0.00 0.00       2194
RDN 1.480 1.00   P
RDWB 1.600 1.00   P
REF 1.000 1.00   P
RSO 1.521 1.00   P
#  2009  3 22 17 11 40.40  60.4747 -152.7692    5.500 -0.10 0.00 0.00 0.00       2195
RDN 1.440 1.00   P
RDWB 1.000 1.00   P
REF 1.100 1.00   P
RSO 1.201 1.00   P
#  2009  3 23  3 28 27.52  60.5040 -152.7882    7.850  0.60 0.00 0.00 0.00       2196
RDN 1.040 1.00   P
REF 1.000 1.00   P
RSO 1.400 1.00   P
#  2009  3 21  4 16 15.68  60.4948 -152.7738    2.300  0.50 0.00 0.00 0.00       2197
NCT 2.601 1.00   P
RDN 1.000 1.00   P
RDWB 1.020 1.00   P
REF 1.120 1.00   P
RSO 1.141 1.00   P
#  2009  3 15 20 58 50.72  60.4793 -152.7622    7.550  0.70 0.00 0.00 0.00       2198
RDN 1.040 1.00   P
RDWB 1.140 1.00   P
REF 1.080 1.00   P
RSO 1.000 1.00   P
#  2009  3 24  4 25  2.86  60.4933 -152.7587    5.430  0.60 0.00 0.00 0.00       2216
NCT 2.300 1.00   P
RDN 1.000 1.00   P
RED 1.680 1.00   P
REF 1.080 1.00   P
#  2009  3 12 13 33 57.96  60.4865 -152.7563    9.420  0.50 0.00 0.00 0.00       2217
RDN 1.060 1.00   P
RDWB 1.160 1.00   P
REF 1.000 1.00   P
RSO 1.101 1.00   P
#  2009  3 22 10 25 50.52  60.4802 -152.7712    2.790  0.70 0.00 0.00 0.00       2219
NCT 3.259 1.00   P
RDJH 2.559 1.00   P
RDN 1.039 1.00   P
RDWB 1.059 1.00   P
REF 1.159 1.00   P
RSO 1.000 1.00   P
#  2009  3 23  2 35 48.06  60.4863 -152.7760    4.200  0.10 0.00 0.00 0.00       2220
RDN 1.060 1.00   P
REF 1.000 1.00   P
RSO 1.260 1.00   P
#  2009  3 13 15 18 29.88  60.4750 -152.7768    5.760 -0.10 0.00 0.00 0.00       2221
RDJH 2.579 1.00   P
RDN 1.039 1.00   P
RDWB 1.119 1.00   P
REF 1.079 1.00   P
RSO 1.000 1.00   P
#  2009  3 22 19 22 54.12  60.4980 -152.7592    6.780 -0.10 0.00 0.00 0.00       2222
RDWB 1.320 1.00   P
REF 1.000 1.00   P
RSO 1.821 1.00   P
#  2009  3 22 17 16 14.58  60.4890 -152.7697    3.030 -0.00 0.00 0.00 0.00       2223
RDN 1.000 1.00   P
RDWB 1.040 1.00   P
REF 1.040 1.00   P
RSO 1.141 1.00   P
#  2009  3 23  2 54 29.90  60.4802 -152.7712    2.770  0.20 0.00 0.00 0.00       2229
RDN 1.480 1.00   P
REF 1.100 1.00   P
RSO 1.000 1.00   P
#  2009  3 22 13 51 39.84  60.4878 -152.7650    3.040  0.50 0.00 0.00 0.00       2230
RDJH 4.579 1.00   S
RDN 1.019 1.00   P
RDWB 1.179 1.00   P
REF 1.119 1.00   P
RSO 1.000 1.00   P
#  2009  3 27  6 36  6.08  60.4905 -152.7680    3.060  1.70 0.00 0.00 0.00       2236
NCT 2.560 1.00   P
RDN 1.000 1.00   P
RDWB 1.800 1.00   S
RED 2.960 1.00   S
REF 1.800 1.00   S
REF 1.080 1.00   P
#  2009  3 11  2 41 47.26  60.5087 -152.7710    3.850  0.30 0.00 0.00 0.00       2258
RDN 1.000 1.00   P
RDWB 1.220 1.00   P
REF 1.320 1.00   P
RSO 1.420 1.00   P
#  2009  3 22  4 44 11.60  60.4902 -152.7727    3.420  0.80 0.00 0.00 0.00       2261
NCT 2.639 1.00   P
RDJH 2.359 1.00   P
RDN 1.079 1.00   P
RDWB 1.159 1.00   P
REF 1.179 1.00   P
RSO 1.000 1.00   P
#  2009  3 11 21 39 27.38  60.5312 -152.7587    8.800 -0.30 0.00 0.00 0.00       2262
RDJH 2.780 1.00   S
RDN 1.000 1.00   P
RDWB 1.400 1.00   P
REF 1.340 1.00   P
RSO 1.800 1.00   P
#  2009  3 22 17 41 24.30  60.4903 -152.7687    1.760 -0.00 0.00 0.00 0.00       2263
RDN 1.059 1.00   P
RDWB 1.119 1.00   P
REF 1.059 1.00   P
RSO 1.000 1.00   P
#  2009  3 21  6 20  3.76  60.4795 -152.7713    3.850 -0.00 0.00 0.00 0.00       2264
RDN 1.520 1.00   P
RDWB 1.000 1.00   P
REF 1.020 1.00   P
RSO 1.061 1.00   P
#  2009  3  5 22 44 46.38  60.4768 -152.7965    9.910  0.80 0.00 0.00 0.00       2266
RDN 1.160 1.00   P
RDWB 1.180 1.00   P
REF 2.800 1.00   S
REF 1.180 1.00   P
RSO 1.000 1.00   P
#  2009  3 22 19 17 31.94  60.4790 -152.7720    5.630  0.80 0.00 0.00 0.00       2269
RDJH 4.580 1.00   S
RDN 1.000 1.00   P
RDWB 1.180 1.00   P
REF 1.220 1.00   P
RSO 1.141 1.00   P
#  2009  3  2 17 31 24.32  60.4922 -152.7833    5.050  0.40 0.00 0.00 0.00       2271
RDN 1.280 1.00   P
RDWB 1.120 1.00   P
REF 1.000 1.00   P
RSO 1.300 1.00   P
#  2009  3 22 20 16 44.08  60.4855 -152.7640    5.670 -0.30 0.00 0.00 0.00       2272
RDN 1.580 1.00   P
RDWB 1.000 1.00   P
REF 1.000 1.00   P
RSO 1.141 1.00   P
#  2009  3 22  8 50 45.94  60.4883 -152.7723    3.320  0.40 0.00 0.00 0.00       2273
RDN 1.080 1.00   P
RDWB 1.000 1.00   P
REF 1.140 1.00   P
RSO 1.021 1.00   P
#  2009  3 23  4 44 52.00  60.4947 -152.7730    7.040  0.60 0.00 0.00 0.00       2276
RDN 1.000 1.00   P
REF 1.300 1.00   P
RSO 1.440 1.00   P
#  2009  3 22  5 32 49.68  60.4970 -152.7660    3.140  0.40 0.00 0.00 0.00       2279
RDJH 4.640 1.00   S
RDN 1.000 1.00   P
RDWB 1.100 1.00   P
REF 1.080 1.00   P
RSO 1.341 1.00   P
#  2009  3  9 23 58 41.06  60.5120 -152.7795    3.930 -0.00 0.00 0.00 0.00       2282
RDN 1.000 1.00   P
RDWB 1.300 1.00   P
REF 1.480 1.00   P
RSO 1.541 1.00   P
#  2009  3 22 19 11  5.58  60.5023 -152.7763    5.260 -0.10 0.00 0.00 0.00       2286
RDN 1.140 1.00   P
RDWB 1.120 1.00   P
REF 2.160 1.00   S
REF 1.000 1.00   P
RSO 1.641 1.00   P
#  2009  3 21  9 51  4.26  60.4855 -152.7648    3.570 -0.10 0.00 0.00 0.00       2303
NCT 2.600 1.00   P
RDJH 2.579 1.00   P
RDN 1.059 1.00   P
RDWB 1.199 1.00   P
REF 1.159 1.00   P
RSO 1.000 1.00   P
#  2009  3 15  0 34 48.62  60.4965 -152.7698    5.250 -0.20 0.00 0.00 0.00       2304
RDN 1.000 1.00   P
RDWB 1.200 1.00   P
REF 1.300 1.00   P
RSO 2.440 1.00   P
#  2009  3 21  0 47 11.98  60.4942 -152.7748    2.700  0.60 0.00 0.00 0.00       2305
NCT 2.561 1.00   P
RDJH 2.520 1.00   P
RDN 1.000 1.00   P
RDWB 1.060 1.00   P
REF 1.100 1.00   P
RSO 1.201 1.00   P
#  2009  3 22 19 16 25.38  60.4780 -152.7755    5.080  0.20 0.00 0.00 0.00       2308
RDN 1.459 1.00   P
RDWB 1.079 1.00   P
REF 1.099 1.00   P
RSO 1.000 1.00   P
#  2009  3 12  8  7 52.80  60.4683 -152.7555    5.780  0.50 0.00 0.00 0.00       2328
RDJH 4.820 1.00   S
RDN 1.060 1.00   P
RDWB 1.260 1.00   P
REF 1.000 1.00   P
RSO 1.201 1.00   P
#  2009  3 22 20  7 13.46  60.4685 -152.7677    3.300 -0.30 0.00 0.00 0.00       2330
RDN 1.820 1.00   P
RDWB 1.000 1.00   P
REF 1.020 1.00   P
RSO 1.141 1.00   P
#  2009  3 21 20 37 48.24  60.4920 -152.7748    5.650  0.10 0.00 0.00 0.00       2331
RDN 1.000 1.00   P
RDWB 1.080 1.00   P
REF 2.120 1.00   S
REF 1.040 1.00   P
RSO 1.541 1.00   P
#  2009  3 27  6 42 13.38  60.4900 -152.7692    3.260  1.00 0.00 0.00 0.00       2336
NCT 2.580 1.00   P
RDN 1.000 1.00   P
RDWB 1.120 1.00   P
REF 1.080 1.00   P
#  2009  3 22  0 39  0.12  60.4850 -152.7653    3.690  0.60 0.00 0.00 0.00       2340
RDN 1.000 1.00   P
RDWB 1.080 1.00   P
REF 1.040 1.00   P
RSO 1.361 1.00   P
#  2009  3 27  6 58  8.34  60.4912 -152.7673    2.890  1.60 0.00 0.00 0.00       2342
NCT 2.540 1.00   P
RDN 1.000 1.00   P
RDWB 1.780 1.00   S
RED 2.940 1.00   S
REF 1.820 1.00   S
REF 1.060 1.00   P
#  2009  3 27  7  9 57.10  60.4843 -152.7688    3.620  1.10 0.00 0.00 0.00       2346
RDN 1.020 1.00   P
RDWB 1.000 1.00   P
REF 1.120 1.00   P
#  2009  3 22 19 55  1.46  60.4858 -152.7657    5.680  0.40 0.00 0.00 0.00       2366
RDN 1.000 1.00   P
RDWB 1.100 1.00   P
REF 1.020 1.00   P
RSO 1.361 1.00   P
#  2009  3 14  3 30 34.86  60.4835 -152.7645    7.260  0.10 0.00 0.00 0.00       2443
RDN 1.059 1.00   P
RDWB 1.139 1.00   P
REF 1.019 1.00   P
RSO 1.000 1.00   P
#  2009  3 22 18 30 40.36  60.4720 -152.7730    3.240  0.00 0.00 0.00 0.00       2447
RDN 1.619 1.00   P
RDWB 1.439 1.00   P
REF 1.439 1.00   P
RSO 1.000 1.00   P
#  2009  3 23  3 11 31.06  60.4930 -152.7598    5.520  0.30 0.00 0.00 0.00       2448
RDN 1.000 1.00   P
REF 1.180 1.00   P
RSO 1.040 1.00   P
#  2009  3 22 13 27  7.12  60.4713 -152.7510    6.090  0.20 0.00 0.00 0.00       2460
RDJH 2.739 1.00   P
RDN 1.219 1.00   P
RDWB 1.019 1.00   P
REF 1.139 1.00   P
RSO 1.000 1.00   P
#  2009  3 22 10 58 51.12  60.4905 -152.7630    3.420  0.80 0.00 0.00 0.00       2461
RDJH 2.659 1.00   P
RDN 1.099 1.00   P
RDWB 1.179 1.00   P
REF 1.139 1.00   P
RSO 1.000 1.00   P
#  2009  3 22 11 22 48.66  60.4890 -152.7648    2.630  0.50 0.00 0.00 0.00       2464
RDJH 5.419 1.00   S
RDN 1.099 1.00   P
RDWB 1.179 1.00   P
REF 1.139 1.00   P
RSO 1.000 1.00   P
