<?xml version='1.0' encoding='utf-8'?>
<q:quakeml xmlns="http://quakeml.org/xmlns/bed/1.2" xmlns:q="http://quakeml.org/xmlns/quakeml/1.2">
  <eventParameters publicID="smi:local/aa7fa2da-f985-4210-89d4-49aea658aad7">
    <event publicID="smi:local/event/60312933">
      <preferredOriginID>smi:local/origin/60312933</preferredOriginID>
      <preferredMagnitudeID>smi:local/magnitude/60312933</preferredMagnitudeID>
      <origin publicID="smi:local/origin/60312933">
        <time>
          <value>2009-02-25T07:11:23.970000Z</value>
        </time>
        <latitude>
          <value>60.48683333333334</value>
        </latitude>
        <longitude>
          <value>-152.77633333333333</value>
        </longitude>
        <depth>
          <value>0.5</value>
        </depth>
        <quality>
          <standardError>0.08</standardError>
        </quality>
        <arrival publicID="smi:local/9f0e9da1-efc3-4371-80ef-0a6019b35a3f">
          <pickID>None</pickID>
          <phase>P</phase>
          <azimuth>315.0</azimuth>
          <distance>11.8</distance>
          <takeoffAngle>
            <value>52.0</value>
          </takeoffAngle>
          <timeResidual>0.13</timeResidual>
          <timeWeight>-0.2</timeWeight>
        </arrival>
        <arrival publicID="smi:local/83495aef-efd7-4d4f-a9b6-b4c07804c235">
          <pickID>None</pickID>
          <phase>P</phase>
          <azimuth>26.0</azimuth>
          <distance>4.4</distance>
          <takeoffAngle>
            <value>113.0</value>
          </takeoffAngle>
          <timeResidual>-0.09</timeResidual>
          <timeWeight>1.0</timeWeight>
        </arrival>
        <arrival publicID="smi:local/fef80586-a3cb-4f5c-90e2-cd6db5ba2714">
          <pickID>None</pickID>
          <phase>S</phase>
          <azimuth>87.0</azimuth>
          <distance>4.5</distance>
          <takeoffAngle>
            <value>115.0</value>
          </takeoffAngle>
          <timeResidual>0.11</timeResidual>
          <timeWeight>-1.0</timeWeight>
        </arrival>
        <arrival publicID="smi:local/6aa1ef3e-9314-4ba3-976c-528769f272c0">
          <pickID>None</pickID>
          <phase>P</phase>
          <azimuth>87.0</azimuth>
          <distance>4.5</distance>
          <takeoffAngle>
            <value>115.0</value>
          </takeoffAngle>
          <timeResidual>-0.1</timeResidual>
          <timeWeight>1.0</timeWeight>
        </arrival>
        <arrival publicID="smi:local/03320b9d-f372-4be8-bafc-3e4d23bad63f">
          <pickID>None</pickID>
          <phase>P</phase>
          <azimuth>158.0</azimuth>
          <distance>3.0</distance>
          <takeoffAngle>
            <value>128.0</value>
          </takeoffAngle>
          <timeResidual>0.04</timeResidual>
          <timeWeight>1.0</timeWeight>
        </arrival>
      </origin>
      <magnitude publicID="smi:local/magnitude/60312933">
        <mag>
          <value>0.6</value>
        </mag>
      </magnitude>
      <pick publicID="smi:local/88e236f9-81c2-4f9c-a4ca-29a207b8f695">
        <time>
          <value>2009-02-25T07:11:26.380000Z</value>
        </time>
        <waveformID networkCode="AV" stationCode="NCT" locationCode="" channelCode="EHZ"></waveformID>
        <phaseHint>P</phaseHint>
      </pick>
      <pick publicID="smi:local/e1881180-906e-4c8f-8df1-f165ac52e2f3">
        <time>
          <value>2009-02-25T07:11:24.820000Z</value>
        </time>
        <waveformID networkCode="AV" stationCode="RDN" locationCode="" channelCode="EHZ"></waveformID>
        <phaseHint>P</phaseHint>
      </pick>
      <pick publicID="smi:local/92f49871-a4e1-41fc-bda1-8eb4fdadd1a8">
        <time>
          <value>2009-02-25T07:11:25.820000Z</value>
        </time>
        <waveformID networkCode="AV" stationCode="REF" locationCode="" channelCode="EHE"></waveformID>
        <phaseHint>S</phaseHint>
      </pick>
      <pick publicID="smi:local/538dbd21-da50-46d1-8989-00f165423ced">
        <time>
          <value>2009-02-25T07:11:24.850000Z</value>
        </time>
        <waveformID networkCode="AV" stationCode="REF" locationCode="" channelCode="EHZ"></waveformID>
        <phaseHint>P</phaseHint>
      </pick>
      <pick publicID="smi:local/3ed2e9c9-bb95-4634-a03b-195d8864ad26">
        <time>
          <value>2009-02-25T07:11:24.760000Z</value>
        </time>
        <waveformID networkCode="AV" stationCode="RSO" locationCode="" channelCode="EHZ"></waveformID>
        <phaseHint>P</phaseHint>
      </pick>
    </event>
    <event publicID="smi:local/event/60313083">
      <preferredOriginID>smi:local/origin/60313083</preferredOriginID>
      <preferredMagnitudeID>smi:local/magnitude/60313083</preferredMagnitudeID>
      <origin publicID="smi:local/origin/60313083">
        <time>
          <value>2009-02-25T14:36:00.340000Z</value>
        </time>
        <latitude>
          <value>60.464666666666666</value>
        </latitude>
        <longitude>
          <value>-152.748</value>
        </longitude>
        <depth>
          <value>4.53</value>
        </depth>
        <quality>
          <standardError>0.06</standardError>
        </quality>
        <arrival publicID="smi:local/6128107b-acef-437b-818a-d8b05cc6d03f">
          <pickID>None</pickID>
          <phase>P</phase>
          <azimuth>13.0</azimuth>
          <distance>14.5</distance>
          <takeoffAngle>
            <value>104.0</value>
          </takeoffAngle>
          <timeResidual>0.42</timeResidual>
          <timeWeight>0.2</timeWeight>
        </arrival>
        <arrival publicID="smi:local/bee6bde7-05df-462d-a6dc-d1275fb55d32">
          <pickID>None</pickID>
          <phase>P</phase>
          <azimuth>317.0</azimuth>
          <distance>14.700000000000001</distance>
          <takeoffAngle>
            <value>104.0</value>
          </takeoffAngle>
          <timeResidual>-0.01</timeResidual>
          <timeWeight>-1.0</timeWeight>
        </arrival>
        <arrival publicID="smi:local/eb5f9fb6-c3e2-44a9-8278-94dce88b7255">
          <pickID>None</pickID>
          <phase>S</phase>
          <azimuth>347.0</azimuth>
          <distance>14.3</distance>
          <takeoffAngle>
            <value>105.0</value>
          </takeoffAngle>
          <timeResidual>-0.08</timeResidual>
          <timeWeight>-1.0</timeWeight>
        </arrival>
        <arrival publicID="smi:local/96951cfa-4f2c-4161-8031-088eb2e24886">
          <pickID>None</pickID>
          <phase>P</phase>
          <azimuth>347.0</azimuth>
          <distance>14.3</distance>
          <takeoffAngle>
            <value>105.0</value>
          </takeoffAngle>
          <timeResidual>0.09</timeResidual>
          <timeWeight>0.2</timeWeight>
        </arrival>
        <arrival publicID="smi:local/0d5d4877-b727-4048-8512-30e9a209ad8f">
          <pickID>None</pickID>
          <phase>P</phase>
          <azimuth>3.0</azimuth>
          <distance>6.4</distance>
          <takeoffAngle>
            <value>126.0</value>
          </takeoffAngle>
          <timeResidual>-0.66</timeResidual>
          <timeWeight>1.0</timeWeight>
        </arrival>
        <arrival publicID="smi:local/2696282a-c671-4c70-b046-fb4179ffdb45">
          <pickID>None</pickID>
          <phase>S</phase>
          <azimuth>47.0</azimuth>
          <distance>4.0</distance>
          <takeoffAngle>
            <value>142.0</value>
          </takeoffAngle>
          <timeResidual>-0.04</timeResidual>
          <timeWeight>-1.0</timeWeight>
        </arrival>
        <arrival publicID="smi:local/509fb783-09fa-4578-a1d7-dfc31cb524b4">
          <pickID>None</pickID>
          <phase>P</phase>
          <azimuth>47.0</azimuth>
          <distance>4.0</distance>
          <takeoffAngle>
            <value>142.0</value>
          </takeoffAngle>
          <timeResidual>-0.01</timeResidual>
          <timeWeight>-1.0</timeWeight>
        </arrival>
        <arrival publicID="smi:local/76c61e6c-801d-4a57-b33c-b917a4fa9301">
          <pickID>None</pickID>
          <phase>P</phase>
          <azimuth>232.0</azimuth>
          <distance>0.6000000000000001</distance>
          <takeoffAngle>
            <value>174.0</value>
          </takeoffAngle>
          <timeResidual>0.06</timeResidual>
          <timeWeight>1.0</timeWeight>
        </arrival>
      </origin>
      <magnitude publicID="smi:local/magnitude/60313083">
        <mag>
          <value>1.4</value>
        </mag>
      </magnitude>
      <pick publicID="smi:local/9a0d811b-685e-4ed1-80e7-21a1d7c0498c">
        <time>
          <value>2009-02-25T14:36:03.390000Z</value>
        </time>
        <waveformID networkCode="AV" stationCode="DFR" locationCode="" channelCode="EHZ"></waveformID>
        <phaseHint>P</phaseHint>
      </pick>
      <pick publicID="smi:local/e02fba72-5058-4142-ba1b-2ff2cc6444f7">
        <time>
          <value>2009-02-25T14:36:03.000000Z</value>
        </time>
        <waveformID networkCode="AV" stationCode="NCT" locationCode="" channelCode="EHZ"></waveformID>
        <phaseHint>P</phaseHint>
      </pick>
      <pick publicID="smi:local/f9ac6b61-d1e5-4efa-8299-db9fc2e10c16">
        <time>
          <value>2009-02-25T14:36:04.980000Z</value>
        </time>
        <waveformID networkCode="AV" stationCode="RDJH" locationCode="" channelCode="BHN"></waveformID>
        <phaseHint>S</phaseHint>
      </pick>
      <pick publicID="smi:local/84c25791-9a6c-4946-ad7f-4558b4e9082a">
        <time>
          <value>2009-02-25T14:36:03.080000Z</value>
        </time>
        <waveformID networkCode="AV" stationCode="RDJH" locationCode="" channelCode="BHZ"></waveformID>
        <phaseHint>P</phaseHint>
      </pick>
      <pick publicID="smi:local/07e35f00-eb96-4cf6-88be-f8cb08dc5d95">
        <time>
          <value>2009-02-25T14:36:01.200000Z</value>
        </time>
        <waveformID networkCode="AV" stationCode="RDN" locationCode="" channelCode="EHZ"></waveformID>
        <phaseHint>P</phaseHint>
      </pick>
      <pick publicID="smi:local/36a519fe-7e55-4b82-bb37-a8bd13959475">
        <time>
          <value>2009-02-25T14:36:02.600000Z</value>
        </time>
        <waveformID networkCode="AV" stationCode="REF" locationCode="" channelCode="EHE"></waveformID>
        <phaseHint>S</phaseHint>
      </pick>
      <pick publicID="smi:local/4724a6b0-fdfb-42b2-94f1-122153afa785">
        <time>
          <value>2009-02-25T14:36:01.620000Z</value>
        </time>
        <waveformID networkCode="AV" stationCode="REF" locationCode="" channelCode="EHZ"></waveformID>
        <phaseHint>P</phaseHint>
      </pick>
      <pick publicID="smi:local/53a6e2ea-67be-4683-9d2f-67ea3be75a69">
        <time>
          <value>2009-02-25T14:36:01.540000Z</value>
        </time>
        <waveformID networkCode="AV" stationCode="RSO" locationCode="" channelCode="EHZ"></waveformID>
        <phaseHint>P</phaseHint>
      </pick>
    </event>
    <event publicID="smi:local/event/60313113">
      <preferredOriginID>smi:local/origin/60313113</preferredOriginID>
      <preferredMagnitudeID>smi:local/magnitude/60313113</preferredMagnitudeID>
      <origin publicID="smi:local/origin/60313113">
        <time>
          <value>2009-02-25T19:25:20.180000Z</value>
        </time>
        <latitude>
          <value>60.48266666666667</value>
        </latitude>
        <longitude>
          <value>-152.72616666666667</value>
        </longitude>
        <depth>
          <value>4.53</value>
        </depth>
        <quality>
          <standardError>0.19</standardError>
        </quality>
        <arrival publicID="smi:local/200d80df-339d-4747-b0c8-587ab50e09be">
          <pickID>None</pickID>
          <phase>P</phase>
          <azimuth>340.0</azimuth>
          <distance>12.8</distance>
          <takeoffAngle>
            <value>107.0</value>
          </takeoffAngle>
          <timeResidual>0.35000000000000003</timeResidual>
          <timeWeight>1.0</timeWeight>
        </arrival>
        <arrival publicID="smi:local/0c6b3ea6-277f-4280-adf3-b6f19953b5d8">
          <pickID>None</pickID>
          <phase>P</phase>
          <azimuth>350.0</azimuth>
          <distance>4.5</distance>
          <takeoffAngle>
            <value>138.0</value>
          </takeoffAngle>
          <timeResidual>-0.1</timeResidual>
          <timeWeight>1.0</timeWeight>
        </arrival>
        <arrival publicID="smi:local/aacf2138-db10-4ee8-bc9b-334e2ed16da2">
          <pickID>None</pickID>
          <phase>S</phase>
          <azimuth>274.0</azimuth>
          <distance>6.4</distance>
          <takeoffAngle>
            <value>127.0</value>
          </takeoffAngle>
          <timeResidual>0.18</timeResidual>
          <timeWeight>-1.0</timeWeight>
        </arrival>
        <arrival publicID="smi:local/2e13c1f2-50ee-40e5-8827-154ab7442f13">
          <pickID>None</pickID>
          <phase>P</phase>
          <azimuth>274.0</azimuth>
          <distance>6.4</distance>
          <takeoffAngle>
            <value>127.0</value>
          </takeoffAngle>
          <timeResidual>-0.27</timeResidual>
          <timeWeight>1.0</timeWeight>
        </arrival>
        <arrival publicID="smi:local/e9770d67-1d26-4edf-bc3a-4fb4b411da64">
          <pickID>None</pickID>
          <phase>S</phase>
          <azimuth>68.0</azimuth>
          <distance>1.9000000000000001</distance>
          <takeoffAngle>
            <value>160.0</value>
          </takeoffAngle>
          <timeResidual>0.06</timeResidual>
          <timeWeight>-1.0</timeWeight>
        </arrival>
        <arrival publicID="smi:local/5f6de488-c119-40fe-8612-9c0607568f49">
          <pickID>None</pickID>
          <phase>P</phase>
          <azimuth>68.0</azimuth>
          <distance>1.9000000000000001</distance>
          <takeoffAngle>
            <value>160.0</value>
          </takeoffAngle>
          <timeResidual>0.12</timeResidual>
          <timeWeight>1.0</timeWeight>
        </arrival>
        <arrival publicID="smi:local/61168f31-78ec-4de4-92de-d151fe148b14">
          <pickID>None</pickID>
          <phase>P</phase>
          <azimuth>214.0</azimuth>
          <distance>2.9000000000000004</distance>
          <takeoffAngle>
            <value>153.0</value>
          </takeoffAngle>
          <timeResidual>-0.14</timeResidual>
          <timeWeight>1.0</timeWeight>
        </arrival>
      </origin>
      <magnitude publicID="smi:local/magnitude/60313113">
        <mag>
          <value>1.1</value>
        </mag>
      </magnitude>
      <pick publicID="smi:local/04ef01b6-3228-4e4e-9410-1301432b3c50">
        <time>
          <value>2009-02-25T19:25:22.940000Z</value>
        </time>
        <waveformID networkCode="AV" stationCode="RDJH" locationCode="" channelCode="BHZ"></waveformID>
        <phaseHint>P</phaseHint>
      </pick>
      <pick publicID="smi:local/0b62ce6d-bf60-4de4-9d6c-97e6fc245c29">
        <time>
          <value>2009-02-25T19:25:21.380000Z</value>
        </time>
        <waveformID networkCode="AV" stationCode="RDN" locationCode="" channelCode="EHZ"></waveformID>
        <phaseHint>P</phaseHint>
      </pick>
      <pick publicID="smi:local/3f887190-b935-4091-9b92-3dfd046abddd">
        <time>
          <value>2009-02-25T19:25:23.100000Z</value>
        </time>
        <waveformID networkCode="AV" stationCode="RDWB" locationCode="" channelCode="BHN"></waveformID>
        <phaseHint>S</phaseHint>
      </pick>
      <pick publicID="smi:local/c1de1167-dfdf-4fe4-babf-d5a70e81eff5">
        <time>
          <value>2009-02-25T19:25:21.450000Z</value>
        </time>
        <waveformID networkCode="AV" stationCode="RDWB" locationCode="" channelCode="BHZ"></waveformID>
        <phaseHint>P</phaseHint>
      </pick>
      <pick publicID="smi:local/d83329cf-c85d-448f-a5ff-1b7ea918772b">
        <time>
          <value>2009-02-25T19:25:22.250000Z</value>
        </time>
        <waveformID networkCode="AV" stationCode="REF" locationCode="" channelCode="EHE"></waveformID>
        <phaseHint>S</phaseHint>
      </pick>
      <pick publicID="smi:local/fabdcdd6-e487-4561-a853-57ff6ced0b57">
        <time>
          <value>2009-02-25T19:25:21.430000Z</value>
        </time>
        <waveformID networkCode="AV" stationCode="REF" locationCode="" channelCode="EHZ"></waveformID>
        <phaseHint>P</phaseHint>
      </pick>
      <pick publicID="smi:local/413c2a80-4987-4344-8e98-f7057f09be40">
        <time>
          <value>2009-02-25T19:25:21.280000Z</value>
        </time>
        <waveformID networkCode="AV" stationCode="RSO" locationCode="" channelCode="EHZ"></waveformID>
        <phaseHint>P</phaseHint>
      </pick>
    </event>
    <event publicID="smi:local/event/60313128">
      <preferredOriginID>smi:local/origin/60313128</preferredOriginID>
      <preferredMagnitudeID>smi:local/magnitude/60313128</preferredMagnitudeID>
      <origin publicID="smi:local/origin/60313128">
        <time>
          <value>2009-02-25T19:31:03.350000Z</value>
        </time>
        <latitude>
          <value>60.48716666666667</value>
        </latitude>
        <longitude>
          <value>-152.78</value>
        </longitude>
        <depth>
          <value>-1.98</value>
        </depth>
        <quality>
          <standardError>0.18</standardError>
        </quality>
        <arrival publicID="smi:local/615fdea5-a1e2-494a-beef-b7b091a70794">
          <pickID>None</pickID>
          <phase>P</phase>
          <azimuth>353.0</azimuth>
          <distance>11.600000000000001</distance>
          <takeoffAngle>
            <value>87.0</value>
          </takeoffAngle>
          <timeResidual>-0.04</timeResidual>
          <timeWeight>-1.0</timeWeight>
        </arrival>
        <arrival publicID="smi:local/0c13068d-0a36-4231-9dc5-a5f50c2e3e43">
          <pickID>None</pickID>
          <phase>P</phase>
          <azimuth>29.0</azimuth>
          <distance>4.5</distance>
          <takeoffAngle>
            <value>82.0</value>
          </takeoffAngle>
          <timeResidual>-0.12</timeResidual>
          <timeWeight>1.0</timeWeight>
        </arrival>
        <arrival publicID="smi:local/fc459f12-2f50-4203-95ed-a33ca274b409">
          <pickID>None</pickID>
          <phase>S</phase>
          <azimuth>270.0</azimuth>
          <distance>3.4000000000000004</distance>
          <takeoffAngle>
            <value>82.0</value>
          </takeoffAngle>
          <timeResidual>-0.25</timeResidual>
          <timeWeight>1.0</timeWeight>
        </arrival>
        <arrival publicID="smi:local/d396d692-db45-4849-851d-38abe34578c0">
          <pickID>None</pickID>
          <phase>S</phase>
          <azimuth>270.0</azimuth>
          <distance>3.4000000000000004</distance>
          <takeoffAngle>
            <value>82.0</value>
          </takeoffAngle>
          <timeResidual>-0.19</timeResidual>
          <timeWeight>1.0</timeWeight>
        </arrival>
        <arrival publicID="smi:local/bb7b0e14-4b21-4e16-8a58-9d3df2642d08">
          <pickID>None</pickID>
          <phase>P</phase>
          <azimuth>270.0</azimuth>
          <distance>3.4000000000000004</distance>
          <takeoffAngle>
            <value>82.0</value>
          </takeoffAngle>
          <timeResidual>-0.26</timeResidual>
          <timeWeight>1.0</timeWeight>
        </arrival>
        <arrival publicID="smi:local/1ec902cd-d5eb-4914-971c-6440572a20de">
          <pickID>None</pickID>
          <phase>S</phase>
          <azimuth>87.0</azimuth>
          <distance>4.7</distance>
          <takeoffAngle>
            <value>85.0</value>
          </takeoffAngle>
          <timeResidual>-0.11</timeResidual>
          <timeWeight>-1.0</timeWeight>
        </arrival>
        <arrival publicID="smi:local/046d07c3-3945-47b7-a14a-4c1db1a3672a">
          <pickID>None</pickID>
          <phase>P</phase>
          <azimuth>87.0</azimuth>
          <distance>4.7</distance>
          <takeoffAngle>
            <value>85.0</value>
