<?xml version='1.0' encoding='utf-8'?>
<q:quakeml xmlns="http://quakeml.org/xmlns/bed/1.2" xmlns:q="http://quakeml.org/xmlns/quakeml/1.2">
  <eventParameters publicID="smi:local/bd3022a2-50f4-402f-8c20-3b72121402c9">
    <event publicID="smi:local/2009_03_02t14_15_46_20080821T024630.340000">
      <comment id="smi:local/605404ba-0b85-418e-a0ed-e25dfb6f0c36">
        <text>Template: 2009_03_02t14_15_46</text>
      </comment>
      <comment id="smi:local/02acf054-92ba-4671-a24b-052de3dfd2fe">
        <text>threshold=2.4000000953674316</text>
      </comment>
      <comment id="smi:local/f341f294-a668-4457-b60d-164184ac9fec">
        <text>detect_val=2.8056602478027344</text>
      </comment>
      <comment id="smi:local/2dd149af-98e2-4990-b5d8-b162fa888ee7">
        <text>channels used: ('RDN', 'EHZ') ('REF', 'EHE') ('REF', 'EHZ') ('RSO', 'EHZ')</text>
      </comment>
      <creationInfo>
        <author>EQcorrscan</author>
        <creationTime>2021-11-10T22:41:47.536311Z</creationTime>
      </creationInfo>
      <origin publicID="smi:local/fe37d559-359e-4c21-a0a3-4a1fcdaf62bd">
        <time>
          <value>2008-08-21T02:46:30.340000Z</value>
        </time>
        <latitude>
          <value>60.4968</value>
        </latitude>
        <longitude>
          <value>-152.7707</value>
        </longitude>
        <depth>
          <value>420.0</value>
        </depth>
      </origin>
      <pick publicID="smi:local/da1acea2-191f-4c97-ae14-95de8ac386f2">
        <time>
          <value>2008-08-21T02:46:31.340000Z</value>
        </time>
        <waveformID networkCode="AV" stationCode="RDN" locationCode="" channelCode="EHZ"></waveformID>
        <phaseHint>P</phaseHint>
      </pick>
      <pick publicID="smi:local/9835842b-529c-4c1f-9f25-b5fd019b59a1">
        <time>
          <value>2008-08-21T02:46:32.320000Z</value>
        </time>
        <waveformID networkCode="AV" stationCode="REF" locationCode="" channelCode="EHE"></waveformID>
        <phaseHint>S</phaseHint>
      </pick>
      <pick publicID="smi:local/ee7a71fb-63aa-49da-a9a0-18490d5c393b">
        <time>
          <value>2008-08-21T02:46:31.440000Z</value>
        </time>
        <waveformID networkCode="AV" stationCode="REF" locationCode="" channelCode="EHZ"></waveformID>
        <phaseHint>P</phaseHint>
      </pick>
      <pick publicID="smi:local/7523291d-4785-40b3-99b7-8281be61f472">
        <time>
          <value>2008-08-21T02:46:31.520100Z</value>
        </time>
        <waveformID networkCode="AV" stationCode="RSO" locationCode="" channelCode="EHZ"></waveformID>
        <phaseHint>P</phaseHint>
      </pick>
    </event>
    <event publicID="smi:local/2009_03_02t14_15_46_20080824T024351.140000">
      <comment id="smi:local/59d77cd0-de2a-4af6-b483-ba2a525ec252">
        <text>Template: 2009_03_02t14_15_46</text>
      </comment>
      <comment id="smi:local/c2db827b-154a-41dd-aa3b-05905e706ee5">
        <text>threshold=2.4000000953674316</text>
      </comment>
      <comment id="smi:local/ac763ca2-42df-4aeb-8abc-473e775e160c">
        <text>detect_val=2.5731146335601807</text>
      </comment>
      <comment id="smi:local/5282d4c8-718a-4b62-98d2-f7d53d10f09b">
        <text>channels used: ('RDN', 'EHZ') ('REF', 'EHE') ('REF', 'EHZ') ('RSO', 'EHZ')</text>
      </comment>
      <creationInfo>
        <author>EQcorrscan</author>
        <creationTime>2021-11-10T22:41:47.548833Z</creationTime>
      </creationInfo>
      <origin publicID="smi:local/83a23f8d-02b5-4a1f-bbed-2b3ad32aeecd">
        <time>
          <value>2008-08-24T02:43:51.140000Z</value>
        </time>
        <latitude>
          <value>60.4968</value>
        </latitude>
        <longitude>
          <value>-152.7707</value>
        </longitude>
        <depth>
          <value>420.0</value>
        </depth>
      </origin>
      <pick publicID="smi:local/34df58c4-a5e6-472c-9ca7-04a2029232f7">
        <time>
          <value>2008-08-24T02:43:52.140000Z</value>
        </time>
        <waveformID networkCode="AV" stationCode="RDN" locationCode="" channelCode="EHZ"></waveformID>
        <phaseHint>P</phaseHint>
      </pick>
      <pick publicID="smi:local/9aac2167-7641-44fd-bfff-0835db08586d">
        <time>
          <value>2008-08-24T02:43:53.120000Z</value>
        </time>
        <waveformID networkCode="AV" stationCode="REF" locationCode="" channelCode="EHE"></waveformID>
        <phaseHint>S</phaseHint>
      </pick>
      <pick publicID="smi:local/b8180b92-9793-4ee9-9eaa-ab55a97086e0">
        <time>
          <value>2008-08-24T02:43:52.240000Z</value>
        </time>
        <waveformID networkCode="AV" stationCode="REF" locationCode="" channelCode="EHZ"></waveformID>
        <phaseHint>P</phaseHint>
      </pick>
      <pick publicID="smi:local/08938ada-18a5-4e2e-b757-904b514c3899">
        <time>
          <value>2008-08-24T02:43:52.320100Z</value>
        </time>
        <waveformID networkCode="AV" stationCode="RSO" locationCode="" channelCode="EHZ"></waveformID>
        <phaseHint>P</phaseHint>
      </pick>
    </event>
    <event publicID="smi:local/2009_03_02t14_15_46_20080810T202042.820000">
      <comment id="smi:local/090bd189-dfc8-4c18-b798-3f35e3a3a5bb">
        <text>Template: 2009_03_02t14_15_46</text>
      </comment>
      <comment id="smi:local/7288edf8-9b0a-404d-a140-38e76a90c906">
        <text>threshold=2.4000000953674316</text>
      </comment>
      <comment id="smi:local/7cf1b183-d7b3-498d-8e07-5073b6a48ee5">
        <text>detect_val=2.5698513984680176</text>
      </comment>
      <comment id="smi:local/c6f7487e-0cb9-4a01-9385-b04890adf537">
        <text>channels used: ('RDN', 'EHZ') ('REF', 'EHE') ('REF', 'EHZ') ('RSO', 'EHZ')</text>
      </comment>
      <creationInfo>
        <author>EQcorrscan</author>
        <creationTime>2021-11-10T22:41:47.551463Z</creationTime>
      </creationInfo>
      <origin publicID="smi:local/72d96152-9037-4c2a-a2e5-30cd4de5bf22">
        <time>
          <value>2008-08-10T20:20:42.820000Z</value>
        </time>
        <latitude>
          <value>60.4968</value>
        </latitude>
        <longitude>
          <value>-152.7707</value>
        </longitude>
        <depth>
          <value>420.0</value>
        </depth>
      </origin>
      <pick publicID="smi:local/b299bea3-afd0-4555-8252-b7a20044db97">
        <time>
          <value>2008-08-10T20:20:43.820000Z</value>
        </time>
        <waveformID networkCode="AV" stationCode="RDN" locationCode="" channelCode="EHZ"></waveformID>
        <phaseHint>P</phaseHint>
      </pick>
      <pick publicID="smi:local/17592608-e069-4765-b693-39f4d493a1d8">
        <time>
          <value>2008-08-10T20:20:44.800000Z</value>
        </time>
        <waveformID networkCode="AV" stationCode="REF" locationCode="" channelCode="EHE"></waveformID>
        <phaseHint>S</phaseHint>
      </pick>
      <pick publicID="smi:local/da9f9002-eee4-42af-85a3-16acc06e13a7">
        <time>
          <value>2008-08-10T20:20:43.920000Z</value>
        </time>
        <waveformID networkCode="AV" stationCode="REF" locationCode="" channelCode="EHZ"></waveformID>
        <phaseHint>P</phaseHint>
      </pick>
      <pick publicID="smi:local/e2d66b26-d2ba-4709-8b05-dd8c93d1c088">
        <time>
          <value>2008-08-10T20:20:44.000100Z</value>
        </time>
        <waveformID networkCode="AV" stationCode="RSO" locationCode="" channelCode="EHZ"></waveformID>
        <phaseHint>P</phaseHint>
      </pick>
    </event>
    <event publicID="smi:local/2009_06_05t22_12_45_20080801T081020.900000">
      <comment id="smi:local/fa38494a-0825-4cec-a334-08a88d8be44a">
        <text>Template: 2009_06_05t22_12_45</text>
      </comment>
      <comment id="smi:local/a87644c3-2d99-4f2c-8cf3-cf361ec98acd">
        <text>threshold=1.7999999523162842</text>
      </comment>
      <comment id="smi:local/63f01dc7-b70c-4ea5-b048-a33374d81f94">
        <text>detect_val=-2.1881065368652344</text>
      </comment>
      <comment id="smi:local/c4d5d952-df66-4fa8-b2bd-aabaf000d0ea">
        <text>channels used: ('RDN', 'EHZ') ('REF', 'EHE') ('REF', 'EHZ')</text>
      </comment>
      <creationInfo>
        <author>EQcorrscan</author>
        <creationTime>2021-11-10T22:40:58.277001Z</creationTime>
      </creationInfo>
      <origin publicID="smi:local/7a5fb158-ca3f-4394-987f-5a38d884e717">
        <time>
          <value>2008-08-01T08:10:20.900000Z</value>
        </time>
        <latitude>
          <value>60.5073</value>
        </latitude>
        <longitude>
          <value>-152.7425</value>
        </longitude>
        <depth>
          <value>3530.0</value>
        </depth>
      </origin>
      <pick publicID="smi:local/b131d9bc-9555-4380-ac80-11a88591a7c5">
        <time>
          <value>2008-08-01T08:10:21.900000Z</value>
        </time>
        <waveformID networkCode="AV" stationCode="RDN" locationCode="" channelCode="EHZ"></waveformID>
        <phaseHint>P</phaseHint>
      </pick>
      <pick publicID="smi:local/45e365cd-f452-49c1-a414-8bcb649b3f13">
        <time>
          <value>2008-08-01T08:10:22.620000Z</value>
        </time>
        <waveformID networkCode="AV" stationCode="REF" locationCode="" channelCode="EHE"></waveformID>
        <phaseHint>S</phaseHint>
      </pick>
      <pick publicID="smi:local/73e96864-be22-4e08-aac4-dc64a1515d12">
        <time>
          <value>2008-08-01T08:10:22.080000Z</value>
        </time>
        <waveformID networkCode="AV" stationCode="REF" locationCode="" channelCode="EHZ"></waveformID>
        <phaseHint>P</phaseHint>
      </pick>
    </event>
    <event publicID="smi:local/2009_06_05t22_12_45_20080918T165438.760000">
      <comment id="smi:local/5473581a-b1cb-4f20-985e-43b8b2be909d">
        <text>Template: 2009_06_05t22_12_45</text>
      </comment>
      <comment id="smi:local/644c155d-bd38-43d1-b78e-e75559d552a4">
        <text>threshold=1.7999999523162842</text>
      </comment>
      <comment id="smi:local/d5d2af39-ec3a-4948-b309-104efa882450">
        <text>detect_val=2.031470775604248</text>
      </comment>
      <comment id="smi:local/104056c6-d454-4c18-b00f-67e20cb9290e">
        <text>channels used: ('RDN', 'EHZ') ('REF', 'EHE') ('REF', 'EHZ')</text>
      </comment>
      <creationInfo>
        <author>EQcorrscan</author>
        <creationTime>2021-11-10T22:40:58.278446Z</creationTime>
      </creationInfo>
      <origin publicID="smi:local/4f477a81-fb9e-48ef-80bd-f0f650381aef">
        <time>
          <value>2008-09-18T16:54:38.760000Z</value>
        </time>
        <latitude>
          <value>60.5073</value>
        </latitude>
        <longitude>
          <value>-152.7425</value>
        </longitude>
        <depth>
          <value>3530.0</value>
        </depth>
      </origin>
      <pick publicID="smi:local/6f64a6c7-0cd0-4c35-8b16-e318628fc80d">
        <time>
          <value>2008-09-18T16:54:39.760000Z</value>
        </time>
        <waveformID networkCode="AV" stationCode="RDN" locationCode="" channelCode="EHZ"></waveformID>
        <phaseHint>P</phaseHint>
      </pick>
      <pick publicID="smi:local/ad8c3a47-23dc-49b2-a4d1-f6346262756e">
        <time>
          <value>2008-09-18T16:54:40.480000Z</value>
        </time>
        <waveformID networkCode="AV" stationCode="REF" locationCode="" channelCode="EHE"></waveformID>
        <phaseHint>S</phaseHint>
      </pick>
      <pick publicID="smi:local/3d924b22-395e-45a5-9767-2bffd0c63f6f">
        <time>
          <value>2008-09-18T16:54:39.940000Z</value>
        </time>
        <waveformID networkCode="AV" stationCode="REF" locationCode="" channelCode="EHZ"></waveformID>
        <phaseHint>P</phaseHint>
      </pick>
    </event>
    <event publicID="smi:local/2009_06_05t22_12_45_20080909T015934.680000">
      <comment id="smi:local/40e60f94-23ac-4d14-9531-3391f1039d39">
        <text>Template: 2009_06_05t22_12_45</text>
      </comment>
      <comment id="smi:local/ba8f9203-cded-41c8-adc6-a830365b83ac">
        <text>threshold=1.7999999523162842</text>
      </comment>
      <comment id="smi:local/28370a27-baaf-4854-8e2c-b5b6eb82b28a">
        <text>detect_val=1.956979751586914</text>
      </comment>
      <comment id="smi:local/f76368c9-3062-4671-8591-1d18d4ebf945">
        <text>channels used: ('RDN', 'EHZ') ('REF', 'EHE') ('REF', 'EHZ')</text>
      </comment>
      <creationInfo>
        <author>EQcorrscan</author>
        <creationTime>2021-11-10T22:40:58.280338Z</creationTime>
      </creationInfo>
      <origin publicID="smi:local/4d435bef-e315-4e30-b635-46aa63277e59">
        <time>
          <value>2008-09-09T01:59:34.680000Z</value>
        </time>
        <latitude>
          <value>60.5073</value>
        </latitude>
        <longitude>
          <value>-152.7425</value>
        </longitude>
        <depth>
          <value>3530.0</value>
        </depth>
      </origin>
      <pick publicID="smi:local/9144c798-6b20-4f27-ba51-9ee494e72a04">
        <time>
          <value>2008-09-09T01:59:35.680000Z</value>
        </time>
        <waveformID networkCode="AV" stationCode="RDN" locationCode="" channelCode="EHZ"></waveformID>
        <phaseHint>P</phaseHint>
      </pick>
      <pick publicID="smi:local/ea817d74-4aa3-4e97-9897-7866b855829a">
        <time>
          <value>2008-09-09T01:59:36.400000Z</value>
        </time>
        <waveformID networkCode="AV" stationCode="REF" locationCode="" channelCode="EHE"></waveformID>
        <phaseHint>S</phaseHint>
      </pick>
      <pick publicID="smi:local/c1d33c4b-cc99-4ea6-b665-7bd1b931b5b4">
        <time>
          <value>2008-09-09T01:59:35.860000Z</value>
        </time>
        <waveformID networkCode="AV" stationCode="REF" locationCode="" channelCode="EHZ"></waveformID>
        <phaseHint>P</phaseHint>
      </pick>
    </event>
    <event publicID="smi:local/2009_06_05t22_12_45_20080801T193238.100000">
      <comment id="smi:local/0f30ebe3-4fc6-4176-9914-91051d476e43">
        <text>Template: 2009_06_05t22_12_45</text>
      </comment>
      <comment id="smi:local/f9149a55-77a0-4c59-8d04-7a8d6f51060f">
        <text>threshold=1.7999999523162842</text>
      </comment>
      <comment id="smi:local/7df4b886-5f5b-4307-8f60-21cd16d5d046">
        <text>detect_val=1.949256181716919</text>
      </comment>
      <comment id="smi:local/251b8e60-f353-453b-b6ae-93bf45fac92e">
        <text>channels used: ('RDN', 'EHZ') ('REF', 'EHE') ('REF', 'EHZ')</text>
      </comment>
      <creationInfo>
        <author>EQcorrscan</author>
        <creationTime>2021-11-10T22:40:58.281685Z</creationTime>
      </creationInfo>
      <origin publicID="smi:local/db010f85-8a7a-4959-99d7-c8ff808b4efa">
        <time>
          <value>2008-08-01T19:32:38.100000Z</value>
        </time>
        <latitude>
          <value>60.5073</value>
        </latitude>
        <longitude>
          <value>-152.7425</value>
        </longitude>
        <depth>
          <value>3530.0</value>
        </depth>
      </origin>
      <pick publicID="smi:local/98a14cfc-58ea-4b36-b84f-065bb1712b17">
        <time>
          <value>2008-08-01T19:32:39.100000Z</value>
        </time>
        <waveformID networkCode="AV" stationCode="RDN" locationCode="" channelCode="EHZ"></waveformID>
        <phaseHint>P</phaseHint>
      </pick>
      <pick publicID="smi:local/f74705ab-db54-4219-a5f8-334fbaa8abfd">
        <time>
          <value>2008-08-01T19:32:39.820000Z</value>
        </time>
        <waveformID networkCode="AV" stationCode="REF" locationCode="" channelCode="EHE"></waveformID>
        <phaseHint>S</phaseHint>
      </pick>
      <pick publicID="smi:local/d592f0da-a207-47ef-9694-1a3e6db787dc">
        <time>
          <value>2008-08-01T19:32:39.280000Z</value>
        </time>
        <waveformID networkCode="AV" stationCode="REF" locationCode="" channelCode="EHZ"></waveformID>
        <phaseHint>P</phaseHint>
      </pick>
    </event>
    <event publicID="smi:local/2009_06_05t22_12_45_20080917T220656.940000">
      <comment id="smi:local/5baf44b8-391c-4528-9fb1-029e0fc93974">
        <text>Template: 2009_06_05t22_12_45</text>
      </comment>
      <comment id="smi:local/6aa3ceba-f32f-47e2-a415-d59f025e2974">
        <text>threshold=1.7999999523162842</text>
      </comment>
      <comment id="smi:local/72585103-5ba7-4dcc-9666-3d5c72d1ede2">
        <text>detect_val=1.8817217350006104</text>
      </comment>
      <comment id="smi:local/1fa77c5e-c4dd-41a2-ba63-fb03a64f1ad3">
        <text>channels used: ('RDN', 'EHZ') ('REF', 'EHE') ('REF', 'EHZ')</text>
      </comment>
      <creationInfo>
        <author>EQcorrscan</author>
        <creationTime>2021-11-10T22:40:58.283034Z</creationTime>
      </creationInfo>
      <origin publicID="smi:local/c27a5f27-6238-44f9-befa-ce343153e03d">
        <time>
          <value>2008-09-17T22:06:56.940000Z</value>
        </time>
        <latitude>
          <value>60.5073</value>
        </latitude>
        <longitude>
          <value>-152.7425</value>
        </longitude>
        <depth>
          <value>3530.0</value>
        </depth>
      </origin>
      <pick publicID="smi:local/fcec1d4f-69f8-4dec-aafc-959fcca18083">
        <time>
          <value>2008-09-17T22:06:57.940000Z</value>
        </time>
        <waveformID networkCode="AV" stationCode="RDN" locationCode="" channelCode="EHZ"></waveformID>
        <phaseHint>P</phaseHint>
      </pick>
      <pick publicID="smi:local/0fed733b-59f3-4e7e-b436-78ee02d2290d">
        <time>
          <value>2008-09-17T22:06:58.660000Z</value>
        </time>
        <waveformID networkCode="AV" stationCode="REF" locationCode="" channelCode="EHE"></waveformID>
        <phaseHint>S</phaseHint>
      </pick>
      <pick publicID="smi:local/3f126b2f-d5b6-4fe6-bea1-5c0cd2c3ea38">
        <time>
          <value>2008-09-17T22:06:58.120000Z</value>
        </time>
        <waveformID networkCode="AV" stationCode="REF" locationCode="" channelCode="EHZ"></waveformID>
        <phaseHint>P</phaseHint>
      </pick>
    </event>
    <event publicID="smi:local/2009_06_05t22_12_45_20080802T052507.640000">
      <comment id="smi:local/19fcfa77-0538-415b-8638-f3c4c20af750">
        <text>Template: 2009_06_05t22_12_45</text>
      </comment>
      <comment id="smi:local/4a692874-ac65-497c-b3cf-04a6e7e31251">
        <text>threshold=1.7999999523162842</text>
      </comment>
      <comment id="smi:local/9068d4d2-4369-4a3d-b513-1e6702f13c1e">
        <text>detect_val=1.8494970798492432</text>
      </comment>
      <comment id="smi:local/75e2a981-0692-473a-9b4a-5663c6f6da6f">
        <text>channels used: ('RDN', 'EHZ') ('REF', 'EHE') ('REF', 'EHZ')</text>
      </comment>
      <creationInfo>
        <author>EQcorrscan</author>
        <creationTime>2021-11-10T22:40:58.284446Z</creationTime>
      </creationInfo>
      <origin publicID="smi:local/3c595b84-f9ee-444c-8f74-f645a6c42d78">
        <time>
          <value>2008-08-02T05:25:07.640000Z</value>
        </time>
        <latitude>
          <value>60.5073</value>
        </latitude>
        <longitude>
          <value>-152.7425</value>
        </longitude>
        <depth>
          <value>3530.0</value>
        </depth>
      </origin>
      <pick publicID="smi:local/a22d3681-fdd9-42cf-b807-7e33c20ca87f">
        <time>
          <value>2008-08-02T05:25:08.640000Z</value>
        </time>
        <waveformID networkCode="AV" stationCode="RDN" locationCode="" channelCode="EHZ"></waveformID>
        <phaseHint>P</phaseHint>
      </pick>
      <pick publicID="smi:local/99c0abc6-af73-4855-afc1-810d2c9c9ba2">
        <time>
          <value>2008-08-02T05:25:09.360000Z</value>
        </time>
        <waveformID networkCode="AV" stationCode="REF" locationCode="" channelCode="EHE"></waveformID>
        <phaseHint>S</phaseHint>
      </pick>
      <pick publicID="smi:local/cb9c5447-a72c-483f-bb3f-0464858959a9">
        <time>
          <value>2008-08-02T05:25:08.820000Z</value>
        </time>
