<?xml version='1.0' encoding='utf-8'?>
<q:quakeml xmlns="http://quakeml.org/xmlns/bed/1.2" xmlns:q="http://quakeml.org/xmlns/quakeml/1.2">
  <eventParameters publicID="smi:local/7a5ca816-5e85-4e29-93ab-26e61676bbbc">
    <event publicID="smi:local/b8b911f5-ebe4-4efd-b852-754798090574">
      <origin publicID="smi:local/6691e31d-1032-4001-9b9a-8cd80be46094">
        <time>
          <value>2009-01-07T23:45:42.700000Z</value>
        </time>
        <latitude/>
        <longitude/>
        <comment id="smi:local/5e1bf73c-1da2-4270-8c32-9256a046e510">
          <text>CLUSTER 0 CORE EVENT; NOT IN AVO</text>
        </comment>
      </origin>
    </event>
    <event publicID="smi:local/1b007384-ab4e-4154-bfd0-768091e73ce6">
      <origin publicID="smi:local/5d6e1dda-b9c8-4c85-8232-8318dfaf13b5">
        <time>
          <value>2009-02-27T03:40:26.570000Z</value>
        </time>
        <latitude>
          <value>60.4867</value>
        </latitude>
        <longitude>
          <value>-152.7592</value>
        </longitude>
        <depth>
          <value>3570.0</value>
        </depth>
        <comment id="smi:local/78971400-e735-4c28-939f-ca8744360afb">
          <text>CLUSTER 1 CORE EVENT; NOT IN AVO</text>
        </comment>
        <arrival publicID="smi:local/8b2eba77-1278-4379-aa5b-c8cc052e2b5f">
          <pickID>smi:local/3de4379b-7cb1-44b0-8fb0-81bdd2cd29a4</pickID>
          <phase>P</phase>
          <timeWeight>0.1</timeWeight>
        </arrival>
        <arrival publicID="smi:local/481f3147-7ea7-4f42-a476-c8dd7b0076ce">
          <pickID>smi:local/4244bed0-5bf2-4c39-a6d6-113ca6abf33b</pickID>
          <phase>S</phase>
          <timeWeight>0.1</timeWeight>
        </arrival>
        <arrival publicID="smi:local/c00af1b4-44ba-4082-bca4-576413c1a7dc">
          <pickID>smi:local/e306ec4e-dfa3-453b-800c-ea9c2f83b85c</pickID>
          <phase>P</phase>
          <timeWeight>0.1</timeWeight>
        </arrival>
        <arrival publicID="smi:local/43e54cea-77d5-40f2-a3e2-89a580fe6faa">
          <pickID>smi:local/77530449-be1d-4cfb-bd7c-8c5ac2ad6aa2</pickID>
          <phase>S</phase>
          <timeWeight>0.1</timeWeight>
        </arrival>
        <arrival publicID="smi:local/9aa30791-2831-48e4-ae75-8b5d3a4a478b">
          <pickID>smi:local/1271e901-8852-4bd6-9af8-69e920871d61</pickID>
          <phase>P</phase>
          <timeWeight>0.1</timeWeight>
        </arrival>
        <arrival publicID="smi:local/9c8d2805-bd7b-45e1-ae3c-4aa8eca0eacc">
          <pickID>smi:local/11dabfe9-86cd-4202-91a5-8f66d8e0cb26</pickID>
          <phase>P</phase>
          <timeWeight>0.1</timeWeight>
        </arrival>
      </origin>
      <pick publicID="smi:local/3de4379b-7cb1-44b0-8fb0-81bdd2cd29a4">
        <time>
          <value>2009-02-27T03:40:26.400000Z</value>
        </time>
        <waveformID networkCode="AV" stationCode="RDN" locationCode="" channelCode="EHZ"></waveformID>
        <phaseHint>P</phaseHint>
      </pick>
      <pick publicID="smi:local/4244bed0-5bf2-4c39-a6d6-113ca6abf33b">
        <time>
          <value>2009-02-27T03:40:27.530000Z</value>
        </time>
        <waveformID networkCode="AV" stationCode="RDWB" locationCode="" channelCode="BHE"></waveformID>
        <phaseHint>S</phaseHint>
      </pick>
      <pick publicID="smi:local/e306ec4e-dfa3-453b-800c-ea9c2f83b85c">
        <time>
          <value>2009-02-27T03:40:26.680000Z</value>
        </time>
        <waveformID networkCode="AV" stationCode="RDWB" locationCode="" channelCode="BHZ"></waveformID>
        <phaseHint>P</phaseHint>
      </pick>
      <pick publicID="smi:local/77530449-be1d-4cfb-bd7c-8c5ac2ad6aa2">
        <time>
          <value>2009-02-27T03:40:27.390000Z</value>
        </time>
        <waveformID networkCode="AV" stationCode="REF" locationCode="" channelCode="EHE"></waveformID>
        <phaseHint>S</phaseHint>
      </pick>
      <pick publicID="smi:local/1271e901-8852-4bd6-9af8-69e920871d61">
        <time>
          <value>2009-02-27T03:40:26.520000Z</value>
        </time>
        <waveformID networkCode="AV" stationCode="REF" locationCode="" channelCode="EHZ"></waveformID>
        <phaseHint>P</phaseHint>
      </pick>
      <pick publicID="smi:local/11dabfe9-86cd-4202-91a5-8f66d8e0cb26">
        <time>
          <value>2009-02-27T03:40:26.560000Z</value>
        </time>
        <waveformID networkCode="AV" stationCode="RSO" locationCode="" channelCode="EHZ"></waveformID>
        <phaseHint>P</phaseHint>
      </pick>
    </event>
    <event publicID="smi:local/f6676cf0-051a-4293-ab65-b77abc570467">
      <origin publicID="smi:local/b5178307-83c9-4800-830c-77e898bb073f">
        <time>
          <value>2009-01-12T04:46:02.600000Z</value>
        </time>
        <latitude>
          <value>60.4912</value>
        </latitude>
        <longitude>
          <value>-152.7617</value>
        </longitude>
        <depth>
          <value>350.0</value>
        </depth>
        <comment id="smi:local/5cf2db4c-67ac-4847-b43d-5e2e7285bac6">
          <text>CLUSTER 2 CORE EVENT; NOT IN AVO</text>
        </comment>
        <arrival publicID="smi:local/87d3ae2a-1e63-4894-8098-22abb666860b">
          <pickID>smi:local/e6615035-be78-4488-9432-e0e46dd40cf4</pickID>
          <phase>P</phase>
          <timeWeight>0.1</timeWeight>
        </arrival>
        <arrival publicID="smi:local/f6f8d14e-299a-4d74-b949-27a39e60d601">
          <pickID>smi:local/6af61d34-2a60-45ee-a8df-7a7ecbff2c93</pickID>
          <phase>P</phase>
          <timeWeight>0.1</timeWeight>
        </arrival>
        <arrival publicID="smi:local/7cebd84b-35dc-430a-8191-652a85af72dc">
          <pickID>smi:local/6fa9ac84-0590-4365-8aeb-e8c878c96079</pickID>
          <phase>P</phase>
          <timeWeight>0.1</timeWeight>
        </arrival>
        <arrival publicID="smi:local/e951a5f8-d6e4-4ce4-bff3-9d383f4c78ca">
          <pickID>smi:local/1dbeff77-4f72-4d96-8a70-05910299a5cd</pickID>
          <phase>S</phase>
          <timeWeight>0.1</timeWeight>
        </arrival>
        <arrival publicID="smi:local/980a5b4f-df26-4db3-a260-3588318fca92">
          <pickID>smi:local/0e8be858-a4e3-420b-a543-bf683839fb52</pickID>
          <phase>P</phase>
          <timeWeight>0.1</timeWeight>
        </arrival>
        <arrival publicID="smi:local/d6fe11d9-ddef-4541-90c1-4152f278add3">
          <pickID>smi:local/21d6bffa-7ba5-410c-a758-a319ec1eef27</pickID>
          <phase>P</phase>
          <timeWeight>0.1</timeWeight>
        </arrival>
        <arrival publicID="smi:local/92e2a239-28e0-49c6-aad7-d85d97381add">
          <pickID>smi:local/361a7e9d-8507-4a9f-ac31-02de0d7e1b91</pickID>
          <phase>S</phase>
          <timeWeight>0.1</timeWeight>
        </arrival>
        <arrival publicID="smi:local/45e23d4c-2694-405e-bc40-ffb88b6cdb7d">
          <pickID>smi:local/d35f7318-5c45-4232-bc39-023ba1c13ce1</pickID>
          <phase>P</phase>
          <timeWeight>0.1</timeWeight>
        </arrival>
        <arrival publicID="smi:local/f89c3c9e-6a24-4387-8495-7a5f8cda7672">
          <pickID>smi:local/e6177f36-5128-43fe-b0c1-52cdb22ecf84</pickID>
          <phase>P</phase>
          <timeWeight>0.1</timeWeight>
        </arrival>
      </origin>
      <pick publicID="smi:local/e6615035-be78-4488-9432-e0e46dd40cf4">
        <time>
          <value>2009-01-12T04:46:03.840000Z</value>
        </time>
        <waveformID networkCode="AV" stationCode="DFR" locationCode="" channelCode="EHZ"></waveformID>
        <phaseHint>P</phaseHint>
      </pick>
      <pick publicID="smi:local/6af61d34-2a60-45ee-a8df-7a7ecbff2c93">
        <time>
          <value>2009-01-12T04:46:03.810000Z</value>
        </time>
        <waveformID networkCode="AV" stationCode="NCT" locationCode="" channelCode="EHZ"></waveformID>
        <phaseHint>P</phaseHint>
      </pick>
      <pick publicID="smi:local/6fa9ac84-0590-4365-8aeb-e8c878c96079">
        <time>
          <value>2009-01-12T04:46:04.150000Z</value>
        </time>
        <waveformID networkCode="AV" stationCode="RDE" locationCode="" channelCode="EHZ"></waveformID>
        <phaseHint>P</phaseHint>
      </pick>
      <pick publicID="smi:local/1dbeff77-4f72-4d96-8a70-05910299a5cd">
        <time>
          <value>2009-01-12T04:46:05.750000Z</value>
        </time>
        <waveformID networkCode="AV" stationCode="RDJH" locationCode="" channelCode="BHN"></waveformID>
        <phaseHint>S</phaseHint>
      </pick>
      <pick publicID="smi:local/0e8be858-a4e3-420b-a543-bf683839fb52">
        <time>
          <value>2009-01-12T04:46:03.810000Z</value>
        </time>
        <waveformID networkCode="AV" stationCode="RDJH" locationCode="" channelCode="BHZ"></waveformID>
        <phaseHint>P</phaseHint>
      </pick>
      <pick publicID="smi:local/21d6bffa-7ba5-410c-a758-a319ec1eef27">
        <time>
          <value>2009-01-12T04:46:02.280000Z</value>
        </time>
        <waveformID networkCode="AV" stationCode="RDN" locationCode="" channelCode="EHZ"></waveformID>
        <phaseHint>P</phaseHint>
      </pick>
      <pick publicID="smi:local/361a7e9d-8507-4a9f-ac31-02de0d7e1b91">
        <time>
          <value>2009-01-12T04:46:03.020000Z</value>
        </time>
        <waveformID networkCode="AV" stationCode="REF" locationCode="" channelCode="EHE"></waveformID>
        <phaseHint>S</phaseHint>
      </pick>
      <pick publicID="smi:local/d35f7318-5c45-4232-bc39-023ba1c13ce1">
        <time>
          <value>2009-01-12T04:46:02.390000Z</value>
        </time>
        <waveformID networkCode="AV" stationCode="REF" locationCode="" channelCode="EHZ"></waveformID>
        <phaseHint>P</phaseHint>
      </pick>
      <pick publicID="smi:local/e6177f36-5128-43fe-b0c1-52cdb22ecf84">
        <time>
          <value>2009-01-12T04:46:02.300000Z</value>
        </time>
        <waveformID networkCode="AV" stationCode="RSO" locationCode="" channelCode="EHZ"></waveformID>
        <phaseHint>P</phaseHint>
      </pick>
    </event>
    <event publicID="smi:local/f15ca1e1-e97d-466a-99ff-4bbd2862cd0f">
      <origin publicID="smi:local/f5c051af-6fe3-4d9d-a6b9-7f2cd5d8a7b8">
        <time>
          <value>2009-03-05T10:44:10.380000Z</value>
        </time>
        <latitude>
          <value>60.5175</value>
        </latitude>
        <longitude>
          <value>-152.6927</value>
        </longitude>
        <depth>
          <value>1410.0</value>
        </depth>
        <comment id="smi:local/83b2401a-129d-416d-9b57-4dd31c0eb1af">
          <text>CLUSTER 3 CORE EVENT; NOT IN AVO</text>
        </comment>
        <arrival publicID="smi:local/53db5535-a4d6-446a-9d47-fa3e4720f5b4">
          <pickID>smi:local/71f1fee5-a118-4989-ab6e-d8f2f6d896fe</pickID>
          <phase>P</phase>
          <timeWeight>0.1</timeWeight>
        </arrival>
        <arrival publicID="smi:local/7e93f4c0-dac3-4cce-9b52-16d4b6b674d3">
          <pickID>smi:local/07f805e5-5d3f-4190-8670-887fc4c57f84</pickID>
          <phase>S</phase>
          <timeWeight>0.1</timeWeight>
        </arrival>
        <arrival publicID="smi:local/ca6dc33f-7028-49f4-bdf8-053dbce2e7b7">
          <pickID>smi:local/4bc6d196-d5bd-4696-ad06-2d40bad5380e</pickID>
          <phase>P</phase>
          <timeWeight>0.1</timeWeight>
        </arrival>
        <arrival publicID="smi:local/b8e0bc2a-a508-4f2b-943d-b72e236b3889">
          <pickID>smi:local/ff45b519-0196-44f1-a8c2-ff6200d0a47a</pickID>
          <phase>S</phase>
          <timeWeight>0.1</timeWeight>
        </arrival>
        <arrival publicID="smi:local/5a956f0b-43bf-4f4b-abb1-196fd1424b2f">
          <pickID>smi:local/3a9544f6-6a25-44bf-b35d-f700562edb82</pickID>
          <phase>P</phase>
          <timeWeight>0.1</timeWeight>
        </arrival>
        <arrival publicID="smi:local/3f6f8bf5-2437-4f55-83bc-4c076e50a5b9">
          <pickID>smi:local/b504acb3-aa7f-4d1d-b0b5-c0ad4910bfd9</pickID>
          <phase>P</phase>
          <timeWeight>0.1</timeWeight>
        </arrival>
      </origin>
      <pick publicID="smi:local/71f1fee5-a118-4989-ab6e-d8f2f6d896fe">
        <time>
          <value>2009-03-05T10:44:10.410000Z</value>
        </time>
        <waveformID networkCode="AV" stationCode="RDN" locationCode="" channelCode="EHZ"></waveformID>
        <phaseHint>P</phaseHint>
      </pick>
      <pick publicID="smi:local/07f805e5-5d3f-4190-8670-887fc4c57f84">
        <time>
          <value>2009-03-05T10:44:12.720000Z</value>
        </time>
        <waveformID networkCode="AV" stationCode="RDWB" locationCode="" channelCode="BHE"></waveformID>
        <phaseHint>S</phaseHint>
      </pick>
      <pick publicID="smi:local/4bc6d196-d5bd-4696-ad06-2d40bad5380e">
        <time>
          <value>2009-03-05T10:44:11.820000Z</value>
        </time>
        <waveformID networkCode="AV" stationCode="RDWB" locationCode="" channelCode="BHZ"></waveformID>
        <phaseHint>P</phaseHint>
      </pick>
      <pick publicID="smi:local/ff45b519-0196-44f1-a8c2-ff6200d0a47a">
        <time>
          <value>2009-03-05T10:44:11.200000Z</value>
        </time>
        <waveformID networkCode="AV" stationCode="REF" locationCode="" channelCode="EHN"></waveformID>
        <phaseHint>S</phaseHint>
      </pick>
      <pick publicID="smi:local/3a9544f6-6a25-44bf-b35d-f700562edb82">
        <time>
          <value>2009-03-05T10:44:10.350000Z</value>
        </time>
        <waveformID networkCode="AV" stationCode="REF" locationCode="" channelCode="EHZ"></waveformID>
        <phaseHint>P</phaseHint>
      </pick>
      <pick publicID="smi:local/b504acb3-aa7f-4d1d-b0b5-c0ad4910bfd9">
        <time>
          <value>2009-03-05T10:44:11.170000Z</value>
        </time>
        <waveformID networkCode="AV" stationCode="RSO" locationCode="" channelCode="EHZ"></waveformID>
        <phaseHint>P</phaseHint>
      </pick>
    </event>
    <event publicID="smi:local/1cc86564-f31e-4723-98aa-f7016258da3c">
      <origin publicID="smi:local/6db9d29f-fb35-4b5d-8237-8b4d1cfa8f68">
        <time>
          <value>2009-01-09T17:12:06.820000Z</value>
        </time>
        <latitude/>
        <longitude/>
        <comment id="smi:local/d4330988-a26d-4050-b997-55f647238a73">
          <text>CLUSTER 4 CORE EVENT; NOT IN AVO</text>
        </comment>
      </origin>
    </event>
    <event publicID="smi:local/c2e1d19c-ea70-46f9-9a9c-2a808ad8efbd">
      <origin publicID="smi:local/3556523c-0da8-481f-8833-068d4b4bdfc5">
        <time>
          <value>2009-01-01T21:07:08.610000Z</value>
        </time>
        <latitude/>
        <longitude/>
        <comment id="smi:local/a7ee099e-5c96-4727-89f1-a1eb5ea8a648">
          <text>CLUSTER 5 CORE EVENT; NOT IN AVO</text>
        </comment>
      </origin>
    </event>
    <event publicID="smi:local/cd5693a6-8d13-4e9a-8b93-5894d5a82e7b">
      <origin publicID="smi:local/3174a4fc-5d29-41a7-998d-51be4d4414b6">
        <time>
          <value>2009-01-07T18:50:05.420000Z</value>
        </time>
        <latitude/>
        <longitude/>
        <comment id="smi:local/7a5ff982-2bf5-4e96-b1d5-30264eacd870">
          <text>CLUSTER 6 CORE EVENT; NOT IN AVO</text>
        </comment>
      </origin>
    </event>
    <event publicID="smi:local/6aa05d13-97ad-4cb7-b998-e4e6f2d062cf">
      <origin publicID="smi:local/71ba4639-7e13-4aaa-b2e1-daed3747c1f8">
        <time>
          <value>2009-01-07T08:26:06.880000Z</value>
        </time>
        <latitude/>
        <longitude/>
        <comment id="smi:local/ea9d9608-ad82-4c03-8554-dd2441139da8">
          <text>CLUSTER 7 CORE EVENT; NOT IN AVO</text>
        </comment>
      </origin>
    </event>
    <event publicID="smi:local/400ea473-030c-4bf6-8554-0c8f8d2345cf">
      <origin publicID="smi:local/e4783fa4-7e38-4549-82af-6a1df9474daf">
        <time>
          <value>2009-01-08T13:24:26.660000Z</value>
        </time>
        <latitude/>
        <longitude/>
        <comment id="smi:local/2e4e4510-91c7-49fa-b630-0cfb5363ffa5">
          <text>CLUSTER 8 CORE EVENT; NOT IN AVO</text>
        </comment>
      </origin>
    </event>
    <event publicID="smi:local/4d164868-4f71-455d-9fca-511e06a9532d">
      <origin publicID="smi:local/2567430e-8abe-49d7-9e0f-292d488e7692">
        <time>
          <value>2009-01-01T08:41:15.300000Z</value>
        </time>
        <latitude>
          <value>60.5067</value>
        </latitude>
        <longitude>
          <value>-152.747</value>
        </longitude>
        <depth>
          <value>950.0</value>
        </depth>
        <comment id="smi:local/33efa6b5-9661-4e54-9848-a932e7e93677">
          <text>CLUSTER 9 CORE EVENT; NOT IN AVO</text>
        </comment>
        <arrival publicID="smi:local/7704594e-2d0a-441f-b0d2-2b1b44e30530">
          <pickID>smi:local/3dd570e0-647f-4e44-85ad-9a253f66a40e</pickID>
          <phase>P</phase>
          <timeWeight>0.1</timeWeight>
        </arrival>
        <arrival publicID="smi:local/674a2326-d0c6-45ee-ae00-317ba898427a">
          <pickID>smi:local/1cd52874-ee72-41e0-9e7a-a871eaf038b7</pickID>
          <phase>P</phase>
          <timeWeight>0.1</timeWeight>
        </arrival>
        <arrival publicID="smi:local/223fbf04-9aa9-43e8-98f7-c2df8e409269">
          <pickID>smi:local/c32af5b2-e887-4ac5-ba70-e4f5bd739492</pickID>
          <phase>P</phase>
          <timeWeight>0.1</timeWeight>
        </arrival>
        <arrival publicID="smi:local/b521a3a9-a26b-4e31-a502-9aaf103f00bc">
          <pickID>smi:local/aae2c39f-58e3-455e-9912-30fc86414bc5</pickID>
          <phase>S</phase>
          <timeWeight>0.1</timeWeight>
        </arrival>
        <arrival publicID="smi:local/3ed02c37-3ea2-4fec-8baa-d50d6305600b">
          <pickID>smi:local/da50778e-432f-4d0c-aee2-e8c410e5852d</pickID>
          <phase>P</phase>
          <timeWeight>0.1</timeWeight>
        </arrival>
        <arrival publicID="smi:local/5a5d47af-4169-42b3-9d45-cd706a6d76b7">
          <pickID>smi:local/cd1bfcf0-804b-4d12-b47e-667fbc903e44</pickID>
          <phase>P</phase>
          <timeWeight>0.1</timeWeight>
        </arrival>
        <arrival publicID="smi:local/f4f9a2a7-b1d7-4a51-9684-94c00e8506d6">
          <pickID>smi:local/39ab8e0c-b5bb-4b94-bc2c-80c2a5cdc6fd</pickID>
          <phase>S</phase>
          <timeWeight>0.1</timeWeight>
        </arrival>
        <arrival publicID="smi:local/67927c43-ee5f-475e-ae0f-648b372879cd">
          <pickID>smi:local/6b3a9fca-f65c-4e8e-8dfc-80ee284c934b</pickID>
          <phase>P</phase>
          <timeWeight>0.1</timeWeight>
        </arrival>
        <arrival publicID="smi:local/d54f81d0-6cc1-41ce-8d3c-ea2a08b862b3">
          <pickID>smi:local/af4ae585-a8df-4395-b96a-7440073aa556</pickID>
          <phase>P</phase>
          <timeWeight>0.1</timeWeight>
        </arrival>
      </origin>
      <pick publicID="smi:local/3dd570e0-647f-4e44-85ad-9a253f66a40e">
        <time>
          <value>2009-01-01T08:41:16.370000Z</value>
        </time>
        <waveformID networkCode="AV" stationCode="DFR" locationCode="" channelCode="EHZ"></waveformID>
        <phaseHint>P</phaseHint>
      </pick>
      <pick publicID="smi:local/1cd52874-ee72-41e0-9e7a-a871eaf038b7">
        <time>
          <value>2009-01-01T08:41:16.470000Z</value>
        </time>
        <waveformID networkCode="AV" stationCode="NCT" locationCode="" channelCode="EHZ"></waveformID>
        <phaseHint>P</phaseHint>
      </pick>
      <pick publicID="smi:local/c32af5b2-e887-4ac5-ba70-e4f5bd739492">
        <time>
          <value>2009-01-01T08:41:16.970000Z</value>
        </time>
        <waveformID networkCode="AV" stationCode="RDE" locationCode="" channelCode="EHZ"></waveformID>
        <phaseHint>P</phaseHint>
      </pick>
      <pick publicID="smi:local/aae2c39f-58e3-455e-9912-30fc86414bc5">
        <time>
          <value>2009-01-01T08:41:17.940000Z</value>
        </time>
        <waveformID networkCode="AV" stationCode="RDJH" locationCode="" channelCode="BHN"></waveformID>
        <phaseHint>S</phaseHint>
      </pick>
