<?xml version='1.0' encoding='utf-8'?>
<q:quakeml xmlns="http://quakeml.org/xmlns/bed/1.2" xmlns:q="http://quakeml.org/xmlns/quakeml/1.2">
  <eventParameters publicID="smi:local/3ad9b7eb-a87c-479f-a844-1a95b3163525">
    <event publicID="smi:local/dd51d55e-1e06-4ed1-9b5c-2f0709adebc6">
      <origin publicID="smi:local/eef2ade6-d07d-42aa-8f18-ef8c4a558d6b">
        <time>
          <value>2009-01-25T12:39:51.580000Z</value>
        </time>
        <latitude>
          <value>60.463</value>
        </latitude>
        <longitude>
          <value>-152.7423</value>
        </longitude>
        <depth>
          <value>3800.0</value>
        </depth>
        <comment id="smi:local/214c3be6-3531-46f3-a414-982fb90ab9c1">
          <text>CLUSTER 176 CORE EVENT; IN AVO, DT = 1.18</text>
        </comment>
        <arrival publicID="smi:local/faff5afd-339f-4155-9d19-d89f310d125e">
          <pickID>smi:local/8c830660-65c4-422d-961b-b32cdc1b0655</pickID>
          <phase>P</phase>
          <timeWeight>0.1</timeWeight>
        </arrival>
        <arrival publicID="smi:local/0e5130e3-1ff5-4874-9e4b-f9af0f87ff37">
          <pickID>smi:local/1f94c4ca-0cea-4854-8749-2bec6698d065</pickID>
          <phase>P</phase>
          <timeWeight>0.1</timeWeight>
        </arrival>
        <arrival publicID="smi:local/53744266-e17f-487f-b23e-a465df492700">
          <pickID>smi:local/d5ff7f38-f50f-424e-a501-18de3354cf2e</pickID>
          <phase>P</phase>
          <timeWeight>0.1</timeWeight>
        </arrival>
        <arrival publicID="smi:local/d1feba4c-5367-441c-a0f8-6b9926897fbd">
          <pickID>smi:local/529aa936-817c-4806-93b4-41e4db65294d</pickID>
          <phase>S</phase>
          <timeWeight>0.1</timeWeight>
        </arrival>
        <arrival publicID="smi:local/cd33525a-c6fd-4336-811a-7ae10ef7bee1">
          <pickID>smi:local/84508635-6668-4c8f-bc59-aa01f424eef9</pickID>
          <phase>P</phase>
          <timeWeight>0.1</timeWeight>
        </arrival>
        <arrival publicID="smi:local/205726ce-2048-42ae-b92c-9c7ca41301ba">
          <pickID>smi:local/0cec2477-4289-44b6-b99d-ab6e690898de</pickID>
          <phase>P</phase>
          <timeWeight>0.1</timeWeight>
        </arrival>
      </origin>
      <pick publicID="smi:local/8c830660-65c4-422d-961b-b32cdc1b0655">
        <time>
          <value>2009-01-25T12:39:53.040000Z</value>
        </time>
        <waveformID networkCode="AV" stationCode="DFR" locationCode="" channelCode="EHZ"></waveformID>
        <phaseHint>P</phaseHint>
      </pick>
      <pick publicID="smi:local/1f94c4ca-0cea-4854-8749-2bec6698d065">
        <time>
          <value>2009-01-25T12:39:53.070000Z</value>
        </time>
        <waveformID networkCode="AV" stationCode="NCT" locationCode="" channelCode="EHZ"></waveformID>
        <phaseHint>P</phaseHint>
      </pick>
      <pick publicID="smi:local/d5ff7f38-f50f-424e-a501-18de3354cf2e">
        <time>
          <value>2009-01-25T12:39:51.470000Z</value>
        </time>
        <waveformID networkCode="AV" stationCode="RDN" locationCode="" channelCode="EHZ"></waveformID>
        <phaseHint>P</phaseHint>
      </pick>
      <pick publicID="smi:local/529aa936-817c-4806-93b4-41e4db65294d">
        <time>
          <value>2009-01-25T12:39:52.520000Z</value>
        </time>
        <waveformID networkCode="AV" stationCode="REF" locationCode="" channelCode="EHE"></waveformID>
        <phaseHint>S</phaseHint>
      </pick>
      <pick publicID="smi:local/84508635-6668-4c8f-bc59-aa01f424eef9">
        <time>
          <value>2009-01-25T12:39:51.550000Z</value>
        </time>
        <waveformID networkCode="AV" stationCode="REF" locationCode="" channelCode="EHZ"></waveformID>
        <phaseHint>P</phaseHint>
      </pick>
      <pick publicID="smi:local/0cec2477-4289-44b6-b99d-ab6e690898de">
        <time>
          <value>2009-01-25T12:39:51.470000Z</value>
        </time>
        <waveformID networkCode="AV" stationCode="RSO" locationCode="" channelCode="EHZ"></waveformID>
        <phaseHint>P</phaseHint>
      </pick>
    </event>
    <event publicID="smi:local/dd51d55e-1e06-4ed1-9b5c-2f0709adebc6">
      <origin publicID="smi:local/eef2ade6-d07d-42aa-8f18-ef8c4a558d6b">
        <time>
          <value>2009-01-25T12:40:47.940000Z</value>
        </time>
        <latitude>
          <value>60.463</value>
        </latitude>
        <longitude>
          <value>-152.7423</value>
        </longitude>
        <depth>
          <value>3800.0</value>
        </depth>
        <comment id="smi:local/214c3be6-3531-46f3-a414-982fb90ab9c1">
          <text>CLUSTER 176 CORE EVENT; IN AVO, DT = 1.18</text>
        </comment>
        <arrival publicID="smi:local/faff5afd-339f-4155-9d19-d89f310d125e">
          <pickID>smi:local/8c830660-65c4-422d-961b-b32cdc1b0655</pickID>
          <phase>P</phase>
          <timeWeight>0.1</timeWeight>
        </arrival>
        <arrival publicID="smi:local/0e5130e3-1ff5-4874-9e4b-f9af0f87ff37">
          <pickID>smi:local/1f94c4ca-0cea-4854-8749-2bec6698d065</pickID>
          <phase>P</phase>
          <timeWeight>0.1</timeWeight>
        </arrival>
        <arrival publicID="smi:local/53744266-e17f-487f-b23e-a465df492700">
          <pickID>smi:local/d5ff7f38-f50f-424e-a501-18de3354cf2e</pickID>
          <phase>P</phase>
          <timeWeight>0.1</timeWeight>
        </arrival>
        <arrival publicID="smi:local/d1feba4c-5367-441c-a0f8-6b9926897fbd">
          <pickID>smi:local/529aa936-817c-4806-93b4-41e4db65294d</pickID>
          <phase>S</phase>
          <timeWeight>0.1</timeWeight>
        </arrival>
        <arrival publicID="smi:local/cd33525a-c6fd-4336-811a-7ae10ef7bee1">
          <pickID>smi:local/84508635-6668-4c8f-bc59-aa01f424eef9</pickID>
          <phase>P</phase>
          <timeWeight>0.1</timeWeight>
        </arrival>
        <arrival publicID="smi:local/205726ce-2048-42ae-b92c-9c7ca41301ba">
          <pickID>smi:local/0cec2477-4289-44b6-b99d-ab6e690898de</pickID>
          <phase>P</phase>
          <timeWeight>0.1</timeWeight>
        </arrival>
      </origin>
      <pick publicID="smi:local/8c830660-65c4-422d-961b-b32cdc1b0655">
        <time>
          <value>2009-01-25T12:40:49.400000Z</value>
        </time>
        <waveformID networkCode="AV" stationCode="DFR" locationCode="" channelCode="EHZ"></waveformID>
        <phaseHint>P</phaseHint>
      </pick>
      <pick publicID="smi:local/1f94c4ca-0cea-4854-8749-2bec6698d065">
        <time>
          <value>2009-01-25T12:40:49.430000Z</value>
        </time>
        <waveformID networkCode="AV" stationCode="NCT" locationCode="" channelCode="EHZ"></waveformID>
        <phaseHint>P</phaseHint>
      </pick>
      <pick publicID="smi:local/d5ff7f38-f50f-424e-a501-18de3354cf2e">
        <time>
          <value>2009-01-25T12:40:47.830000Z</value>
        </time>
        <waveformID networkCode="AV" stationCode="RDN" locationCode="" channelCode="EHZ"></waveformID>
        <phaseHint>P</phaseHint>
      </pick>
      <pick publicID="smi:local/529aa936-817c-4806-93b4-41e4db65294d">
        <time>
          <value>2009-01-25T12:40:48.880000Z</value>
        </time>
        <waveformID networkCode="AV" stationCode="REF" locationCode="" channelCode="EHE"></waveformID>
        <phaseHint>S</phaseHint>
      </pick>
      <pick publicID="smi:local/84508635-6668-4c8f-bc59-aa01f424eef9">
        <time>
          <value>2009-01-25T12:40:47.910000Z</value>
        </time>
        <waveformID networkCode="AV" stationCode="REF" locationCode="" channelCode="EHZ"></waveformID>
        <phaseHint>P</phaseHint>
      </pick>
      <pick publicID="smi:local/0cec2477-4289-44b6-b99d-ab6e690898de">
        <time>
          <value>2009-01-25T12:40:47.830000Z</value>
        </time>
        <waveformID networkCode="AV" stationCode="RSO" locationCode="" channelCode="EHZ"></waveformID>
        <phaseHint>P</phaseHint>
      </pick>
    </event>
    <event publicID="smi:local/dd51d55e-1e06-4ed1-9b5c-2f0709adebc6">
      <origin publicID="smi:local/eef2ade6-d07d-42aa-8f18-ef8c4a558d6b">
        <time>
          <value>2009-01-25T15:25:26.420000Z</value>
        </time>
        <latitude>
          <value>60.463</value>
        </latitude>
        <longitude>
          <value>-152.7423</value>
        </longitude>
        <depth>
          <value>3800.0</value>
        </depth>
        <comment id="smi:local/214c3be6-3531-46f3-a414-982fb90ab9c1">
          <text>CLUSTER 176 CORE EVENT; IN AVO, DT = 1.18</text>
        </comment>
        <arrival publicID="smi:local/faff5afd-339f-4155-9d19-d89f310d125e">
          <pickID>smi:local/8c830660-65c4-422d-961b-b32cdc1b0655</pickID>
          <phase>P</phase>
          <timeWeight>0.1</timeWeight>
        </arrival>
        <arrival publicID="smi:local/0e5130e3-1ff5-4874-9e4b-f9af0f87ff37">
          <pickID>smi:local/1f94c4ca-0cea-4854-8749-2bec6698d065</pickID>
          <phase>P</phase>
          <timeWeight>0.1</timeWeight>
        </arrival>
        <arrival publicID="smi:local/53744266-e17f-487f-b23e-a465df492700">
          <pickID>smi:local/d5ff7f38-f50f-424e-a501-18de3354cf2e</pickID>
          <phase>P</phase>
          <timeWeight>0.1</timeWeight>
        </arrival>
        <arrival publicID="smi:local/d1feba4c-5367-441c-a0f8-6b9926897fbd">
          <pickID>smi:local/529aa936-817c-4806-93b4-41e4db65294d</pickID>
          <phase>S</phase>
          <timeWeight>0.1</timeWeight>
        </arrival>
        <arrival publicID="smi:local/cd33525a-c6fd-4336-811a-7ae10ef7bee1">
          <pickID>smi:local/84508635-6668-4c8f-bc59-aa01f424eef9</pickID>
          <phase>P</phase>
          <timeWeight>0.1</timeWeight>
        </arrival>
        <arrival publicID="smi:local/205726ce-2048-42ae-b92c-9c7ca41301ba">
          <pickID>smi:local/0cec2477-4289-44b6-b99d-ab6e690898de</pickID>
          <phase>P</phase>
          <timeWeight>0.1</timeWeight>
        </arrival>
      </origin>
      <pick publicID="smi:local/8c830660-65c4-422d-961b-b32cdc1b0655">
        <time>
          <value>2009-01-25T15:25:27.880000Z</value>
        </time>
        <waveformID networkCode="AV" stationCode="DFR" locationCode="" channelCode="EHZ"></waveformID>
        <phaseHint>P</phaseHint>
      </pick>
      <pick publicID="smi:local/1f94c4ca-0cea-4854-8749-2bec6698d065">
        <time>
          <value>2009-01-25T15:25:27.910000Z</value>
        </time>
        <waveformID networkCode="AV" stationCode="NCT" locationCode="" channelCode="EHZ"></waveformID>
        <phaseHint>P</phaseHint>
      </pick>
      <pick publicID="smi:local/d5ff7f38-f50f-424e-a501-18de3354cf2e">
        <time>
          <value>2009-01-25T15:25:26.310000Z</value>
        </time>
        <waveformID networkCode="AV" stationCode="RDN" locationCode="" channelCode="EHZ"></waveformID>
        <phaseHint>P</phaseHint>
      </pick>
      <pick publicID="smi:local/529aa936-817c-4806-93b4-41e4db65294d">
        <time>
          <value>2009-01-25T15:25:27.360000Z</value>
        </time>
        <waveformID networkCode="AV" stationCode="REF" locationCode="" channelCode="EHE"></waveformID>
        <phaseHint>S</phaseHint>
      </pick>
      <pick publicID="smi:local/84508635-6668-4c8f-bc59-aa01f424eef9">
        <time>
          <value>2009-01-25T15:25:26.390000Z</value>
        </time>
        <waveformID networkCode="AV" stationCode="REF" locationCode="" channelCode="EHZ"></waveformID>
        <phaseHint>P</phaseHint>
      </pick>
      <pick publicID="smi:local/0cec2477-4289-44b6-b99d-ab6e690898de">
        <time>
          <value>2009-01-25T15:25:26.310000Z</value>
        </time>
        <waveformID networkCode="AV" stationCode="RSO" locationCode="" channelCode="EHZ"></waveformID>
        <phaseHint>P</phaseHint>
      </pick>
    </event>
    <event publicID="smi:local/dd51d55e-1e06-4ed1-9b5c-2f0709adebc6">
      <origin publicID="smi:local/eef2ade6-d07d-42aa-8f18-ef8c4a558d6b">
        <time>
          <value>2009-01-25T16:19:09.510000Z</value>
        </time>
        <latitude>
          <value>60.463</value>
        </latitude>
        <longitude>
          <value>-152.7423</value>
        </longitude>
        <depth>
          <value>3800.0</value>
        </depth>
        <comment id="smi:local/214c3be6-3531-46f3-a414-982fb90ab9c1">
          <text>CLUSTER 176 CORE EVENT; IN AVO, DT = 1.18</text>
        </comment>
        <arrival publicID="smi:local/faff5afd-339f-4155-9d19-d89f310d125e">
          <pickID>smi:local/8c830660-65c4-422d-961b-b32cdc1b0655</pickID>
          <phase>P</phase>
          <timeWeight>0.1</timeWeight>
        </arrival>
        <arrival publicID="smi:local/0e5130e3-1ff5-4874-9e4b-f9af0f87ff37">
          <pickID>smi:local/1f94c4ca-0cea-4854-8749-2bec6698d065</pickID>
          <phase>P</phase>
          <timeWeight>0.1</timeWeight>
        </arrival>
        <arrival publicID="smi:local/53744266-e17f-487f-b23e-a465df492700">
          <pickID>smi:local/d5ff7f38-f50f-424e-a501-18de3354cf2e</pickID>
          <phase>P</phase>
          <timeWeight>0.1</timeWeight>
        </arrival>
        <arrival publicID="smi:local/d1feba4c-5367-441c-a0f8-6b9926897fbd">
          <pickID>smi:local/529aa936-817c-4806-93b4-41e4db65294d</pickID>
          <phase>S</phase>
          <timeWeight>0.1</timeWeight>
        </arrival>
        <arrival publicID="smi:local/cd33525a-c6fd-4336-811a-7ae10ef7bee1">
          <pickID>smi:local/84508635-6668-4c8f-bc59-aa01f424eef9</pickID>
          <phase>P</phase>
          <timeWeight>0.1</timeWeight>
        </arrival>
        <arrival publicID="smi:local/205726ce-2048-42ae-b92c-9c7ca41301ba">
          <pickID>smi:local/0cec2477-4289-44b6-b99d-ab6e690898de</pickID>
          <phase>P</phase>
          <timeWeight>0.1</timeWeight>
        </arrival>
      </origin>
      <pick publicID="smi:local/8c830660-65c4-422d-961b-b32cdc1b0655">
        <time>
          <value>2009-01-25T16:19:10.970000Z</value>
        </time>
        <waveformID networkCode="AV" stationCode="DFR" locationCode="" channelCode="EHZ"></waveformID>
        <phaseHint>P</phaseHint>
      </pick>
      <pick publicID="smi:local/1f94c4ca-0cea-4854-8749-2bec6698d065">
        <time>
          <value>2009-01-25T16:19:11.000000Z</value>
        </time>
        <waveformID networkCode="AV" stationCode="NCT" locationCode="" channelCode="EHZ"></waveformID>
        <phaseHint>P</phaseHint>
      </pick>
      <pick publicID="smi:local/d5ff7f38-f50f-424e-a501-18de3354cf2e">
        <time>
          <value>2009-01-25T16:19:09.400000Z</value>
        </time>
        <waveformID networkCode="AV" stationCode="RDN" locationCode="" channelCode="EHZ"></waveformID>
        <phaseHint>P</phaseHint>
      </pick>
      <pick publicID="smi:local/529aa936-817c-4806-93b4-41e4db65294d">
        <time>
          <value>2009-01-25T16:19:10.450000Z</value>
        </time>
        <waveformID networkCode="AV" stationCode="REF" locationCode="" channelCode="EHE"></waveformID>
        <phaseHint>S</phaseHint>
      </pick>
      <pick publicID="smi:local/84508635-6668-4c8f-bc59-aa01f424eef9">
        <time>
          <value>2009-01-25T16:19:09.480000Z</value>
        </time>
        <waveformID networkCode="AV" stationCode="REF" locationCode="" channelCode="EHZ"></waveformID>
        <phaseHint>P</phaseHint>
      </pick>
      <pick publicID="smi:local/0cec2477-4289-44b6-b99d-ab6e690898de">
        <time>
          <value>2009-01-25T16:19:09.400000Z</value>
        </time>
        <waveformID networkCode="AV" stationCode="RSO" locationCode="" channelCode="EHZ"></waveformID>
        <phaseHint>P</phaseHint>
      </pick>
    </event>
    <event publicID="smi:local/dd51d55e-1e06-4ed1-9b5c-2f0709adebc6">
      <origin publicID="smi:local/eef2ade6-d07d-42aa-8f18-ef8c4a558d6b">
        <time>
          <value>2009-01-25T19:06:53.140000Z</value>
        </time>
        <latitude>
          <value>60.463</value>
        </latitude>
        <longitude>
          <value>-152.7423</value>
        </longitude>
        <depth>
          <value>3800.0</value>
        </depth>
        <comment id="smi:local/214c3be6-3531-46f3-a414-982fb90ab9c1">
          <text>CLUSTER 176 CORE EVENT; IN AVO, DT = 1.18</text>
        </comment>
        <arrival publicID="smi:local/faff5afd-339f-4155-9d19-d89f310d125e">
          <pickID>smi:local/8c830660-65c4-422d-961b-b32cdc1b0655</pickID>
          <phase>P</phase>
          <timeWeight>0.1</timeWeight>
        </arrival>
        <arrival publicID="smi:local/0e5130e3-1ff5-4874-9e4b-f9af0f87ff37">
          <pickID>smi:local/1f94c4ca-0cea-4854-8749-2bec6698d065</pickID>
          <phase>P</phase>
          <timeWeight>0.1</timeWeight>
        </arrival>
        <arrival publicID="smi:local/53744266-e17f-487f-b23e-a465df492700">
          <pickID>smi:local/d5ff7f38-f50f-424e-a501-18de3354cf2e</pickID>
          <phase>P</phase>
          <timeWeight>0.1</timeWeight>
        </arrival>
        <arrival publicID="smi:local/d1feba4c-5367-441c-a0f8-6b9926897fbd">
          <pickID>smi:local/529aa936-817c-4806-93b4-41e4db65294d</pickID>
          <phase>S</phase>
          <timeWeight>0.1</timeWeight>
        </arrival>
        <arrival publicID="smi:local/cd33525a-c6fd-4336-811a-7ae10ef7bee1">
          <pickID>smi:local/84508635-6668-4c8f-bc59-aa01f424eef9</pickID>
          <phase>P</phase>
          <timeWeight>0.1</timeWeight>
        </arrival>
        <arrival publicID="smi:local/205726ce-2048-42ae-b92c-9c7ca41301ba">
          <pickID>smi:local/0cec2477-4289-44b6-b99d-ab6e690898de</pickID>
          <phase>P</phase>
          <timeWeight>0.1</timeWeight>
        </arrival>
      </origin>
      <pick publicID="smi:local/8c830660-65c4-422d-961b-b32cdc1b0655">
        <time>
          <value>2009-01-25T19:06:54.600000Z</value>
        </time>
        <waveformID networkCode="AV" stationCode="DFR" locationCode="" channelCode="EHZ"></waveformID>
        <phaseHint>P</phaseHint>
      </pick>
      <pick publicID="smi:local/1f94c4ca-0cea-4854-8749-2bec6698d065">
        <time>
          <value>2009-01-25T19:06:54.630000Z</value>
        </time>
        <waveformID networkCode="AV" stationCode="NCT" locationCode="" channelCode="EHZ"></waveformID>
        <phaseHint>P</phaseHint>
      </pick>
      <pick publicID="smi:local/d5ff7f38-f50f-424e-a501-18de3354cf2e">
        <time>
          <value>2009-01-25T19:06:53.030000Z</value>
        </time>
        <waveformID networkCode="AV" stationCode="RDN" locationCode="" channelCode="EHZ"></waveformID>
        <phaseHint>P</phaseHint>
      </pick>
      <pick publicID="smi:local/529aa936-817c-4806-93b4-41e4db65294d">
        <time>
          <value>2009-01-25T19:06:54.080000Z</value>
        </time>
        <waveformID networkCode="AV" stationCode="REF" locationCode="" channelCode="EHE"></waveformID>
        <phaseHint>S</phaseHint>
      </pick>
      <pick publicID="smi:local/84508635-6668-4c8f-bc59-aa01f424eef9">
        <time>
          <value>2009-01-25T19:06:53.110000Z</value>
        </time>
        <waveformID networkCode="AV" stationCode="REF" locationCode="" channelCode="EHZ"></waveformID>
        <phaseHint>P</phaseHint>
      </pick>
      <pick publicID="smi:local/0cec2477-4289-44b6-b99d-ab6e690898de">
        <time>
          <value>2009-01-25T19:06:53.030000Z</value>
        </time>
        <waveformID networkCode="AV" stationCode="RSO" locationCode="" channelCode="EHZ"></waveformID>
        <phaseHint>P</phaseHint>
      </pick>
    </event>
    <event publicID="smi:local/9ed467ee-4582-423d-9701-06345f195f66">
      <origin publicID="smi:local/c63b6c52-1409-4f9c-9dea-876ff8c2d68a">
        <time>
          <value>2009-01-25T17:49:26.920000Z</value>
        </time>
        <latitude>
          <value>60.4677</value>
        </latitude>
        <longitude>
          <value>-152.6928</value>
        </longitude>
        <depth>
          <value>3260.0</value>
        </depth>
