<?xml version='1.0' encoding='utf-8'?>
<q:quakeml xmlns="http://quakeml.org/xmlns/bed/1.2" xmlns:q="http://quakeml.org/xmlns/quakeml/1.2">
  <eventParameters publicID="smi:local/65a18db5-b825-490c-9018-50c827844060">
    <event publicID="smi:local/706c5924-d172-4a3d-808e-cb783e9bf447">
      <origin publicID="smi:local/4a4dfba1-a3c3-43ff-8cb1-6b8b249fa419">
        <time>
          <value>2009-04-24T05:15:04.040000Z</value>
        </time>
        <latitude/>
        <longitude/>
        <comment id="smi:local/b243d4e8-870c-49dd-9a13-744c412ec55a">
          <text>ORPHAN EVENT; NOT IN AVO</text>
        </comment>
      </origin>
    </event>
    <event publicID="smi:local/ec74d352-c61f-48be-a0f7-a57f333ef466">
      <origin publicID="smi:local/6499d3d5-c53d-4420-9e94-ff29629a0bb7">
        <time>
          <value>2009-04-25T13:34:44.470000Z</value>
        </time>
        <latitude/>
        <longitude/>
        <comment id="smi:local/aeb73d14-b5c3-4068-9c64-497cba2162a5">
          <text>ORPHAN EVENT; NOT IN AVO</text>
        </comment>
      </origin>
    </event>
    <event publicID="smi:local/93a144bc-530e-4425-9647-55869d024a33">
      <origin publicID="smi:local/60d38a9a-d6b2-45c0-9aa3-333771820c6b">
        <time>
          <value>2009-04-25T14:40:09.970000Z</value>
        </time>
        <latitude/>
        <longitude/>
        <comment id="smi:local/aaf3e0f3-f848-4d38-b502-b00c86802625">
          <text>ORPHAN EVENT; NOT IN AVO</text>
        </comment>
      </origin>
    </event>
    <event publicID="smi:local/9f0dd29c-7558-475d-b537-5c0e9712d3a5">
      <origin publicID="smi:local/fabe17f5-9755-4e0b-981c-0fc9c2ef85d4">
        <time>
          <value>2009-04-25T14:48:59.820000Z</value>
        </time>
        <latitude/>
        <longitude/>
        <comment id="smi:local/bb07b059-509f-473d-b6e6-dd8462bf3719">
          <text>ORPHAN EVENT; NOT IN AVO</text>
        </comment>
      </origin>
    </event>
    <event publicID="smi:local/0258ceae-d5fb-4cca-9ed4-ce8c83be577d">
      <origin publicID="smi:local/b106b6d6-e3b9-4860-9fbb-aff94d9d13e4">
        <time>
          <value>2009-04-25T15:28:31.420000Z</value>
        </time>
        <latitude/>
        <longitude/>
        <comment id="smi:local/7c1eafa3-86e2-4daf-9fa4-d00804ae0d3f">
          <text>ORPHAN EVENT; NOT IN AVO</text>
        </comment>
      </origin>
    </event>
    <event publicID="smi:local/4f108737-9174-4070-a48f-4ba689623c1c">
      <origin publicID="smi:local/4e79085b-6299-422a-b659-e2229d02f29b">
        <time>
          <value>2009-04-25T15:29:10.450000Z</value>
        </time>
        <latitude/>
        <longitude/>
        <comment id="smi:local/9c451111-306e-4074-8e87-0765ec57775d">
          <text>ORPHAN EVENT; NOT IN AVO</text>
        </comment>
      </origin>
    </event>
    <event publicID="smi:local/cd3e580a-0700-49af-94cd-dadb86780e79">
      <origin publicID="smi:local/d058bfc2-cd50-471c-adea-ef9412a3bde4">
        <time>
          <value>2009-04-25T15:39:33.870000Z</value>
        </time>
        <latitude/>
        <longitude/>
        <comment id="smi:local/52dc4555-9768-4ef2-bea3-feb01eb37674">
          <text>ORPHAN EVENT; NOT IN AVO</text>
        </comment>
      </origin>
    </event>
    <event publicID="smi:local/23a65670-0352-431c-b749-4d47dde691f4">
      <origin publicID="smi:local/e2962af1-d263-4e91-9007-ccab5f219d00">
        <time>
          <value>2009-04-25T15:39:56.630000Z</value>
        </time>
        <latitude/>
        <longitude/>
        <comment id="smi:local/1c397a2d-d243-41be-a8e2-0f9049646283">
          <text>ORPHAN EVENT; NOT IN AVO</text>
        </comment>
      </origin>
    </event>
    <event publicID="smi:local/d1a43938-8e5a-4310-905a-143398c4afb1">
      <origin publicID="smi:local/ec4ade4a-683a-4ed1-937e-51ceb9f2f0d4">
        <time>
          <value>2009-04-25T15:41:52.790000Z</value>
        </time>
        <latitude/>
        <longitude/>
        <comment id="smi:local/a0c5e06a-f483-4cdb-8529-67503d2ed01a">
          <text>ORPHAN EVENT; NOT IN AVO</text>
        </comment>
      </origin>
    </event>
    <event publicID="smi:local/56898ced-e9a6-48c6-80b8-84bae1298e48">
      <origin publicID="smi:local/ddec7e4f-69e5-4849-96e6-50cf55a4e638">
        <time>
          <value>2009-04-25T16:15:21.370000Z</value>
        </time>
        <latitude/>
        <longitude/>
        <comment id="smi:local/d73b3f74-977b-4025-b96f-e9195e55d79c">
          <text>ORPHAN EVENT; NOT IN AVO</text>
        </comment>
      </origin>
    </event>
    <event publicID="smi:local/0c49ca9f-d650-4743-b8b6-f7f367e285df">
      <origin publicID="smi:local/62e767d8-c97f-4198-bd16-bee5d15a9c62">
        <time>
          <value>2009-04-25T16:16:52.750000Z</value>
        </time>
        <latitude/>
        <longitude/>
        <comment id="smi:local/b20639b2-b958-4e13-b23f-b7cc76aa4524">
          <text>ORPHAN EVENT; NOT IN AVO</text>
        </comment>
      </origin>
    </event>
    <event publicID="smi:local/a10f5794-ce32-4913-b637-4b0abfa2f519">
      <origin publicID="smi:local/1596d665-5dd5-4de1-aaf2-d9e0e8e82dfe">
        <time>
          <value>2009-04-25T16:30:56.300000Z</value>
        </time>
        <latitude/>
        <longitude/>
        <comment id="smi:local/81e7c38e-e52a-4c45-b03d-6253f9a8672a">
          <text>ORPHAN EVENT; NOT IN AVO</text>
        </comment>
      </origin>
    </event>
    <event publicID="smi:local/0de8b1a5-0ffa-4920-8588-32ea378ab037">
      <origin publicID="smi:local/c58485d0-ff35-4d6b-a06c-45eb8d3ed9f0">
        <time>
          <value>2009-04-25T16:58:39.300000Z</value>
        </time>
        <latitude/>
        <longitude/>
        <comment id="smi:local/d1ca671a-3e16-4b15-9e18-a793746d4bcf">
          <text>ORPHAN EVENT; NOT IN AVO</text>
        </comment>
      </origin>
    </event>
    <event publicID="smi:local/4c920b0a-84bf-49f5-b6e6-7d2968cd461a">
      <origin publicID="smi:local/d9d7059d-f8b2-46f6-a8fa-349ff3515fd5">
        <time>
          <value>2009-04-25T16:59:31.630000Z</value>
        </time>
        <latitude/>
        <longitude/>
        <comment id="smi:local/46ac0e44-af24-4f3a-8b2d-ab69588f1ae1">
          <text>ORPHAN EVENT; NOT IN AVO</text>
        </comment>
      </origin>
    </event>
    <event publicID="smi:local/d450e5a6-4c98-4d38-8504-418a9b397172">
      <origin publicID="smi:local/dc3ca2ae-fba7-44cf-ae2d-4d76c21272f5">
        <time>
          <value>2009-04-25T17:00:52.570000Z</value>
        </time>
        <latitude/>
        <longitude/>
        <comment id="smi:local/235788f6-2d94-421a-97c2-1cb5d6481279">
          <text>ORPHAN EVENT; NOT IN AVO</text>
        </comment>
      </origin>
    </event>
    <event publicID="smi:local/ba465aa8-f50e-4ada-ab4e-cf6d9758068e">
      <origin publicID="smi:local/9462fca0-7718-470d-beed-5e01d62d1f88">
        <time>
          <value>2009-04-25T17:01:17.640000Z</value>
        </time>
        <latitude/>
        <longitude/>
        <comment id="smi:local/d2a6f8de-cc33-4b26-962c-78f37d691168">
          <text>ORPHAN EVENT; NOT IN AVO</text>
        </comment>
      </origin>
    </event>
    <event publicID="smi:local/3c9243f6-8aa1-40b7-93e1-85c87e4b1a3c">
      <origin publicID="smi:local/fca14213-4f2b-47e6-8460-9a9007cbc721">
        <time>
          <value>2009-04-25T17:02:03.830000Z</value>
        </time>
        <latitude/>
        <longitude/>
        <comment id="smi:local/6d6ace81-ba5f-4273-aae7-dcf26c0af5bf">
          <text>ORPHAN EVENT; NOT IN AVO</text>
        </comment>
      </origin>
    </event>
    <event publicID="smi:local/79831afb-686b-4347-9692-77af440e50ef">
      <origin publicID="smi:local/8e76d71e-2837-4ffe-b9b4-5d7e8beaa07a">
        <time>
          <value>2009-04-25T17:02:44.830000Z</value>
        </time>
        <latitude/>
        <longitude/>
        <comment id="smi:local/bf6b45bb-1d52-4bd5-8798-b27b40acaefd">
          <text>ORPHAN EVENT; NOT IN AVO</text>
        </comment>
      </origin>
    </event>
    <event publicID="smi:local/a8b5c82b-cc47-4428-938d-1a30edc672c0">
      <origin publicID="smi:local/fe33dbcd-5075-451f-b809-eda734e351f7">
        <time>
          <value>2009-04-25T17:03:28.150000Z</value>
        </time>
        <latitude/>
        <longitude/>
        <comment id="smi:local/c3f6f933-d5ee-49cd-863d-5a5c1beba9db">
          <text>ORPHAN EVENT; NOT IN AVO</text>
        </comment>
      </origin>
    </event>
    <event publicID="smi:local/99fe0bc6-b71b-4d88-bcb1-754b6369e570">
      <origin publicID="smi:local/1f00683f-3bc7-43ba-b291-887036fc7ded">
        <time>
          <value>2009-04-25T17:13:14.700000Z</value>
        </time>
        <latitude/>
        <longitude/>
        <comment id="smi:local/d6ce3792-35e4-4965-8bf6-76bc355fed92">
          <text>ORPHAN EVENT; NOT IN AVO</text>
        </comment>
      </origin>
    </event>
    <event publicID="smi:local/3c8e46af-faca-47cd-964d-3ee35d2abcf9">
      <origin publicID="smi:local/73760005-0246-49d1-9dc6-099af23e299e">
        <time>
          <value>2009-04-25T17:14:20.600000Z</value>
        </time>
        <latitude/>
        <longitude/>
        <comment id="smi:local/caa98470-3c87-47a4-8432-808dd4ddbce7">
          <text>ORPHAN EVENT; NOT IN AVO</text>
        </comment>
      </origin>
    </event>
    <event publicID="smi:local/7c16f3ae-5f68-4a3c-90d8-cf2082daa1c2">
      <origin publicID="smi:local/98efd295-7c0d-424a-8e3c-e2a8882ecf0f">
        <time>
          <value>2009-04-25T17:14:49.690000Z</value>
        </time>
        <latitude/>
        <longitude/>
        <comment id="smi:local/3211cb82-be04-46c9-9b10-53acd5f9514c">
          <text>ORPHAN EVENT; NOT IN AVO</text>
        </comment>
      </origin>
    </event>
    <event publicID="smi:local/ac0bc108-1b20-48a0-9d74-abf86a42fbec">
      <origin publicID="smi:local/e8463d2a-5fdd-4748-aee7-2d175636e9cf">
        <time>
          <value>2009-04-25T17:14:58.870000Z</value>
        </time>
        <latitude/>
        <longitude/>
        <comment id="smi:local/88bb0f8c-7fc8-4098-a16b-f96578037813">
          <text>ORPHAN EVENT; NOT IN AVO</text>
        </comment>
      </origin>
    </event>
    <event publicID="smi:local/93318e94-705a-4f2f-8807-a6bc0a6a8bb9">
      <origin publicID="smi:local/d73e6f60-7649-48b7-8bbe-2a4b5ee1a91c">
        <time>
          <value>2009-04-25T17:17:31.410000Z</value>
        </time>
        <latitude/>
        <longitude/>
        <comment id="smi:local/6b6dc756-a349-441c-b145-a279035ac978">
          <text>ORPHAN EVENT; NOT IN AVO</text>
        </comment>
      </origin>
    </event>
    <event publicID="smi:local/b97fe70d-b3f0-4943-a47a-fb585ff6f070">
      <origin publicID="smi:local/318002c6-dfb7-4b3d-96c0-3e1f597898bb">
        <time>
          <value>2009-04-25T17:22:30.930000Z</value>
        </time>
        <latitude/>
        <longitude/>
        <comment id="smi:local/459d1f70-bd5d-426b-8fe9-9f79a5316b70">
          <text>ORPHAN EVENT; NOT IN AVO</text>
        </comment>
      </origin>
    </event>
    <event publicID="smi:local/c8525ac0-86bd-416c-90a5-6417caee9e39">
      <origin publicID="smi:local/2251360d-342d-4142-8fe7-c5277410b673">
        <time>
          <value>2009-04-25T17:32:28.970000Z</value>
        </time>
        <latitude/>
        <longitude/>
        <comment id="smi:local/b4790e6a-60c3-4b67-b489-91d3516289f1">
          <text>ORPHAN EVENT; NOT IN AVO</text>
        </comment>
      </origin>
    </event>
    <event publicID="smi:local/9546a2be-d18a-42bd-b3bc-72f7688edbe6">
      <origin publicID="smi:local/f345a2c3-38b5-46e9-95e4-12c977d06bda">
        <time>
          <value>2009-04-25T17:35:23.860000Z</value>
        </time>
        <latitude/>
        <longitude/>
        <comment id="smi:local/b35d00ec-be2b-43bb-889e-0f1a27063dfc">
          <text>ORPHAN EVENT; NOT IN AVO</text>
        </comment>
      </origin>
    </event>
    <event publicID="smi:local/9d35f050-ca6a-412f-99db-25ce85e1090b">
      <origin publicID="smi:local/7637e56d-9e51-4f7f-95fa-66a224ccca51">
        <time>
          <value>2009-04-25T17:41:28.960000Z</value>
        </time>
        <latitude/>
        <longitude/>
        <comment id="smi:local/c6ec4460-2a64-4859-a8be-03f77d4f15f8">
          <text>ORPHAN EVENT; NOT IN AVO</text>
        </comment>
      </origin>
    </event>
    <event publicID="smi:local/873d949e-e0c1-411c-84e4-5ef1fdf2e538">
      <origin publicID="smi:local/9f092133-db4f-40ac-b00f-1d61f2b0894a">
        <time>
          <value>2009-04-25T17:43:44.750000Z</value>
        </time>
        <latitude/>
        <longitude/>
        <comment id="smi:local/e4f987e3-3d13-49ae-b103-91965fbecad8">
          <text>ORPHAN EVENT; NOT IN AVO</text>
        </comment>
      </origin>
    </event>
    <event publicID="smi:local/bc2ccf4d-641a-4600-a97c-0f52b576835b">
      <origin publicID="smi:local/103e4ec0-6a86-4c49-aeca-b048ed73b66e">
        <time>
          <value>2009-04-25T17:46:06.320000Z</value>
        </time>
        <latitude/>
        <longitude/>
        <comment id="smi:local/23897c4a-9f03-43c7-8c0f-6154d94ef360">
          <text>ORPHAN EVENT; NOT IN AVO</text>
        </comment>
      </origin>
    </event>
    <event publicID="smi:local/2804b2c4-5b92-4e43-8db2-cc91a2aa0baf">
      <origin publicID="smi:local/8376f68d-751e-45af-b088-66f2f9a6944f">
        <time>
          <value>2009-04-25T17:47:03.440000Z</value>
        </time>
        <latitude/>
        <longitude/>
        <comment id="smi:local/6bd19170-2353-4236-9569-e79e387ad3b4">
          <text>ORPHAN EVENT; NOT IN AVO</text>
        </comment>
      </origin>
    </event>
    <event publicID="smi:local/0465370a-d68d-419a-bd67-fa853a3475af">
      <origin publicID="smi:local/cd7d5946-d12b-4a2b-8196-ee97543655c9">
        <time>
          <value>2009-04-25T17:53:58.970000Z</value>
        </time>
        <latitude/>
        <longitude/>
        <comment id="smi:local/afccafe5-d533-43a5-96e0-241d6d9bc678">
          <text>ORPHAN EVENT; NOT IN AVO</text>
        </comment>
      </origin>
    </event>
    <event publicID="smi:local/5c4bf9ea-8992-4e19-861c-4b7dbe273448">
      <origin publicID="smi:local/b62a3f21-9bac-4b01-814f-37b607bc2ce8">
        <time>
          <value>2009-04-25T19:47:06.300000Z</value>
        </time>
        <latitude/>
        <longitude/>
        <comment id="smi:local/7124f24f-1ca5-45e4-a125-1309c56ca5a9">
          <text>ORPHAN EVENT; NOT IN AVO</text>
        </comment>
      </origin>
    </event>
    <event publicID="smi:local/f3052f99-20a8-45d8-98bd-b00cdd3e683b">
      <origin publicID="smi:local/7e8685dd-f7fe-4895-9daa-35dc07b2eebd">
        <time>
          <value>2009-04-25T19:59:34.390000Z</value>
        </time>
        <latitude/>
        <longitude/>
        <comment id="smi:local/1429200c-3424-4457-ad55-3da9457b810f">
          <text>ORPHAN EVENT; NOT IN AVO</text>
        </comment>
      </origin>
    </event>
    <event publicID="smi:local/2396a35e-0f49-433a-bb2f-2dddae26f137">
      <origin publicID="smi:local/7f9160db-2867-47d9-819c-4fcec8a47dfe">
        <time>
          <value>2009-04-25T19:59:42.720000Z</value>
        </time>
        <latitude/>
        <longitude/>
        <comment id="smi:local/627db2cb-9da7-4dda-ad00-2287e7a6f3e1">
          <text>ORPHAN EVENT; NOT IN AVO</text>
        </comment>
      </origin>
    </event>
    <event publicID="smi:local/da435ce9-cf5e-4292-8d51-4a99c3312952">
      <origin publicID="smi:local/d605ed92-e36b-4810-b6ea-d5a2e6e2f344">
        <time>
          <value>2009-04-25T20:02:01.280000Z</value>
        </time>
        <latitude/>
        <longitude/>
        <comment id="smi:local/5e79548c-d844-43b7-b6a9-30e54e680c91">
          <text>ORPHAN EVENT; NOT IN AVO</text>
        </comment>
      </origin>
    </event>
    <event publicID="smi:local/8f05ec46-fd48-489b-a7b4-29508c07f921">
      <origin publicID="smi:local/362d3df2-5c4e-4473-8b3b-dc89915511a5">
        <time>
          <value>2009-04-25T22:06:40.620000Z</value>
        </time>
        <latitude/>
        <longitude/>
        <comment id="smi:local/395ffa38-cb0d-4637-90f3-1f437a87297d">
          <text>ORPHAN EVENT; NOT IN AVO</text>
        </comment>
      </origin>
    </event>
    <event publicID="smi:local/e04fa434-74b4-4f72-80ca-a41c7b701b82">
      <origin publicID="smi:local/b1d95c7f-4bc9-43b3-a0a0-8e2d61a361bf">
        <time>
          <value>2009-04-26T01:23:14.940000Z</value>
        </time>
        <latitude/>
        <longitude/>
        <comment id="smi:local/b60e3596-34b1-4826-92f4-8c929e9dc467">
          <text>ORPHAN EVENT; NOT IN AVO</text>
        </comment>
      </origin>
    </event>
    <event publicID="smi:local/4c76ce49-77ec-48fa-b784-8122d4d218aa">
      <origin publicID="smi:local/f0f2c3b7-768d-431c-8707-6d5a3819f107">
        <time>
          <value>2009-04-26T01:25:12.710000Z</value>
        </time>
        <latitude/>
        <longitude/>
        <comment id="smi:local/35795928-e085-4022-8ac0-0a2c79591193">
          <text>ORPHAN EVENT; NOT IN AVO</text>
        </comment>
      </origin>
    </event>
    <event publicID="smi:local/2aa6d775-84f9-4f14-b365-92a7b88d49ef">
      <origin publicID="smi:local/e067badd-ddc6-4ba6-9b7e-29f1e9e06fcb">
        <time>
          <value>2009-04-26T02:04:23.630000Z</value>
        </time>
        <latitude/>
        <longitude/>
        <comment id="smi:local/1305ca7e-8bc7-46b4-b7ab-f36c504c8820">
          <text>ORPHAN EVENT; NOT IN AVO</text>
        </comment>
      </origin>
    </event>
    <event publicID="smi:local/70c2d6ad-0804-4cd4-bc55-720a9ebed2e4">
      <origin publicID="smi:local/cb9ee122-cb87-4d5d-ace0-816a64cd2912">
        <time>
          <value>2009-04-26T03:02:20.180000Z</value>
        </time>
        <latitude/>
        <longitude/>
        <comment id="smi:local/65a0b511-1f47-4f88-8f50-08023270cbff">
          <text>ORPHAN EVENT; NOT IN AVO</text>
        </comment>
      </origin>
    </event>
    <event publicID="smi:local/f5b86bc4-b4a4-4c00-b664-337d4886eb91">
      <origin publicID="smi:local/c28ffdbb-aa62-4cfd-8079-1030644fd605">
        <time>
          <value>2009-04-26T04:31:42.370000Z</value>
        </time>
        <latitude/>
        <longitude/>
        <comment id="smi:local/bd686937-ca60-4009-bd49-744cbabba97c">
          <text>ORPHAN EVENT; NOT IN AVO</text>
        </comment>
      </origin>
    </event>
    <event publicID="smi:local/25d2f63c-99a0-4d94-8eb0-caf36d15e81d">
      <origin publicID="smi:local/295e6ee7-8a4f-4453-8f28-98ae0c5fcebd">
        <time>
          <value>2009-04-26T05:53:45.810000Z</value>
        </time>
        <latitude/>
        <longitude/>
        <comment id="smi:local/6fcc4184-89fa-43a3-96b6-7d4f2568e9d1">
          <text>ORPHAN EVENT; NOT IN AVO</text>
        </comment>
      </origin>
    </event>
    <event publicID="smi:local/e50feb0c-1053-4321-b231-821d44f6f0bd">
      <origin publicID="smi:local/94d8129f-0377-46db-b13f-9ea632fbf4ba">
        <time>
          <value>2009-04-26T05:54:00.030000Z</value>
        </time>
        <latitude/>
        <longitude/>
        <comment id="smi:local/6b7cdbcd-0d50-4d98-844f-1dde81456bbc">
          <text>ORPHAN EVENT; NOT IN AVO</text>
        </comment>
      </origin>
    </event>
    <event publicID="smi:local/9bec539c-a290-4acd-b005-0fbb169e3648">
      <origin publicID="smi:local/445cebe6-7c77-416c-87ca-e45f96b903be">
        <time>
          <value>2009-04-26T08:22:33.960000Z</value>
        </time>
        <latitude/>
        <longitude/>
        <comment id="smi:local/483a222e-a696-4732-b37e-c3d63767f79e">
          <text>ORPHAN EVENT; NOT IN AVO</text>
        </comment>
      </origin>
    </event>
    <event publicID="smi:local/d91b9f41-3378-4666-a6fb-356e2aa9e5c8">
      <origin publicID="smi:local/7ce9fc46-e18b-4d31-84a6-cd59860d2224">
        <time>
          <value>2009-04-26T08:25:58.490000Z</value>
        </time>
        <latitude/>
