<?xml version='1.0' encoding='utf-8'?>
<q:quakeml xmlns="http://quakeml.org/xmlns/bed/1.2" xmlns:q="http://quakeml.org/xmlns/quakeml/1.2">
  <eventParameters publicID="smi:local/9f066d6b-582a-4b75-8408-f0520fe7365e">
    <event publicID="smi:local/65b613a2-8fce-4737-bc73-41fbaf97468b">
      <origin publicID="smi:local/a8e3f225-1d44-48d2-8e3f-918d035f11e4">
        <time>
          <value>2008-06-11T08:25:44.780000Z</value>
        </time>
        <latitude/>
        <longitude/>
        <comment id="smi:local/8f3f7817-defc-478f-97ad-9f3d67ebaecd">
          <text>CLUSTER 0 CORE EVENT; NOT IN PEC</text>
        </comment>
      </origin>
    </event>
    <event publicID="smi:local/f72cf838-9852-49c9-bd99-b6d89f09484d">
      <origin publicID="smi:local/17dbee41-1c4d-4467-9279-d9269f21e1fe">
        <time>
          <value>2008-04-01T04:09:27.600000Z</value>
        </time>
        <latitude/>
        <longitude/>
        <comment id="smi:local/f381a589-24d9-45ce-a885-17c06dd64eb3">
          <text>CLUSTER 1 CORE EVENT; NOT IN PEC</text>
        </comment>
      </origin>
    </event>
    <event publicID="smi:local/9ba9ae86-70da-4853-a704-8fbbee680840">
      <origin publicID="smi:local/28902dc1-3145-420d-9a40-f176cb0e8143">
        <time>
          <value>2008-04-01T04:35:58.220000Z</value>
        </time>
        <latitude/>
        <longitude/>
        <comment id="smi:local/ca92ca4a-46e8-4424-b2a7-d90ee71477be">
          <text>CLUSTER 2 CORE EVENT; NOT IN PEC</text>
        </comment>
      </origin>
    </event>
    <event publicID="smi:local/a7c3a7c1-1bf6-454e-8d35-45bd263ca3f4">
      <origin publicID="smi:local/e97281e2-78e5-4e67-a22e-7789d5eaa47a">
        <time>
          <value>2008-04-01T19:30:12.730000Z</value>
        </time>
        <latitude/>
        <longitude/>
        <comment id="smi:local/e9e3b4f6-c6de-4ebc-a034-c02c51f6fa7b">
          <text>CLUSTER 3 CORE EVENT; NOT IN PEC</text>
        </comment>
      </origin>
    </event>
    <event publicID="smi:local/9394ee31-dde9-4092-b89f-9605190c085c">
      <origin publicID="smi:local/ff6a2b43-bb3b-4585-bdfa-bddd9437b50c">
        <time>
          <value>2008-04-03T05:22:32.250000Z</value>
        </time>
        <latitude/>
        <longitude/>
        <comment id="smi:local/7ef5721d-54e9-459d-ac63-0b8df544e6e6">
          <text>CLUSTER 4 CORE EVENT; NOT IN PEC</text>
        </comment>
      </origin>
    </event>
    <event publicID="smi:local/ec6a366e-1681-4827-8afa-5081dc665ad6">
      <origin publicID="smi:local/b0f40c6f-5180-4d8e-886b-5eef2e3ff8a3">
        <time>
          <value>2008-10-11T12:21:20.940000Z</value>
        </time>
        <latitude/>
        <longitude/>
        <comment id="smi:local/e83780dc-f18c-42b2-bbb9-bab9567b3a85">
          <text>CLUSTER 5 CORE EVENT; NOT IN PEC</text>
        </comment>
      </origin>
    </event>
    <event publicID="smi:local/8e24dc4a-998c-4d6e-84d9-7c270f970d1b">
      <origin publicID="smi:local/acffa6c8-812e-4907-ab1a-0bccbdc59c3e">
        <time>
          <value>2008-04-03T10:19:50.720000Z</value>
        </time>
        <latitude/>
        <longitude/>
        <comment id="smi:local/d14ef1a0-9f9e-4ef6-8c00-da57891e6a2a">
          <text>CLUSTER 6 CORE EVENT; NOT IN PEC</text>
        </comment>
      </origin>
    </event>
    <event publicID="smi:local/0c132ec3-c0ba-4a5e-8dcf-dbb699a1d812">
      <origin publicID="smi:local/639e1815-af00-482b-805c-a8c4e406d5e7">
        <time>
          <value>2008-04-04T01:39:03.280000Z</value>
        </time>
        <latitude/>
        <longitude/>
        <comment id="smi:local/8cae73e3-e051-4c71-9a14-474885e7e509">
          <text>CLUSTER 7 CORE EVENT; NOT IN PEC</text>
        </comment>
      </origin>
    </event>
    <event publicID="smi:local/cd75289a-670d-48b0-a8ff-9b39ecfd73b8">
      <origin publicID="smi:local/9acbc37e-7dfa-4234-9cbe-440df0245469">
        <time>
          <value>2008-04-05T07:42:48.120000Z</value>
        </time>
        <latitude/>
        <longitude/>
        <comment id="smi:local/5aeb3c0b-ed45-4507-8f4b-50769c0bfd0c">
          <text>CLUSTER 8 CORE EVENT; NOT IN PEC</text>
        </comment>
      </origin>
    </event>
    <event publicID="smi:local/232b954b-10da-470b-b936-af6dc4486904">
      <origin publicID="smi:local/8df07e1a-f2d3-44b2-b3bc-ad3cd75270a1">
        <time>
          <value>2008-04-10T20:53:44.990000Z</value>
        </time>
        <latitude/>
        <longitude/>
        <comment id="smi:local/703f4fba-b034-4ff4-98b3-eb4f7c9cdf4b">
          <text>CLUSTER 9 CORE EVENT; NOT IN PEC</text>
        </comment>
      </origin>
    </event>
    <event publicID="smi:local/20d33349-4c9f-4b42-b7bd-cd1b5d1c11d3">
      <origin publicID="smi:local/73bc8f12-f398-45a4-8520-555b17a3f6fe">
        <time>
          <value>2008-05-12T09:50:25.000000Z</value>
        </time>
        <latitude/>
        <longitude/>
        <comment id="smi:local/1d14b19a-01bc-409d-8f37-53e6170ea229">
          <text>CLUSTER 10 CORE EVENT; NOT IN PEC</text>
        </comment>
      </origin>
    </event>
    <event publicID="smi:local/afad9781-05c5-4efb-958a-4dc5d58945fe">
      <origin publicID="smi:local/1c298027-e90f-4d29-948d-5ec015eb30e7">
        <time>
          <value>2008-10-16T06:23:28.170000Z</value>
        </time>
        <latitude/>
        <longitude/>
        <comment id="smi:local/eedd16a4-e0a1-467c-858f-598a05420fdf">
          <text>CLUSTER 11 CORE EVENT; NOT IN PEC</text>
        </comment>
      </origin>
    </event>
    <event publicID="smi:local/e96f677f-75c2-4f01-bf61-07a40ecc63eb">
      <origin publicID="smi:local/280d3208-6706-498f-87eb-6a2e950a6111">
        <time>
          <value>2008-04-07T21:41:49.710000Z</value>
        </time>
        <latitude/>
        <longitude/>
        <comment id="smi:local/c532d2b8-d839-446f-aa83-2ea7d51f4929">
          <text>CLUSTER 12 CORE EVENT; NOT IN PEC</text>
        </comment>
      </origin>
    </event>
    <event publicID="smi:local/046dc973-f1ab-4c82-847c-890c2977e145">
      <origin publicID="smi:local/a603fce4-8303-4afe-9814-1e6572a1e806">
        <time>
          <value>2009-06-07T09:27:24.510000Z</value>
        </time>
        <latitude/>
        <longitude/>
        <comment id="smi:local/38cb4dff-2696-464e-8423-2ea5f69e7f9f">
          <text>CLUSTER 13 CORE EVENT; NOT IN PEC</text>
        </comment>
      </origin>
    </event>
    <event publicID="smi:local/d4a2927e-ebbd-4921-814a-cc54c989bc7e">
      <origin publicID="smi:local/452c52ed-46da-4eb3-9038-35c717e86bc8">
        <time>
          <value>2008-11-08T21:55:29.790000Z</value>
        </time>
        <latitude/>
        <longitude/>
        <comment id="smi:local/09cb42a4-22fa-429e-b3e8-0cb24ac26332">
          <text>CLUSTER 14 CORE EVENT; NOT IN PEC</text>
        </comment>
      </origin>
    </event>
    <event publicID="smi:local/f73da42d-84e9-4530-80fd-ffc124a4cfe6">
      <origin publicID="smi:local/e287e9c2-b773-481c-9a80-56102d41909d">
        <time>
          <value>2008-04-04T20:30:46.360000Z</value>
        </time>
        <latitude/>
        <longitude/>
        <comment id="smi:local/c6794952-2b9f-46e5-bdac-1e74683f4853">
          <text>CLUSTER 15 CORE EVENT; NOT IN PEC</text>
        </comment>
      </origin>
    </event>
    <event publicID="smi:local/2ff5fb42-d2ea-4a10-8e35-4948b9778cd1">
      <origin publicID="smi:local/3fa40a70-554f-4e8f-822c-1d6562654422">
        <time>
          <value>2008-04-04T19:56:56.240000Z</value>
        </time>
        <latitude/>
        <longitude/>
        <comment id="smi:local/ee070556-fe90-4de9-a56b-21401ed44e39">
          <text>CLUSTER 16 CORE EVENT; NOT IN PEC</text>
        </comment>
      </origin>
    </event>
    <event publicID="smi:local/0a2d35ec-2f90-443d-bb32-f23497b8de21">
      <origin publicID="smi:local/684b6d4c-215e-4740-94bf-6fedd11ccb72">
        <time>
          <value>2008-04-09T17:01:42.890000Z</value>
        </time>
        <latitude/>
        <longitude/>
        <comment id="smi:local/c78ea955-3a8a-444f-a8ee-87a3601afa0d">
          <text>CLUSTER 17 CORE EVENT; NOT IN PEC</text>
        </comment>
      </origin>
    </event>
    <event publicID="smi:local/005ae96d-502c-4b14-adde-3b21c87f246b">
      <origin publicID="smi:local/6cf9a3b9-3696-4ea2-be8c-9eac05191633">
        <time>
          <value>2008-04-10T02:44:29.850000Z</value>
        </time>
        <latitude/>
        <longitude/>
        <comment id="smi:local/84068753-571b-45c1-ac5b-1dc24f33c747">
          <text>CLUSTER 18 CORE EVENT; NOT IN PEC</text>
        </comment>
      </origin>
    </event>
    <event publicID="smi:local/7e583d72-5928-41b2-9535-f62da8fda603">
      <origin publicID="smi:local/2694827c-2a85-4f48-a4ed-c29955730fa7">
        <time>
          <value>2009-05-11T02:49:33.230000Z</value>
        </time>
        <latitude/>
        <longitude/>
        <comment id="smi:local/c7462f56-f0e4-43b5-b021-c11c483c3314">
          <text>CLUSTER 19 CORE EVENT; NOT IN PEC</text>
        </comment>
      </origin>
    </event>
    <event publicID="smi:local/b5ed3065-672e-480e-a11f-3a14f2444fd3">
      <origin publicID="smi:local/5cdd9dbb-b797-4c20-936a-c87e44fe29fd">
        <time>
          <value>2008-04-07T07:47:32.070000Z</value>
        </time>
        <latitude/>
        <longitude/>
        <comment id="smi:local/f14ab1cc-b3df-4351-9279-a9532106fd8b">
          <text>CLUSTER 20 CORE EVENT; NOT IN PEC</text>
        </comment>
      </origin>
    </event>
    <event publicID="smi:local/b7b8bfc6-248e-4d46-b5f2-7d66a20dda4c">
      <origin publicID="smi:local/f9ef63fa-51f5-41c6-81d8-8860ed0b3ee6">
        <time>
          <value>2008-04-11T08:08:54.710000Z</value>
        </time>
        <latitude/>
        <longitude/>
        <comment id="smi:local/31a3de1d-c3f5-44d6-85c1-513fb0d90ef7">
          <text>CLUSTER 21 CORE EVENT; NOT IN PEC</text>
        </comment>
      </origin>
    </event>
    <event publicID="smi:local/33ef0fbb-d540-45a2-a622-4de8b470ed1f">
      <origin publicID="smi:local/32ce1cfd-1549-453a-9276-7a7187518717">
        <time>
          <value>2008-06-22T06:05:43.470000Z</value>
        </time>
        <latitude/>
        <longitude/>
        <comment id="smi:local/0cfa6f5d-329d-4b97-9e8f-2fbb64fa4078">
          <text>CLUSTER 22 CORE EVENT; NOT IN PEC</text>
        </comment>
      </origin>
    </event>
    <event publicID="smi:local/81c8d0d4-c155-47b8-bd30-f56ddb420325">
      <origin publicID="smi:local/a2e7333b-2d37-4ac8-9bcc-dfec5bfe227a">
        <time>
          <value>2008-04-10T00:53:16.710000Z</value>
        </time>
        <latitude/>
        <longitude/>
        <comment id="smi:local/260ecc1c-fed1-4b15-9cd8-2cea60387bea">
          <text>CLUSTER 23 CORE EVENT; NOT IN PEC</text>
        </comment>
      </origin>
    </event>
    <event publicID="smi:local/cc5facfc-157c-463d-a85c-ea68a220fa67">
      <origin publicID="smi:local/0c06ef1b-15b3-4be2-9f68-e328d5b4da82">
        <time>
          <value>2008-09-24T15:13:26.120000Z</value>
        </time>
        <latitude/>
        <longitude/>
        <comment id="smi:local/0407b081-2b1a-4137-9c4b-1be3e2992646">
          <text>CLUSTER 24 CORE EVENT; NOT IN PEC</text>
        </comment>
      </origin>
    </event>
    <event publicID="smi:local/50e4e995-1b7f-4982-8441-35d28d568433">
      <origin publicID="smi:local/c6bdde31-d862-40da-be82-ff5e29368c40">
        <time>
          <value>2008-08-26T04:00:31.550000Z</value>
        </time>
        <latitude/>
        <longitude/>
        <comment id="smi:local/b3484ed0-e516-4811-8d13-da3a3425a494">
          <text>CLUSTER 25 CORE EVENT; NOT IN PEC</text>
        </comment>
      </origin>
    </event>
    <event publicID="smi:local/fd109140-e3b7-47ec-9eca-c2e6489230fa">
      <origin publicID="smi:local/f25dfeab-a85d-4bd0-9291-af9b815ebd12">
        <time>
          <value>2008-11-22T04:55:25.490000Z</value>
        </time>
        <latitude/>
        <longitude/>
        <comment id="smi:local/b2f79fdc-5455-43f5-bba3-f245e06ef9c3">
          <text>CLUSTER 26 CORE EVENT; NOT IN PEC</text>
        </comment>
      </origin>
    </event>
    <event publicID="smi:local/bd040748-e4c9-4e19-a373-ab1b914ecebb">
      <origin publicID="smi:local/1114ca1b-a0e6-4b28-a0e2-9317a89a04b2">
        <time>
          <value>2008-07-03T10:46:09.400000Z</value>
        </time>
        <latitude/>
        <longitude/>
        <comment id="smi:local/fe1af87c-8bc4-44b2-80b6-b453132a1d6f">
          <text>CLUSTER 27 CORE EVENT; NOT IN PEC</text>
        </comment>
      </origin>
    </event>
    <event publicID="smi:local/e930313b-f583-40f7-8a9a-ff04fd02ece3">
      <origin publicID="smi:local/93822d66-0d0f-4443-ab0b-9d2f2363f5f1">
        <time>
          <value>2008-04-13T01:07:33.960000Z</value>
        </time>
        <latitude/>
        <longitude/>
        <comment id="smi:local/56022a7d-1e8b-4d5a-8a63-d77b1ec1f221">
          <text>CLUSTER 28 CORE EVENT; NOT IN PEC</text>
        </comment>
      </origin>
    </event>
    <event publicID="smi:local/2d465423-72dc-4e5d-b186-aa93411bc6ba">
      <origin publicID="smi:local/d0bd3a5f-0184-409d-9e6a-2dc3f9b45cc6">
        <time>
          <value>2008-04-12T09:32:07.600000Z</value>
        </time>
        <latitude/>
        <longitude/>
        <comment id="smi:local/a1703f12-3f63-4b12-8ed6-9651e71d1031">
          <text>CLUSTER 29 CORE EVENT; NOT IN PEC</text>
        </comment>
      </origin>
    </event>
    <event publicID="smi:local/02d6536c-51fe-4ce9-bff8-82a0b89d1ae8">
      <origin publicID="smi:local/26944eb2-aa06-461a-953e-d7e7844c5cba">
        <time>
          <value>2008-04-28T18:58:11.710000Z</value>
        </time>
        <latitude/>
        <longitude/>
        <comment id="smi:local/2489904b-0691-4941-b328-6d214d9ec8ad">
          <text>CLUSTER 30 CORE EVENT; NOT IN PEC</text>
        </comment>
      </origin>
    </event>
    <event publicID="smi:local/224de091-8068-4277-86d1-e4069fe677ea">
      <origin publicID="smi:local/054ff2bc-9d3e-4736-b0af-9725c9287147">
        <time>
          <value>2008-05-03T16:31:59.060000Z</value>
        </time>
        <latitude/>
        <longitude/>
        <comment id="smi:local/d12c970d-af3d-4a17-9d88-e23318b91e88">
          <text>CLUSTER 31 CORE EVENT; NOT IN PEC</text>
        </comment>
      </origin>
    </event>
    <event publicID="smi:local/f3a5b5c0-efe3-47fc-b32e-72593852e9df">
      <origin publicID="smi:local/f4b27b8c-4208-4ad0-9d99-2cafe49c8535">
        <time>
          <value>2008-06-22T02:57:20.710000Z</value>
        </time>
        <latitude/>
        <longitude/>
        <comment id="smi:local/8453b6af-a9fe-4264-a4b3-2d5166bb7745">
          <text>CLUSTER 32 CORE EVENT; NOT IN PEC</text>
        </comment>
      </origin>
    </event>
    <event publicID="smi:local/7b90a12a-77ae-44f8-b9a0-ab872e09bd69">
      <origin publicID="smi:local/5826252a-3f39-4bc0-8b25-f323452a296f">
        <time>
          <value>2008-05-06T19:47:38.200000Z</value>
        </time>
        <latitude/>
        <longitude/>
        <comment id="smi:local/ad7f2573-1fdc-415d-88fe-b27f0a5fcd9f">
          <text>CLUSTER 33 CORE EVENT; NOT IN PEC</text>
        </comment>
      </origin>
    </event>
    <event publicID="smi:local/c49c6d0c-4f5f-4ec1-ae56-f7728bea0053">
      <origin publicID="smi:local/48109b37-b9d8-4530-8e98-5bd8a11b4f5f">
        <time>
          <value>2008-05-07T19:15:52.380000Z</value>
        </time>
        <latitude/>
        <longitude/>
        <comment id="smi:local/a5834ea6-52ba-420c-8bac-cf7f68bc7841">
          <text>CLUSTER 34 CORE EVENT; NOT IN PEC</text>
        </comment>
      </origin>
    </event>
    <event publicID="smi:local/06fd1a26-1b03-4120-a6ee-291274988824">
      <origin publicID="smi:local/aabf37f4-dc79-4775-b32c-060c2890b440">
        <time>
          <value>2008-05-11T07:52:03.820000Z</value>
        </time>
        <latitude/>
        <longitude/>
        <comment id="smi:local/18896aa7-50ac-44d8-b1fe-7f209131dbea">
          <text>CLUSTER 35 CORE EVENT; NOT IN PEC</text>
        </comment>
      </origin>
    </event>
    <event publicID="smi:local/099b6cba-7799-474d-927e-a7772df308b5">
      <origin publicID="smi:local/10a63791-d749-4c27-b4da-75b4b8217f86">
        <time>
          <value>2008-06-04T19:47:28.260000Z</value>
        </time>
        <latitude/>
        <longitude/>
        <comment id="smi:local/5cd7df7f-5e84-4d09-81c9-0d463a9502fe">
          <text>CLUSTER 36 CORE EVENT; NOT IN PEC</text>
        </comment>
      </origin>
    </event>
    <event publicID="smi:local/bcf7855c-b211-4309-9443-33ae7a6df1ca">
      <origin publicID="smi:local/bc29cd12-b40d-464b-ba1c-b955ba4ff6f2">
        <time>
          <value>2008-05-26T23:08:23.660000Z</value>
        </time>
        <latitude/>
        <longitude/>
        <comment id="smi:local/7e0ec729-8c20-4918-b63d-7405fea04361">
          <text>CLUSTER 37 CORE EVENT; NOT IN PEC</text>
        </comment>
      </origin>
    </event>
    <event publicID="smi:local/c6f25316-3651-4d36-b2c4-1f9d00658f1c">
      <origin publicID="smi:local/6f42fecd-2c24-47d9-8697-b51395f5aafd">
        <time>
          <value>2008-06-11T11:45:50.610000Z</value>
        </time>
        <latitude/>
        <longitude/>
        <comment id="smi:local/75a70ee8-bde6-4e50-b3f6-ed64be8b9b8d">
          <text>CLUSTER 38 CORE EVENT; NOT IN PEC</text>
        </comment>
      </origin>
    </event>
    <event publicID="smi:local/5a0d8af5-6d67-4071-9d78-fe193264041a">
      <origin publicID="smi:local/59475b84-1c24-49ce-acb1-51a726f983a5">
        <time>
          <value>2008-06-07T04:09:30.690000Z</value>
        </time>
        <latitude/>
        <longitude/>
        <comment id="smi:local/101c46b9-8ddd-42b7-852a-530b9ef6c6d2">
          <text>CLUSTER 39 CORE EVENT; NOT IN PEC</text>
        </comment>
      </origin>
    </event>
    <event publicID="smi:local/b29b6fb7-b47c-48e8-a259-6919d0c561bf">
      <origin publicID="smi:local/2c6242b0-1b99-432d-a282-169b6f02527d">
        <time>
          <value>2008-06-16T22:42:13.880000Z</value>
        </time>
        <latitude/>
        <longitude/>
        <comment id="smi:local/931e7f44-cbcb-49f0-ab1d-4cc4b7851b85">
          <text>CLUSTER 40 CORE EVENT; NOT IN PEC</text>
        </comment>
      </origin>
    </event>
    <event publicID="smi:local/619f8621-3b2e-47d4-83df-d97d4357fbdc">
      <origin publicID="smi:local/99f8e822-91fe-4646-9336-55eef231dedf">
        <time>
          <value>2008-06-19T01:42:53.840000Z</value>
        </time>
        <latitude/>
        <longitude/>
        <comment id="smi:local/4e1b83b6-0949-40c4-a1a7-3c25f55dbf57">
          <text>CLUSTER 41 CORE EVENT; NOT IN PEC</text>
        </comment>
      </origin>
    </event>
    <event publicID="smi:local/c8c432f2-97de-47a1-9782-36b1b703f844">
      <origin publicID="smi:local/88fa3666-0ade-4894-b896-744711ee3bd4">
        <time>
          <value>2008-08-18T09:55:09.260000Z</value>
        </time>
        <latitude/>
        <longitude/>
        <comment id="smi:local/072d755c-d247-462f-a631-cfa6454d3cea">
          <text>CLUSTER 42 CORE EVENT; NOT IN PEC</text>
        </comment>
      </origin>
    </event>
    <event publicID="smi:local/14b8f77b-1fb2-40c3-8217-95b1a4888327">
      <origin publicID="smi:local/0766c0ae-e3dc-49b9-a330-70ac847dee3e">
        <time>
          <value>2008-07-06T19:25:03.010000Z</value>
        </time>
        <latitude/>
        <longitude/>
        <comment id="smi:local/ae00457c-e3f4-4dc2-887b-5c5e1f5f16eb">
          <text>CLUSTER 43 CORE EVENT; NOT IN PEC</text>
        </comment>
      </origin>
    </event>
    <event publicID="smi:local/d83ddb47-669a-4d1a-8e15-f564bb05c74d">
      <origin publicID="smi:local/846fedeb-390d-4216-9b8b-a1a812f4eb29">
        <time>
          <value>2008-07-10T09:43:04.590000Z</value>
        </time>
        <latitude/>
        <longitude/>
