<?xml version='1.0' encoding='utf-8'?>
<q:quakeml xmlns="http://quakeml.org/xmlns/bed/1.2" xmlns:q="http://quakeml.org/xmlns/quakeml/1.2">
  <eventParameters publicID="smi:local/e2293065-e405-4442-8f36-37c10c4e96bf">
    <event publicID="smi:local/65b613a2-8fce-4737-bc73-41fbaf97468b">
      <origin publicID="smi:local/a8e3f225-1d44-48d2-8e3f-918d035f11e4">
        <time>
          <value>2008-06-11T08:25:44.780000Z</value>
        </time>
        <latitude/>
        <longitude/>
        <comment id="smi:local/8f3f7817-defc-478f-97ad-9f3d67ebaecd">
          <text>CLUSTER 0 CORE EVENT; NOT IN PEC</text>
        </comment>
      </origin>
      <pick publicID="smi:local/c08e116e-3e44-4fdf-91de-8cdfede7de91">
        <time>
          <value>2008-06-11T08:25:44.730000Z</value>
        </time>
        <waveformID networkCode="AV" stationCode="RDN" locationCode="" channelCode="EHZ"></waveformID>
        <phaseHint>P</phaseHint>
        <comment id="smi:local/1aa691f2-73a6-468c-9187-8b07a09c0e58">
          <text>DERIVED FROM REDPY STA/LTA</text>
        </comment>
      </pick>
      <pick publicID="smi:local/42fff035-2db4-44cd-a24a-b533746b718e">
        <time>
          <value>2008-06-11T08:25:44.721702Z</value>
        </time>
        <waveformID networkCode="AV" stationCode="RSO" locationCode="" channelCode="EHZ"></waveformID>
        <phaseHint>P</phaseHint>
        <comment id="smi:local/42a9f9fc-033b-46d9-9dd2-c94ace7abb6d">
          <text>DERIVED FROM REDPY STA/LTA</text>
        </comment>
      </pick>
    </event>
    <event publicID="smi:local/f72cf838-9852-49c9-bd99-b6d89f09484d">
      <origin publicID="smi:local/17dbee41-1c4d-4467-9279-d9269f21e1fe">
        <time>
          <value>2008-04-01T04:09:27.600000Z</value>
        </time>
        <latitude/>
        <longitude/>
        <comment id="smi:local/f381a589-24d9-45ce-a885-17c06dd64eb3">
          <text>CLUSTER 1 CORE EVENT; NOT IN PEC</text>
        </comment>
      </origin>
    </event>
    <event publicID="smi:local/9ba9ae86-70da-4853-a704-8fbbee680840">
      <origin publicID="smi:local/28902dc1-3145-420d-9a40-f176cb0e8143">
        <time>
          <value>2008-04-01T04:35:58.220000Z</value>
        </time>
        <latitude/>
        <longitude/>
        <comment id="smi:local/ca92ca4a-46e8-4424-b2a7-d90ee71477be">
          <text>CLUSTER 2 CORE EVENT; NOT IN PEC</text>
        </comment>
      </origin>
    </event>
    <event publicID="smi:local/a7c3a7c1-1bf6-454e-8d35-45bd263ca3f4">
      <origin publicID="smi:local/e97281e2-78e5-4e67-a22e-7789d5eaa47a">
        <time>
          <value>2008-04-01T19:30:12.730000Z</value>
        </time>
        <latitude/>
        <longitude/>
        <comment id="smi:local/e9e3b4f6-c6de-4ebc-a034-c02c51f6fa7b">
          <text>CLUSTER 3 CORE EVENT; NOT IN PEC</text>
        </comment>
      </origin>
    </event>
    <event publicID="smi:local/9394ee31-dde9-4092-b89f-9605190c085c">
      <origin publicID="smi:local/ff6a2b43-bb3b-4585-bdfa-bddd9437b50c">
        <time>
          <value>2008-04-03T05:22:32.250000Z</value>
        </time>
        <latitude/>
        <longitude/>
        <comment id="smi:local/7ef5721d-54e9-459d-ac63-0b8df544e6e6">
          <text>CLUSTER 4 CORE EVENT; NOT IN PEC</text>
        </comment>
      </origin>
    </event>
    <event publicID="smi:local/ec6a366e-1681-4827-8afa-5081dc665ad6">
      <origin publicID="smi:local/b0f40c6f-5180-4d8e-886b-5eef2e3ff8a3">
        <time>
          <value>2008-10-11T12:21:20.940000Z</value>
        </time>
        <latitude/>
        <longitude/>
        <comment id="smi:local/e83780dc-f18c-42b2-bbb9-bab9567b3a85">
          <text>CLUSTER 5 CORE EVENT; NOT IN PEC</text>
        </comment>
      </origin>
      <pick publicID="smi:local/f15afa8e-b15c-430b-9750-22f4227623bd">
        <time>
          <value>2008-10-11T12:21:22.040000Z</value>
        </time>
        <waveformID networkCode="AV" stationCode="RDN" locationCode="" channelCode="EHZ"></waveformID>
        <phaseHint>P</phaseHint>
        <comment id="smi:local/825e2354-6714-4b85-b8c1-737ec98aa335">
          <text>DERIVED FROM REDPY STA/LTA</text>
        </comment>
      </pick>
      <pick publicID="smi:local/8a41cb3f-994e-4aa4-958e-3e750ad3ca41">
        <time>
          <value>2008-10-11T12:21:21.270000Z</value>
        </time>
        <waveformID networkCode="AV" stationCode="REF" locationCode="" channelCode="EHZ"></waveformID>
        <phaseHint>P</phaseHint>
        <comment id="smi:local/8285f321-38c5-4ccb-987d-36b58886e3c3">
          <text>DERIVED FROM REDPY STA/LTA</text>
        </comment>
      </pick>
      <pick publicID="smi:local/446f7569-f2b0-4784-8327-dfa50bcea2a1">
        <time>
          <value>2008-10-11T12:21:24.166125Z</value>
        </time>
        <waveformID networkCode="AV" stationCode="RSO" locationCode="" channelCode="EHZ"></waveformID>
        <phaseHint>P</phaseHint>
        <comment id="smi:local/1e9d102e-2893-4c98-b22a-a2406d8ee380">
          <text>DERIVED FROM REDPY STA/LTA</text>
        </comment>
      </pick>
    </event>
    <event publicID="smi:local/8e24dc4a-998c-4d6e-84d9-7c270f970d1b">
      <origin publicID="smi:local/acffa6c8-812e-4907-ab1a-0bccbdc59c3e">
        <time>
          <value>2008-04-03T10:19:50.720000Z</value>
        </time>
        <latitude/>
        <longitude/>
        <comment id="smi:local/d14ef1a0-9f9e-4ef6-8c00-da57891e6a2a">
          <text>CLUSTER 6 CORE EVENT; NOT IN PEC</text>
        </comment>
      </origin>
    </event>
    <event publicID="smi:local/0c132ec3-c0ba-4a5e-8dcf-dbb699a1d812">
      <origin publicID="smi:local/639e1815-af00-482b-805c-a8c4e406d5e7">
        <time>
          <value>2008-04-04T01:39:03.280000Z</value>
        </time>
        <latitude/>
        <longitude/>
        <comment id="smi:local/8cae73e3-e051-4c71-9a14-474885e7e509">
          <text>CLUSTER 7 CORE EVENT; NOT IN PEC</text>
        </comment>
      </origin>
    </event>
    <event publicID="smi:local/cd75289a-670d-48b0-a8ff-9b39ecfd73b8">
      <origin publicID="smi:local/9acbc37e-7dfa-4234-9cbe-440df0245469">
        <time>
          <value>2008-04-05T07:42:48.120000Z</value>
        </time>
        <latitude/>
        <longitude/>
        <comment id="smi:local/5aeb3c0b-ed45-4507-8f4b-50769c0bfd0c">
          <text>CLUSTER 8 CORE EVENT; NOT IN PEC</text>
        </comment>
      </origin>
    </event>
    <event publicID="smi:local/232b954b-10da-470b-b936-af6dc4486904">
      <origin publicID="smi:local/8df07e1a-f2d3-44b2-b3bc-ad3cd75270a1">
        <time>
          <value>2008-04-10T20:53:44.990000Z</value>
        </time>
        <latitude/>
        <longitude/>
        <comment id="smi:local/703f4fba-b034-4ff4-98b3-eb4f7c9cdf4b">
          <text>CLUSTER 9 CORE EVENT; NOT IN PEC</text>
        </comment>
      </origin>
    </event>
    <event publicID="smi:local/20d33349-4c9f-4b42-b7bd-cd1b5d1c11d3">
      <origin publicID="smi:local/73bc8f12-f398-45a4-8520-555b17a3f6fe">
        <time>
          <value>2008-05-12T09:50:25.000000Z</value>
        </time>
        <latitude/>
        <longitude/>
        <comment id="smi:local/1d14b19a-01bc-409d-8f37-53e6170ea229">
          <text>CLUSTER 10 CORE EVENT; NOT IN PEC</text>
        </comment>
      </origin>
      <pick publicID="smi:local/e7cc175d-1b34-4908-ad73-1615ad837072">
        <time>
          <value>2008-05-12T09:50:24.980000Z</value>
        </time>
        <waveformID networkCode="AV" stationCode="RDN" locationCode="" channelCode="EHZ"></waveformID>
        <phaseHint>P</phaseHint>
        <comment id="smi:local/65a189d3-0bc7-4dbb-880a-90acda311b09">
          <text>DERIVED FROM REDPY STA/LTA</text>
        </comment>
      </pick>
      <pick publicID="smi:local/833aa861-df9b-4475-9024-5056ccd4a7fe">
        <time>
          <value>2008-05-12T09:50:25.483619Z</value>
        </time>
        <waveformID networkCode="AV" stationCode="RSO" locationCode="" channelCode="EHZ"></waveformID>
        <phaseHint>P</phaseHint>
        <comment id="smi:local/3e1c8ff4-139f-43d0-ae08-d9e5f31a1298">
          <text>DERIVED FROM REDPY STA/LTA</text>
        </comment>
      </pick>
    </event>
    <event publicID="smi:local/afad9781-05c5-4efb-958a-4dc5d58945fe">
      <origin publicID="smi:local/1c298027-e90f-4d29-948d-5ec015eb30e7">
        <time>
          <value>2008-10-16T06:23:28.170000Z</value>
        </time>
        <latitude/>
        <longitude/>
        <comment id="smi:local/eedd16a4-e0a1-467c-858f-598a05420fdf">
          <text>CLUSTER 11 CORE EVENT; NOT IN PEC</text>
        </comment>
      </origin>
      <pick publicID="smi:local/f2daef1e-2e81-4254-bfad-cf25b8f4aab6">
        <time>
          <value>2008-10-16T06:23:31.500000Z</value>
        </time>
        <waveformID networkCode="AV" stationCode="RDN" locationCode="" channelCode="EHZ"></waveformID>
        <phaseHint>P</phaseHint>
        <comment id="smi:local/952dd470-5233-48b9-af2f-57311e0f260b">
          <text>DERIVED FROM REDPY STA/LTA</text>
        </comment>
      </pick>
      <pick publicID="smi:local/e41983dd-3e5c-4953-85ca-cb59e21bebba">
        <time>
          <value>2008-10-16T06:23:29.600000Z</value>
        </time>
        <waveformID networkCode="AV" stationCode="REF" locationCode="" channelCode="EHZ"></waveformID>
        <phaseHint>P</phaseHint>
        <comment id="smi:local/89a5f6cf-f4a2-4e93-968b-0e517353488e">
          <text>DERIVED FROM REDPY STA/LTA</text>
        </comment>
      </pick>
      <pick publicID="smi:local/abf0abe3-5247-48f1-801b-350a912a8235">
        <time>
          <value>2008-10-16T06:23:30.359794Z</value>
        </time>
        <waveformID networkCode="AV" stationCode="RSO" locationCode="" channelCode="EHZ"></waveformID>
        <phaseHint>P</phaseHint>
        <comment id="smi:local/5c9b8796-7f25-40ff-aa7a-ccc7df48b1bf">
          <text>DERIVED FROM REDPY STA/LTA</text>
        </comment>
      </pick>
    </event>
    <event publicID="smi:local/e96f677f-75c2-4f01-bf61-07a40ecc63eb">
      <origin publicID="smi:local/280d3208-6706-498f-87eb-6a2e950a6111">
        <time>
          <value>2008-04-07T21:41:49.710000Z</value>
        </time>
        <latitude/>
        <longitude/>
        <comment id="smi:local/c532d2b8-d839-446f-aa83-2ea7d51f4929">
          <text>CLUSTER 12 CORE EVENT; NOT IN PEC</text>
        </comment>
      </origin>
    </event>
    <event publicID="smi:local/046dc973-f1ab-4c82-847c-890c2977e145">
      <origin publicID="smi:local/a603fce4-8303-4afe-9814-1e6572a1e806">
        <time>
          <value>2009-06-07T09:27:24.510000Z</value>
        </time>
        <latitude/>
        <longitude/>
        <comment id="smi:local/38cb4dff-2696-464e-8423-2ea5f69e7f9f">
          <text>CLUSTER 13 CORE EVENT; NOT IN PEC</text>
        </comment>
      </origin>
      <pick publicID="smi:local/5d86bb3a-d58c-4502-816e-6050e4e5f877">
        <time>
          <value>2009-06-07T09:27:25.620000Z</value>
        </time>
        <waveformID networkCode="AV" stationCode="RDN" locationCode="" channelCode="EHZ"></waveformID>
        <phaseHint>P</phaseHint>
        <comment id="smi:local/bbc5e768-6697-4316-a1a8-d4c7e27e9b63">
          <text>DERIVED FROM REDPY STA/LTA</text>
        </comment>
      </pick>
      <pick publicID="smi:local/a846992b-190a-4a32-bb83-73b406d6051e">
        <time>
          <value>2009-06-07T09:27:24.470000Z</value>
        </time>
        <waveformID networkCode="AV" stationCode="REF" locationCode="" channelCode="EHZ"></waveformID>
        <phaseHint>P</phaseHint>
        <comment id="smi:local/f521a8c8-aee0-4f74-b425-6f598a024d7e">
          <text>DERIVED FROM REDPY STA/LTA</text>
        </comment>
      </pick>
      <pick publicID="smi:local/53034909-f6de-4e0c-95e5-7fe2ee2835ca">
        <time>
          <value>2009-06-07T09:27:26.930000Z</value>
        </time>
        <waveformID networkCode="AV" stationCode="RSO" locationCode="" channelCode="EHZ"></waveformID>
        <phaseHint>P</phaseHint>
        <comment id="smi:local/1f00351a-7f15-4671-b98d-8608cb303f40">
          <text>DERIVED FROM REDPY STA/LTA</text>
        </comment>
      </pick>
    </event>
    <event publicID="smi:local/d4a2927e-ebbd-4921-814a-cc54c989bc7e">
      <origin publicID="smi:local/452c52ed-46da-4eb3-9038-35c717e86bc8">
        <time>
          <value>2008-11-08T21:55:29.790000Z</value>
        </time>
        <latitude/>
        <longitude/>
        <comment id="smi:local/09cb42a4-22fa-429e-b3e8-0cb24ac26332">
          <text>CLUSTER 14 CORE EVENT; NOT IN PEC</text>
        </comment>
      </origin>
      <pick publicID="smi:local/b926f8be-fd48-4883-843c-e014aa573e6b">
        <time>
          <value>2008-11-08T21:55:31.940000Z</value>
        </time>
        <waveformID networkCode="AV" stationCode="RDN" locationCode="" channelCode="EHZ"></waveformID>
        <phaseHint>P</phaseHint>
        <comment id="smi:local/47f92a92-2c2f-4bca-96e4-1d9c58a26e1a">
          <text>DERIVED FROM REDPY STA/LTA</text>
        </comment>
      </pick>
      <pick publicID="smi:local/f2409415-a1e5-4fc8-bbca-7e1f388f78b3">
        <time>
          <value>2008-11-08T21:55:31.480000Z</value>
        </time>
        <waveformID networkCode="AV" stationCode="REF" locationCode="" channelCode="EHZ"></waveformID>
        <phaseHint>P</phaseHint>
        <comment id="smi:local/a944ec7a-7261-48b9-ae08-1471802b3aff">
          <text>DERIVED FROM REDPY STA/LTA</text>
        </comment>
      </pick>
      <pick publicID="smi:local/83a7f3d4-6a94-4b80-b933-ddd44c2990dc">
        <time>
          <value>2008-11-08T21:55:30.077994Z</value>
        </time>
        <waveformID networkCode="AV" stationCode="RSO" locationCode="" channelCode="EHZ"></waveformID>
        <phaseHint>P</phaseHint>
        <comment id="smi:local/59edc994-c025-47e7-bb2f-7977d65e79be">
          <text>DERIVED FROM REDPY STA/LTA</text>
        </comment>
      </pick>
    </event>
    <event publicID="smi:local/f73da42d-84e9-4530-80fd-ffc124a4cfe6">
      <origin publicID="smi:local/e287e9c2-b773-481c-9a80-56102d41909d">
        <time>
          <value>2008-04-04T20:30:46.360000Z</value>
        </time>
        <latitude/>
        <longitude/>
        <comment id="smi:local/c6794952-2b9f-46e5-bdac-1e74683f4853">
          <text>CLUSTER 15 CORE EVENT; NOT IN PEC</text>
        </comment>
      </origin>
    </event>
    <event publicID="smi:local/2ff5fb42-d2ea-4a10-8e35-4948b9778cd1">
      <origin publicID="smi:local/3fa40a70-554f-4e8f-822c-1d6562654422">
        <time>
          <value>2008-04-04T19:56:56.240000Z</value>
        </time>
        <latitude/>
        <longitude/>
        <comment id="smi:local/ee070556-fe90-4de9-a56b-21401ed44e39">
          <text>CLUSTER 16 CORE EVENT; NOT IN PEC</text>
        </comment>
      </origin>
    </event>
    <event publicID="smi:local/0a2d35ec-2f90-443d-bb32-f23497b8de21">
      <origin publicID="smi:local/684b6d4c-215e-4740-94bf-6fedd11ccb72">
        <time>
          <value>2008-04-09T17:01:42.890000Z</value>
        </time>
        <latitude/>
        <longitude/>
        <comment id="smi:local/c78ea955-3a8a-444f-a8ee-87a3601afa0d">
          <text>CLUSTER 17 CORE EVENT; NOT IN PEC</text>
        </comment>
      </origin>
    </event>
    <event publicID="smi:local/005ae96d-502c-4b14-adde-3b21c87f246b">
      <origin publicID="smi:local/6cf9a3b9-3696-4ea2-be8c-9eac05191633">
        <time>
          <value>2008-04-10T02:44:29.850000Z</value>
        </time>
        <latitude/>
        <longitude/>
        <comment id="smi:local/84068753-571b-45c1-ac5b-1dc24f33c747">
          <text>CLUSTER 18 CORE EVENT; NOT IN PEC</text>
        </comment>
      </origin>
    </event>
    <event publicID="smi:local/7e583d72-5928-41b2-9535-f62da8fda603">
      <origin publicID="smi:local/2694827c-2a85-4f48-a4ed-c29955730fa7">
        <time>
          <value>2009-05-11T02:49:33.230000Z</value>
        </time>
        <latitude/>
        <longitude/>
        <comment id="smi:local/c7462f56-f0e4-43b5-b021-c11c483c3314">
          <text>CLUSTER 19 CORE EVENT; NOT IN PEC</text>
        </comment>
      </origin>
      <pick publicID="smi:local/8a950ddf-7ee4-48ff-9e3e-681fd76859e3">
        <time>
          <value>2009-05-11T02:49:33.200000Z</value>
        </time>
        <waveformID networkCode="AV" stationCode="REF" locationCode="" channelCode="EHZ"></waveformID>
        <phaseHint>P</phaseHint>
        <comment id="smi:local/fe02e588-5ebb-413a-a8cf-5f6726af6db1">
          <text>DERIVED FROM REDPY STA/LTA</text>
        </comment>
      </pick>
      <pick publicID="smi:local/82994763-cc69-4969-8a3a-c620cc6369b4">
        <time>
          <value>2009-05-11T02:49:33.730400Z</value>
        </time>
        <waveformID networkCode="AV" stationCode="RSO" locationCode="" channelCode="EHZ"></waveformID>
        <phaseHint>P</phaseHint>
        <comment id="smi:local/bef0fadd-9bc5-4b83-9697-adf93a7a0e2d">
          <text>DERIVED FROM REDPY STA/LTA</text>
        </comment>
      </pick>
    </event>
    <event publicID="smi:local/b5ed3065-672e-480e-a11f-3a14f2444fd3">
      <origin publicID="smi:local/5cdd9dbb-b797-4c20-936a-c87e44fe29fd">
        <time>
          <value>2008-04-07T07:47:32.070000Z</value>
        </time>
        <latitude/>
        <longitude/>
        <comment id="smi:local/f14ab1cc-b3df-4351-9279-a9532106fd8b">
          <text>CLUSTER 20 CORE EVENT; NOT IN PEC</text>
        </comment>
      </origin>
    </event>
    <event publicID="smi:local/b7b8bfc6-248e-4d46-b5f2-7d66a20dda4c">
      <origin publicID="smi:local/f9ef63fa-51f5-41c6-81d8-8860ed0b3ee6">
        <time>
          <value>2008-04-11T08:08:54.710000Z</value>
        </time>
        <latitude/>
        <longitude/>
        <comment id="smi:local/31a3de1d-c3f5-44d6-85c1-513fb0d90ef7">
          <text>CLUSTER 21 CORE EVENT; NOT IN PEC</text>
        </comment>
      </origin>
    </event>
    <event publicID="smi:local/33ef0fbb-d540-45a2-a622-4de8b470ed1f">
      <origin publicID="smi:local/32ce1cfd-1549-453a-9276-7a7187518717">
        <time>
          <value>2008-06-22T06:05:43.470000Z</value>
        </time>
        <latitude/>
        <longitude/>
        <comment id="smi:local/0cfa6f5d-329d-4b97-9e8f-2fbb64fa4078">
          <text>CLUSTER 22 CORE EVENT; NOT IN PEC</text>
        </comment>
      </origin>
      <pick publicID="smi:local/64419c95-5d91-4d91-9c15-ddcb5ac33b93">
        <time>
          <value>2008-06-22T06:05:44.760000Z</value>
        </time>
        <waveformID networkCode="AV" stationCode="RDN" locationCode="" channelCode="EHZ"></waveformID>
        <phaseHint>P</phaseHint>
        <comment id="smi:local/663cf6ee-3787-49d6-bc80-60b1ec694f1c">
          <text>DERIVED FROM REDPY STA/LTA</text>
        </comment>
      </pick>
      <pick publicID="smi:local/eac02dd0-dd41-4340-854a-aa0631386419">
        <time>
          <value>2008-06-22T06:05:43.530000Z</value>
        </time>
        <waveformID networkCode="AV" stationCode="REF" locationCode="" channelCode="EHZ"></waveformID>
        <phaseHint>P</phaseHint>
        <comment id="smi:local/ca721178-e683-4af3-8ad4-a8f711b9defa">
          <text>DERIVED FROM REDPY STA/LTA</text>
        </comment>
      </pick>
      <pick publicID="smi:local/27b87966-5ef1-4dfe-a8da-e13dcc63d962">
        <time>
          <value>2008-06-22T06:05:43.855879Z</value>
        </time>
        <waveformID networkCode="AV" stationCode="RSO" locationCode="" channelCode="EHZ"></waveformID>
        <phaseHint>P</phaseHint>
        <comment id="smi:local/538a352f-91c1-4020-97c5-8b2244aa3198">
          <text>DERIVED FROM REDPY STA/LTA</text>
        </comment>
      </pick>
    </event>
    <event publicID="smi:local/81c8d0d4-c155-47b8-bd30-f56ddb420325">
      <origin publicID="smi:local/a2e7333b-2d37-4ac8-9bcc-dfec5bfe227a">
        <time>
          <value>2008-04-10T00:53:16.710000Z</value>
        </time>
        <latitude/>
        <longitude/>
