<?xml version='1.0' encoding='utf-8'?>
<q:quakeml xmlns="http://quakeml.org/xmlns/bed/1.2" xmlns:q="http://quakeml.org/xmlns/quakeml/1.2">
  <eventParameters publicID="smi:local/0ded9e23-9335-45b1-909a-3208590b40aa">
    <event publicID="smi:local/0b90e07d-cee1-4c0d-aa6b-4042d6629370">
      <origin publicID="smi:local/9c1ec46a-ed3d-42ab-8752-0d6508f1d702">
        <time>
          <value>2009-08-26T08:27:57.960000Z</value>
        </time>
        <latitude/>
        <longitude/>
        <comment id="smi:local/0bca5952-a979-4031-81ca-c37855a94d2a">
          <text>ORPHAN EVENT; NOT IN PEC</text>
        </comment>
      </origin>
    </event>
    <event publicID="smi:local/1b6dea67-a550-4d21-b05f-e9d7498a0b44">
      <origin publicID="smi:local/d8ef9a6c-0c4c-41ab-b8cb-1f847c4cb262">
        <time>
          <value>2009-08-26T08:33:55.360000Z</value>
        </time>
        <latitude/>
        <longitude/>
        <comment id="smi:local/0ec4d573-edd8-435f-b056-c541db18707d">
          <text>ORPHAN EVENT; NOT IN PEC</text>
        </comment>
      </origin>
    </event>
    <event publicID="smi:local/d67d9edd-b9de-4420-a99b-28a94f217dbd">
      <origin publicID="smi:local/0eb2fd95-72a2-42b5-a8cb-b7afba4a87b0">
        <time>
          <value>2009-08-26T12:20:58.180000Z</value>
        </time>
        <latitude/>
        <longitude/>
        <comment id="smi:local/08446ef3-3073-4e84-a65c-3cddc37373d5">
          <text>ORPHAN EVENT; NOT IN PEC</text>
        </comment>
      </origin>
    </event>
    <event publicID="smi:local/0f2043b2-329b-433e-8122-db600431d283">
      <origin publicID="smi:local/882e3edd-cab8-4f45-9f7e-70ea3c73e289">
        <time>
          <value>2009-08-26T15:37:44.350000Z</value>
        </time>
        <latitude/>
        <longitude/>
        <comment id="smi:local/08cade35-5832-4c75-8e29-dac00c9f7ed6">
          <text>ORPHAN EVENT; NOT IN PEC</text>
        </comment>
      </origin>
    </event>
    <event publicID="smi:local/acd51011-c391-4d88-80a0-141d4ddf5b95">
      <origin publicID="smi:local/bb90efb5-29a7-46ec-9369-e1de4d3bea36">
        <time>
          <value>2009-08-26T16:29:50.220000Z</value>
        </time>
        <latitude/>
        <longitude/>
        <comment id="smi:local/461fe670-8eed-40d1-a391-2c00bf8cfa7b">
          <text>ORPHAN EVENT; NOT IN PEC</text>
        </comment>
      </origin>
    </event>
    <event publicID="smi:local/a91bc7ae-295a-4355-a52e-dbf4598fe310">
      <origin publicID="smi:local/92667816-4a95-4ad3-8d44-32e00f7e9700">
        <time>
          <value>2009-08-26T17:05:39.560000Z</value>
        </time>
        <latitude/>
        <longitude/>
        <comment id="smi:local/6cd1fbed-bc70-4c78-9281-eb3e5b2b2970">
          <text>ORPHAN EVENT; NOT IN PEC</text>
        </comment>
      </origin>
    </event>
    <event publicID="smi:local/73da80c0-1a33-4fa9-8b0f-faff0c6e8882">
      <origin publicID="smi:local/2148d4d9-759b-437e-9e49-903a77f71950">
        <time>
          <value>2009-08-26T18:10:59.900000Z</value>
        </time>
        <latitude/>
        <longitude/>
        <comment id="smi:local/b7c08cd4-6e74-4d49-9084-9d8696cf6920">
          <text>ORPHAN EVENT; NOT IN PEC</text>
        </comment>
      </origin>
    </event>
    <event publicID="smi:local/544edbfb-a446-43d9-ad94-f96a2ba87e27">
      <origin publicID="smi:local/106f0798-ca2d-4959-bc78-2b9e79138a6e">
        <time>
          <value>2009-08-26T18:11:38.660000Z</value>
        </time>
        <latitude/>
        <longitude/>
        <comment id="smi:local/48f38848-fbcb-4500-b9b1-128a034c489b">
          <text>ORPHAN EVENT; NOT IN PEC</text>
        </comment>
      </origin>
    </event>
    <event publicID="smi:local/102a3018-00dd-48b3-995d-196fcce0d400">
      <origin publicID="smi:local/98cb89f0-6694-4f35-9861-3a96be0e0b39">
        <time>
          <value>2009-08-26T18:12:00.350000Z</value>
        </time>
        <latitude/>
        <longitude/>
        <comment id="smi:local/53f0fd7c-b447-4c38-a67a-82c057fc839f">
          <text>ORPHAN EVENT; NOT IN PEC</text>
        </comment>
      </origin>
    </event>
    <event publicID="smi:local/e3f548e7-5c83-4c76-bb14-b18fc5b87453">
      <origin publicID="smi:local/790cb222-7a3f-4065-a3a2-690f7b13d67b">
        <time>
          <value>2009-08-26T18:13:27.090000Z</value>
        </time>
        <latitude/>
        <longitude/>
        <comment id="smi:local/05e58059-4339-485d-bd47-8b00f85a4b06">
          <text>ORPHAN EVENT; NOT IN PEC</text>
        </comment>
      </origin>
    </event>
    <event publicID="smi:local/e6f5cf40-6585-49a3-b3f2-152a3083c37e">
      <origin publicID="smi:local/81cd075c-c803-491e-8b54-6bc74491508d">
        <time>
          <value>2009-08-26T18:14:00.320000Z</value>
        </time>
        <latitude/>
        <longitude/>
        <comment id="smi:local/e2d5fc21-a1a4-4c0a-b535-343f8590a847">
          <text>ORPHAN EVENT; NOT IN PEC</text>
        </comment>
      </origin>
    </event>
    <event publicID="smi:local/96f704dc-12e4-44b2-a1de-ce9a716e2f89">
      <origin publicID="smi:local/bffc1f56-cd60-4dc7-96da-c469cc988a4d">
        <time>
          <value>2009-08-26T18:17:26.270000Z</value>
        </time>
        <latitude/>
        <longitude/>
        <comment id="smi:local/e32b175e-46d2-4468-aefb-2b88fd78ff6c">
          <text>ORPHAN EVENT; NOT IN PEC</text>
        </comment>
      </origin>
    </event>
    <event publicID="smi:local/48794ef8-6976-42e8-ba0e-6081aaeca002">
      <origin publicID="smi:local/9504949f-507d-4c13-99ed-c3206418ba3d">
        <time>
          <value>2009-08-26T18:17:56.660000Z</value>
        </time>
        <latitude/>
        <longitude/>
        <comment id="smi:local/cb4097e5-2456-4ed9-8339-ceaa4d81e144">
          <text>ORPHAN EVENT; NOT IN PEC</text>
        </comment>
      </origin>
    </event>
    <event publicID="smi:local/f61cf0c1-05d0-49eb-8c4c-80401b042d40">
      <origin publicID="smi:local/fe89461d-bcfa-4342-9464-9ccfa3135455">
        <time>
          <value>2009-08-26T18:29:34.050000Z</value>
        </time>
        <latitude/>
        <longitude/>
        <comment id="smi:local/cb60d0f6-eefd-48f6-9000-f95c80a6875a">
          <text>ORPHAN EVENT; NOT IN PEC</text>
        </comment>
      </origin>
    </event>
    <event publicID="smi:local/d1f2af49-5cad-406e-8ea0-8fdd77b11179">
      <origin publicID="smi:local/67d4f78f-941c-4b50-8937-f294256cb7eb">
        <time>
          <value>2009-08-26T18:36:52.770000Z</value>
        </time>
        <latitude/>
        <longitude/>
        <comment id="smi:local/f17b6c9a-f7f7-4b93-8329-01cee3c89d8d">
          <text>ORPHAN EVENT; NOT IN PEC</text>
        </comment>
      </origin>
    </event>
    <event publicID="smi:local/d1bb2642-a05f-4d66-ab44-cfb1bef0d95c">
      <origin publicID="smi:local/323e2c3b-a0d0-46ad-9bf9-02071ffcc8d3">
        <time>
          <value>2009-08-26T18:39:26.380000Z</value>
        </time>
        <latitude/>
        <longitude/>
        <comment id="smi:local/8fbec9e4-c1a4-411e-b870-ec927e0ab916">
          <text>ORPHAN EVENT; NOT IN PEC</text>
        </comment>
      </origin>
    </event>
    <event publicID="smi:local/e305fabd-c3e9-4410-9778-dc629dc3136d">
      <origin publicID="smi:local/a2209889-e8c4-4302-96f2-a0cb9873d127">
        <time>
          <value>2009-08-26T19:15:08.570000Z</value>
        </time>
        <latitude/>
        <longitude/>
        <comment id="smi:local/ded34aa0-9730-4578-bd6f-0c069516b612">
          <text>ORPHAN EVENT; NOT IN PEC</text>
        </comment>
      </origin>
    </event>
    <event publicID="smi:local/6a7b5ae1-0059-4f8a-bed9-8ed2bbc3dc96">
      <origin publicID="smi:local/c74f68d7-de77-4f2a-86b3-8ccad0eab1c6">
        <time>
          <value>2009-08-26T19:17:10.300000Z</value>
        </time>
        <latitude/>
        <longitude/>
        <comment id="smi:local/02fb40ec-0aa8-441b-b0ce-3147a69c145d">
          <text>ORPHAN EVENT; NOT IN PEC</text>
        </comment>
      </origin>
    </event>
    <event publicID="smi:local/7b8cd0d1-9783-4051-87ea-cc8fc6e4823e">
      <origin publicID="smi:local/514e04f2-e2e0-45a5-90e4-b20e885adae8">
        <time>
          <value>2009-08-26T19:18:50.320000Z</value>
        </time>
        <latitude/>
        <longitude/>
        <comment id="smi:local/f50777f9-577e-4732-9b2e-c6cf3a8b8e83">
          <text>ORPHAN EVENT; NOT IN PEC</text>
        </comment>
      </origin>
    </event>
    <event publicID="smi:local/c0d9fe8f-c15c-4d61-b88f-d745f5a71650">
      <origin publicID="smi:local/3fc22cc6-a2c1-428d-9c36-128a454c62d3">
        <time>
          <value>2009-08-26T19:21:01.830000Z</value>
        </time>
        <latitude/>
        <longitude/>
        <comment id="smi:local/1d8d271a-3c3c-43de-97af-91a882dbf5c5">
          <text>ORPHAN EVENT; NOT IN PEC</text>
        </comment>
      </origin>
    </event>
    <event publicID="smi:local/98f38334-55c8-410d-87e3-f456dc5c0b45">
      <origin publicID="smi:local/e2d25d43-4741-4bfd-a8a2-cc9e6c10f00d">
        <time>
          <value>2009-08-26T19:21:10.330000Z</value>
        </time>
        <latitude/>
        <longitude/>
        <comment id="smi:local/088d130b-4d41-4390-afbf-ba7a6de221c7">
          <text>ORPHAN EVENT; NOT IN PEC</text>
        </comment>
      </origin>
    </event>
    <event publicID="smi:local/9b899b98-f43f-4f7d-afb7-2a175a3aaa4f">
      <origin publicID="smi:local/80e07a3f-2e8e-47c8-9874-3526931f583d">
        <time>
          <value>2009-08-26T19:22:54.380000Z</value>
        </time>
        <latitude/>
        <longitude/>
        <comment id="smi:local/e6bbc7bb-ce29-4199-aadb-4ef8f66600f2">
          <text>ORPHAN EVENT; NOT IN PEC</text>
        </comment>
      </origin>
    </event>
    <event publicID="smi:local/49147e35-7fc9-4647-af00-494e89a7719a">
      <origin publicID="smi:local/f6e7b0c4-7ed3-4a39-bbb5-46c40aa29b8b">
        <time>
          <value>2009-08-26T19:36:27.500000Z</value>
        </time>
        <latitude/>
        <longitude/>
        <comment id="smi:local/9a93e3f1-4b7b-41a3-a27f-a1d4978f382c">
          <text>ORPHAN EVENT; NOT IN PEC</text>
        </comment>
      </origin>
    </event>
    <event publicID="smi:local/3b58627a-e758-419b-b7ee-d5927dfb4f91">
      <origin publicID="smi:local/c355bb5f-0ebd-48b3-8abd-bb67fcbc2d4b">
        <time>
          <value>2009-08-26T19:42:24.560000Z</value>
        </time>
        <latitude/>
        <longitude/>
        <comment id="smi:local/d63fb6e3-bcf8-434e-8f4c-075f003a6e9e">
          <text>ORPHAN EVENT; NOT IN PEC</text>
        </comment>
      </origin>
    </event>
    <event publicID="smi:local/54886c20-f134-4f4f-9ef1-e0ef82fc465c">
      <origin publicID="smi:local/82c2b978-c436-4572-9db1-101566352578">
        <time>
          <value>2009-08-26T19:43:52.570000Z</value>
        </time>
        <latitude/>
        <longitude/>
        <comment id="smi:local/2af5a6d9-32ee-4c8e-b22e-a689bfb482fc">
          <text>ORPHAN EVENT; NOT IN PEC</text>
        </comment>
      </origin>
    </event>
    <event publicID="smi:local/f0884e98-b497-4e12-9949-4cb2cf43bd3d">
      <origin publicID="smi:local/30aa9ff5-d7d2-4042-b053-a114690b6e19">
        <time>
          <value>2009-08-26T19:44:01.010000Z</value>
        </time>
        <latitude/>
        <longitude/>
        <comment id="smi:local/10d8b4cf-eba4-406d-b774-ffb94fd36614">
          <text>ORPHAN EVENT; NOT IN PEC</text>
        </comment>
      </origin>
    </event>
    <event publicID="smi:local/a52e2ac1-c855-4447-a51c-3290e2741c52">
      <origin publicID="smi:local/55a45aba-d68f-465c-9bae-b656c0cf1f84">
        <time>
          <value>2009-08-26T19:46:19.970000Z</value>
        </time>
        <latitude/>
        <longitude/>
        <comment id="smi:local/d9c6c10b-4705-4e05-bddb-832b9136a058">
          <text>ORPHAN EVENT; NOT IN PEC</text>
        </comment>
      </origin>
    </event>
    <event publicID="smi:local/ecde3c72-311e-4bb0-bb18-7ed4d9fbee7c">
      <origin publicID="smi:local/7a762a34-86e7-46be-afbb-dbd5227f356f">
        <time>
          <value>2009-08-26T19:53:13.510000Z</value>
        </time>
        <latitude/>
        <longitude/>
        <comment id="smi:local/08a29fba-8086-4958-a10e-c1882594f92a">
          <text>ORPHAN EVENT; NOT IN PEC</text>
        </comment>
      </origin>
    </event>
    <event publicID="smi:local/4a586a7b-9223-4be6-befa-23357f366398">
      <origin publicID="smi:local/35ee1e06-2d3f-4292-842b-548ff2e2a8a9">
        <time>
          <value>2009-08-26T20:08:37.900000Z</value>
        </time>
        <latitude/>
        <longitude/>
        <comment id="smi:local/71c16982-6b69-4b2e-91b1-7da9cc7c4bd6">
          <text>ORPHAN EVENT; NOT IN PEC</text>
        </comment>
      </origin>
    </event>
    <event publicID="smi:local/073a7fcf-1e23-4b48-bcfc-dd7cf2e4e934">
      <origin publicID="smi:local/d35515ec-cb99-4272-b05e-c63480c011a9">
        <time>
          <value>2009-08-26T20:12:07.370000Z</value>
        </time>
        <latitude/>
        <longitude/>
        <comment id="smi:local/70f3f279-7bcb-41e4-88ce-ce544514d871">
          <text>ORPHAN EVENT; NOT IN PEC</text>
        </comment>
      </origin>
    </event>
    <event publicID="smi:local/27be6185-55e5-494a-ba97-e5cefdc065b7">
      <origin publicID="smi:local/dd26a6ae-18bf-48f9-94d2-4166287a5d13">
        <time>
          <value>2009-08-26T20:13:25.800000Z</value>
        </time>
        <latitude/>
        <longitude/>
        <comment id="smi:local/469dae45-9bbb-4e62-a48c-03b8b097c1c3">
          <text>ORPHAN EVENT; NOT IN PEC</text>
        </comment>
      </origin>
    </event>
    <event publicID="smi:local/84fe3233-25fc-430f-bdf3-c91429dc3672">
      <origin publicID="smi:local/9a846f9f-e559-4f3f-84b7-180e1baee775">
        <time>
          <value>2009-08-26T20:21:05.930000Z</value>
        </time>
        <latitude/>
        <longitude/>
        <comment id="smi:local/e078f453-f9ce-4b2a-b313-c0b5993dc8ab">
          <text>ORPHAN EVENT; NOT IN PEC</text>
        </comment>
      </origin>
    </event>
    <event publicID="smi:local/ad68bf3c-b0bb-41d5-9a57-03ed9f8c2560">
      <origin publicID="smi:local/2ab49b24-1621-4486-b4c2-9573c25bef2d">
        <time>
          <value>2009-08-26T20:29:19.200000Z</value>
        </time>
        <latitude/>
        <longitude/>
        <comment id="smi:local/47e8de69-056c-4dd2-a511-c607942c214b">
          <text>ORPHAN EVENT; NOT IN PEC</text>
        </comment>
      </origin>
    </event>
    <event publicID="smi:local/95435ba3-da98-41d5-8cee-c53c7c355fbe">
      <origin publicID="smi:local/4ac744a4-99df-413b-8c8d-93087af2e9cb">
        <time>
          <value>2009-08-26T20:31:02.160000Z</value>
        </time>
        <latitude/>
        <longitude/>
        <comment id="smi:local/fa5ae3b1-fa2f-49c6-9af2-879e162891a0">
          <text>ORPHAN EVENT; NOT IN PEC</text>
        </comment>
      </origin>
    </event>
    <event publicID="smi:local/75bea3f4-dd80-4657-ae14-0860549d6e55">
      <origin publicID="smi:local/158b9a83-a3de-49df-9f6a-e6f258095356">
        <time>
          <value>2009-08-26T20:31:29.290000Z</value>
        </time>
        <latitude/>
        <longitude/>
        <comment id="smi:local/ba6d711b-d480-407c-aed2-4a8274ef4fb6">
          <text>ORPHAN EVENT; NOT IN PEC</text>
        </comment>
      </origin>
    </event>
    <event publicID="smi:local/3c9b9baa-7a14-467d-87ef-9cdce2a2710d">
      <origin publicID="smi:local/1a1395dc-84a6-451c-afab-f0923ae31fdb">
        <time>
          <value>2009-08-26T20:40:15.370000Z</value>
        </time>
        <latitude/>
        <longitude/>
        <comment id="smi:local/366a5374-2a5d-4787-8926-8f902dcf9a9a">
          <text>ORPHAN EVENT; NOT IN PEC</text>
        </comment>
      </origin>
    </event>
    <event publicID="smi:local/c924320d-fec5-44f9-ba76-e1b9770d5e0d">
      <origin publicID="smi:local/c570a250-e9cb-41f1-8695-4222df907fdb">
        <time>
          <value>2009-08-26T20:40:46.430000Z</value>
        </time>
        <latitude/>
        <longitude/>
        <comment id="smi:local/648a56be-b607-4adc-b5e5-defa5b30d4be">
          <text>ORPHAN EVENT; NOT IN PEC</text>
        </comment>
      </origin>
    </event>
    <event publicID="smi:local/a70e9f72-737e-4fa1-9788-9d4b141147e7">
      <origin publicID="smi:local/c3de9299-c97c-4094-a304-cd5fa053b535">
        <time>
          <value>2009-08-26T20:41:33.010000Z</value>
        </time>
        <latitude/>
        <longitude/>
        <comment id="smi:local/a64eef97-f7b5-4dc0-b577-ea2129150b12">
          <text>ORPHAN EVENT; NOT IN PEC</text>
        </comment>
      </origin>
    </event>
    <event publicID="smi:local/a82ecc4d-af7d-4b84-aade-bd25937ae7ca">
      <origin publicID="smi:local/025cd21b-4c16-4d9d-9ff9-f45f7b94fd9d">
        <time>
          <value>2009-08-26T20:44:05.630000Z</value>
        </time>
        <latitude/>
        <longitude/>
        <comment id="smi:local/8382d6c5-4f18-4880-a517-d19efae9c816">
          <text>ORPHAN EVENT; NOT IN PEC</text>
        </comment>
      </origin>
    </event>
    <event publicID="smi:local/dc119fef-5323-46ae-9401-2601329c144e">
      <origin publicID="smi:local/8a1df9c9-0925-46d0-80c3-9f1040aa7f8f">
        <time>
          <value>2009-08-26T20:44:16.590000Z</value>
        </time>
        <latitude/>
        <longitude/>
        <comment id="smi:local/72ee4b88-0c42-458e-8bfa-2e726e65f53d">
          <text>ORPHAN EVENT; NOT IN PEC</text>
        </comment>
      </origin>
    </event>
    <event publicID="smi:local/6af4b744-cc2d-4b08-b3f2-e3ee11cc2e05">
      <origin publicID="smi:local/dc59945d-52ac-4471-9ee0-12fc7a914d16">
        <time>
          <value>2009-08-26T20:44:35.090000Z</value>
        </time>
        <latitude/>
        <longitude/>
        <comment id="smi:local/1021e5dc-123d-438a-915f-7155ecc97b82">
          <text>ORPHAN EVENT; NOT IN PEC</text>
        </comment>
      </origin>
    </event>
    <event publicID="smi:local/c9b684db-a2e1-4dae-a2c3-2a8d3458b029">
      <origin publicID="smi:local/bc323acf-f663-4054-880b-bbc59bd672da">
        <time>
          <value>2009-08-26T20:52:08.940000Z</value>
        </time>
        <latitude/>
        <longitude/>
        <comment id="smi:local/a90012e0-9e49-4dfd-84bc-13a635fa4bf1">
          <text>ORPHAN EVENT; NOT IN PEC</text>
        </comment>
      </origin>
    </event>
    <event publicID="smi:local/fe995220-fed3-4469-944b-12309b543401">
      <origin publicID="smi:local/fac8c10d-b096-4710-bd7a-0aec9ce65268">
        <time>
          <value>2009-08-26T21:02:22.920000Z</value>
        </time>
        <latitude/>
        <longitude/>
        <comment id="smi:local/27dcc926-bd5d-4381-b1b8-5cece9b31b02">
          <text>ORPHAN EVENT; NOT IN PEC</text>
        </comment>
      </origin>
    </event>
    <event publicID="smi:local/1789ae43-1967-481f-8b43-ce6ea9c399b3">
      <origin publicID="smi:local/6491db19-1335-4710-97a1-c452acae7d5b">
        <time>
          <value>2009-08-26T21:30:05.790000Z</value>
        </time>
        <latitude/>
        <longitude/>
        <comment id="smi:local/ff086bbb-dccb-4e0b-8091-354b10c8e981">
          <text>ORPHAN EVENT; NOT IN PEC</text>
        </comment>
      </origin>
    </event>
    <event publicID="smi:local/b816efd2-578b-4f3d-9c9e-60704c3c31f9">
      <origin publicID="smi:local/243ae927-9831-439a-8005-ecd64e8c05bf">
        <time>
          <value>2009-08-26T21:30:50.670000Z</value>
        </time>
        <latitude/>
        <longitude/>
        <comment id="smi:local/2ab53f58-888c-424e-bb58-4e128da6b628">
          <text>ORPHAN EVENT; NOT IN PEC</text>
        </comment>
      </origin>
    </event>
    <event publicID="smi:local/6de8d1f6-1366-4bc0-b187-41067bc9739a">
      <origin publicID="smi:local/c1565708-e906-4422-9839-f77c4ea407fd">
        <time>
          <value>2009-08-26T21:32:05.580000Z</value>
        </time>
        <latitude/>
