<?xml version='1.0' encoding='utf-8'?>
<q:quakeml xmlns="http://quakeml.org/xmlns/bed/1.2" xmlns:q="http://quakeml.org/xmlns/quakeml/1.2">
  <eventParameters publicID="smi:local/b32c7e79-a993-4458-b1d7-c3d5303d69a9">
    <event publicID="smi:local/ca4f7d69-3926-444d-bdf6-e12f75d1c8b2">
      <origin publicID="smi:local/deeaefed-1e6f-477f-83e1-5dc1d44edfce">
        <time>
          <value>2009-01-07T23:45:42.700000Z</value>
        </time>
        <latitude/>
        <longitude/>
        <comment id="smi:local/d90a0e0f-1a5b-4c15-a6bf-6929aed54531">
          <text>CLUSTER 0 CORE EVENT; NOT IN PEC</text>
        </comment>
        <arrival publicID="smi:local/0cf2a519-dff9-4a92-9688-b2d7b08ecc72">
          <pickID>smi:local/6ad1f068-1690-44f2-b280-5a24307135c2</pickID>
          <phase>P</phase>
          <timeWeight>0.1</timeWeight>
        </arrival>
        <arrival publicID="smi:local/5608c942-3f42-442d-8b92-08ca060d41a9">
          <pickID>smi:local/0771317e-d613-40ce-acbc-4c92eafdf225</pickID>
          <phase>P</phase>
          <timeWeight>0.1</timeWeight>
        </arrival>
        <arrival publicID="smi:local/02d89c19-4cb8-42fe-8d51-13cbed0ae424">
          <pickID>smi:local/3df81da6-a4c8-4523-983a-57ae70f85c4e</pickID>
          <phase>P</phase>
          <timeWeight>0.1</timeWeight>
        </arrival>
      </origin>
      <pick publicID="smi:local/6ad1f068-1690-44f2-b280-5a24307135c2">
        <time>
          <value>2009-01-07T23:45:42.240000Z</value>
        </time>
        <waveformID networkCode="AV" stationCode="RDN" locationCode="" channelCode="EHZ"></waveformID>
        <phaseHint>P</phaseHint>
      </pick>
      <pick publicID="smi:local/0771317e-d613-40ce-acbc-4c92eafdf225">
        <time>
          <value>2009-01-07T23:45:41.690000Z</value>
        </time>
        <waveformID networkCode="AV" stationCode="REF" locationCode="" channelCode="EHZ"></waveformID>
        <phaseHint>P</phaseHint>
      </pick>
      <pick publicID="smi:local/3df81da6-a4c8-4523-983a-57ae70f85c4e">
        <time>
          <value>2009-01-07T23:45:42.210400Z</value>
        </time>
        <waveformID networkCode="AV" stationCode="RSO" locationCode="" channelCode="EHZ"></waveformID>
        <phaseHint>P</phaseHint>
      </pick>
    </event>
    <event publicID="smi:local/fb8765b1-deb7-4bea-b37e-3f1f7235c9b7">
      <origin publicID="smi:local/e8034822-1571-426d-82be-979a88d44441">
        <time>
          <value>2009-02-27T03:40:26.570000Z</value>
        </time>
        <latitude/>
        <longitude/>
        <comment id="smi:local/e738ad08-9099-4fda-bd1f-1f112fbb7f50">
          <text>CLUSTER 1 CORE EVENT; NOT IN PEC</text>
        </comment>
      </origin>
    </event>
    <event publicID="smi:local/b0b99f27-3e91-4b77-a190-d3b5083a6059">
      <origin publicID="smi:local/a625df59-3947-43c3-8d8b-92acbffa8067">
        <time>
          <value>2009-01-12T04:46:02.600000Z</value>
        </time>
        <latitude/>
        <longitude/>
        <comment id="smi:local/4a97e104-4c23-4efb-8177-77a2770a9738">
          <text>CLUSTER 2 CORE EVENT; NOT IN PEC</text>
        </comment>
      </origin>
    </event>
    <event publicID="smi:local/fd025fcc-b99c-4464-9e7f-926cfc8cb906">
      <origin publicID="smi:local/3d910c99-ee1a-46de-b6f4-b05b1347b19c">
        <time>
          <value>2009-03-05T10:44:10.380000Z</value>
        </time>
        <latitude/>
        <longitude/>
        <comment id="smi:local/a0fd5207-30d8-499f-98e5-ae78b5951581">
          <text>CLUSTER 3 CORE EVENT; NOT IN PEC</text>
        </comment>
      </origin>
    </event>
    <event publicID="smi:local/3df316c4-3788-405d-8ba7-c61456edb3e7">
      <origin publicID="smi:local/d6d9d4e6-2bf5-49b0-9f7d-116e48ebc023">
        <time>
          <value>2009-01-09T17:12:06.820000Z</value>
        </time>
        <latitude/>
        <longitude/>
        <comment id="smi:local/ea087be0-92cb-47ea-be19-96ad81306448">
          <text>CLUSTER 4 CORE EVENT; NOT IN PEC</text>
        </comment>
        <arrival publicID="smi:local/1a2f67a3-5537-47d6-87e8-a7969528c770">
          <pickID>smi:local/058721a7-905b-4159-8374-5e2aee6d0b13</pickID>
          <phase>P</phase>
          <timeWeight>0.1</timeWeight>
        </arrival>
        <arrival publicID="smi:local/ac95f1f9-940f-496e-a3e1-afd3356c407a">
          <pickID>smi:local/464e164e-e219-4826-8e1e-440a6dedbabe</pickID>
          <phase>P</phase>
          <timeWeight>0.1</timeWeight>
        </arrival>
        <arrival publicID="smi:local/a19f652b-389e-41b6-90ee-125168b3210f">
          <pickID>smi:local/19bb6411-c4ce-46d7-8172-315439ee70ae</pickID>
          <phase>P</phase>
          <timeWeight>0.1</timeWeight>
        </arrival>
      </origin>
      <pick publicID="smi:local/058721a7-905b-4159-8374-5e2aee6d0b13">
        <time>
          <value>2009-01-09T17:12:06.330000Z</value>
        </time>
        <waveformID networkCode="AV" stationCode="RDN" locationCode="" channelCode="EHZ"></waveformID>
        <phaseHint>P</phaseHint>
      </pick>
      <pick publicID="smi:local/464e164e-e219-4826-8e1e-440a6dedbabe">
        <time>
          <value>2009-01-09T17:12:05.910000Z</value>
        </time>
        <waveformID networkCode="AV" stationCode="REF" locationCode="" channelCode="EHZ"></waveformID>
        <phaseHint>P</phaseHint>
      </pick>
      <pick publicID="smi:local/19bb6411-c4ce-46d7-8172-315439ee70ae">
        <time>
          <value>2009-01-09T17:12:06.320500Z</value>
        </time>
        <waveformID networkCode="AV" stationCode="RSO" locationCode="" channelCode="EHZ"></waveformID>
        <phaseHint>P</phaseHint>
      </pick>
    </event>
    <event publicID="smi:local/52f9e902-9611-4aff-8e6e-1283f52d6a1b">
      <origin publicID="smi:local/54178f61-789c-4763-860a-39c522de8186">
        <time>
          <value>2009-01-01T21:07:08.610000Z</value>
        </time>
        <latitude/>
        <longitude/>
        <comment id="smi:local/12209669-3ee1-4bee-8169-66017e0a0545">
          <text>CLUSTER 5 CORE EVENT; NOT IN PEC</text>
        </comment>
        <arrival publicID="smi:local/4bfb0517-51ba-4750-8469-de168af6b063">
          <pickID>smi:local/165e29a2-6782-4388-b1cd-06a8e366cf6c</pickID>
          <phase>P</phase>
          <timeWeight>0.1</timeWeight>
        </arrival>
        <arrival publicID="smi:local/9a74bb84-d24f-405f-866c-e9e30d29add8">
          <pickID>smi:local/c38b7c1c-678d-42ce-959f-7efc1d982ab6</pickID>
          <phase>P</phase>
          <timeWeight>0.1</timeWeight>
        </arrival>
        <arrival publicID="smi:local/5733583d-fd40-4824-8399-1811c000680d">
          <pickID>smi:local/cd1c9924-08df-4339-8871-3e1827d48746</pickID>
          <phase>P</phase>
          <timeWeight>0.1</timeWeight>
        </arrival>
      </origin>
      <pick publicID="smi:local/165e29a2-6782-4388-b1cd-06a8e366cf6c">
        <time>
          <value>2009-01-01T21:07:07.700000Z</value>
        </time>
        <waveformID networkCode="AV" stationCode="RDN" locationCode="" channelCode="EHZ"></waveformID>
        <phaseHint>P</phaseHint>
      </pick>
      <pick publicID="smi:local/c38b7c1c-678d-42ce-959f-7efc1d982ab6">
        <time>
          <value>2009-01-01T21:07:06.880000Z</value>
        </time>
        <waveformID networkCode="AV" stationCode="REF" locationCode="" channelCode="EHZ"></waveformID>
        <phaseHint>P</phaseHint>
      </pick>
      <pick publicID="smi:local/cd1c9924-08df-4339-8871-3e1827d48746">
        <time>
          <value>2009-01-01T21:07:07.270400Z</value>
        </time>
        <waveformID networkCode="AV" stationCode="RSO" locationCode="" channelCode="EHZ"></waveformID>
        <phaseHint>P</phaseHint>
      </pick>
    </event>
    <event publicID="smi:local/bf3a73ac-a841-47d1-8594-c76a6801fef3">
      <origin publicID="smi:local/1e9a21a8-d949-41ca-a4ea-a401e06b1542">
        <time>
          <value>2009-01-07T18:50:05.420000Z</value>
        </time>
        <latitude/>
        <longitude/>
        <comment id="smi:local/e5c1adb2-2891-4d3e-a124-f5594926869c">
          <text>CLUSTER 6 CORE EVENT; NOT IN PEC</text>
        </comment>
        <arrival publicID="smi:local/3f35c686-70f4-4889-b71b-c78706248103">
          <pickID>smi:local/7442d9be-f177-4a2c-bd12-e62dcc3f50c6</pickID>
          <phase>P</phase>
          <timeWeight>0.1</timeWeight>
        </arrival>
        <arrival publicID="smi:local/48961e42-86ec-4d50-8f3e-cec580b2cc3b">
          <pickID>smi:local/835645e9-c0fc-4cc3-a0b3-5634349dc07e</pickID>
          <phase>P</phase>
          <timeWeight>0.1</timeWeight>
        </arrival>
        <arrival publicID="smi:local/2bc3bae3-9163-4c7a-a304-f0df177374e3">
          <pickID>smi:local/00538ebf-e410-4904-9131-5c13bb6f7785</pickID>
          <phase>P</phase>
          <timeWeight>0.1</timeWeight>
        </arrival>
      </origin>
      <pick publicID="smi:local/7442d9be-f177-4a2c-bd12-e62dcc3f50c6">
        <time>
          <value>2009-01-07T18:50:14.520000Z</value>
        </time>
        <waveformID networkCode="AV" stationCode="RDN" locationCode="" channelCode="EHZ"></waveformID>
        <phaseHint>P</phaseHint>
      </pick>
      <pick publicID="smi:local/835645e9-c0fc-4cc3-a0b3-5634349dc07e">
        <time>
          <value>2009-01-07T18:50:06.160000Z</value>
        </time>
        <waveformID networkCode="AV" stationCode="REF" locationCode="" channelCode="EHZ"></waveformID>
        <phaseHint>P</phaseHint>
      </pick>
      <pick publicID="smi:local/00538ebf-e410-4904-9131-5c13bb6f7785">
        <time>
          <value>2009-01-07T18:50:05.190400Z</value>
        </time>
        <waveformID networkCode="AV" stationCode="RSO" locationCode="" channelCode="EHZ"></waveformID>
        <phaseHint>P</phaseHint>
      </pick>
    </event>
    <event publicID="smi:local/e062d48b-4452-48de-b30d-0690c288e36a">
      <origin publicID="smi:local/be5cbed3-5f43-4217-afe0-a52b5f6bc38a">
        <time>
          <value>2009-01-07T08:26:06.880000Z</value>
        </time>
        <latitude/>
        <longitude/>
        <comment id="smi:local/a0f0911c-3e5f-4e4c-85ab-8f342956b570">
          <text>CLUSTER 7 CORE EVENT; NOT IN PEC</text>
        </comment>
        <arrival publicID="smi:local/c591a587-5a6c-474b-92a4-f36c921aa2d4">
          <pickID>smi:local/3f9930f7-8c09-4fd9-8480-b903620bbcbf</pickID>
          <phase>P</phase>
          <timeWeight>0.1</timeWeight>
        </arrival>
        <arrival publicID="smi:local/ed078e32-75cd-47aa-b58a-52c880eb9250">
          <pickID>smi:local/2bf0ebf1-536d-49e0-ba09-01591f15f936</pickID>
          <phase>P</phase>
          <timeWeight>0.1</timeWeight>
        </arrival>
        <arrival publicID="smi:local/ef7a444a-1974-47a3-93e3-bbec167fbf48">
          <pickID>smi:local/dcad09d5-2997-49d9-99c8-ced9addce226</pickID>
          <phase>P</phase>
          <timeWeight>0.1</timeWeight>
        </arrival>
      </origin>
      <pick publicID="smi:local/3f9930f7-8c09-4fd9-8480-b903620bbcbf">
        <time>
          <value>2009-01-07T08:26:07.140000Z</value>
        </time>
        <waveformID networkCode="AV" stationCode="RDN" locationCode="" channelCode="EHZ"></waveformID>
        <phaseHint>P</phaseHint>
      </pick>
      <pick publicID="smi:local/2bf0ebf1-536d-49e0-ba09-01591f15f936">
        <time>
          <value>2009-01-07T08:26:06.840000Z</value>
        </time>
        <waveformID networkCode="AV" stationCode="REF" locationCode="" channelCode="EHZ"></waveformID>
        <phaseHint>P</phaseHint>
      </pick>
      <pick publicID="smi:local/dcad09d5-2997-49d9-99c8-ced9addce226">
        <time>
          <value>2009-01-07T08:26:06.930600Z</value>
        </time>
        <waveformID networkCode="AV" stationCode="RSO" locationCode="" channelCode="EHZ"></waveformID>
        <phaseHint>P</phaseHint>
      </pick>
    </event>
    <event publicID="smi:local/181de431-f177-4b7a-94d9-27607d08caf6">
      <origin publicID="smi:local/586c0e94-2657-4c1f-a64b-4fa02a5abacd">
        <time>
          <value>2009-01-08T13:24:26.660000Z</value>
        </time>
        <latitude/>
        <longitude/>
        <comment id="smi:local/2fd94383-ab31-4ad0-a669-18eed613ea7d">
          <text>CLUSTER 8 CORE EVENT; NOT IN PEC</text>
        </comment>
        <arrival publicID="smi:local/e8fbdad9-b065-4072-80ff-6e7447ed73da">
          <pickID>smi:local/c629c0d0-7976-4df1-b119-c639c31cc8a7</pickID>
          <phase>P</phase>
          <timeWeight>0.1</timeWeight>
        </arrival>
        <arrival publicID="smi:local/cb94309a-e98c-4296-93b9-2d5ef3ab2d5e">
          <pickID>smi:local/ec81b3bb-2499-4932-be4f-60976bf772dd</pickID>
          <phase>P</phase>
          <timeWeight>0.1</timeWeight>
        </arrival>
        <arrival publicID="smi:local/63f97b44-82a5-43db-86ab-4b3b5314a29b">
          <pickID>smi:local/03a3069b-7027-46d7-8771-d3a827d02a6a</pickID>
          <phase>P</phase>
          <timeWeight>0.1</timeWeight>
        </arrival>
      </origin>
      <pick publicID="smi:local/c629c0d0-7976-4df1-b119-c639c31cc8a7">
        <time>
          <value>2009-01-08T13:24:26.810000Z</value>
        </time>
        <waveformID networkCode="AV" stationCode="RDN" locationCode="" channelCode="EHZ"></waveformID>
        <phaseHint>P</phaseHint>
      </pick>
      <pick publicID="smi:local/ec81b3bb-2499-4932-be4f-60976bf772dd">
        <time>
          <value>2009-01-08T13:24:26.630000Z</value>
        </time>
        <waveformID networkCode="AV" stationCode="REF" locationCode="" channelCode="EHZ"></waveformID>
        <phaseHint>P</phaseHint>
      </pick>
      <pick publicID="smi:local/03a3069b-7027-46d7-8771-d3a827d02a6a">
        <time>
          <value>2009-01-08T13:24:27.470400Z</value>
        </time>
        <waveformID networkCode="AV" stationCode="RSO" locationCode="" channelCode="EHZ"></waveformID>
        <phaseHint>P</phaseHint>
      </pick>
    </event>
    <event publicID="smi:local/c6f6aa82-c639-4e44-99e5-77bf5a955c00">
      <origin publicID="smi:local/0ec6c63c-8b68-489d-a2fa-c3ae538973b6">
        <time>
          <value>2009-01-01T08:41:15.300000Z</value>
        </time>
        <latitude/>
        <longitude/>
        <comment id="smi:local/cbcfc594-8aed-42d9-b76e-cdca10aabf41">
          <text>CLUSTER 9 CORE EVENT; NOT IN PEC</text>
        </comment>
      </origin>
    </event>
    <event publicID="smi:local/27b50889-de80-4073-b308-65a3cca8e58e">
      <origin publicID="smi:local/827fabe2-6ed3-40fb-bc92-fd82fa9992d5">
        <time>
          <value>2009-01-03T12:27:36.860000Z</value>
        </time>
        <latitude/>
        <longitude/>
        <comment id="smi:local/75359be3-aa8c-41b5-85a3-cc039966bbd1">
          <text>CLUSTER 10 CORE EVENT; NOT IN PEC</text>
        </comment>
      </origin>
    </event>
    <event publicID="smi:local/7485a1a9-c9dc-4441-90bc-f41aa2c55894">
      <origin publicID="smi:local/893d4383-627b-4e54-8233-2337fda90e68">
        <time>
          <value>2009-01-02T09:09:02.190000Z</value>
        </time>
        <latitude/>
        <longitude/>
        <comment id="smi:local/97c50e06-b6b4-4713-9314-0994aace8c3b">
          <text>CLUSTER 11 CORE EVENT; NOT IN PEC</text>
        </comment>
        <arrival publicID="smi:local/c151bc70-778f-4646-a426-79ea2a8be9d7">
          <pickID>smi:local/c4a369c0-3d3a-4356-9877-c87240b17ab4</pickID>
          <phase>P</phase>
          <timeWeight>0.1</timeWeight>
        </arrival>
        <arrival publicID="smi:local/9e707e81-78e7-4f0e-8ab0-3530e1207074">
          <pickID>smi:local/111e8fad-55e5-483d-b738-cae122fd7e4c</pickID>
          <phase>P</phase>
          <timeWeight>0.1</timeWeight>
        </arrival>
        <arrival publicID="smi:local/c0c48b30-6eb4-4571-9e11-304ecfaea4a0">
          <pickID>smi:local/1455deef-25a2-4315-aec1-f0d041724c23</pickID>
          <phase>P</phase>
          <timeWeight>0.1</timeWeight>
        </arrival>
      </origin>
      <pick publicID="smi:local/c4a369c0-3d3a-4356-9877-c87240b17ab4">
        <time>
          <value>2009-01-02T09:09:03.190000Z</value>
        </time>
        <waveformID networkCode="AV" stationCode="RDN" locationCode="" channelCode="EHZ"></waveformID>
        <phaseHint>P</phaseHint>
      </pick>
      <pick publicID="smi:local/111e8fad-55e5-483d-b738-cae122fd7e4c">
        <time>
          <value>2009-01-02T09:09:02.030000Z</value>
        </time>
        <waveformID networkCode="AV" stationCode="REF" locationCode="" channelCode="EHZ"></waveformID>
        <phaseHint>P</phaseHint>
      </pick>
      <pick publicID="smi:local/1455deef-25a2-4315-aec1-f0d041724c23">
        <time>
          <value>2009-01-02T09:09:02.860000Z</value>
        </time>
        <waveformID networkCode="AV" stationCode="RSO" locationCode="" channelCode="EHZ"></waveformID>
        <phaseHint>P</phaseHint>
      </pick>
    </event>
    <event publicID="smi:local/ac789c12-83a4-42ec-9633-f70a995fdf0d">
      <origin publicID="smi:local/c482194c-1f7a-41e5-b5ce-630730fd878f">
        <time>
          <value>2009-03-04T08:53:22.540000Z</value>
        </time>
        <latitude/>
        <longitude/>
        <comment id="smi:local/a2894197-e301-457e-8063-21a306b65ee0">
          <text>CLUSTER 12 CORE EVENT; NOT IN PEC</text>
        </comment>
        <arrival publicID="smi:local/9b9f0d41-a81c-4238-addd-5ab1c740e756">
          <pickID>smi:local/7863fe2a-859f-4914-8744-453fb6e9b79c</pickID>
          <phase>P</phase>
          <timeWeight>0.1</timeWeight>
        </arrival>
        <arrival publicID="smi:local/e34ca509-8fa3-426a-8913-8876e1d5d11e">
          <pickID>smi:local/26fa4441-cc92-476f-89fb-1cb3c5e9d1c7</pickID>
          <phase>P</phase>
          <timeWeight>0.1</timeWeight>
        </arrival>
        <arrival publicID="smi:local/28a4a224-8af3-4c97-ba5a-a8926ec8458c">
          <pickID>smi:local/5dff2f8f-cb0b-497a-a3e2-dcffc3a2b59d</pickID>
          <phase>P</phase>
          <timeWeight>0.1</timeWeight>
        </arrival>
      </origin>
      <pick publicID="smi:local/7863fe2a-859f-4914-8744-453fb6e9b79c">
        <time>
          <value>2009-03-04T08:53:22.420000Z</value>
        </time>
        <waveformID networkCode="AV" stationCode="RDN" locationCode="" channelCode="EHZ"></waveformID>
        <phaseHint>P</phaseHint>
      </pick>
      <pick publicID="smi:local/26fa4441-cc92-476f-89fb-1cb3c5e9d1c7">
        <time>
          <value>2009-03-04T08:53:22.480000Z</value>
        </time>
        <waveformID networkCode="AV" stationCode="REF" locationCode="" channelCode="EHZ"></waveformID>
        <phaseHint>P</phaseHint>
      </pick>
      <pick publicID="smi:local/5dff2f8f-cb0b-497a-a3e2-dcffc3a2b59d">
        <time>
          <value>2009-03-04T08:53:23.520500Z</value>
        </time>
        <waveformID networkCode="AV" stationCode="RSO" locationCode="" channelCode="EHZ"></waveformID>
        <phaseHint>P</phaseHint>
      </pick>
    </event>
    <event publicID="smi:local/4708b07a-31a5-4b00-b581-9f2583d9880d">
      <origin publicID="smi:local/89973360-b1af-4422-97dd-2863a8e9a098">
        <time>
          <value>2009-01-04T07:55:52.550000Z</value>
        </time>
        <latitude/>
        <longitude/>
        <comment id="smi:local/0a0a46d2-0417-4b04-b1c3-610c78ab21a1">
          <text>CLUSTER 13 CORE EVENT; NOT IN PEC</text>
        </comment>
        <arrival publicID="smi:local/0b95d1f9-947b-47f0-887d-489cb30c880a">
          <pickID>smi:local/db9b02ff-558f-4273-b8c7-2ac60303b9d7</pickID>
          <phase>P</phase>
          <timeWeight>0.1</timeWeight>
        </arrival>
        <arrival publicID="smi:local/9ab4986a-1e0c-4fe4-8676-bd396ce93282">
          <pickID>smi:local/4539781a-2a34-466e-bb90-a81718a99e2c</pickID>
          <phase>P</phase>
          <timeWeight>0.1</timeWeight>
        </arrival>
        <arrival publicID="smi:local/95ee33b8-e7bb-406f-9398-2a6ad152d681">
          <pickID>smi:local/0072edef-45fe-4922-90b1-8ba6ae7d322b</pickID>
          <phase>P</phase>
