<?xml version='1.0' encoding='utf-8'?>
<q:quakeml xmlns="http://quakeml.org/xmlns/bed/1.2" xmlns:q="http://quakeml.org/xmlns/quakeml/1.2">
  <eventParameters publicID="smi:local/ff2f4cd7-cf51-43a7-952f-d5f1736a5ca4">
    <event publicID="smi:local/ca4f7d69-3926-444d-bdf6-e12f75d1c8b2">
      <origin publicID="smi:local/deeaefed-1e6f-477f-83e1-5dc1d44edfce">
        <time>
          <value>2009-01-07T23:45:42.700000Z</value>
        </time>
        <latitude/>
        <longitude/>
        <comment id="smi:local/d90a0e0f-1a5b-4c15-a6bf-6929aed54531">
          <text>CLUSTER 0 CORE EVENT; NOT IN PEC</text>
        </comment>
      </origin>
    </event>
    <event publicID="smi:local/fb8765b1-deb7-4bea-b37e-3f1f7235c9b7">
      <origin publicID="smi:local/e8034822-1571-426d-82be-979a88d44441">
        <time>
          <value>2009-02-27T03:40:26.570000Z</value>
        </time>
        <latitude/>
        <longitude/>
        <comment id="smi:local/e738ad08-9099-4fda-bd1f-1f112fbb7f50">
          <text>CLUSTER 1 CORE EVENT; NOT IN PEC</text>
        </comment>
      </origin>
    </event>
    <event publicID="smi:local/b0b99f27-3e91-4b77-a190-d3b5083a6059">
      <origin publicID="smi:local/a625df59-3947-43c3-8d8b-92acbffa8067">
        <time>
          <value>2009-01-12T04:46:02.600000Z</value>
        </time>
        <latitude/>
        <longitude/>
        <comment id="smi:local/4a97e104-4c23-4efb-8177-77a2770a9738">
          <text>CLUSTER 2 CORE EVENT; NOT IN PEC</text>
        </comment>
      </origin>
    </event>
    <event publicID="smi:local/fd025fcc-b99c-4464-9e7f-926cfc8cb906">
      <origin publicID="smi:local/3d910c99-ee1a-46de-b6f4-b05b1347b19c">
        <time>
          <value>2009-03-05T10:44:10.380000Z</value>
        </time>
        <latitude/>
        <longitude/>
        <comment id="smi:local/a0fd5207-30d8-499f-98e5-ae78b5951581">
          <text>CLUSTER 3 CORE EVENT; NOT IN PEC</text>
        </comment>
      </origin>
    </event>
    <event publicID="smi:local/3df316c4-3788-405d-8ba7-c61456edb3e7">
      <origin publicID="smi:local/d6d9d4e6-2bf5-49b0-9f7d-116e48ebc023">
        <time>
          <value>2009-01-09T17:12:06.820000Z</value>
        </time>
        <latitude/>
        <longitude/>
        <comment id="smi:local/ea087be0-92cb-47ea-be19-96ad81306448">
          <text>CLUSTER 4 CORE EVENT; NOT IN PEC</text>
        </comment>
      </origin>
    </event>
    <event publicID="smi:local/52f9e902-9611-4aff-8e6e-1283f52d6a1b">
      <origin publicID="smi:local/54178f61-789c-4763-860a-39c522de8186">
        <time>
          <value>2009-01-01T21:07:08.610000Z</value>
        </time>
        <latitude/>
        <longitude/>
        <comment id="smi:local/12209669-3ee1-4bee-8169-66017e0a0545">
          <text>CLUSTER 5 CORE EVENT; NOT IN PEC</text>
        </comment>
      </origin>
    </event>
    <event publicID="smi:local/bf3a73ac-a841-47d1-8594-c76a6801fef3">
      <origin publicID="smi:local/1e9a21a8-d949-41ca-a4ea-a401e06b1542">
        <time>
          <value>2009-01-07T18:50:05.420000Z</value>
        </time>
        <latitude/>
        <longitude/>
        <comment id="smi:local/e5c1adb2-2891-4d3e-a124-f5594926869c">
          <text>CLUSTER 6 CORE EVENT; NOT IN PEC</text>
        </comment>
      </origin>
    </event>
    <event publicID="smi:local/e062d48b-4452-48de-b30d-0690c288e36a">
      <origin publicID="smi:local/be5cbed3-5f43-4217-afe0-a52b5f6bc38a">
        <time>
          <value>2009-01-07T08:26:06.880000Z</value>
        </time>
        <latitude/>
        <longitude/>
        <comment id="smi:local/a0f0911c-3e5f-4e4c-85ab-8f342956b570">
          <text>CLUSTER 7 CORE EVENT; NOT IN PEC</text>
        </comment>
      </origin>
    </event>
    <event publicID="smi:local/181de431-f177-4b7a-94d9-27607d08caf6">
      <origin publicID="smi:local/586c0e94-2657-4c1f-a64b-4fa02a5abacd">
        <time>
          <value>2009-01-08T13:24:26.660000Z</value>
        </time>
        <latitude/>
        <longitude/>
        <comment id="smi:local/2fd94383-ab31-4ad0-a669-18eed613ea7d">
          <text>CLUSTER 8 CORE EVENT; NOT IN PEC</text>
        </comment>
      </origin>
    </event>
    <event publicID="smi:local/c6f6aa82-c639-4e44-99e5-77bf5a955c00">
      <origin publicID="smi:local/0ec6c63c-8b68-489d-a2fa-c3ae538973b6">
        <time>
          <value>2009-01-01T08:41:15.300000Z</value>
        </time>
        <latitude/>
        <longitude/>
        <comment id="smi:local/cbcfc594-8aed-42d9-b76e-cdca10aabf41">
          <text>CLUSTER 9 CORE EVENT; NOT IN PEC</text>
        </comment>
      </origin>
    </event>
    <event publicID="smi:local/27b50889-de80-4073-b308-65a3cca8e58e">
      <origin publicID="smi:local/827fabe2-6ed3-40fb-bc92-fd82fa9992d5">
        <time>
          <value>2009-01-03T12:27:36.860000Z</value>
        </time>
        <latitude/>
        <longitude/>
        <comment id="smi:local/75359be3-aa8c-41b5-85a3-cc039966bbd1">
          <text>CLUSTER 10 CORE EVENT; NOT IN PEC</text>
        </comment>
      </origin>
    </event>
    <event publicID="smi:local/7485a1a9-c9dc-4441-90bc-f41aa2c55894">
      <origin publicID="smi:local/893d4383-627b-4e54-8233-2337fda90e68">
        <time>
          <value>2009-01-02T09:09:02.190000Z</value>
        </time>
        <latitude/>
        <longitude/>
        <comment id="smi:local/97c50e06-b6b4-4713-9314-0994aace8c3b">
          <text>CLUSTER 11 CORE EVENT; NOT IN PEC</text>
        </comment>
      </origin>
    </event>
    <event publicID="smi:local/ac789c12-83a4-42ec-9633-f70a995fdf0d">
      <origin publicID="smi:local/c482194c-1f7a-41e5-b5ce-630730fd878f">
        <time>
          <value>2009-03-04T08:53:22.540000Z</value>
        </time>
        <latitude/>
        <longitude/>
        <comment id="smi:local/a2894197-e301-457e-8063-21a306b65ee0">
          <text>CLUSTER 12 CORE EVENT; NOT IN PEC</text>
        </comment>
      </origin>
    </event>
    <event publicID="smi:local/4708b07a-31a5-4b00-b581-9f2583d9880d">
      <origin publicID="smi:local/89973360-b1af-4422-97dd-2863a8e9a098">
        <time>
          <value>2009-01-04T07:55:52.550000Z</value>
        </time>
        <latitude/>
        <longitude/>
        <comment id="smi:local/0a0a46d2-0417-4b04-b1c3-610c78ab21a1">
          <text>CLUSTER 13 CORE EVENT; NOT IN PEC</text>
        </comment>
      </origin>
    </event>
    <event publicID="smi:local/be875e65-b8cc-424c-944f-b79e3a4aed62">
      <origin publicID="smi:local/eff3b57e-d09b-46f8-9574-675d421582c2">
        <time>
          <value>2009-01-04T13:33:26.630000Z</value>
        </time>
        <latitude/>
        <longitude/>
        <comment id="smi:local/953db236-3376-4681-b494-f05bf241b391">
          <text>CLUSTER 14 CORE EVENT; NOT IN PEC</text>
        </comment>
      </origin>
    </event>
    <event publicID="smi:local/0903b378-df97-4dcf-a024-fdd3ac0a6ebd">
      <origin publicID="smi:local/3059d999-9e10-4bb1-a775-7f2436423a48">
        <time>
          <value>2009-01-01T19:14:46.760000Z</value>
        </time>
        <latitude/>
        <longitude/>
        <comment id="smi:local/92a162a3-8f1f-4963-b3a8-da155c20d5b2">
          <text>CLUSTER 15 CORE EVENT; NOT IN PEC</text>
        </comment>
      </origin>
    </event>
    <event publicID="smi:local/ae97f048-78b2-40ed-a7bd-fd7197bd8714">
      <origin publicID="smi:local/c7b02b8d-ae8c-4a05-83f6-7b48b140ed18">
        <time>
          <value>2009-01-04T08:29:39.710000Z</value>
        </time>
        <latitude/>
        <longitude/>
        <comment id="smi:local/c1f11f28-e1c1-4f58-a4f8-19cf839a8ae0">
          <text>CLUSTER 16 CORE EVENT; NOT IN PEC</text>
        </comment>
      </origin>
    </event>
    <event publicID="smi:local/fa31e0f1-e050-4b6b-84f8-446ffcfe4de5">
      <origin publicID="smi:local/c755b6b2-8df3-46cd-9603-e9a9af2d19b0">
        <time>
          <value>2009-01-20T16:20:02.280000Z</value>
        </time>
        <latitude/>
        <longitude/>
        <comment id="smi:local/83cc61bd-e5c4-41e6-873f-5c96be130371">
          <text>CLUSTER 17 CORE EVENT; NOT IN PEC</text>
        </comment>
      </origin>
    </event>
    <event publicID="smi:local/0c91fe58-5f5a-4782-b4ba-f7e11411e23f">
      <origin publicID="smi:local/eeb2271a-ac15-4c82-9792-61b5b7488895">
        <time>
          <value>2009-01-06T06:01:07.530000Z</value>
        </time>
        <latitude/>
        <longitude/>
        <comment id="smi:local/84d1d915-d678-4cfd-a33e-ee120d736ee2">
          <text>CLUSTER 18 CORE EVENT; NOT IN PEC</text>
        </comment>
      </origin>
    </event>
    <event publicID="smi:local/6cca2d11-a720-4fb1-a231-d8642ae55cb6">
      <origin publicID="smi:local/2be1da6e-2391-4391-89da-31e29be33f52">
        <time>
          <value>2009-01-08T12:10:50.930000Z</value>
        </time>
        <latitude/>
        <longitude/>
        <comment id="smi:local/91cfe583-3277-4758-9f27-144e001ea5ce">
          <text>CLUSTER 19 CORE EVENT; NOT IN PEC</text>
        </comment>
      </origin>
    </event>
    <event publicID="smi:local/8917859e-33c4-4f34-bbf6-ba53bcf09e1b">
      <origin publicID="smi:local/bb3895e7-773a-43f0-849d-2cd9b893d5b8">
        <time>
          <value>2009-01-04T00:29:44.150000Z</value>
        </time>
        <latitude/>
        <longitude/>
        <comment id="smi:local/51526e2a-0277-479e-b9bd-aa0dd3187b21">
          <text>CLUSTER 20 CORE EVENT; NOT IN PEC</text>
        </comment>
      </origin>
    </event>
    <event publicID="smi:local/da6d0df0-d1bd-4fb3-a860-bb5b3ab31066">
      <origin publicID="smi:local/c9768a43-c46f-402a-9814-c81d5d697ef1">
        <time>
          <value>2009-01-02T09:48:50.650000Z</value>
        </time>
        <latitude/>
        <longitude/>
        <comment id="smi:local/a0ac36ba-540a-472a-b9dc-a7ca1a784380">
          <text>CLUSTER 21 CORE EVENT; NOT IN PEC</text>
        </comment>
      </origin>
    </event>
    <event publicID="smi:local/35043e81-13da-4b0e-a9be-8d83836faca3">
      <origin publicID="smi:local/e4aecccc-cb05-479e-8a38-5c8c166de47b">
        <time>
          <value>2009-01-03T16:20:54.470000Z</value>
        </time>
        <latitude/>
        <longitude/>
        <comment id="smi:local/f3584c87-7f27-446b-96fc-6b9945b7edef">
          <text>CLUSTER 22 CORE EVENT; NOT IN PEC</text>
        </comment>
      </origin>
    </event>
    <event publicID="smi:local/ea838ee9-1228-4da1-a66b-091b9cc080b3">
      <origin publicID="smi:local/af02ec5b-55e3-4e42-a228-d4ff3f6874c5">
        <time>
          <value>2009-01-02T21:52:44.240000Z</value>
        </time>
        <latitude/>
        <longitude/>
        <comment id="smi:local/52baf36c-1f1e-429c-9389-267e41a0b487">
          <text>CLUSTER 23 CORE EVENT; NOT IN PEC</text>
        </comment>
      </origin>
    </event>
    <event publicID="smi:local/978be6fd-e3d9-4bbb-8e48-cfaca141f77a">
      <origin publicID="smi:local/b1afccb8-3b3e-49dc-8ea9-f4eb572fbe53">
        <time>
          <value>2009-01-11T01:39:34.850000Z</value>
        </time>
        <latitude/>
        <longitude/>
        <comment id="smi:local/587c62e4-46a9-4bb6-88ec-4168eb361947">
          <text>CLUSTER 24 CORE EVENT; NOT IN PEC</text>
        </comment>
      </origin>
    </event>
    <event publicID="smi:local/0236579d-9572-480c-8294-8b9365a78b5c">
      <origin publicID="smi:local/c1145f0c-b359-4ed1-b7b5-3d3e9f0e886f">
        <time>
          <value>2009-01-02T01:58:17.110000Z</value>
        </time>
        <latitude/>
        <longitude/>
        <comment id="smi:local/751b3c37-76cd-466e-84a6-a7cf9c8b64d0">
          <text>CLUSTER 25 CORE EVENT; NOT IN PEC</text>
        </comment>
      </origin>
    </event>
    <event publicID="smi:local/7455b848-98b6-42af-99fc-d7c359e9ce5a">
      <origin publicID="smi:local/4dbaa27e-76ea-4823-886a-6f64f669861e">
        <time>
          <value>2009-01-18T15:27:23.600000Z</value>
        </time>
        <latitude/>
        <longitude/>
        <comment id="smi:local/533290f0-808d-4c8a-bebd-e00e203a0450">
          <text>CLUSTER 26 CORE EVENT; NOT IN PEC</text>
        </comment>
      </origin>
    </event>
    <event publicID="smi:local/ab0ac381-10e3-43a7-8660-340bd040b475">
      <origin publicID="smi:local/707129af-2848-4a22-aace-01452b16cf6b">
        <time>
          <value>2009-01-01T22:05:51.030000Z</value>
        </time>
        <latitude/>
        <longitude/>
        <comment id="smi:local/a33f5ec5-e525-4b0c-846a-3532fe15b36c">
          <text>CLUSTER 27 CORE EVENT; NOT IN PEC</text>
        </comment>
      </origin>
    </event>
    <event publicID="smi:local/94fbbc0c-0a6e-45c6-80d4-625be3d1eb76">
      <origin publicID="smi:local/5dbfc67a-3c33-444c-b32f-4b6c9f358de5">
        <time>
          <value>2009-01-04T14:30:06.990000Z</value>
        </time>
        <latitude/>
        <longitude/>
        <comment id="smi:local/98646ec1-10a0-4477-a5d2-a50720f1b1b6">
          <text>CLUSTER 28 CORE EVENT; NOT IN PEC</text>
        </comment>
      </origin>
    </event>
    <event publicID="smi:local/b300bec9-a34d-4182-9e9e-fdbb469447b3">
      <origin publicID="smi:local/9cedbf1d-b17c-45a0-b48c-5dd6bf31dd6c">
        <time>
          <value>2009-01-09T12:57:30.090000Z</value>
        </time>
        <latitude/>
        <longitude/>
        <comment id="smi:local/17e89353-f5c9-40e2-8bf0-8e8de9aecde7">
          <text>CLUSTER 29 CORE EVENT; NOT IN PEC</text>
        </comment>
      </origin>
    </event>
    <event publicID="smi:local/a474e470-a6ae-4777-9230-43c5523ddc15">
      <origin publicID="smi:local/ca62ae46-2fe8-413e-bb0e-28e235799e18">
        <time>
          <value>2009-02-07T07:43:59.250000Z</value>
        </time>
        <latitude/>
        <longitude/>
        <comment id="smi:local/c5f61c91-0968-46de-9bae-216b151cf5f8">
          <text>CLUSTER 30 CORE EVENT; NOT IN PEC</text>
        </comment>
      </origin>
    </event>
    <event publicID="smi:local/a754c9fe-73e0-4cc2-9596-5e5180dcd57d">
      <origin publicID="smi:local/f36d72cd-4114-4ed8-9933-3fd3b51ce37c">
        <time>
          <value>2009-01-08T14:54:44.090000Z</value>
        </time>
        <latitude/>
        <longitude/>
        <comment id="smi:local/1c0e180c-8148-495c-84e8-ccd8b719f747">
          <text>CLUSTER 31 CORE EVENT; NOT IN PEC</text>
        </comment>
      </origin>
    </event>
    <event publicID="smi:local/d71acc12-41dc-4404-9878-a2322bbf4360">
      <origin publicID="smi:local/3c75a19a-ee88-4fda-810e-097ca6f5d30c">
        <time>
          <value>2009-01-07T02:17:58.150000Z</value>
        </time>
        <latitude/>
        <longitude/>
        <comment id="smi:local/2b3c1676-9ee8-42a9-99f7-34cdc2985c1a">
          <text>CLUSTER 32 CORE EVENT; NOT IN PEC</text>
        </comment>
      </origin>
    </event>
    <event publicID="smi:local/894f1324-82be-481a-9fcd-43d801489fa6">
      <origin publicID="smi:local/1f65749f-cee4-4c29-ba1a-0447acbb34cc">
        <time>
          <value>2009-01-03T13:14:09.750000Z</value>
        </time>
        <latitude/>
        <longitude/>
        <comment id="smi:local/417fd81e-ca87-4dcb-978f-15075e32cc6b">
          <text>CLUSTER 33 CORE EVENT; NOT IN PEC</text>
        </comment>
      </origin>
    </event>
    <event publicID="smi:local/7824b0c0-d2dd-44ac-9506-a218a7b2cdd8">
      <origin publicID="smi:local/71c7c718-ec17-45c7-92fe-90fe0ab17398">
        <time>
          <value>2009-01-24T08:36:44.550000Z</value>
        </time>
        <latitude/>
        <longitude/>
        <comment id="smi:local/92426146-f333-4f57-bab9-070c712d03c4">
          <text>CLUSTER 34 CORE EVENT; NOT IN PEC</text>
        </comment>
      </origin>
    </event>
    <event publicID="smi:local/6f1d73ec-6658-4e10-a956-daf196267365">
      <origin publicID="smi:local/43ccd77b-65ab-4343-b313-2f2885e3dc66">
        <time>
          <value>2009-01-10T07:24:00.010000Z</value>
        </time>
        <latitude/>
        <longitude/>
        <comment id="smi:local/df379f31-23b4-4a62-a9c6-195237ee354d">
          <text>CLUSTER 35 CORE EVENT; NOT IN PEC</text>
        </comment>
      </origin>
    </event>
    <event publicID="smi:local/94611051-7fd1-4e1f-adb1-b7686eca8bed">
      <origin publicID="smi:local/04fb0e23-4435-45ec-95fc-e1afeb2012af">
        <time>
          <value>2009-01-12T20:00:17.990000Z</value>
        </time>
        <latitude/>
        <longitude/>
        <comment id="smi:local/d371d7ce-02b8-4fb6-9bbf-3154d555899b">
          <text>CLUSTER 36 CORE EVENT; NOT IN PEC</text>
        </comment>
      </origin>
    </event>
    <event publicID="smi:local/b6a4014b-0b22-400a-bfb7-e629752f1253">
      <origin publicID="smi:local/8ef114d6-726d-46db-b86e-5df74b941a8c">
        <time>
          <value>2009-01-19T16:48:24.700000Z</value>
        </time>
        <latitude/>
        <longitude/>
        <comment id="smi:local/9fa3c7de-dc1b-4d9c-a945-1416faf8b649">
          <text>CLUSTER 37 CORE EVENT; NOT IN PEC</text>
        </comment>
      </origin>
    </event>
    <event publicID="smi:local/ba9dc5b8-0600-4eee-a213-e418937b25d2">
      <origin publicID="smi:local/dc038f58-a9a8-4965-95b3-590a19bb32d2">
        <time>
          <value>2009-01-07T12:46:40.680000Z</value>
        </time>
        <latitude/>
        <longitude/>
        <comment id="smi:local/272de415-5c57-48c2-9ce0-f6e5b16bb3a5">
          <text>CLUSTER 38 CORE EVENT; NOT IN PEC</text>
        </comment>
      </origin>
    </event>
    <event publicID="smi:local/b6d1b22d-b60f-41ca-a8ae-a334a7c2a566">
      <origin publicID="smi:local/39d8f182-eb1b-4879-aaa5-2feee87350af">
        <time>
          <value>2009-01-09T01:29:14.740000Z</value>
        </time>
        <latitude/>
        <longitude/>
        <comment id="smi:local/28656bca-e946-4c60-9907-19956028a3f1">
          <text>CLUSTER 39 CORE EVENT; NOT IN PEC</text>
        </comment>
      </origin>
    </event>
    <event publicID="smi:local/9e781dd4-8b16-462e-aae5-6e03a914d656">
      <origin publicID="smi:local/fabec483-cb86-4df6-b676-6f46da6547e1">
        <time>
          <value>2009-01-07T04:09:51.520000Z</value>
        </time>
        <latitude/>
        <longitude/>
        <comment id="smi:local/08283dd8-ea48-4889-9cd4-6bd7e19b4bf1">
          <text>CLUSTER 40 CORE EVENT; NOT IN PEC</text>
        </comment>
      </origin>
    </event>
    <event publicID="smi:local/47dc7cea-3548-4075-bb8b-29a16c80d39f">
      <origin publicID="smi:local/8fa14dcc-eee1-4c5c-b812-158b125af794">
        <time>
          <value>2009-03-06T10:13:08.690000Z</value>
        </time>
        <latitude/>
        <longitude/>
        <comment id="smi:local/d6a991cd-818c-49b1-88e3-73a0f3174a71">
          <text>CLUSTER 41 CORE EVENT; NOT IN PEC</text>
        </comment>
      </origin>
    </event>
    <event publicID="smi:local/5a650608-496b-4a4d-83f9-0cf35e8004cc">
      <origin publicID="smi:local/8edff5c2-a359-4c20-8773-2a8e3ec5c216">
        <time>
          <value>2009-03-03T02:55:48.130000Z</value>
        </time>
        <latitude/>
        <longitude/>
        <comment id="smi:local/395967f5-5115-4c37-9e5b-53619b6cd1b3">
          <text>CLUSTER 42 CORE EVENT; NOT IN PEC</text>
        </comment>
      </origin>
    </event>
    <event publicID="smi:local/7df365d2-9567-4c17-9223-aed1df605e50">
      <origin publicID="smi:local/0a2f6d1f-0d8d-4e2b-80bf-f9840be19b22">
        <time>
          <value>2009-01-05T00:29:33.620000Z</value>
        </time>
        <latitude/>
        <longitude/>
        <comment id="smi:local/d4b1494d-5a2f-4251-9151-be1fc5128365">
          <text>CLUSTER 43 CORE EVENT; NOT IN PEC</text>
        </comment>
      </origin>
    </event>
    <event publicID="smi:local/53062142-c1be-4346-99db-fbe76d12d6d5">
      <origin publicID="smi:local/d999ac0d-d90b-4358-b454-a9ab02d479c0">
        <time>
          <value>2009-01-06T16:48:17.500000Z</value>
        </time>
        <latitude/>
        <longitude/>
