<?xml version='1.0' encoding='utf-8'?>
<q:quakeml xmlns="http://quakeml.org/xmlns/bed/1.2" xmlns:q="http://quakeml.org/xmlns/quakeml/1.2">
  <eventParameters publicID="smi:local/e32e34c6-19d6-47a2-9822-bed7c3ab9219">
    <event publicID="smi:local/3e841052-a686-4e43-bd98-2380c1db5cc2">
      <origin publicID="smi:local/e64e53d3-7d9f-4478-82a2-da3a8ed68872">
        <time>
          <value>2012-10-03T03:38:11.775000Z</value>
        </time>
        <latitude>
          <value>37.6568</value>
        </latitude>
        <longitude>
          <value>-119.0222</value>
        </longitude>
        <depth>
          <value>-30.0</value>
        </depth>
        <comment id="smi:local/90e0ea40-7ab8-4c76-966d-43273148f31e">
          <text>CLUSTER 0 CORE EVENT; IN PEC, DT = 0.10</text>
        </comment>
        <arrival publicID="smi:local/fa2d845f-f709-41e1-bcf2-174bfc28d2be">
          <pickID>smi:local/24afdb6d-c897-4b50-b2d0-29d298c1c51a</pickID>
          <phase>P</phase>
          <timeWeight>0.2</timeWeight>
        </arrival>
        <arrival publicID="smi:local/ab887061-6e34-45ee-84b4-70f3aebdb334">
          <pickID>smi:local/004211d1-d96f-4654-ac3f-0d4bbc10e121</pickID>
          <phase>P</phase>
          <timeWeight>1.0</timeWeight>
        </arrival>
        <arrival publicID="smi:local/b00a1b13-5b86-437a-84cb-ac240d6120b0">
          <pickID>smi:local/cfb67238-aea2-4a46-bb29-c642dadd115e</pickID>
          <phase>P</phase>
          <timeWeight>1.0</timeWeight>
        </arrival>
        <arrival publicID="smi:local/14a5f316-c85f-49eb-89a4-1252a61010e0">
          <pickID>smi:local/442f69be-7560-4304-aa70-e1e7b5b0ed3f</pickID>
          <phase>P</phase>
          <timeWeight>1.0</timeWeight>
        </arrival>
        <arrival publicID="smi:local/1595f2ce-7abe-4f04-80e9-fd4d06d28938">
          <pickID>smi:local/43fe3999-99cf-4b58-93be-be654f21c3fe</pickID>
          <phase>P</phase>
          <timeWeight>0.2</timeWeight>
        </arrival>
        <arrival publicID="smi:local/68435a50-d475-4ba6-bfb5-18b6fbb664c8">
          <pickID>smi:local/5da37cf2-860b-43ec-9ec6-12e5bee28d63</pickID>
          <phase>S</phase>
          <timeWeight>0.5</timeWeight>
        </arrival>
        <arrival publicID="smi:local/7b7a26fa-25ec-4a71-991a-5761ba30adb0">
          <pickID>smi:local/ff4713d6-74cc-4222-813b-8b89af04217b</pickID>
          <phase>P</phase>
          <timeWeight>1.0</timeWeight>
        </arrival>
        <arrival publicID="smi:local/e25060e9-4937-44ce-81ae-5eea3560dc2a">
          <pickID>smi:local/c0d77427-b55a-499e-a211-104daccf0d2e</pickID>
          <phase>P</phase>
          <timeWeight>-1.0</timeWeight>
        </arrival>
        <arrival publicID="smi:local/5c71feb5-7bd0-4705-8afb-b05d30199bc7">
          <pickID>smi:local/38ac2dd0-8efe-4e50-941e-164123e92b5a</pickID>
          <phase>S</phase>
          <timeWeight>1.0</timeWeight>
        </arrival>
        <arrival publicID="smi:local/67c138db-d2d7-40cd-87a6-681c187f2e3c">
          <pickID>smi:local/5e22e7e6-4ad0-4efb-b043-3deeae27db16</pickID>
          <phase>P</phase>
          <timeWeight>0.5</timeWeight>
        </arrival>
        <arrival publicID="smi:local/f93e44d2-b757-4058-bd06-34540ea35728">
          <pickID>smi:local/d8d505d5-b59c-439f-b988-13379d551bde</pickID>
          <phase>S</phase>
          <timeWeight>0.5</timeWeight>
        </arrival>
        <arrival publicID="smi:local/5c3d5a21-d132-46ba-9b75-d4a91b33d430">
          <pickID>smi:local/5791da91-c483-4c48-be5a-5c33d7ba3974</pickID>
          <phase>P</phase>
          <timeWeight>1.0</timeWeight>
        </arrival>
        <arrival publicID="smi:local/6ae0710d-8a3c-4d05-abdb-1fd83b1cbebe">
          <pickID>smi:local/c1123667-1b92-4327-9c19-a1e4f309dda2</pickID>
          <phase>P</phase>
          <timeWeight>1.0</timeWeight>
        </arrival>
        <arrival publicID="smi:local/a7ef042c-ed92-4a8c-a703-92b684c1bc28">
          <pickID>smi:local/0d276a36-2345-4f9e-ad32-2db3c8a30593</pickID>
          <phase>P</phase>
          <timeWeight>0.5</timeWeight>
        </arrival>
        <arrival publicID="smi:local/042d201b-b475-4f0c-909a-d76b269f9742">
          <pickID>smi:local/a73ef0c7-15ad-4179-b73b-cbc41cee2964</pickID>
          <phase>P</phase>
          <timeWeight>1.0</timeWeight>
        </arrival>
        <arrival publicID="smi:local/c8bb894f-044d-4669-8af3-fdc1476aba6f">
          <pickID>smi:local/ca0b61a1-e703-4e92-89da-01da2cbce613</pickID>
          <phase>P</phase>
          <timeWeight>0.5</timeWeight>
        </arrival>
        <arrival publicID="smi:local/6cbfde41-a03a-4928-8ded-7279ecabd7c2">
          <pickID>smi:local/a68abd8b-60ff-4f51-99d9-a35d8ec4cbf4</pickID>
          <phase>P</phase>
          <timeWeight>0.2</timeWeight>
        </arrival>
        <arrival publicID="smi:local/935efb38-5b7d-4e3c-8b03-a30dd8810cfd">
          <pickID>smi:local/b8b4627c-e559-46ec-827f-9a546daf086e</pickID>
          <phase>P</phase>
          <timeWeight>1.0</timeWeight>
        </arrival>
        <arrival publicID="smi:local/481d7701-fbec-44ee-b37a-e91cdfd1ad30">
          <pickID>smi:local/626e37b0-bd06-4ce5-a7fc-5e9d1bda99df</pickID>
          <phase>P</phase>
          <timeWeight>1.0</timeWeight>
        </arrival>
        <arrival publicID="smi:local/d9d92003-7979-420c-8a05-e922f7ff2650">
          <pickID>smi:local/34f12de9-9a49-4a28-beea-491b085d24c4</pickID>
          <phase>P</phase>
          <timeWeight>0.5</timeWeight>
        </arrival>
        <arrival publicID="smi:local/4ec749e9-3a24-4ad8-8a6f-d682fba72954">
          <pickID>smi:local/6366ca02-42f7-4b8b-9a16-a96bb65853e9</pickID>
          <phase>P</phase>
          <timeWeight>0.2</timeWeight>
        </arrival>
        <arrival publicID="smi:local/e3ead1f3-6ca8-49d6-af5a-45336841e3c7">
          <pickID>smi:local/4e6e3ed2-66a8-4f61-9d08-d7545d5553d0</pickID>
          <phase>P</phase>
          <timeWeight>0.2</timeWeight>
        </arrival>
        <arrival publicID="smi:local/c160da19-351d-4552-9dcf-449b4d3ad4ec">
          <pickID>smi:local/9a0e4f9b-d552-449d-bf9e-8da8519785eb</pickID>
          <phase>P</phase>
          <timeWeight>1.0</timeWeight>
        </arrival>
        <arrival publicID="smi:local/13a1fbe9-c6ba-4c14-9336-61db9e2d564d">
          <pickID>smi:local/b1638275-5171-4676-b964-93da9b31ccce</pickID>
          <phase>P</phase>
          <timeWeight>0.1</timeWeight>
        </arrival>
        <arrival publicID="smi:local/75b178a4-173d-4f19-aa81-d0deef96dbbb">
          <pickID>smi:local/7783e89e-7637-4b37-a0ab-9e5ebafbd92e</pickID>
          <phase>P</phase>
          <timeWeight>0.1</timeWeight>
        </arrival>
        <arrival publicID="smi:local/d174558e-a4b6-4cca-84de-9bd65cd2586f">
          <pickID>smi:local/6da2ce98-4f71-4382-8d52-c55a4f6cde09</pickID>
          <phase>P</phase>
          <timeWeight>0.1</timeWeight>
        </arrival>
        <arrival publicID="smi:local/64bed0af-9a69-4917-8bb7-cdcb1aa7fc4a">
          <pickID>smi:local/23fd4ea3-3f05-43a7-a32b-996651abca29</pickID>
          <phase>P</phase>
          <timeWeight>0.1</timeWeight>
        </arrival>
        <arrival publicID="smi:local/d5c82c1f-df6d-41ff-9e21-e5947ba19e58">
          <pickID>smi:local/f4ba5a47-d1d6-4dba-ac0d-6c74ff2014dd</pickID>
          <phase>P</phase>
          <timeWeight>0.1</timeWeight>
        </arrival>
        <arrival publicID="smi:local/91748923-0113-4977-83e9-d2050964da29">
          <pickID>smi:local/6d42734e-2a58-40a8-8019-977af456b60a</pickID>
          <phase>P</phase>
          <timeWeight>0.1</timeWeight>
        </arrival>
        <arrival publicID="smi:local/315fa4f1-243e-4f34-b812-e796341040f9">
          <pickID>smi:local/99601c09-7385-4a49-a0f9-9a76ac639c43</pickID>
          <phase>P</phase>
          <timeWeight>0.1</timeWeight>
        </arrival>
        <arrival publicID="smi:local/14ea5947-bcc7-4bcb-a98c-076e62f2c6d7">
          <pickID>smi:local/b2d6990f-1c79-4d27-b3a3-04f5c1d03db2</pickID>
          <phase>P</phase>
          <timeWeight>0.1</timeWeight>
        </arrival>
        <arrival publicID="smi:local/b6e25d84-3a64-4cee-992a-fabd86a8657b">
          <pickID>smi:local/9ee201b8-745f-4ffb-92fa-cf2598dc7934</pickID>
          <phase>P</phase>
          <timeWeight>0.1</timeWeight>
        </arrival>
        <arrival publicID="smi:local/858ad242-c061-4b47-8be6-f73cadafedb9">
          <pickID>smi:local/87583c22-0197-4109-8e30-f34e115b252a</pickID>
          <phase>P</phase>
          <timeWeight>0.1</timeWeight>
        </arrival>
      </origin>
      <magnitude publicID="smi:local/magnitude/71851540">
        <mag>
          <value>0.63</value>
        </mag>
      </magnitude>
      <pick publicID="smi:local/24afdb6d-c897-4b50-b2d0-29d298c1c51a">
        <time>
          <value>2012-10-03T03:38:15.400000Z</value>
        </time>
        <waveformID networkCode="CI" stationCode="MLAC" locationCode="" channelCode="HHZ"></waveformID>
        <phaseHint>P</phaseHint>
      </pick>
      <pick publicID="smi:local/004211d1-d96f-4654-ac3f-0d4bbc10e121">
        <time>
          <value>2012-10-03T03:38:14.420000Z</value>
        </time>
        <waveformID networkCode="NC" stationCode="MCB" locationCode="" channelCode="HHZ"></waveformID>
        <phaseHint>P</phaseHint>
      </pick>
      <pick publicID="smi:local/cfb67238-aea2-4a46-bb29-c642dadd115e">
        <time>
          <value>2012-10-03T03:38:14.700000Z</value>
        </time>
        <waveformID networkCode="NC" stationCode="MCM" locationCode="" channelCode="EHZ"></waveformID>
        <phaseHint>P</phaseHint>
      </pick>
      <pick publicID="smi:local/442f69be-7560-4304-aa70-e1e7b5b0ed3f">
        <time>
          <value>2012-10-03T03:38:14.240000Z</value>
        </time>
        <waveformID networkCode="NC" stationCode="MCS" locationCode="" channelCode="EHZ"></waveformID>
        <phaseHint>P</phaseHint>
      </pick>
      <pick publicID="smi:local/43fe3999-99cf-4b58-93be-be654f21c3fe">
        <time>
          <value>2012-10-03T03:38:15.410000Z</value>
        </time>
        <waveformID networkCode="NC" stationCode="MCV" locationCode="" channelCode="EHZ"></waveformID>
        <phaseHint>P</phaseHint>
      </pick>
      <pick publicID="smi:local/5da37cf2-860b-43ec-9ec6-12e5bee28d63">
        <time>
          <value>2012-10-03T03:38:13.200000Z</value>
        </time>
        <waveformID networkCode="NC" stationCode="MCY" locationCode="" channelCode="EHN"></waveformID>
        <phaseHint>S</phaseHint>
      </pick>
      <pick publicID="smi:local/ff4713d6-74cc-4222-813b-8b89af04217b">
        <time>
          <value>2012-10-03T03:38:12.670000Z</value>
        </time>
        <waveformID networkCode="NC" stationCode="MCY" locationCode="" channelCode="EHZ"></waveformID>
        <phaseHint>P</phaseHint>
      </pick>
      <pick publicID="smi:local/c0d77427-b55a-499e-a211-104daccf0d2e">
        <time>
          <value>2012-10-03T03:38:13.310000Z</value>
        </time>
        <waveformID networkCode="NC" stationCode="MDC" locationCode="" channelCode="EHZ"></waveformID>
        <phaseHint>P</phaseHint>
      </pick>
      <pick publicID="smi:local/38ac2dd0-8efe-4e50-941e-164123e92b5a">
        <time>
          <value>2012-10-03T03:38:15.050000Z</value>
        </time>
        <waveformID networkCode="NC" stationCode="MDH1" locationCode="" channelCode="DP1"></waveformID>
        <phaseHint>S</phaseHint>
      </pick>
      <pick publicID="smi:local/5e22e7e6-4ad0-4efb-b043-3deeae27db16">
        <time>
          <value>2012-10-03T03:38:15.430000Z</value>
        </time>
        <waveformID networkCode="NC" stationCode="MDR" locationCode="" channelCode="EHZ"></waveformID>
        <phaseHint>P</phaseHint>
      </pick>
      <pick publicID="smi:local/d8d505d5-b59c-439f-b988-13379d551bde">
        <time>
          <value>2012-10-03T03:38:13.410000Z</value>
        </time>
        <waveformID networkCode="NC" stationCode="MDY" locationCode="" channelCode="HHN"></waveformID>
        <phaseHint>S</phaseHint>
      </pick>
      <pick publicID="smi:local/5791da91-c483-4c48-be5a-5c33d7ba3974">
        <time>
          <value>2012-10-03T03:38:12.650000Z</value>
        </time>
        <waveformID networkCode="NC" stationCode="MDY" locationCode="" channelCode="HHZ"></waveformID>
        <phaseHint>P</phaseHint>
      </pick>
      <pick publicID="smi:local/c1123667-1b92-4327-9c19-a1e4f309dda2">
        <time>
          <value>2012-10-03T03:38:13.670000Z</value>
        </time>
        <waveformID networkCode="NC" stationCode="MEM" locationCode="" channelCode="EHZ"></waveformID>
        <phaseHint>P</phaseHint>
      </pick>
      <pick publicID="smi:local/0d276a36-2345-4f9e-ad32-2db3c8a30593">
        <time>
          <value>2012-10-03T03:38:14.390000Z</value>
        </time>
        <waveformID networkCode="NC" stationCode="MGPB" locationCode="" channelCode="EHZ"></waveformID>
        <phaseHint>P</phaseHint>
      </pick>
      <pick publicID="smi:local/a73ef0c7-15ad-4179-b73b-cbc41cee2964">
        <time>
          <value>2012-10-03T03:38:12.880000Z</value>
        </time>
        <waveformID networkCode="NC" stationCode="MINS" locationCode="" channelCode="HHZ"></waveformID>
        <phaseHint>P</phaseHint>
      </pick>
      <pick publicID="smi:local/ca0b61a1-e703-4e92-89da-01da2cbce613">
        <time>
          <value>2012-10-03T03:38:14.100000Z</value>
        </time>
        <waveformID networkCode="NC" stationCode="MLC" locationCode="" channelCode="EHZ"></waveformID>
        <phaseHint>P</phaseHint>
      </pick>
      <pick publicID="smi:local/a68abd8b-60ff-4f51-99d9-a35d8ec4cbf4">
        <time>
          <value>2012-10-03T03:38:12.940000Z</value>
        </time>
        <waveformID networkCode="NC" stationCode="MLI" locationCode="" channelCode="HHZ"></waveformID>
        <phaseHint>P</phaseHint>
      </pick>
      <pick publicID="smi:local/b8b4627c-e559-46ec-827f-9a546daf086e">
        <time>
          <value>2012-10-03T03:38:13.180000Z</value>
        </time>
        <waveformID networkCode="NC" stationCode="MLK" locationCode="" channelCode="EHZ"></waveformID>
        <phaseHint>P</phaseHint>
      </pick>
      <pick publicID="smi:local/626e37b0-bd06-4ce5-a7fc-5e9d1bda99df">
        <time>
          <value>2012-10-03T03:38:13.060000Z</value>
        </time>
        <waveformID networkCode="NC" stationCode="MMLB" locationCode="" channelCode="HHZ"></waveformID>
        <phaseHint>P</phaseHint>
      </pick>
      <pick publicID="smi:local/34f12de9-9a49-4a28-beea-491b085d24c4">
        <time>
          <value>2012-10-03T03:38:13.280000Z</value>
        </time>
        <waveformID networkCode="NC" stationCode="MMP" locationCode="" channelCode="EHZ"></waveformID>
        <phaseHint>P</phaseHint>
      </pick>
      <pick publicID="smi:local/6366ca02-42f7-4b8b-9a16-a96bb65853e9">
        <time>
          <value>2012-10-03T03:38:13.010000Z</value>
        </time>
        <waveformID networkCode="NC" stationCode="MMS" locationCode="" channelCode="EHZ"></waveformID>
        <phaseHint>P</phaseHint>
      </pick>
      <pick publicID="smi:local/4e6e3ed2-66a8-4f61-9d08-d7545d5553d0">
        <time>
          <value>2012-10-03T03:38:13.120000Z</value>
        </time>
        <waveformID networkCode="NC" stationCode="MQ1P" locationCode="" channelCode="EHZ"></waveformID>
        <phaseHint>P</phaseHint>
      </pick>
      <pick publicID="smi:local/9a0e4f9b-d552-449d-bf9e-8da8519785eb">
        <time>
          <value>2012-10-03T03:38:13.540000Z</value>
        </time>
        <waveformID networkCode="NC" stationCode="MRD" locationCode="" channelCode="EHZ"></waveformID>
        <phaseHint>P</phaseHint>
      </pick>
      <pick publicID="smi:local/b1638275-5171-4676-b964-93da9b31ccce">
        <time>
          <value>2012-10-03T03:38:13.650000Z</value>
        </time>
        <waveformID networkCode="8E" stationCode="MB01" locationCode="" channelCode="HHZ"></waveformID>
        <phaseHint>P</phaseHint>
      </pick>
      <pick publicID="smi:local/7783e89e-7637-4b37-a0ab-9e5ebafbd92e">
        <time>
          <value>2012-10-03T03:38:13.000000Z</value>
        </time>
        <waveformID networkCode="8E" stationCode="MB02" locationCode="" channelCode="HHZ"></waveformID>
        <phaseHint>P</phaseHint>
      </pick>
      <pick publicID="smi:local/6da2ce98-4f71-4382-8d52-c55a4f6cde09">
        <time>
          <value>2012-10-03T03:38:12.720000Z</value>
        </time>
        <waveformID networkCode="8E" stationCode="MB03" locationCode="" channelCode="HHZ"></waveformID>
        <phaseHint>P</phaseHint>
      </pick>
      <pick publicID="smi:local/23fd4ea3-3f05-43a7-a32b-996651abca29">
        <time>
          <value>2012-10-03T03:38:13.160000Z</value>
        </time>
        <waveformID networkCode="8E" stationCode="MB05" locationCode="" channelCode="HHZ"></waveformID>
        <phaseHint>P</phaseHint>
      </pick>
      <pick publicID="smi:local/f4ba5a47-d1d6-4dba-ac0d-6c74ff2014dd">
        <time>
          <value>2012-10-03T03:38:13.180000Z</value>
        </time>
        <waveformID networkCode="8E" stationCode="MB06" locationCode="" channelCode="HHZ"></waveformID>
        <phaseHint>P</phaseHint>
      </pick>
      <pick publicID="smi:local/6d42734e-2a58-40a8-8019-977af456b60a">
        <time>
          <value>2012-10-03T03:38:12.970000Z</value>
        </time>
        <waveformID networkCode="8E" stationCode="MB07" locationCode="" channelCode="HHZ"></waveformID>
        <phaseHint>P</phaseHint>
      </pick>
      <pick publicID="smi:local/99601c09-7385-4a49-a0f9-9a76ac639c43">
        <time>
          <value>2012-10-03T03:38:12.680000Z</value>
        </time>
        <waveformID networkCode="8E" stationCode="MB08" locationCode="" channelCode="HHZ"></waveformID>
        <phaseHint>P</phaseHint>
      </pick>
      <pick publicID="smi:local/b2d6990f-1c79-4d27-b3a3-04f5c1d03db2">
        <time>
          <value>2012-10-03T03:38:12.950000Z</value>
        </time>
        <waveformID networkCode="8E" stationCode="MB09" locationCode="" channelCode="HHZ"></waveformID>
        <phaseHint>P</phaseHint>
      </pick>
      <pick publicID="smi:local/9ee201b8-745f-4ffb-92fa-cf2598dc7934">
        <time>
          <value>2012-10-03T03:38:12.550000Z</value>
        </time>
        <waveformID networkCode="8E" stationCode="MB10" locationCode="" channelCode="HHZ"></waveformID>
        <phaseHint>P</phaseHint>
      </pick>
      <pick publicID="smi:local/87583c22-0197-4109-8e30-f34e115b252a">
        <time>
          <value>2012-10-03T03:38:13.310000Z</value>
        </time>
        <waveformID networkCode="8E" stationCode="MB11" locationCode="" channelCode="HHZ"></waveformID>
        <phaseHint>P</phaseHint>
      </pick>
    </event>
    <event publicID="smi:local/4827974b-2bce-4d34-ae38-b184f914945c">
      <origin publicID="smi:local/fb00d86e-92e2-4fb7-bfd0-caf4e26a8a6f">
        <time>
          <value>2012-10-01T06:15:46.025000Z</value>
        </time>
        <latitude>
          <value>37.6343</value>
        </latitude>
        <longitude>
          <value>-119.0358</value>
        </longitude>
        <depth>
          <value>890.0</value>
        </depth>
        <comment id="smi:local/998aefec-8bd5-4383-9de9-d39817516bf4">
          <text>CLUSTER 1 CORE EVENT; IN PEC, DT = 3.98</text>
        </comment>
        <arrival publicID="smi:local/fa1ea655-95a0-4d4e-9867-5dee1cb4f783">
          <pickID>smi:local/18c6db6f-7fad-4b48-b0f3-a8d374365819</pickID>
          <phase>P</phase>
          <timeWeight>1.0</timeWeight>
        </arrival>
        <arrival publicID="smi:local/a9770054-7fa0-46dd-9560-d85a40bb90ca">
          <pickID>smi:local/bdc7a8d2-8880-47da-bc64-e4300b8fdf94</pickID>
          <phase>P</phase>
          <timeWeight>0.5</timeWeight>
        </arrival>
        <arrival publicID="smi:local/dd6275c0-da76-4c85-93b4-b6112f482477">
