<?xml version='1.0' encoding='utf-8'?>
<q:quakeml xmlns="http://quakeml.org/xmlns/bed/1.2" xmlns:q="http://quakeml.org/xmlns/quakeml/1.2">
  <eventParameters publicID="smi:local/c2a3a429-1a32-4199-9ff0-0ab94171806e">
    <event publicID="smi:local/135993f1-3486-4b89-ac07-a9c31de1b09b">
      <origin publicID="smi:local/becf7dc4-0cf0-4773-94c7-c4e8be4e075b">
        <time>
          <value>2012-10-01T00:29:59.425000Z</value>
        </time>
        <latitude>
          <value>37.654</value>
        </latitude>
        <longitude>
          <value>-119.0197</value>
        </longitude>
        <depth>
          <value>140.0</value>
        </depth>
        <comment id="smi:local/42a7dc18-af0c-432b-bcf1-9b1cf3ce760f">
          <text>CLUSTER 0 EVENT; IN PEC, DT = 0.07</text>
        </comment>
        <arrival publicID="smi:local/9e46aa4e-849d-4a88-8e54-4ac0f80bcc02">
          <pickID>smi:local/8e6b5102-05aa-4d75-b649-36013c7327e5</pickID>
          <phase>P</phase>
          <timeWeight>1.0</timeWeight>
        </arrival>
        <arrival publicID="smi:local/8a14ed06-0333-4450-93cc-92976af80ce4">
          <pickID>smi:local/8cc225db-5cb2-4a11-8728-710fe756e112</pickID>
          <phase>P</phase>
          <timeWeight>1.0</timeWeight>
        </arrival>
        <arrival publicID="smi:local/574e0540-89cd-4e47-af32-63c5d9077b20">
          <pickID>smi:local/cb07c1f5-f3e7-4801-8d89-9e98455af0e5</pickID>
          <phase>P</phase>
          <timeWeight>1.0</timeWeight>
        </arrival>
        <arrival publicID="smi:local/71ea032d-62b6-43ba-9186-5a0cce33b975">
          <pickID>smi:local/6cc41b3d-a9f4-45cc-b183-a50f624d1c58</pickID>
          <phase>P</phase>
          <timeWeight>1.0</timeWeight>
        </arrival>
        <arrival publicID="smi:local/c6d2548f-e47b-4e85-b8f3-8bd1f3756bf0">
          <pickID>smi:local/30a46ce4-a040-4f00-9a63-e1718529eb31</pickID>
          <phase>P</phase>
          <timeWeight>1.0</timeWeight>
        </arrival>
        <arrival publicID="smi:local/8e61eddc-4546-42f1-9a23-fac1d0935bef">
          <pickID>smi:local/67852f82-04c7-46f8-aefd-a1ebfd511b37</pickID>
          <phase>S</phase>
          <timeWeight>1.0</timeWeight>
        </arrival>
        <arrival publicID="smi:local/654c3b19-4172-4af6-a6c0-03336f131ce6">
          <pickID>smi:local/b6f3a66d-5f3f-4958-9c25-6d82ddc42c29</pickID>
          <phase>P</phase>
          <timeWeight>1.0</timeWeight>
        </arrival>
        <arrival publicID="smi:local/d86ff459-c3f5-46fd-acda-9687e984eb5b">
          <pickID>smi:local/a465c95b-6022-4295-9578-1ee649c1e417</pickID>
          <phase>P</phase>
          <timeWeight>1.0</timeWeight>
        </arrival>
        <arrival publicID="smi:local/bbf84c6f-bd28-4a63-80c1-dd64f8c4e413">
          <pickID>smi:local/2ae1dce8-5420-4750-83c9-04a9f69bad16</pickID>
          <phase>S</phase>
          <timeWeight>1.0</timeWeight>
        </arrival>
        <arrival publicID="smi:local/0daf7174-a438-436b-a191-df430d1515e7">
          <pickID>smi:local/a24c02fc-1ff4-4ae8-a85d-b818aa8edd63</pickID>
          <phase>P</phase>
          <timeWeight>1.0</timeWeight>
        </arrival>
        <arrival publicID="smi:local/3da7d3bc-33a7-465f-9c00-5b71aab36141">
          <pickID>smi:local/651f27ec-6468-44f7-807b-85cbda6d3de0</pickID>
          <phase>P</phase>
          <timeWeight>1.0</timeWeight>
        </arrival>
        <arrival publicID="smi:local/705a11dd-e30a-4d4b-817c-2b014011a05c">
          <pickID>smi:local/0f432fd1-08e0-48b6-bcca-f8cec396366b</pickID>
          <phase>P</phase>
          <timeWeight>1.0</timeWeight>
        </arrival>
        <arrival publicID="smi:local/b0cfd39b-1ca0-495c-83df-033673434716">
          <pickID>smi:local/7f01260c-0aa3-4950-8604-bec4a03f550f</pickID>
          <phase>P</phase>
          <timeWeight>0.5</timeWeight>
        </arrival>
        <arrival publicID="smi:local/0cc3e051-eb06-49e2-a211-20164aad94f0">
          <pickID>smi:local/74d68151-9fd4-4628-b070-5afcff931949</pickID>
          <phase>P</phase>
          <timeWeight>1.0</timeWeight>
        </arrival>
        <arrival publicID="smi:local/46e6bbfa-4418-4c04-aaa0-067e32e0507c">
          <pickID>smi:local/296121c6-ae64-4f90-8a64-7ed9a0813879</pickID>
          <phase>P</phase>
          <timeWeight>1.0</timeWeight>
        </arrival>
        <arrival publicID="smi:local/17003559-79db-43f9-8ed4-e1da47abf6af">
          <pickID>smi:local/f3481e92-75a4-4452-8ef5-22c64c85e5a4</pickID>
          <phase>P</phase>
          <timeWeight>0.5</timeWeight>
        </arrival>
        <arrival publicID="smi:local/c2f5ab2b-f4a9-456f-99d8-16968f3deb7f">
          <pickID>smi:local/e585aba3-7ddf-44fe-aecf-c2a84ba376e2</pickID>
          <phase>S</phase>
          <timeWeight>0.5</timeWeight>
        </arrival>
        <arrival publicID="smi:local/a0b78eab-25f1-42dc-9b96-7f3b70c73053">
          <pickID>smi:local/8de25eb6-7a43-467f-8a78-5839c17e33fc</pickID>
          <phase>P</phase>
          <timeWeight>1.0</timeWeight>
        </arrival>
        <arrival publicID="smi:local/f79f6cc0-a58f-44d8-9bc3-c33f66144d5a">
          <pickID>smi:local/f6762666-ccf5-421c-bfba-9b117c02229f</pickID>
          <phase>P</phase>
          <timeWeight>0.5</timeWeight>
        </arrival>
        <arrival publicID="smi:local/fa65d684-f63a-47ea-a6bd-531dde9130ad">
          <pickID>smi:local/66590cfa-7e4f-474c-b661-c14a6e696591</pickID>
          <phase>P</phase>
          <timeWeight>1.0</timeWeight>
        </arrival>
        <arrival publicID="smi:local/9568850f-6d69-41d1-adf4-609960d79156">
          <pickID>smi:local/fb0c497e-6b9a-425e-911b-0f9641b5e76b</pickID>
          <phase>P</phase>
          <timeWeight>1.0</timeWeight>
        </arrival>
        <arrival publicID="smi:local/da8e396a-a96a-48e4-b388-966fb9d710e9">
          <pickID>smi:local/de7544fd-8953-4f3b-8228-7cf885867a21</pickID>
          <phase>P</phase>
          <timeWeight>1.0</timeWeight>
        </arrival>
        <arrival publicID="smi:local/a522d7ad-42c6-494e-a837-3a293f818436">
          <pickID>smi:local/9adb52ab-9000-4eeb-9e42-4e1a028658a5</pickID>
          <phase>P</phase>
          <timeWeight>0.2</timeWeight>
        </arrival>
        <arrival publicID="smi:local/e354f140-0b43-4d03-9fe7-94be880ecab4">
          <pickID>smi:local/22364ca1-665f-42ba-9911-1c080aa1fe73</pickID>
          <phase>P</phase>
          <timeWeight>0.5</timeWeight>
        </arrival>
        <arrival publicID="smi:local/51ff6d6b-c846-4cb2-b44b-0c6ee454834d">
          <pickID>smi:local/9c5870dd-b6f9-4412-99ac-19dbd74ea79c</pickID>
          <phase>P</phase>
          <timeWeight>1.0</timeWeight>
        </arrival>
        <arrival publicID="smi:local/eba19b73-5f6b-428a-afea-3a26a5564dd5">
          <pickID>smi:local/9be6a584-2ac4-4717-8a6a-0794ec99dc6e</pickID>
          <phase>P</phase>
          <timeWeight>0.2</timeWeight>
        </arrival>
        <arrival publicID="smi:local/974d12c9-be0a-407e-bc0b-d0b9940a516d">
          <pickID>smi:local/5793dfff-b7c6-40f2-bf39-393e98d5fd9f</pickID>
          <phase>P</phase>
          <timeWeight>1.0</timeWeight>
        </arrival>
        <arrival publicID="smi:local/94c269e4-f6b8-4237-a10b-0e72eae99b74">
          <pickID>smi:local/45144e63-d3d6-4cef-86a4-03de660ab0a5</pickID>
          <phase>P</phase>
          <timeWeight>1.0</timeWeight>
        </arrival>
        <arrival publicID="smi:local/9c2ffd29-0458-426e-bbba-2e6516c9a5c4">
          <pickID>smi:local/35cbeee3-11ac-4bac-8751-873411783a88</pickID>
          <phase>P</phase>
          <timeWeight>0.5</timeWeight>
        </arrival>
      </origin>
      <magnitude publicID="smi:local/magnitude/71850365">
        <mag>
          <value>1.34</value>
        </mag>
      </magnitude>
      <pick publicID="smi:local/8e6b5102-05aa-4d75-b649-36013c7327e5">
        <time>
          <value>2012-10-01T00:30:02.980000Z</value>
        </time>
        <waveformID networkCode="CI" stationCode="MLAC" locationCode="" channelCode="HHZ"></waveformID>
        <phaseHint>P</phaseHint>
      </pick>
      <pick publicID="smi:local/8cc225db-5cb2-4a11-8728-710fe756e112">
        <time>
          <value>2012-10-01T00:30:02.000000Z</value>
        </time>
        <waveformID networkCode="NC" stationCode="MCB" locationCode="" channelCode="HHZ"></waveformID>
        <phaseHint>P</phaseHint>
      </pick>
      <pick publicID="smi:local/cb07c1f5-f3e7-4801-8d89-9e98455af0e5">
        <time>
          <value>2012-10-01T00:30:02.300000Z</value>
        </time>
        <waveformID networkCode="NC" stationCode="MCM" locationCode="" channelCode="EHZ"></waveformID>
        <phaseHint>P</phaseHint>
      </pick>
      <pick publicID="smi:local/6cc41b3d-a9f4-45cc-b183-a50f624d1c58">
        <time>
          <value>2012-10-01T00:30:01.830000Z</value>
        </time>
        <waveformID networkCode="NC" stationCode="MCS" locationCode="" channelCode="EHZ"></waveformID>
        <phaseHint>P</phaseHint>
      </pick>
      <pick publicID="smi:local/30a46ce4-a040-4f00-9a63-e1718529eb31">
        <time>
          <value>2012-10-01T00:30:03.020000Z</value>
        </time>
        <waveformID networkCode="NC" stationCode="MCV" locationCode="" channelCode="EHZ"></waveformID>
        <phaseHint>P</phaseHint>
      </pick>
      <pick publicID="smi:local/67852f82-04c7-46f8-aefd-a1ebfd511b37">
        <time>
          <value>2012-10-01T00:30:00.810000Z</value>
        </time>
        <waveformID networkCode="NC" stationCode="MCY" locationCode="" channelCode="EHN"></waveformID>
        <phaseHint>S</phaseHint>
      </pick>
      <pick publicID="smi:local/b6f3a66d-5f3f-4958-9c25-6d82ddc42c29">
        <time>
          <value>2012-10-01T00:30:00.310000Z</value>
        </time>
        <waveformID networkCode="NC" stationCode="MCY" locationCode="" channelCode="EHZ"></waveformID>
        <phaseHint>P</phaseHint>
      </pick>
      <pick publicID="smi:local/a465c95b-6022-4295-9578-1ee649c1e417">
        <time>
          <value>2012-10-01T00:30:00.960000Z</value>
        </time>
        <waveformID networkCode="NC" stationCode="MDC" locationCode="" channelCode="EHZ"></waveformID>
        <phaseHint>P</phaseHint>
      </pick>
      <pick publicID="smi:local/2ae1dce8-5420-4750-83c9-04a9f69bad16">
        <time>
          <value>2012-10-01T00:30:02.650000Z</value>
        </time>
        <waveformID networkCode="NC" stationCode="MDH1" locationCode="" channelCode="DP1"></waveformID>
        <phaseHint>S</phaseHint>
      </pick>
      <pick publicID="smi:local/a24c02fc-1ff4-4ae8-a85d-b818aa8edd63">
        <time>
          <value>2012-10-01T00:30:03.020000Z</value>
        </time>
        <waveformID networkCode="NC" stationCode="MDR" locationCode="" channelCode="EHZ"></waveformID>
        <phaseHint>P</phaseHint>
      </pick>
      <pick publicID="smi:local/651f27ec-6468-44f7-807b-85cbda6d3de0">
        <time>
          <value>2012-10-01T00:30:00.280000Z</value>
        </time>
        <waveformID networkCode="NC" stationCode="MDY" locationCode="" channelCode="HHZ"></waveformID>
        <phaseHint>P</phaseHint>
      </pick>
      <pick publicID="smi:local/0f432fd1-08e0-48b6-bcca-f8cec396366b">
        <time>
          <value>2012-10-01T00:30:01.280000Z</value>
        </time>
        <waveformID networkCode="NC" stationCode="MEM" locationCode="" channelCode="EHZ"></waveformID>
        <phaseHint>P</phaseHint>
      </pick>
      <pick publicID="smi:local/7f01260c-0aa3-4950-8604-bec4a03f550f">
        <time>
          <value>2012-10-01T00:30:01.990000Z</value>
        </time>
        <waveformID networkCode="NC" stationCode="MGPB" locationCode="" channelCode="EHZ"></waveformID>
        <phaseHint>P</phaseHint>
      </pick>
      <pick publicID="smi:local/74d68151-9fd4-4628-b070-5afcff931949">
        <time>
          <value>2012-10-01T00:30:00.520000Z</value>
        </time>
        <waveformID networkCode="NC" stationCode="MINS" locationCode="" channelCode="HHZ"></waveformID>
        <phaseHint>P</phaseHint>
      </pick>
      <pick publicID="smi:local/296121c6-ae64-4f90-8a64-7ed9a0813879">
        <time>
          <value>2012-10-01T00:30:01.690000Z</value>
        </time>
        <waveformID networkCode="NC" stationCode="MLC" locationCode="" channelCode="EHZ"></waveformID>
        <phaseHint>P</phaseHint>
      </pick>
      <pick publicID="smi:local/f3481e92-75a4-4452-8ef5-22c64c85e5a4">
        <time>
          <value>2012-10-01T00:30:03.390000Z</value>
        </time>
        <waveformID networkCode="NC" stationCode="MLH" locationCode="" channelCode="EHZ"></waveformID>
        <phaseHint>P</phaseHint>
      </pick>
      <pick publicID="smi:local/e585aba3-7ddf-44fe-aecf-c2a84ba376e2">
        <time>
          <value>2012-10-01T00:30:01.150000Z</value>
        </time>
        <waveformID networkCode="NC" stationCode="MLI" locationCode="" channelCode="HHE"></waveformID>
        <phaseHint>S</phaseHint>
      </pick>
      <pick publicID="smi:local/8de25eb6-7a43-467f-8a78-5839c17e33fc">
        <time>
          <value>2012-10-01T00:30:00.490000Z</value>
        </time>
        <waveformID networkCode="NC" stationCode="MLI" locationCode="" channelCode="HHZ"></waveformID>
        <phaseHint>P</phaseHint>
      </pick>
      <pick publicID="smi:local/f6762666-ccf5-421c-bfba-9b117c02229f">
        <time>
          <value>2012-10-01T00:30:00.780000Z</value>
        </time>
        <waveformID networkCode="NC" stationCode="MLK" locationCode="" channelCode="EHZ"></waveformID>
        <phaseHint>P</phaseHint>
      </pick>
      <pick publicID="smi:local/66590cfa-7e4f-474c-b661-c14a6e696591">
        <time>
          <value>2012-10-01T00:30:00.680000Z</value>
        </time>
        <waveformID networkCode="NC" stationCode="MMLB" locationCode="" channelCode="HHZ"></waveformID>
        <phaseHint>P</phaseHint>
      </pick>
      <pick publicID="smi:local/fb0c497e-6b9a-425e-911b-0f9641b5e76b">
        <time>
          <value>2012-10-01T00:30:00.760000Z</value>
        </time>
        <waveformID networkCode="NC" stationCode="MMP" locationCode="" channelCode="EHZ"></waveformID>
        <phaseHint>P</phaseHint>
      </pick>
      <pick publicID="smi:local/de7544fd-8953-4f3b-8228-7cf885867a21">
        <time>
          <value>2012-10-01T00:30:00.590000Z</value>
        </time>
        <waveformID networkCode="NC" stationCode="MMS" locationCode="" channelCode="EHZ"></waveformID>
        <phaseHint>P</phaseHint>
      </pick>
      <pick publicID="smi:local/9adb52ab-9000-4eeb-9e42-4e1a028658a5">
        <time>
          <value>2012-10-01T00:30:05.700000Z</value>
        </time>
        <waveformID networkCode="NC" stationCode="MMT" locationCode="" channelCode="EHZ"></waveformID>
        <phaseHint>P</phaseHint>
      </pick>
      <pick publicID="smi:local/22364ca1-665f-42ba-9911-1c080aa1fe73">
        <time>
          <value>2012-10-01T00:30:00.720000Z</value>
        </time>
        <waveformID networkCode="NC" stationCode="MQ1P" locationCode="" channelCode="EHZ"></waveformID>
        <phaseHint>P</phaseHint>
      </pick>
      <pick publicID="smi:local/9c5870dd-b6f9-4412-99ac-19dbd74ea79c">
        <time>
          <value>2012-10-01T00:30:01.150000Z</value>
        </time>
        <waveformID networkCode="NC" stationCode="MRD" locationCode="" channelCode="EHZ"></waveformID>
        <phaseHint>P</phaseHint>
      </pick>
      <pick publicID="smi:local/9be6a584-2ac4-4717-8a6a-0794ec99dc6e">
        <time>
          <value>2012-10-01T00:30:06.810000Z</value>
        </time>
        <waveformID networkCode="NN" stationCode="BEN" locationCode="" channelCode="EHZ"></waveformID>
        <phaseHint>P</phaseHint>
      </pick>
      <pick publicID="smi:local/5793dfff-b7c6-40f2-bf39-393e98d5fd9f">
        <time>
          <value>2012-10-01T00:30:05.600000Z</value>
        </time>
        <waveformID networkCode="NN" stationCode="ORC" locationCode="" channelCode="EHZ"></waveformID>
        <phaseHint>P</phaseHint>
      </pick>
      <pick publicID="smi:local/45144e63-d3d6-4cef-86a4-03de660ab0a5">
        <time>
          <value>2012-10-01T00:30:05.330000Z</value>
        </time>
        <waveformID networkCode="NN" stationCode="RCC" locationCode="" channelCode="EHZ"></waveformID>
        <phaseHint>P</phaseHint>
      </pick>
      <pick publicID="smi:local/35cbeee3-11ac-4bac-8751-873411783a88">
        <time>
          <value>2012-10-01T00:30:07.300000Z</value>
        </time>
        <waveformID networkCode="NN" stationCode="SCH" locationCode="" channelCode="EHZ"></waveformID>
        <phaseHint>P</phaseHint>
      </pick>
    </event>
    <event publicID="smi:local/dc072efd-0f44-49fb-8710-ba7d656b8e82">
      <origin publicID="smi:local/83b242c4-0eba-402f-b79a-5cacd9afa0b1">
        <time>
          <value>2012-10-01T00:49:16.205000Z</value>
        </time>
        <latitude>
          <value>37.6543</value>
        </latitude>
        <longitude>
          <value>-119.0203</value>
        </longitude>
        <depth>
          <value>580.0</value>
        </depth>
        <comment id="smi:local/b8fb5375-fd7d-4b35-ad3e-bd9b24f263b0">
          <text>CLUSTER 0 EVENT; IN PEC, DT = 0.04</text>
        </comment>
        <arrival publicID="smi:local/22948473-e717-4fbb-8b6c-56e3cabf60b9">
          <pickID>smi:local/731f0073-f72f-4416-a228-7aa4ae65adec</pickID>
          <phase>P</phase>
          <timeWeight>0.2</timeWeight>
        </arrival>
        <arrival publicID="smi:local/571f1ec3-8d94-4a90-8b17-fe7baeb7af27">
          <pickID>smi:local/85cd66b4-23bd-4bda-9d71-be2fbdd16420</pickID>
          <phase>S</phase>
          <timeWeight>0.5</timeWeight>
        </arrival>
        <arrival publicID="smi:local/c5cc828f-59f9-40dd-bad2-81d5b0df1028">
          <pickID>smi:local/877b9c64-a835-4cc4-a149-5795f80667d0</pickID>
          <phase>P</phase>
          <timeWeight>1.0</timeWeight>
        </arrival>
        <arrival publicID="smi:local/a504a3ab-589d-4cc4-a357-4a8a5a23f91a">
          <pickID>smi:local/35fb6ff9-b9c0-472a-a21f-9c573e3ba127</pickID>
          <phase>P</phase>
          <timeWeight>0.2</timeWeight>
        </arrival>
        <arrival publicID="smi:local/d362819d-8ff1-4943-a03f-90dffe563513">
          <pickID>smi:local/57e597df-1adc-4677-8acd-5517c70d6d96</pickID>
          <phase>S</phase>
          <timeWeight>-1.0</timeWeight>
        </arrival>
        <arrival publicID="smi:local/cb02d91f-0504-4cc7-9906-d82ef1aefddb">
          <pickID>smi:local/93e3e94f-62e6-48ec-a05b-4ab347c561f4</pickID>
          <phase>P</phase>
          <timeWeight>1.0</timeWeight>
        </arrival>
        <arrival publicID="smi:local/905178ca-7c27-4b46-9f4d-25bbebb58e02">
          <pickID>smi:local/37bbeab0-fd9d-4b76-a289-d10d17b48da1</pickID>
          <phase>P</phase>
          <timeWeight>0.2</timeWeight>
        </arrival>
        <arrival publicID="smi:local/f43a8038-713b-4c32-b983-b7ff290e4654">
          <pickID>smi:local/10e12780-b0d3-4e48-8a0e-b9c0934ec838</pickID>
          <phase>P</phase>
          <timeWeight>1.0</timeWeight>
        </arrival>
        <arrival publicID="smi:local/55c983ce-2881-45ac-9c84-8d33ca8f71dd">
          <pickID>smi:local/653c88d0-9fdc-4011-80ad-39d289ab0dad</pickID>
          <phase>P</phase>
          <timeWeight>0.2</timeWeight>
        </arrival>
        <arrival publicID="smi:local/c1f6235f-3c85-40e1-ba60-6555a800662b">
          <pickID>smi:local/b1efdf60-857e-4cf6-8dcf-d069b47d6bb0</pickID>
          <phase>P</phase>
          <timeWeight>-1.0</timeWeight>
        </arrival>
        <arrival publicID="smi:local/f183c903-57ca-4df0-ab73-e0f129019dc5">
          <pickID>smi:local/cc1b93ec-b7e7-4c5f-a640-2f2b5e0cff23</pickID>
          <phase>P</phase>
          <timeWeight>0.5</timeWeight>
        </arrival>
        <arrival publicID="smi:local/49cd8b95-0ba2-4fe1-9247-a448b90a0929">
          <pickID>smi:local/710ecb93-e5a4-458f-b2c8-f64537bf1265</pickID>
          <phase>P</phase>
