<?xml version='1.0' encoding='utf-8'?>
<q:quakeml xmlns="http://quakeml.org/xmlns/bed/1.2" xmlns:q="http://quakeml.org/xmlns/quakeml/1.2">
  <eventParameters publicID="smi:local/e43d6499-8b10-4fdf-b148-6a32bd541c7e">
    <event publicID="smi:local/event/71065539">
      <preferredOriginID>smi:local/origin/71065539</preferredOriginID>
      <preferredMagnitudeID>smi:local/magnitude/71065539</preferredMagnitudeID>
      <origin publicID="smi:local/origin/71065539">
        <time>
          <value>2012-10-01T03:19:56.280000Z</value>
        </time>
        <latitude>
          <value>37.6542</value>
        </latitude>
        <longitude>
          <value>-119.0232</value>
        </longitude>
        <depth>
          <value>370.0</value>
        </depth>
        <quality>
          <standardError>0.05</standardError>
        </quality>
        <arrival publicID="smi:local/bf7cffa5-e682-49d3-975c-c048612c8d6c">
          <pickID>smi:local/ad861a2d-c722-4593-878b-5815d6668347</pickID>
          <phase>S</phase>
          <timeWeight>0.5</timeWeight>
        </arrival>
        <arrival publicID="smi:local/a1e7e630-57d3-4e29-93e7-a4e626e0c175">
          <pickID>smi:local/24a37faa-caa5-4e9d-95fe-621a623b86a7</pickID>
          <phase>P</phase>
          <timeWeight>0.5</timeWeight>
        </arrival>
        <arrival publicID="smi:local/24b0e06c-4420-4c59-a4af-48d28ef6e7dc">
          <pickID>smi:local/ec991963-2ab9-4648-8734-1e6a38d87533</pickID>
          <phase>P</phase>
          <timeWeight>0.5</timeWeight>
        </arrival>
        <arrival publicID="smi:local/ed9ed7fd-8b94-41f5-ace7-58974d542966">
          <pickID>smi:local/0dcc2f98-f3ae-40f6-aefc-e27b260f124b</pickID>
          <phase>S</phase>
          <timeWeight>-1.0</timeWeight>
        </arrival>
        <arrival publicID="smi:local/5f9c2cce-797f-4dab-8cd1-dd9d558f4e10">
          <pickID>smi:local/f570f470-6ab1-4536-8cf9-b163a2b37493</pickID>
          <phase>S</phase>
          <timeWeight>0.5</timeWeight>
        </arrival>
        <arrival publicID="smi:local/a4dad6d4-5e6a-4d94-a373-02af1198d0d8">
          <pickID>smi:local/923628c1-3f9b-49c0-890a-6fcb34bfd3a6</pickID>
          <phase>P</phase>
          <timeWeight>1.0</timeWeight>
        </arrival>
        <arrival publicID="smi:local/43e3bcab-e921-4c7c-8c5d-18ffb65c38c8">
          <pickID>smi:local/6b4ac1ce-713e-4b59-a528-ed66638a1b56</pickID>
          <phase>P</phase>
          <timeWeight>0.5</timeWeight>
        </arrival>
        <arrival publicID="smi:local/c86d8ab1-56dc-4ff7-9031-01a5b42bddd9">
          <pickID>smi:local/2b3ad055-5870-459b-bdbb-c98269b5e349</pickID>
          <phase>P</phase>
          <timeWeight>1.0</timeWeight>
        </arrival>
        <arrival publicID="smi:local/9af9a766-da73-40a3-ac15-388dcc4ccd5b">
          <pickID>smi:local/e1b2ce1f-a454-4d05-a04f-b3ab39f0ff6c</pickID>
          <phase>P</phase>
          <timeWeight>0.2</timeWeight>
        </arrival>
        <arrival publicID="smi:local/839a4f82-58fd-425e-ad6c-07a6bd956167">
          <pickID>smi:local/95fb3793-13ff-401f-83fa-b4a9d3e01563</pickID>
          <phase>P</phase>
          <timeWeight>-1.0</timeWeight>
        </arrival>
        <arrival publicID="smi:local/9d5ad875-b982-4671-b1b4-c18b5850c88a">
          <pickID>smi:local/98368580-2dad-4c9a-b6d7-901b8af939f6</pickID>
          <phase>P</phase>
          <timeWeight>0.2</timeWeight>
        </arrival>
        <arrival publicID="smi:local/0aa9191b-d7b2-49aa-a485-01670203de6f">
          <pickID>smi:local/3bb76f08-589a-45a3-9226-921fe660ebcf</pickID>
          <phase>P</phase>
          <timeWeight>0.2</timeWeight>
        </arrival>
        <arrival publicID="smi:local/51d85117-22e5-459d-9047-2cca4a5b7fa3">
          <pickID>smi:local/bfeee20c-6dec-4ef7-b04a-9db9a88fd52d</pickID>
          <phase>P</phase>
          <timeWeight>0.5</timeWeight>
        </arrival>
        <arrival publicID="smi:local/fd019a5d-668d-4101-be49-e711f23d0f42">
          <pickID>smi:local/9c047511-1293-4a8a-92aa-1576b2621fd3</pickID>
          <phase>P</phase>
          <timeWeight>0.5</timeWeight>
        </arrival>
      </origin>
      <magnitude publicID="smi:local/magnitude/71065539">
        <mag>
          <value>0.27</value>
        </mag>
      </magnitude>
      <pick publicID="smi:local/ad861a2d-c722-4593-878b-5815d6668347">
        <time>
          <value>2012-10-01T03:19:57.640000Z</value>
        </time>
        <waveformID networkCode="NC" stationCode="MCY" locationCode="" channelCode="EHN"></waveformID>
        <phaseHint>S</phaseHint>
      </pick>
      <pick publicID="smi:local/24a37faa-caa5-4e9d-95fe-621a623b86a7">
        <time>
          <value>2012-10-01T03:19:57.130000Z</value>
        </time>
        <waveformID networkCode="NC" stationCode="MCY" locationCode="" channelCode="EHZ"></waveformID>
        <phaseHint>P</phaseHint>
      </pick>
      <pick publicID="smi:local/ec991963-2ab9-4648-8734-1e6a38d87533">
        <time>
          <value>2012-10-01T03:19:57.780000Z</value>
        </time>
        <waveformID networkCode="NC" stationCode="MDC" locationCode="" channelCode="EHZ"></waveformID>
        <phaseHint>P</phaseHint>
      </pick>
      <pick publicID="smi:local/0dcc2f98-f3ae-40f6-aefc-e27b260f124b">
        <time>
          <value>2012-10-01T03:19:58.570000Z</value>
        </time>
        <waveformID networkCode="NC" stationCode="MDP1" locationCode="" channelCode="EP2"></waveformID>
        <phaseHint>S</phaseHint>
      </pick>
      <pick publicID="smi:local/f570f470-6ab1-4536-8cf9-b163a2b37493">
        <time>
          <value>2012-10-01T03:19:57.890000Z</value>
        </time>
        <waveformID networkCode="NC" stationCode="MDY" locationCode="" channelCode="HHN"></waveformID>
        <phaseHint>S</phaseHint>
      </pick>
      <pick publicID="smi:local/923628c1-3f9b-49c0-890a-6fcb34bfd3a6">
        <time>
          <value>2012-10-01T03:19:57.110000Z</value>
        </time>
        <waveformID networkCode="NC" stationCode="MDY" locationCode="" channelCode="HHZ"></waveformID>
        <phaseHint>P</phaseHint>
      </pick>
      <pick publicID="smi:local/6b4ac1ce-713e-4b59-a528-ed66638a1b56">
        <time>
          <value>2012-10-01T03:19:58.090000Z</value>
        </time>
        <waveformID networkCode="NC" stationCode="MEM" locationCode="" channelCode="EHZ"></waveformID>
        <phaseHint>P</phaseHint>
      </pick>
      <pick publicID="smi:local/2b3ad055-5870-459b-bdbb-c98269b5e349">
        <time>
          <value>2012-10-01T03:19:57.350000Z</value>
        </time>
        <waveformID networkCode="NC" stationCode="MINS" locationCode="" channelCode="HHZ"></waveformID>
        <phaseHint>P</phaseHint>
      </pick>
      <pick publicID="smi:local/e1b2ce1f-a454-4d05-a04f-b3ab39f0ff6c">
        <time>
          <value>2012-10-01T03:19:57.350000Z</value>
        </time>
        <waveformID networkCode="NC" stationCode="MLI" locationCode="" channelCode="HHZ"></waveformID>
        <phaseHint>P</phaseHint>
      </pick>
      <pick publicID="smi:local/95fb3793-13ff-401f-83fa-b4a9d3e01563">
        <time>
          <value>2012-10-01T03:19:57.610000Z</value>
        </time>
        <waveformID networkCode="NC" stationCode="MLK" locationCode="" channelCode="EHZ"></waveformID>
        <phaseHint>P</phaseHint>
      </pick>
      <pick publicID="smi:local/98368580-2dad-4c9a-b6d7-901b8af939f6">
        <time>
          <value>2012-10-01T03:19:57.500000Z</value>
        </time>
        <waveformID networkCode="NC" stationCode="MMLB" locationCode="" channelCode="HHZ"></waveformID>
        <phaseHint>P</phaseHint>
      </pick>
      <pick publicID="smi:local/3bb76f08-589a-45a3-9226-921fe660ebcf">
        <time>
          <value>2012-10-01T03:19:57.640000Z</value>
        </time>
        <waveformID networkCode="NC" stationCode="MMP" locationCode="" channelCode="EHZ"></waveformID>
        <phaseHint>P</phaseHint>
      </pick>
      <pick publicID="smi:local/bfeee20c-6dec-4ef7-b04a-9db9a88fd52d">
        <time>
          <value>2012-10-01T03:19:57.430000Z</value>
        </time>
        <waveformID networkCode="NC" stationCode="MMS" locationCode="" channelCode="EHZ"></waveformID>
        <phaseHint>P</phaseHint>
      </pick>
      <pick publicID="smi:local/9c047511-1293-4a8a-92aa-1576b2621fd3">
        <time>
          <value>2012-10-01T03:19:57.980000Z</value>
        </time>
        <waveformID networkCode="NC" stationCode="MRD" locationCode="" channelCode="EHZ"></waveformID>
        <phaseHint>P</phaseHint>
      </pick>
    </event>
    <event publicID="smi:local/event/71850450">
      <preferredOriginID>smi:local/origin/71850450</preferredOriginID>
      <preferredMagnitudeID>smi:local/magnitude/71850450</preferredMagnitudeID>
      <origin publicID="smi:local/origin/71850450">
        <time>
          <value>2012-10-01T03:20:03.920000Z</value>
        </time>
        <latitude>
          <value>37.653</value>
        </latitude>
        <longitude>
          <value>-119.021</value>
        </longitude>
        <depth>
          <value>410.0</value>
        </depth>
        <quality>
          <standardError>0.07</standardError>
        </quality>
        <arrival publicID="smi:local/44e795a8-6b9b-4a57-98d3-46f586697889">
          <pickID>smi:local/cdbb317d-5642-44ef-aa6b-96ad81d14776</pickID>
          <phase>P</phase>
          <timeWeight>0.2</timeWeight>
        </arrival>
        <arrival publicID="smi:local/9b927e1c-0e88-43cb-a245-14d0a94ed39f">
          <pickID>smi:local/a8cfa101-b2e5-47ad-8ce4-95873fbd482e</pickID>
          <phase>P</phase>
          <timeWeight>1.0</timeWeight>
        </arrival>
        <arrival publicID="smi:local/c88ba08a-b5a9-4397-955e-1121986182fd">
          <pickID>smi:local/81668fd0-50c7-4384-86e2-e2d719aa0c2e</pickID>
          <phase>P</phase>
          <timeWeight>1.0</timeWeight>
        </arrival>
        <arrival publicID="smi:local/fb71ddac-40cc-4d99-b117-8acb6b412448">
          <pickID>smi:local/32f035d7-e015-4aa6-b754-4fc93d13e6f9</pickID>
          <phase>P</phase>
          <timeWeight>1.0</timeWeight>
        </arrival>
        <arrival publicID="smi:local/5bb58369-080a-4d1a-ba60-eab2ea68b435">
          <pickID>smi:local/66184604-6ce4-45e2-8a55-e59bf80904fe</pickID>
          <phase>P</phase>
          <timeWeight>1.0</timeWeight>
        </arrival>
        <arrival publicID="smi:local/cb3a8a70-c548-4e74-8637-87878be25a13">
          <pickID>smi:local/75164554-de0e-4c7b-bd9c-f3d906a6e13c</pickID>
          <phase>S</phase>
          <timeWeight>0.5</timeWeight>
        </arrival>
        <arrival publicID="smi:local/98a88632-ee92-440a-8350-8459c87c8768">
          <pickID>smi:local/c383eac9-0a4d-4959-839f-418df61c5300</pickID>
          <phase>P</phase>
          <timeWeight>1.0</timeWeight>
        </arrival>
        <arrival publicID="smi:local/eefb10fa-6952-4813-b6f1-808738de9447">
          <pickID>smi:local/a79af780-22f5-44af-83ac-dd03d1535cc2</pickID>
          <phase>P</phase>
          <timeWeight>0.5</timeWeight>
        </arrival>
        <arrival publicID="smi:local/3c090ffb-ecff-466f-af88-160221f5f312">
          <pickID>smi:local/d6009c8c-85ac-4653-b0a7-d5636e2e8e3c</pickID>
          <phase>S</phase>
          <timeWeight>1.0</timeWeight>
        </arrival>
        <arrival publicID="smi:local/74f5b0c2-10da-4d02-b9d8-53a3eca7e307">
          <pickID>smi:local/ba5a60cc-26f8-4bb8-93c1-92e2baaf4749</pickID>
          <phase>S</phase>
          <timeWeight>1.0</timeWeight>
        </arrival>
        <arrival publicID="smi:local/0a4508a8-35c3-4ea6-9e3d-8269dda51699">
          <pickID>smi:local/cc25f309-1702-4fb8-abe9-a1dc59ca021a</pickID>
          <phase>P</phase>
          <timeWeight>1.0</timeWeight>
        </arrival>
        <arrival publicID="smi:local/b9df9e4d-9016-4983-80b2-9cac445de8ab">
          <pickID>smi:local/0327df7f-cb1c-41b6-8bf2-4c4b04921bf9</pickID>
          <phase>S</phase>
          <timeWeight>0.2</timeWeight>
        </arrival>
        <arrival publicID="smi:local/4896d16b-3da1-44a6-920e-51c80551e52c">
          <pickID>smi:local/a1148b5d-b0fa-4d12-8857-f6781589f9ba</pickID>
          <phase>P</phase>
          <timeWeight>1.0</timeWeight>
        </arrival>
        <arrival publicID="smi:local/57422771-4ec3-4719-944d-0e09b9c1497b">
          <pickID>smi:local/7ec924ab-ddf6-4457-91f5-06c114e4536a</pickID>
          <phase>P</phase>
          <timeWeight>1.0</timeWeight>
        </arrival>
        <arrival publicID="smi:local/b8b6fe60-39ce-45e0-99cf-81b041c6c049">
          <pickID>smi:local/a45cc026-9b25-4b23-bcd4-3f5c5028cc56</pickID>
          <phase>P</phase>
          <timeWeight>1.0</timeWeight>
        </arrival>
        <arrival publicID="smi:local/359b3eb5-21d4-4fb1-bcbf-478b453de367">
          <pickID>smi:local/178e3f5f-bef2-4691-a948-d70dbd3d200f</pickID>
          <phase>P</phase>
          <timeWeight>0.5</timeWeight>
        </arrival>
        <arrival publicID="smi:local/1868b626-7aa3-4ff5-bc18-94088d3d8e57">
          <pickID>smi:local/88afaffb-510b-4a69-85b8-4d75961886c3</pickID>
          <phase>P</phase>
          <timeWeight>1.0</timeWeight>
        </arrival>
        <arrival publicID="smi:local/909ab85c-7141-4417-a818-355432a482ec">
          <pickID>smi:local/b1e8c89b-020e-4bfd-8642-f22649bb4efa</pickID>
          <phase>P</phase>
          <timeWeight>0.5</timeWeight>
        </arrival>
        <arrival publicID="smi:local/48a36fa4-6a06-4995-9d90-751acd6c38b0">
          <pickID>smi:local/8f6a6ed2-e24e-4dcc-8b03-2c6119954171</pickID>
          <phase>S</phase>
          <timeWeight>0.5</timeWeight>
        </arrival>
        <arrival publicID="smi:local/e2ffb374-7809-4a23-95cc-131f94f33801">
          <pickID>smi:local/07f6931f-23dd-437b-ba52-9b35f6fb721f</pickID>
          <phase>P</phase>
          <timeWeight>0.5</timeWeight>
        </arrival>
        <arrival publicID="smi:local/d28b4fff-8ce4-4cbe-94df-cb3ed45b8a1f">
          <pickID>smi:local/c5440c80-4d2d-431b-a037-052f992f8122</pickID>
          <phase>P</phase>
          <timeWeight>1.0</timeWeight>
        </arrival>
        <arrival publicID="smi:local/c47af1e4-5918-4fd1-b10b-dc2f58226df6">
          <pickID>smi:local/ab2c9b39-89c8-4c2d-a5b1-2d59069426e4</pickID>
          <phase>P</phase>
          <timeWeight>1.0</timeWeight>
        </arrival>
        <arrival publicID="smi:local/4ee79ff8-fcea-4756-a6d8-15b6c7086548">
          <pickID>smi:local/696e6c96-9a22-44c7-92bf-065c2c425667</pickID>
          <phase>P</phase>
          <timeWeight>0.5</timeWeight>
        </arrival>
        <arrival publicID="smi:local/fc8c810a-29bb-4ecf-a834-325c0c0c3e50">
          <pickID>smi:local/43460e31-a13e-4c9e-bb0a-2c91e9456ab3</pickID>
          <phase>P</phase>
          <timeWeight>1.0</timeWeight>
        </arrival>
        <arrival publicID="smi:local/ebc2aa7d-8ec0-4eb7-8fd1-45d070f9c2d5">
          <pickID>smi:local/73820084-fd44-4589-8ae1-9ac430723ab3</pickID>
          <phase>P</phase>
          <timeWeight>0.2</timeWeight>
        </arrival>
        <arrival publicID="smi:local/3b0909d6-3041-491a-93fb-ceb17388d0d8">
          <pickID>smi:local/742e156b-f2a3-4fba-af45-177327abceb7</pickID>
          <phase>P</phase>
          <timeWeight>1.0</timeWeight>
        </arrival>
        <arrival publicID="smi:local/80703193-c3ff-4051-adce-ea585bcc0b23">
          <pickID>smi:local/8d05a9bc-5658-4736-ad67-d62d2e28cdc6</pickID>
          <phase>P</phase>
          <timeWeight>0.2</timeWeight>
        </arrival>
        <arrival publicID="smi:local/050617db-d296-4bcf-843a-72f1c458ed6e">
          <pickID>smi:local/c9c721a8-77ad-4488-8f82-4a0fccd43d1f</pickID>
          <phase>P</phase>
          <timeWeight>1.0</timeWeight>
        </arrival>
        <arrival publicID="smi:local/96c7b0a0-9738-4bb1-802a-34b68e65d191">
          <pickID>smi:local/5ea6c627-d8ee-4f50-a22a-23d48ab44d3a</pickID>
          <phase>P</phase>
          <timeWeight>1.0</timeWeight>
        </arrival>
        <arrival publicID="smi:local/2ee0d8f7-259e-4eef-8b37-31bb8e6920f8">
          <pickID>smi:local/5504cb00-cbdf-481b-a957-da4d08eb60e9</pickID>
          <phase>P</phase>
          <timeWeight>0.5</timeWeight>
        </arrival>
      </origin>
      <magnitude publicID="smi:local/magnitude/71850450">
        <mag>
          <value>1.48</value>
        </mag>
      </magnitude>
      <pick publicID="smi:local/cdbb317d-5642-44ef-aa6b-96ad81d14776">
        <time>
          <value>2012-10-01T03:20:07.420000Z</value>
        </time>
        <waveformID networkCode="CI" stationCode="MLAC" locationCode="" channelCode="HHZ"></waveformID>
        <phaseHint>P</phaseHint>
      </pick>
      <pick publicID="smi:local/a8cfa101-b2e5-47ad-8ce4-95873fbd482e">
        <time>
          <value>2012-10-01T03:20:06.450000Z</value>
        </time>
        <waveformID networkCode="NC" stationCode="MCB" locationCode="" channelCode="HHZ"></waveformID>
        <phaseHint>P</phaseHint>
      </pick>
      <pick publicID="smi:local/81668fd0-50c7-4384-86e2-e2d719aa0c2e">
        <time>
          <value>2012-10-01T03:20:06.740000Z</value>
        </time>
        <waveformID networkCode="NC" stationCode="MCM" locationCode="" channelCode="EHZ"></waveformID>
        <phaseHint>P</phaseHint>
      </pick>
      <pick publicID="smi:local/32f035d7-e015-4aa6-b754-4fc93d13e6f9">
        <time>
          <value>2012-10-01T03:20:06.280000Z</value>
        </time>
        <waveformID networkCode="NC" stationCode="MCS" locationCode="" channelCode="EHZ"></waveformID>
        <phaseHint>P</phaseHint>
      </pick>
      <pick publicID="smi:local/66184604-6ce4-45e2-8a55-e59bf80904fe">
        <time>
          <value>2012-10-01T03:20:07.460000Z</value>
        </time>
        <waveformID networkCode="NC" stationCode="MCV" locationCode="" channelCode="EHZ"></waveformID>
        <phaseHint>P</phaseHint>
      </pick>
      <pick publicID="smi:local/75164554-de0e-4c7b-bd9c-f3d906a6e13c">
        <time>
          <value>2012-10-01T03:20:05.260000Z</value>
        </time>
        <waveformID networkCode="NC" stationCode="MCY" locationCode="" channelCode="EHN"></waveformID>
        <phaseHint>S</phaseHint>
      </pick>
      <pick publicID="smi:local/c383eac9-0a4d-4959-839f-418df61c5300">
        <time>
          <value>2012-10-01T03:20:04.750000Z</value>
        </time>
        <waveformID networkCode="NC" stationCode="MCY" locationCode="" channelCode="EHZ"></waveformID>
        <phaseHint>P</phaseHint>
      </pick>
      <pick publicID="smi:local/a79af780-22f5-44af-83ac-dd03d1535cc2">
        <time>
          <value>2012-10-01T03:20:05.390000Z</value>
        </time>
        <waveformID networkCode="NC" stationCode="MDC" locationCode="" channelCode="EHZ"></waveformID>
        <phaseHint>P</phaseHint>
      </pick>
      <pick publicID="smi:local/d6009c8c-85ac-4653-b0a7-d5636e2e8e3c">
        <time>
          <value>2012-10-01T03:20:07.080000Z</value>
        </time>
        <waveformID networkCode="NC" stationCode="MDH1" locationCode="" channelCode="DP1"></waveformID>
        <phaseHint>S</phaseHint>
      </pick>
      <pick publicID="smi:local/ba5a60cc-26f8-4bb8-93c1-92e2baaf4749">
        <time>
          <value>2012-10-01T03:20:06.180000Z</value>
        </time>
        <waveformID networkCode="NC" stationCode="MDP1" locationCode="" channelCode="EP2"></waveformID>
        <phaseHint>S</phaseHint>
      </pick>
      <pick publicID="smi:local/cc25f309-1702-4fb8-abe9-a1dc59ca021a">
        <time>
          <value>2012-10-01T03:20:07.470000Z</value>
        </time>
        <waveformID networkCode="NC" stationCode="MDR" locationCode="" channelCode="EHZ"></waveformID>
        <phaseHint>P</phaseHint>
      </pick>
      <pick publicID="smi:local/0327df7f-cb1c-41b6-8bf2-4c4b04921bf9">
        <time>
          <value>2012-10-01T03:20:05.470000Z</value>
        </time>
