#  2005 12 15  7 22 10.06  59.3608 -153.4312    2.330  0.10 0.00 0.00 0.00        396
AUH 1.216 1.00   P
AUR 1.000 1.00   P
AUP 1.096 1.00   P
AUS 1.006 1.00   P
AUW 1.616 1.00   P
#  2005 12 15 10 14  7.38  59.3585 -153.4273    2.150  0.10 0.00 0.00 0.00        397
AUH 1.210 1.00   P
AUI 2.730 1.00   S
AUI 1.790 1.00   P
AUP 1.070 1.00   P
AUS 1.000 1.00   P
AUW 1.750 1.00   P
#  2005 12 22  4 15 14.98  59.3625 -153.4310    2.090 -0.30 0.00 0.00 0.00        398
AUH 1.120 1.00   P
AUP 1.000 1.00   P
AUW 1.780 1.00   P
#  2005 12  8 21 43  7.70  59.3577 -153.4307    2.940 -0.50 0.00 0.00 0.00        399
AUH 1.101 1.00   P
AUI 1.391 1.00   P
AUP 1.051 1.00   P
AUS 1.000 1.00   P
AUW 1.451 1.00   P
#  2005 12 19 10  2 26.32  59.3597 -153.4318    2.360  0.40 0.00 0.00 0.00        400
AUH 1.180 1.00   P
AUI 1.760 1.00   P
AUL 1.700 1.00   P
AUP 1.000 1.00   P
AUW 1.740 1.00   P
#  2005 12 28 12 35 16.24  59.3583 -153.4308    2.110  0.70 0.00 0.00 0.00        402
AUE 2.040 1.00   P
AUH 1.200 1.00   P
AUI 2.760 1.00   S
AUI 1.740 1.00   P
AUL 2.560 1.00   S
AUP 1.000 1.00   P
AUW 1.810 1.00   P
#  2005 12 15  8 12 36.06  59.3602 -153.4307    2.370  0.00 0.00 0.00 0.00        403
AUH 1.136 1.00   P
AUP 1.016 1.00   P
AUS 1.006 1.00   P
AUW 1.696 1.00   P
#  2005 12 15  8 28 37.56  59.3603 -153.4308    2.360  0.30 0.00 0.00 0.00        405
AUH 1.140 1.00   P
AUP 1.000 1.00   P
AUS 1.030 1.00   P
AUW 1.680 1.00   P
#  2005 12 31 12 34 18.30  59.3590 -153.4315    1.840  0.50 0.00 0.00 0.00        408
AUE 1.930 1.00   P
AUH 1.200 1.00   P
AUI 1.760 1.00   P
AUL 1.700 1.00   P
AUP 1.000 1.00   P
AUW 1.780 1.00   P
#  2005 12 12  1 21 46.30  59.3608 -153.4292    1.860  0.00 0.00 0.00 0.00        414
AUH 1.359 1.00   P
AUP 1.109 1.00   P
AUS 1.000 1.00   P
#  2005 12 13 13  5 23.30  59.3597 -153.4322    2.450  0.10 0.00 0.00 0.00        415
AUH 1.152 1.00   P
AUL 1.672 1.00   P
AUP 1.112 1.00   P
AUS 1.040 1.00   P
#  2005 12 12  1 41  8.82  59.3608 -153.4288    1.880  0.20 0.00 0.00 0.00        416
AUH 1.399 1.00   P
AUP 1.049 1.00   P
AUS 1.000 1.00   P
#  2005 12 11  7 13 14.88  59.3612 -153.4293    2.360  0.20 0.00 0.00 0.00        417
AUH 1.219 1.00   P
AUL 1.559 1.00   P
AUP 1.029 1.00   P
AUS 1.000 1.00   P
AUW 1.799 1.00   P
#  2005 12  8  8 12 56.66  59.3578 -153.4303    2.400  0.30 0.00 0.00 0.00        419
AUE 1.911 1.00   P
AUH 1.261 1.00   P
AUI 1.671 1.00   P
AUL 1.651 1.00   P
AUP 1.031 1.00   P
AUS 1.020 1.00   P
AUW 1.711 1.00   P
#  2005 12 15 11  5  5.62  59.3640 -153.4303    2.430 -0.10 0.00 0.00 0.00        420
AUH 1.120 1.00   P
AUP 1.000 1.00   P
AUS 1.030 1.00   P
#  2005 12 17  3 34 46.48  59.3625 -153.4270    1.840  0.10 0.00 0.00 0.00        421
AUH 1.060 1.00   P
AUI 2.210 1.00   P
AUL 1.940 1.00   P
AUP 1.000 1.00   P
AUW 2.020 1.00   P
#  2005 12 21 16 12 33.92  59.3575 -153.4360    2.260  0.50 0.00 0.00 0.00        422
AUH 1.250 1.00   P
AUI 1.810 1.00   P
AUL 2.190 1.00   P
AUS 1.000 1.00   P
AUW 1.830 1.00   P
#  2005 12  8 23 54 47.20  59.3573 -153.4358    2.920 -0.50 0.00 0.00 0.00        423
AUH 1.101 1.00   P
AUI 1.391 1.00   P
AUL 1.371 1.00   P
AUP 1.331 1.00   P
AUS 1.000 1.00   P
AUW 1.451 1.00   P
#  2005 12 10 22  7  1.92  59.3588 -153.4312    2.430  0.10 0.00 0.00 0.00        424
AUE 2.080 1.00   P
AUH 1.390 1.00   P
AUI 1.880 1.00   P
AUL 1.880 1.00   P
AUP 1.000 1.00   P
AUS 1.282 1.00   P
AUW 1.920 1.00   P
#  2005 12 12  1 21 17.86  59.3605 -153.4305    1.830 -0.50 0.00 0.00 0.00        426
AUH 1.379 1.00   P
AUP 1.249 1.00   P
AUS 1.000 1.00   P
#  2005 12 27  5 40 24.10  59.3588 -153.4318    2.120  1.00 0.00 0.00 0.00        427
AUE 1.910 1.00   P
AUH 1.170 1.00   P
AUI 2.750 1.00   S
AUI 1.710 1.00   P
AUL 1.690 1.00   P
AUP 1.000 1.00   P
AUW 1.750 1.00   P
#  2005 12 15 21  7 22.52  59.3592 -153.4308    2.190  1.00 0.00 0.00 0.00        428
AUH 1.180 1.00   P
AUL 1.750 1.00   P
AUE 1.920 1.00   P
AUI 1.720 1.00   P
AUP 1.000 1.00   P
AUW 1.760 1.00   P
#  2005 12 11  7  7 26.34  59.3590 -153.4282    2.440  0.10 0.00 0.00 0.00        429
AUE 1.859 1.00   P
AUH 1.179 1.00   P
AUI 1.649 1.00   P
AUL 1.619 1.00   P
AUP 1.009 1.00   P
AUS 1.060 1.00   P
AUW 1.699 1.00   P
#  2005 12 24  6 44 46.34  59.3617 -153.4308    2.240  0.20 0.00 0.00 0.00        430
AUE 1.870 1.00   P
AUH 1.140 1.00   P
AUI 1.960 1.00   P
AUL 1.990 1.00   P
AUP 1.000 1.00   P
AUW 1.920 1.00   P
#  2005 12 15  2 15  2.28  59.3605 -153.4287    2.410  0.20 0.00 0.00 0.00        431
AUH 1.160 1.00   P
AUE 2.320 1.00   P
AUP 1.000 1.00   P
AUS 1.030 1.00   P
AUW 1.680 1.00   P
#  2005 12 24 21 56 44.60  59.3585 -153.4287    2.100  0.40 0.00 0.00 0.00        432
AUE 1.970 1.00   P
AUH 1.200 1.00   P
AUI 1.800 1.00   P
AUL 2.690 1.00   S
AUP 1.000 1.00   P
AUW 1.740 1.00   P
#  2005 12  8  8 15 54.58  59.3585 -153.4303    2.480 -0.20 0.00 0.00 0.00        433
AUH 1.281 1.00   P
AUL 2.411 1.00   S
AUP 1.011 1.00   P
AUS 1.000 1.00   P
AUW 1.731 1.00   P
#  2005 12 13  0 51 51.90  59.3605 -153.4290    1.970 -0.30 0.00 0.00 0.00        434
AUH 1.272 1.00   P
AUP 1.052 1.00   P
AUS 1.000 1.00   P
#  2005 12 17  3  6 40.24  59.3588 -153.4312    2.400  0.30 0.00 0.00 0.00        435
AUE 1.860 1.00   P
AUH 1.160 1.00   P
AUI 1.650 1.00   P
AUL 1.640 1.00   P
AUP 1.000 1.00   P
AUW 1.720 1.00   P
#  2005 12 15 10 36 29.62  59.3640 -153.4295    2.340 -0.20 0.00 0.00 0.00        436
AUH 1.310 1.00   P
AUP 1.030 1.00   P
AUS 1.000 1.00   P
AUW 1.690 1.00   P
#  2005 12 24  2 27  4.96  59.3585 -153.4262    2.320  0.60 0.00 0.00 0.00        437
AUE 1.930 1.00   P
AUH 1.200 1.00   P
AUI 2.640 1.00   S
AUI 1.740 1.00   P
AUL 1.730 1.00   P
AUP 1.000 1.00   P
AUS 1.030 1.00   P
AUW 1.800 1.00   P
#  2005 12  8 23 54 19.70  59.3580 -153.4237    3.450 -0.50 0.00 0.00 0.00        438
AUH 1.161 1.00   P
AUI 1.391 1.00   P
AUP 1.151 1.00   P
AUS 1.000 1.00   P
AUW 1.451 1.00   P
#  2005 12  9 17  5 27.34  59.3603 -153.4308    2.420  0.00 0.00 0.00 0.00        439
AUH 1.159 1.00   P
AUP 1.029 1.00   P
AUS 1.040 1.00   P
AUW 1.639 1.00   P
#  2005 12  9  2 35 18.14  59.3607 -153.4287    2.910 -0.20 0.00 0.00 0.00        440
AUE 1.499 1.00   P
AUH 1.039 1.00   P
AUI 1.299 1.00   P
AUL 1.279 1.00   P
AUP 1.009 1.00   P
AUS 1.000 1.00   P
AUW 1.399 1.00   P
#  2005 12 24  9 23 27.18  59.3595 -153.4278    1.820  0.10 0.00 0.00 0.00        441
AUE 2.290 1.00   P
AUH 1.420 1.00   P
AUI 2.020 1.00   P
AUL 2.850 1.00   S
AUP 1.000 1.00   P
AUW 2.100 1.00   P
#  2005 12 24  9  8  4.64  59.3582 -153.4347    2.320  0.70 0.00 0.00 0.00        442
AUE 1.980 1.00   P
AUH 1.190 1.00   P
AUI 1.770 1.00   P
AUL 1.740 1.00   P
AUP 1.050 1.00   P
AUS 1.000 1.00   P
AUW 1.810 1.00   P
#  2005 12 13  8 31 29.88  59.3608 -153.4295    2.280 -0.50 0.00 0.00 0.00        443
AUH 1.332 1.00   P
AUP 1.132 1.00   P
AUS 1.000 1.00   P
#  2005 12 23 12 48 37.52  59.3592 -153.4310    2.200 -0.20 0.00 0.00 0.00        444
AUE 1.950 1.00   P
AUH 1.210 1.00   P
AUL 2.570 1.00   S
AUP 1.000 1.00   P
AUW 1.770 1.00   P
#  2005 12 19 10 24 14.44  59.3593 -153.4288    2.270  0.20 0.00 0.00 0.00        445
AUE 1.920 1.00   P
AUH 1.200 1.00   P
AUI 1.740 1.00   P
AUL 1.700 1.00   P
AUP 1.000 1.00   P
AUW 1.760 1.00   P
#  2005 12 10 22 11 34.44  59.3605 -153.4305    2.370 -0.20 0.00 0.00 0.00        446
AUE 1.898 1.00   P
AUH 1.128 1.00   P
AUL 1.598 1.00   P
AUS 1.000 1.00   P
AUW 1.658 1.00   P
#  2005 12  5 10 58 51.92  59.3605 -153.4292    2.360 -0.20 0.00 0.00 0.00        452
AUH 1.171 1.00   P
AUL 1.591 1.00   P
AUP 1.011 1.00   P
AUS 1.000 1.00   P
AUW 1.781 1.00   P
#  2005 12 12  1  7 48.34  59.3627 -153.4305    2.100  0.10 0.00 0.00 0.00        454
AUH 1.279 1.00   P
AUL 1.639 1.00   P
AUP 1.109 1.00   P
AUS 1.000 1.00   P
#  2005 12 12  2 37  4.10  59.3607 -153.4308    2.090  0.00 0.00 0.00 0.00        456
AUH 1.279 1.00   P
AUP 1.009 1.00   P
AUS 1.000 1.00   P
#  2005 12  8 23 53 38.18  59.3590 -153.4278    3.380 -0.20 0.00 0.00 0.00        457
AUH 1.121 1.00   P
AUI 1.371 1.00   P
AUL 1.371 1.00   P
AUP 1.011 1.00   P
AUS 1.000 1.00   P
AUW 1.491 1.00   P
#  2005 12 11 21 51 28.44  59.3605 -153.4288    2.390  0.10 0.00 0.00 0.00        458
AUE 1.830 1.00   P
AUH 1.150 1.00   P
AUI 1.700 1.00   P
AUL 1.590 1.00   P
AUP 1.000 1.00   P
AUS 1.011 1.00   P
AUW 1.870 1.00   P
#  2005 12 24  9 14  3.98  59.3592 -153.4302    2.330  0.30 0.00 0.00 0.00        459
AUE 2.430 1.00   P
AUH 1.780 1.00   P
AUL 2.230 1.00   P
AUP 1.000 1.00   P
AUW 2.340 1.00   P
#  2005 12 10 17 42 58.90  59.3607 -153.4315    2.400  0.00 0.00 0.00 0.00        460
AUH 1.090 1.00   P
AUL 1.540 1.00   P
AUP 1.000 1.00   P
AUS 1.002 1.00   P
AUW 1.600 1.00   P
#  2005 12 15  5 22 44.98  59.3622 -153.4298    2.380  0.30 0.00 0.00 0.00        461
AUH 1.156 1.00   P
AUP 1.016 1.00   P
AUS 1.006 1.00   P
AUW 1.716 1.00   P
#  2005 12 15 11  0 59.20  59.3602 -153.4313    2.150 -0.10 0.00 0.00 0.00        462
AUH 1.216 1.00   P
AUP 1.056 1.00   P
AUS 1.006 1.00   P
#  2005 12 15  8 20 57.16  59.3605 -153.4293    2.320  0.20 0.00 0.00 0.00        463
AUH 1.160 1.00   P
AUL 1.710 1.00   P
AUP 1.000 1.00   P
AUS 1.010 1.00   P
AUW 1.700 1.00   P
#  2005 12 11  7 11 59.00  59.3615 -153.4295    2.300  0.00 0.00 0.00 0.00        464
AUH 1.350 1.00   P
AUP 1.000 1.00   P
AUS 1.191 1.00   P
#  2005 12 15 11 56 56.04  59.3608 -153.4302    2.370  0.00 0.00 0.00 0.00        465
AUH 1.156 1.00   P
AUR 1.000 1.00   P
AUP 1.016 1.00   P
AUS 1.066 1.00   P
AUW 1.676 1.00   P
#  2005 12 17  2 34 21.78  59.3607 -153.4320    2.370  0.10 0.00 0.00 0.00        467
AUH 1.080 1.00   P
AUI 1.850 1.00   P
AUL 1.780 1.00   P
AUP 1.000 1.00   P
AUW 1.540 1.00   P
#  2005 12  8  0 53 54.68  59.3587 -153.4315    2.510  0.40 0.00 0.00 0.00        468
AUE 1.911 1.00   P
AUH 1.161 1.00   P
AUI 1.731 1.00   P
AUL 1.531 1.00   P
AUP 1.071 1.00   P
AUS 1.000 1.00   P
AUW 1.731 1.00   P
#  2005 12  8 23  6 45.28  59.3580 -153.4265    2.900 -0.10 0.00 0.00 0.00        469
AUE 1.560 1.00   P
AUH 1.090 1.00   P
AUI 1.340 1.00   P
AUL 1.360 1.00   P
AUP 1.000 1.00   P
AUS 1.009 1.00   P
AUW 1.460 1.00   P
#  2005 12 22 11 44 46.34  59.3595 -153.4308    2.190 -0.10 0.00 0.00 0.00        471
AUE 1.920 1.00   P
AUH 1.180 1.00   P
AUL 2.540 1.00   S
AUP 1.000 1.00   P
AUW 1.760 1.00   P
#  2005 12 12  9  3 13.74  59.3607 -153.4293    1.860  0.20 0.00 0.00 0.00        476
AUH 1.319 1.00   P
AUP 1.069 1.00   P
AUS 1.020 1.00   P
AUW 1.999 1.00   P
#  2005 12 22  0 11 22.26  59.3592 -153.4268    2.240  0.00 0.00 0.00 0.00        477
AUE 1.920 1.00   P
AUH 1.180 1.00   P
AUI 1.740 1.00   P
AUL 1.700 1.00   P
AUP 1.000 1.00   P
AUW 1.800 1.00   P
#  2005 12 21 16 12 15.64  59.3575 -153.4340    2.260  0.50 0.00 0.00 0.00        480
AUH 1.230 1.00   P
AUI 1.770 1.00   P
AUL 1.790 1.00   P
AUS 1.000 1.00   P
AUW 1.910 1.00   P
#  2005 12 12  1 32 26.04  59.3605 -153.4293    1.820 -0.20 0.00 0.00 0.00        481
AUH 1.399 1.00   P
AUP 1.129 1.00   P
AUS 1.000 1.00   P
#  2005 12 12  0  2 58.78  59.3575 -153.4245    2.440  1.00 0.00 0.00 0.00        482
AUE 1.939 1.00   P
AUH 1.279 1.00   P
AUI 1.749 1.00   P
AUL 1.699 1.00   P
AUP 1.049 1.00   P
AUS 1.060 1.00   P
AUW 1.759 1.00   P
#  2005 12 22 22 41 49.16  59.3608 -153.4280    2.280  0.60 0.00 0.00 0.00        483
AUH 1.340 1.00   P
AUI 1.880 1.00   P
AUL 1.880 1.00   P
AUP 1.000 1.00   P
AUS 1.070 1.00   P
AUW 1.980 1.00   P
#  2005 12 21  3 23 59.20  59.3595 -153.4322    2.020  0.70 0.00 0.00 0.00        484
AUE 1.940 1.00   P
AUH 1.140 1.00   P
AUI 1.720 1.00   P
AUL 1.700 1.00   P
AUP 1.000 1.00   P
AUW 1.760 1.00   P
#  2005 12 21  4 32 29.14  59.3590 -153.4278    2.370  0.00 0.00 0.00 0.00        485
AUE 1.900 1.00   P
AUH 1.220 1.00   P
AUI 1.720 1.00   P
AUL 1.660 1.00   P
AUP 1.000 1.00   P
AUW 1.720 1.00   P
#  2005 12 24  9 16  8.46  59.3610 -153.4313    1.830  0.80 0.00 0.00 0.00        487
AUE 2.220 1.00   P
AUH 1.390 1.00   P
AUI 1.950 1.00   P
AUL 1.960 1.00   P
AUP 1.230 1.00   P
AUS 1.000 1.00   P
AUW 2.090 1.00   P
#  2005 12 24  1 40 16.08  59.3590 -153.4272    2.370 -0.30 0.00 0.00 0.00        488
AUE 1.970 1.00   P
AUH 1.360 1.00   P
AUL 2.690 1.00   S
AUL 1.690 1.00   P
AUP 1.000 1.00   P
#  2005 12 19  7 26 26.86  59.3588 -153.4292    2.220  0.30 0.00 0.00 0.00        489
AUE 1.900 1.00   P
AUH 1.160 1.00   P
AUL 2.560 1.00   S
AUP 1.000 1.00   P
AUW 1.760 1.00   P
#  2005 12 30  2 24 27.72  59.3627 -153.4322    1.830  0.10 0.00 0.00 0.00        490
AU13 1.040 1.00   P
AU15 4.000 1.00   P
AUE 2.320 1.00   P
AUH 1.260 1.00   P
AUP 1.000 1.00   P
AUW 1.940 1.00   P
#  2005 12 10 14 10 34.82  59.3600 -153.4308    2.390  0.00 0.00 0.00 0.00        492
AUE 1.978 1.00   P
AUH 1.148 1.00   P
AUI 1.698 1.00   P
AUL 1.618 1.00   P
AUP 1.058 1.00   P
AUS 1.040 1.00   P
AUW 1.678 1.00   P
#  2005 12  8 17 28 25.54  59.3597 -153.4322    2.600 -0.70 0.00 0.00 0.00        493
AUH 1.101 1.00   P
AUL 1.511 1.00   P
AUP 1.031 1.00   P
AUS 1.000 1.00   P
AUW 1.611 1.00   P
#  2005 12 25  7 34 57.64  59.3592 -153.4260    2.620  0.60 0.00 0.00 0.00        494
AUE 1.940 1.00   P
AUH 1.200 1.00   P
AUI 1.740 1.00   P
AUL 1.700 1.00   P
AUP 1.000 1.00   P
AUW 1.770 1.00   P
#  2005 12 11 12 43 58.70  59.3592 -153.4293    2.380  0.10 0.00 0.00 0.00        496
AUE 1.859 1.00   P
AUH 1.259 1.00   P
AUI 1.669 1.00   P
AUL 1.639 1.00   P
AUP 1.009 1.00   P
AUS 1.020 1.00   P
AUW 1.699 1.00   P
#  2005 12 12  3 24 57.88  59.3610 -153.4302    2.210  0.20 0.00 0.00 0.00        498
AUH 1.159 1.00   P
AUP 1.029 1.00   P
AUS 1.040 1.00   P
#  2005 12 15 10 20 21.54  59.3627 -153.4307    2.170  0.20 0.00 0.00 0.00        501
AUH 1.170 1.00   P
AUP 1.030 1.00   P
AUS 1.000 1.00   P
AUW 1.750 1.00   P
#  2005 12 17 11 49 38.10  59.3590 -153.4292    2.190  0.30 0.00 0.00 0.00        502
AUE 1.880 1.00   P
AUH 1.140 1.00   P
AUI 1.770 1.00   P
AUL 2.500 1.00   S
AUP 1.000 1.00   P
AUW 1.720 1.00   P
#  2005 12 24  4 24 29.20  59.3592 -153.4300    2.410  0.20 0.00 0.00 0.00        503
AUE 1.910 1.00   P
AUH 1.260 1.00   P
AUI 1.740 1.00   P
AUL 2.470 1.00   S
AUP 1.000 1.00   P
AUW 1.720 1.00   P
#  2005 12  7 11 18  3.80  59.3625 -153.4300    2.080 -0.30 0.00 0.00 0.00        506
AUH 1.351 1.00   P
AUP 1.121 1.00   P
AUS 1.000 1.00   P
#  2005 12 11  9 45 32.10  59.3608 -153.4275    2.430 -0.20 0.00 0.00 0.00        507
AUH 1.219 1.00   P
AUL 2.419 1.00   S
AUP 1.009 1.00   P
AUS 1.020 1.00   P
#  2005 12 24  9  2 20.14  59.3592 -153.4312    2.200  0.00 0.00 0.00 0.00        508
AUE 1.930 1.00   P
AUH 1.160 1.00   P
AUI 1.780 1.00   P
AUL 1.730 1.00   P
AUP 1.000 1.00   P
AUW 1.820 1.00   P
#  2005 12 10  5 48 12.36  59.3595 -153.4260    2.500 -0.20 0.00 0.00 0.00        509
AUE 1.800 1.00   P
AUH 1.310 1.00   P
AUL 2.400 1.00   S
AUP 1.000 1.00   P
AUS 1.042 1.00   P
AUW 1.680 1.00   P
#  2005 12  9 10 39 22.04  59.3595 -153.4280    3.170 -0.30 0.00 0.00 0.00        515
AUH 1.079 1.00   P
AUI 1.319 1.00   P
AUL 1.299 1.00   P
AUP 1.089 1.00   P
AUS 1.000 1.00   P
AUW 1.379 1.00   P
#  2005 12 11  7  2 44.86  59.3627 -153.4305    2.320  0.00 0.00 0.00 0.00        516
AUE 1.919 1.00   P
AUH 1.219 1.00   P
AUP 1.029 1.00   P
AUS 1.040 1.00   P
AUW 1.679 1.00   P
#  2005 12 24  2  6 33.72  59.3588 -153.4293    2.190 -0.10 0.00 0.00 0.00        520
AUE 1.910 1.00   P
AUH 1.200 1.00   P
AUL 2.610 1.00   S
AUP 1.000 1.00   P
AUW 1.840 1.00   P
#  2005 12  9 15 43 57.04  59.3607 -153.4293    1.830 -0.20 0.00 0.00 0.00        521
AUH 1.339 1.00   P
AUP 1.149 1.00   P
AUS 1.000 1.00   P
#  2005 12  8 23 59 37.14  59.3600 -153.4282    2.830  0.10 0.00 0.00 0.00        522
AUE 1.640 1.00   P
AUH 1.150 1.00   P
AUI 1.380 1.00   P
AUL 1.380 1.00   P
AUP 1.000 1.00   P
AUS 1.049 1.00   P
AUW 1.460 1.00   P
#  2005 12 11  7 27 52.68  59.3628 -153.4297    2.470  0.10 0.00 0.00 0.00        524
AUH 1.130 1.00   P
AUP 1.000 1.00   P
AUS 1.051 1.00   P
AUW 1.650 1.00   P
#  2005 12 23  8 51 30.40  59.3590 -153.4288    2.010 -0.20 0.00 0.00 0.00        525
AUE 2.090 1.00   P
AUH 1.170 1.00   P
AUL 2.570 1.00   S
AUP 1.000 1.00   P
AUW 1.990 1.00   P
#  2005 12  8 21 57 19.50  59.3572 -153.4348    3.020  0.00 0.00 0.00 0.00        526
AUE 1.291 1.00   P
AUH 1.121 1.00   P
AUI 1.331 1.00   P
AUL 1.371 1.00   P
AUP 1.011 1.00   P
AUS 1.000 1.00   P
AUW 1.371 1.00   P
#  2005 12 15 10 25 27.80  59.3577 -153.4305    2.300  0.60 0.00 0.00 0.00        528
AUH 1.196 1.00   P
AUE 1.896 1.00   P
AUI 1.676 1.00   P
AUP 1.036 1.00   P
AUS 1.026 1.00   P
AUW 1.736 1.00   P
#  2005 12 12  0  0 47.88  59.3592 -153.4283    2.410  0.20 0.00 0.00 0.00        529
AUH 1.159 1.00   P
AUI 1.689 1.00   P
AUL 1.639 1.00   P
AUP 1.009 1.00   P
AUS 1.000 1.00   P
#  2005 12 24  3 29  1.20  59.3585 -153.4272    2.180  0.30 0.00 0.00 0.00        531
AUE 1.970 1.00   P
AUH 1.280 1.00   P
AUL 2.750 1.00   S
AUL 1.750 1.00   P
AUP 1.000 1.00   P
AUW 1.840 1.00   P
#  2005 12 20  0 47 34.72  59.3595 -153.4265    1.850  0.20 0.00 0.00 0.00        532
AUE 2.260 1.00   P
AUH 1.500 1.00   P
AUL 2.860 1.00   S
AUP 1.000 1.00   P
AUW 2.120 1.00   P
#  2005 12  8  7 11 43.88  59.3580 -153.4285    2.360  0.10 0.00 0.00 0.00        533
AUE 1.931 1.00   P
AUH 1.241 1.00   P
AUL 2.551 1.00   S
AUP 1.011 1.00   P
AUS 1.000 1.00   P
AUW 1.691 1.00   P
#  2005 12 24  8 31 11.08  59.3613 -153.4292    2.300 -0.10 0.00 0.00 0.00        534
AUE 1.910 1.00   P
AUH 1.200 1.00   P
AUL 2.550 1.00   S
AUP 1.000 1.00   P
AUW 1.800 1.00   P
#  2005 12 12 13 52 23.50  59.3605 -153.4298    2.400  0.10 0.00 0.00 0.00        535
AUH 1.139 1.00   P
AUL 2.399 1.00   S
AUP 1.009 1.00   P
AUS 1.020 1.00   P
AUW 1.679 1.00   P
#  2005 12 22 22 42 40.26  59.3580 -153.4308    2.220  0.80 0.00 0.00 0.00        536
AUE 2.050 1.00   P
AUH 1.310 1.00   P
AUI 1.850 1.00   P
AUL 2.690 1.00   S
AUP 1.070 1.00   P
AUS 1.000 1.00   P
AUW 1.890 1.00   P
#  2005 12  2  7 33 47.66  59.3595 -153.4297    2.350  0.00 0.00 0.00 0.00        537
AUE 1.900 1.00   P
AUH 1.240 1.00   P
AUI 1.720 1.00   P
AUL 1.640 1.00   P
AUP 1.000 1.00   P
AUS 1.029 1.00   P
AUW 1.740 1.00   P
#  2005 12 15  7 41 51.72  59.3605 -153.4312    2.400  0.10 0.00 0.00 0.00        538
AUH 1.150 1.00   P
AUR 1.054 1.00   P
AUP 1.010 1.00   P
AUS 1.000 1.00   P
AUW 1.610 1.00   P
#  2005 12 10  4 12  3.14  59.3573 -153.4277    2.240  0.20 0.00 0.00 0.00        539
AUE 1.918 1.00   P
AUH 1.248 1.00   P
AUI 1.718 1.00   P
AUL 1.758 1.00   P
AUP 1.058 1.00   P
AUS 1.000 1.00   P
AUW 1.818 1.00   P
#  2005 12 12  1 42 34.58  59.3612 -153.4313    1.880 -0.10 0.00 0.00 0.00        541
AUH 1.279 1.00   P
AUP 1.129 1.00   P
AUS 1.000 1.00   P
#  2005 12 12  8 46 48.64  59.3615 -153.4302    2.250  0.00 0.00 0.00 0.00        542
AUH 1.199 1.00   P
AUP 1.069 1.00   P
AUS 1.000 1.00   P
AUW 1.839 1.00   P
#  2005 12 20  1 32 24.26  59.3582 -153.4308    2.170  0.70 0.00 0.00 0.00        543
AUE 1.940 1.00   P
AUH 1.200 1.00   P
AUI 1.720 1.00   P
AUL 1.740 1.00   P
AUP 1.000 1.00   P
AUW 1.820 1.00   P
#  2005 12 13 13 13 17.98  59.3620 -153.4273    2.460 -0.30 0.00 0.00 0.00        544
AUH 1.280 1.00   P
AUL 1.540 1.00   P
AUP 1.000 1.00   P
AUS 1.108 1.00   P
AUW 1.620 1.00   P
#  2005 12 24  9 23 17.40  59.3592 -153.4337    2.080  0.20 0.00 0.00 0.00        545
AUE 2.030 1.00   P
AUH 1.100 1.00   P
AUI 1.860 1.00   P
AUL 2.630 1.00   S
AUP 1.000 1.00   P
AUW 1.860 1.00   P
#  2005 12 11  1  0 43.92  59.3603 -153.4290    1.960 -0.40 0.00 0.00 0.00        548
AUH 1.279 1.00   P
AUP 1.109 1.00   P
AUS 1.000 1.00   P
#  2005 12  8 21 54 13.30  59.3578 -153.4298    3.280 -0.30 0.00 0.00 0.00        552
AUE 1.531 1.00   P
AUH 1.041 1.00   P
AUI 1.331 1.00   P
AUP 1.031 1.00   P
AUS 1.000 1.00   P
AUW 1.411 1.00   P
#  2005 12 10  7 30 34.42  59.3587 -153.4328    2.410  0.10 0.00 0.00 0.00        553
AUE 1.958 1.00   P
AUH 1.128 1.00   P
AUI 1.618 1.00   P
AUL 1.598 1.00   P
AUP 1.078 1.00   P
AUS 1.000 1.00   P
AUW 1.658 1.00   P
