#  2005  4  3  4  1  3.06  59.3615 -153.4305    2.370  0.00 0.00 0.00 0.00          1
AUE 1.850 1.00   P
AUI 1.990 1.00   P
AUL 1.620 1.00   P
AUS 1.020 1.00   P
AUW 1.660 1.00   P
#  2005  4 30  5  9 35.70  59.3628 -153.4287    2.270 -0.20 0.00 0.00 0.00          2
AUL 1.620 1.00   P
AUP 1.000 1.00   P
AUS 1.030 1.00   P
#  2005  4 24 17 18 26.98  59.3587 -153.4295    1.840  0.00 0.00 0.00 0.00          3
AUE 2.400 1.00   P
AUR 1.140 1.00   P
AUS 1.000 1.00   P
AUW 2.300 1.00   P
#  2005  4 19 14 32 33.04  59.3585 -153.4317    2.790  0.10 0.00 0.00 0.00          4
AUE 1.570 1.00   P
AUI 1.350 1.00   P
AUL 1.360 1.00   P
AUS 1.020 1.00   P
#  2005  4 27  4 49  5.12  59.3598 -153.4292    2.180 -0.10 0.00 0.00 0.00          5
AUE 1.940 1.00   P
AUL 1.670 1.00   P
AUR 1.040 1.00   P
AUS 1.000 1.00   P
AUW 1.830 1.00   P
#  2005  4 10 21 45 17.98  59.3592 -153.4323    2.460  0.40 0.00 0.00 0.00          6
AUE 1.840 1.00   P
AUH 1.150 1.00   P
AUI 1.680 1.00   P
AUL 2.440 1.00   S
AUL 1.660 1.00   P
AUS 1.020 1.00   P
AUW 1.680 1.00   P
#  2005  4 27 22 33 45.40  59.3603 -153.4317    2.410 -0.20 0.00 0.00 0.00          7
AUE 1.870 1.00   P
AUL 1.620 1.00   P
AUP 1.000 1.00   P
AUS 1.010 1.00   P
#  2005  4 24 17 17 59.06  59.3590 -153.4312    2.390  0.90 0.00 0.00 0.00          8
AUE 1.880 1.00   P
AUI 1.660 1.00   P
AUL 1.620 1.00   P
AUR 1.000 1.00   P
AUS 1.040 1.00   P
AUW 1.700 1.00   P
#  2005  4 19  5  8 42.06  59.3580 -153.4252    2.040  0.40 0.00 0.00 0.00          9
AUE 1.970 1.00   P
AUI 1.790 1.00   P
AUL 1.760 1.00   P
AUS 1.040 1.00   P
AUW 1.880 1.00   P
#  2005  4 30  9  2  6.22  59.3603 -153.4315    2.370 -0.40 0.00 0.00 0.00         10
AUE 1.900 1.00   P
AUH 1.200 1.00   P
AUL 2.580 1.00   S
AUP 1.000 1.00   P
AUS 1.010 1.00   P
AUW 1.660 1.00   P
#  2005  4 30 15 44 11.14  59.3607 -153.4287    2.300 -0.10 0.00 0.00 0.00         11
AUL 1.640 1.00   P
AUP 1.000 1.00   P
AUS 1.030 1.00   P
#  2005  4 15 14 29 42.06  59.3592 -153.4318    2.430  0.10 0.00 0.00 0.00         12
AUE 1.850 1.00   P
AUH 1.180 1.00   P
AUI 1.680 1.00   P
AUL 1.600 1.00   P
AUR 1.000 1.00   P
AUS 1.020 1.00   P
AUW 1.680 1.00   P
#  2005  4  7 22 50 14.42  59.3605 -153.4317    2.420  0.30 0.00 0.00 0.00         13
AUE 1.840 1.00   P
AUH 1.140 1.00   P
AUI 1.920 1.00   P
AUL 1.600 1.00   P
AUS 1.020 1.00   P
AUW 1.650 1.00   P
#  2005  4 30  6 12 41.32  59.3605 -153.4177    3.030 -0.60 0.00 0.00 0.00         14
AUE 1.060 1.00   P
AUH 1.120 1.00   P
AUL 2.080 1.00   S
AUP 1.000 1.00   P
AUS 1.030 1.00   P
AUW 1.460 1.00   P
#  2005  5 10  4 19  9.72  59.3618 -153.4273    2.130  0.00 0.00 0.00 0.00         15
AUE 1.950 1.00   P
AUH 1.510 1.00   P
AUL 1.770 1.00   P
AUP 1.000 1.00   P
AUS 1.040 1.00   P
#  2005  5 10  9  1 13.40  59.3595 -153.4323    2.410 -0.20 0.00 0.00 0.00         16
AUE 1.890 1.00   P
AUH 1.390 1.00   P
AUI 1.680 1.00   P
AUL 1.610 1.00   P
AUP 1.000 1.00   P
AUS 1.020 1.00   P
AUW 1.710 1.00   P
#  2005  5 31 10 30 12.84  59.3577 -153.4308    2.320  0.60 0.00 0.00 0.00         17
AUE 1.910 1.00   P
AUH 1.190 1.00   P
AUI 2.610 1.00   S
AUI 1.730 1.00   P
AUL 1.710 1.00   P
AUP 1.070 1.00   P
AUS 1.020 1.00   P
AUW 1.750 1.00   P
#  2005  5 17 10 32 50.68  59.3583 -153.4318    2.310  0.00 0.00 0.00 0.00         18
AUE 1.840 1.00   P
AUH 1.180 1.00   P
AUL 2.580 1.00   S
AUP 1.000 1.00   P
AUS 1.000 1.00   P
AUW 1.720 1.00   P
#  2005  5 29  9 58 53.84  59.3585 -153.4310    2.510  0.20 0.00 0.00 0.00         19
AUE 1.850 1.00   P
AUH 1.170 1.00   P
AUI 1.660 1.00   P
AUL 1.690 1.00   P
AUP 1.020 1.00   P
AUS 1.080 1.00   P
AUW 1.690 1.00   P
#  2005  5 10  2 41 44.84  59.3585 -153.4275    2.880 -0.60 0.00 0.00 0.00         20
AUE 1.590 1.00   P
AUI 1.380 1.00   P
AUL 1.390 1.00   P
AUP 1.000 1.00   P
AUS 1.020 1.00   P
AUW 1.450 1.00   P
#  2005  5 20  8  3  0.76  59.3587 -153.4313    2.410  0.30 0.00 0.00 0.00         21
AUE 1.930 1.00   P
AUH 1.170 1.00   P
AUI 1.710 1.00   P
AUL 2.510 1.00   S
AUL 1.590 1.00   P
AUP 1.030 1.00   P
AUS 1.040 1.00   P
AUW 1.690 1.00   P
#  2005  5 26  9 15 23.80  59.3600 -153.4308    2.250  0.10 0.00 0.00 0.00         22
AUE 1.970 1.00   P
AUH 1.270 1.00   P
AUI 2.890 1.00   S
AUI 1.790 1.00   P
AUL 1.830 1.00   P
AUP 1.090 1.00   P
AUS 1.060 1.00   P
AUW 1.870 1.00   P
#  2005  5 20  8  1  4.42  59.3595 -153.4312    2.380  0.50 0.00 0.00 0.00         23
AUE 1.870 1.00   P
AUH 1.170 1.00   P
AUI 2.600 1.00   S
AUI 1.630 1.00   P
AUL 2.450 1.00   S
AUP 1.030 1.00   P
AUS 1.020 1.00   P
AUW 1.690 1.00   P
#  2005  5  8  3 35 39.98  59.3597 -153.4303    2.390  0.40 0.00 0.00 0.00         24
AUE 1.870 1.00   P
AUH 1.170 1.00   P
AUI 1.670 1.00   P
AUL 1.650 1.00   P
AUS 1.000 1.00   P
AUW 1.690 1.00   P
#  2005  5  3 22 24 30.54  59.3615 -153.4298    2.130 -0.10 0.00 0.00 0.00         25
AUH 1.430 1.00   P
AUL 2.130 1.00   P
AUP 1.010 1.00   P
AUS 1.000 1.00   P
#  2005  5  4  3 17 30.56  59.3607 -153.4287    2.510 -0.10 0.00 0.00 0.00         26
AUE 1.840 1.00   P
AUH 1.160 1.00   P
AUI 1.700 1.00   P
AUL 2.220 1.00   S
AUL 1.600 1.00   P
AUP 1.000 1.00   P
AUS 1.010 1.00   P
AUW 1.680 1.00   P
#  2005  5 14  3 12 55.60  59.3625 -153.4297    1.800 -0.10 0.00 0.00 0.00         27
AUH 1.380 1.00   P
AUP 1.100 1.00   P
AUS 1.120 1.00   P
#  2005  5 27 13 10 27.16  59.3592 -153.4303    2.030  0.20 0.00 0.00 0.00         28
AUE 2.110 1.00   P
AUH 1.450 1.00   P
AUI 2.010 1.00   P
AUL 2.350 1.00   P
AUP 1.130 1.00   P
AUS 1.120 1.00   P
AUW 1.990 1.00   P
#  2005  5 24 22 13 39.02  59.3572 -153.4315    2.770  0.10 0.00 0.00 0.00         29
AUE 1.610 1.00   P
AUH 1.170 1.00   P
AUL 2.110 1.00   S
AUL 1.770 1.00   P
AUP 1.010 1.00   P
AUS 1.000 1.00   P
AUW 1.430 1.00   P
#  2005  5 21  9 24 44.14  59.3585 -153.4265    2.120 -0.10 0.00 0.00 0.00         30
AUE 2.090 1.00   P
AUH 1.310 1.00   P
AUI 1.930 1.00   P
AUL 1.790 1.00   P
AUP 1.110 1.00   P
AUS 1.040 1.00   P
AUW 1.850 1.00   P
#  2005  5 24  5 26 21.14  59.3578 -153.4330    2.460  0.20 0.00 0.00 0.00         31
AUE 1.870 1.00   P
AUH 1.190 1.00   P
AUI 1.650 1.00   P
AUL 1.650 1.00   P
AUP 1.010 1.00   P
AUS 1.020 1.00   P
AUW 1.710 1.00   P
#  2005  6 16 22 44 46.06  59.3577 -153.4278    2.400  0.00 0.00 0.00 0.00         33
AUE 1.820 1.00   P
AUH 1.260 1.00   P
AUI 1.430 1.00   P
AUL 1.660 1.00   P
AUS 1.000 1.00   P
AUW 1.720 1.00   P
#  2005  6  8  3 49 37.12  59.3620 -153.4327    2.020 -0.50 0.00 0.00 0.00         34
AUH 1.630 1.00   P
AUP 1.140 1.00   P
AUS 1.080 1.00   P
#  2005  6 28 13 37 18.54  59.3617 -153.4317    2.470 -0.90 0.00 0.00 0.00         35
AUH 1.500 1.00   P
AUL 1.520 1.00   P
AUP 1.000 1.00   P
AUS 1.000 1.00   P
AUW 1.460 1.00   P
#  2005  6  3 13 33  0.56  59.3578 -153.4283    2.820 -0.50 0.00 0.00 0.00         36
AUE 1.680 1.00   P
AUH 1.210 1.00   P
AUI 1.500 1.00   P
AUL 1.520 1.00   P
AUP 1.000 1.00   P
AUS 1.030 1.00   P
AUW 1.580 1.00   P
#  2005  6 29  9 44 13.16  59.3612 -153.4272    2.090  0.20 0.00 0.00 0.00         37
AUH 1.540 1.00   P
AUL 1.740 1.00   P
AUP 1.000 1.00   P
AUS 1.050 1.00   P
#  2005  6 25  8 35 38.92  59.3585 -153.4305    2.460  0.50 0.00 0.00 0.00         38
AUE 1.820 1.00   P
AUH 1.220 1.00   P
AUI 1.640 1.00   P
AUL 1.600 1.00   P
AUP 1.000 1.00   P
AUS 1.020 1.00   P
AUW 1.700 1.00   P
#  2005  6  3  8 46 45.66  59.3583 -153.4292    2.900 -0.70 0.00 0.00 0.00         40
AUE 1.560 1.00   P
AUH 1.070 1.00   P
AUI 1.360 1.00   P
AUL 1.340 1.00   P
AUP 1.000 1.00   P
AUS 1.010 1.00   P
AUW 1.400 1.00   P
#  2005  6  3 11 26 40.86  59.3583 -153.4342    2.770 -0.90 0.00 0.00 0.00         41
AUE 1.580 1.00   P
AUI 1.340 1.00   P
AUL 1.340 1.00   P
AUP 1.000 1.00   P
AUS 1.030 1.00   P
AUW 1.420 1.00   P
#  2005  6 11 14 34 27.54  59.3623 -153.4288    2.720 -0.90 0.00 0.00 0.00         49
AUH 1.140 1.00   P
AUL 1.340 1.00   P
AUP 1.000 1.00   P
AUS 1.040 1.00   P
AUW 1.420 1.00   P
#  2005  6 13 14 57 14.00  59.3592 -153.4275    2.460  0.10 0.00 0.00 0.00         50
AUE 1.800 1.00   P
AUH 1.360 1.00   P
AUI 1.240 1.00   P
AUL 1.620 1.00   P
AUP 1.000 1.00   P
AUS 1.040 1.00   P
AUW 1.720 1.00   P
#  2005  6  1 19 31  4.82  59.3612 -153.4273    1.830 -0.50 0.00 0.00 0.00         51
AUH 1.710 1.00   P
AUP 1.000 1.00   P
AUS 1.079 1.00   P
#  2005  6 28  1 28 17.08  59.3588 -153.4250    2.320  0.10 0.00 0.00 0.00         52
AUE 1.810 1.00   P
AUH 1.400 1.00   P
AUI 1.580 1.00   P
AUL 1.700 1.00   P
AUP 1.020 1.00   P
AUS 1.000 1.00   P
AUW 1.760 1.00   P
#  2005  6  7  3 27 39.00  59.3587 -153.4397    2.950  0.10 0.00 0.00 0.00         53
AUE 1.700 1.00   P
AUH 1.000 1.00   P
AUI 1.500 1.00   P
AUP 1.220 1.00   P
AUS 1.250 1.00   P
AUW 1.340 1.00   P
#  2005  6 24 18 10 16.34  59.3585 -153.4287    3.160 -0.70 0.00 0.00 0.00         54
AUE 1.480 1.00   P
AUI 1.320 1.00   P
AUL 1.280 1.00   P
AUP 1.000 1.00   P
AUS 1.020 1.00   P
AUW 1.370 1.00   P
#  2005  6  9 16 59 19.70  59.3545 -153.4308    2.680  0.20 0.00 0.00 0.00         55
AUE 1.820 1.00   P
AUH 1.140 1.00   P
AUL 1.450 1.00   P
AUP 1.040 1.00   P
AUS 1.080 1.00   P
AUW 1.460 1.00   P
#  2005  6 15 21 10 59.54  59.3590 -153.4298    2.980 -0.40 0.00 0.00 0.00         57
AUE 1.560 1.00   P
AUI 1.400 1.00   P
AUL 1.340 1.00   P
AUS 1.000 1.00   P
#  2005  6 30  6 38 28.26  59.3610 -153.4270    2.350 -0.10 0.00 0.00 0.00         61
AUH 1.480 1.00   P
AUP 1.000 1.00   P
AUS 1.120 1.00   P
#  2005  6  3 20 53 34.14  59.3588 -153.4285    2.790 -0.10 0.00 0.00 0.00         62
AUE 1.590 1.00   P
AUH 1.140 1.00   P
AUI 1.430 1.00   P
AUL 1.390 1.00   P
AUS 1.060 1.00   P
AUW 1.450 1.00   P
#  2005  6 17  8 21 37.40  59.3585 -153.4285    2.300  0.30 0.00 0.00 0.00         63
AUE 1.970 1.00   P
AUH 1.300 1.00   P
AUI 1.790 1.00   P
AUL 1.760 1.00   P
AUP 1.070 1.00   P
AUS 1.020 1.00   P
AUW 1.800 1.00   P
#  2005  6 23  6 23 14.72  59.3603 -153.4260    2.190  0.10 0.00 0.00 0.00         64
AUE 1.960 1.00   P
AUH 1.300 1.00   P
AUP 1.000 1.00   P
AUS 1.020 1.00   P
AUW 1.860 1.00   P
#  2005  6 13  5 37 22.56  59.3587 -153.4267    2.440  0.20 0.00 0.00 0.00         65
AUE 1.860 1.00   P
AUH 1.320 1.00   P
AUI 1.700 1.00   P
AUL 1.620 1.00   P
AUP 1.000 1.00   P
AUS 1.060 1.00   P
AUW 1.740 1.00   P
#  2005  6 18  5 25  9.56  59.5075 -153.3038    5.930  1.10 0.00 0.00 0.00         66
AUE 1.000 1.00   P
AUH 1.770 1.00   P
AUI 1.770 1.00   P
AUP 1.580 1.00   P
AUS 2.110 1.00   P
AUW 1.780 1.00   P
#  2005  6 28 21  1 35.76  59.3615 -153.4302    1.850 -0.30 0.00 0.00 0.00         67
AUH 1.560 1.00   P
AUP 1.100 1.00   P
AUS 1.040 1.00   P
#  2005  6 26 11 55 22.56  59.3602 -153.4295    2.370 -0.50 0.00 0.00 0.00         68
AUL 2.060 1.00   P
AUP 1.000 1.00   P
AUS 1.000 1.00   P
#  2005  6  5 13 56 54.16  59.3607 -153.4245    2.770 -0.60 0.00 0.00 0.00         69
AUE 1.570 1.00   P
AUL 1.580 1.00   P
AUP 1.000 1.00   P
AUS 1.030 1.00   P
AUW 2.020 1.00   P
#  2005  6  3  6 25 14.28  59.3588 -153.4260    2.990 -0.70 0.00 0.00 0.00         71
AUE 1.550 1.00   P
AUH 1.580 1.00   P
AUL 2.090 1.00   S
AUP 1.010 1.00   P
AUS 1.000 1.00   P
AUW 1.390 1.00   P
#  2005  6 27 16 53 10.02  59.3628 -153.4265    1.860 -0.40 0.00 0.00 0.00         72
AUH 1.700 1.00   P
AUL 2.100 1.00   P
AUP 1.000 1.00   P
AUS 1.020 1.00   P
#  2005  6 17  2 39 12.68  59.3588 -153.4325    3.030 -0.40 0.00 0.00 0.00         73
AUE 1.570 1.00   P
AUI 1.370 1.00   P
AUL 1.340 1.00   P
AUS 1.000 1.00   P
#  2005  6  3  9 57 39.30  59.3590 -153.4355    2.720 -0.30 0.00 0.00 0.00         74
AUE 1.680 1.00   P
AUH 1.290 1.00   P
AUI 1.340 1.00   P
AUL 1.340 1.00   P
AUP 1.000 1.00   P
AUS 1.010 1.00   P
AUW 1.360 1.00   P
#  2005  6 28 17 41  1.26  59.3623 -153.4333    2.440 -0.80 0.00 0.00 0.00         75
AUH 1.120 1.00   P
AUL 1.760 1.00   P
AUP 1.120 1.00   P
AUS 1.000 1.00   P
#  2005  6 27  4 12 40.16  59.3623 -153.4300    1.820 -0.80 0.00 0.00 0.00         76
AUH 1.460 1.00   P
AUP 1.140 1.00   P
AUS 1.060 1.00   P
#  2005  6 27  5  3 38.22  59.3588 -153.4243    3.440 -0.90 0.00 0.00 0.00         77
AUH 1.080 1.00   P
AUI 1.830 1.00   P
AUL 1.240 1.00   P
AUP 1.000 1.00   P
AUS 1.000 1.00   P
AUW 1.340 1.00   P
#  2005  6 15  8 53 32.24  59.3580 -153.4337    2.420  0.10 0.00 0.00 0.00         79
AUE 1.860 1.00   P
AUH 1.170 1.00   P
AUI 1.680 1.00   P
AUL 1.620 1.00   P
AUP 1.000 1.00   P
AUS 1.020 1.00   P
AUW 1.680 1.00   P
#  2005  6 13  8 45 22.46  59.3662 -153.4278    2.730 -0.90 0.00 0.00 0.00         80
AUE 1.540 1.00   P
AUH 1.080 1.00   P
AUL 1.280 1.00   P
AUP 1.000 1.00   P
AUS 1.040 1.00   P
AUW 1.420 1.00   P
#  2005  6 27  7 38 52.64  59.3593 -153.4287    2.400 -0.10 0.00 0.00 0.00         81
AUE 1.870 1.00   P
AUH 1.220 1.00   P
AUI 1.710 1.00   P
AUL 1.660 1.00   P
AUP 1.000 1.00   P
AUS 1.000 1.00   P
AUW 1.720 1.00   P
#  2005  6 17 16 17  8.48  59.3593 -153.4313    2.360  0.30 0.00 0.00 0.00         82
AUE 1.870 1.00   P
AUH 1.180 1.00   P
AUI 1.650 1.00   P
AUL 1.640 1.00   P
AUP 1.030 1.00   P
AUS 1.040 1.00   P
AUW 1.700 1.00   P
#  2005  6 19 22 53 38.76  59.3593 -153.4298    2.560  0.70 0.00 0.00 0.00         83
AUE 1.850 1.00   P
AUH 1.180 1.00   P
AUI 1.650 1.00   P
AUP 1.000 1.00   P
AUS 1.020 1.00   P
AUW 1.680 1.00   P
#  2005  7 14 19 43 27.90  59.3592 -153.4278    2.430  0.60 0.00 0.00 0.00         84
AUE 1.780 1.00   P
AUH 1.160 1.00   P
AUI 2.440 1.00   S
AUI 1.630 1.00   P
AUL 2.380 1.00   S
AUL 1.540 1.00   P
AUP 1.000 1.00   P
AUS 1.020 1.00   P
AUW 1.680 1.00   P
#  2005  7  3 19 21 10.42  59.3605 -153.4290    2.460 -0.20 0.00 0.00 0.00         85
AUH 1.240 1.00   P
AUL 1.620 1.00   P
AUP 1.030 1.00   P
AUS 1.000 1.00   P
AUW 2.540 1.00   P
#  2005  7  8 13 58  2.30  59.3593 -153.4315    2.470  0.70 0.00 0.00 0.00         86
AUE 1.870 1.00   P
AUH 1.160 1.00   P
AUI 1.600 1.00   P
AUL 1.600 1.00   P
AUP 1.020 1.00   P
AUS 1.020 1.00   P
AUW 1.660 1.00   P
#  2005  7  4 15 33  8.80  59.3583 -153.4282    2.400  0.30 0.00 0.00 0.00         87
AUE 1.880 1.00   P
AUH 1.230 1.00   P
AUI 1.480 1.00   P
AUL 1.640 1.00   P
AUP 1.040 1.00   P
AUS 1.000 1.00   P
AUW 2.060 1.00   P
#  2005  7 14  3 44 39.44  59.3593 -153.4328    2.760 -0.50 0.00 0.00 0.00         88
AUH 1.560 1.00   P
AUI 1.490 1.00   P
AUL 1.480 1.00   P
AUP 1.100 1.00   P
AUS 1.000 1.00   P
AUW 1.540 1.00   P
#  2005  7  6 12 14 16.10  59.3672 -153.4337    1.820 -0.40 0.00 0.00 0.00         89
AUH 1.140 1.00   P
AUP 1.000 1.00   P
AUS 1.020 1.00   P
AUW 2.020 1.00   P
#  2005  7 30 10 41 59.96  59.3622 -153.4207    1.830  0.00 0.00 0.00 0.00         90
AUE 2.110 1.00   P
AUH 1.490 1.00   P
AUL 1.710 1.00   P
AUS 1.000 1.00   P
AUW 1.770 1.00   P
#  2005  7 27  6 11 23.24  59.3602 -153.4257    2.410 -0.10 0.00 0.00 0.00         91
AUE 1.840 1.00   P
AUH 1.240 1.00   P
AUI 1.680 1.00   P
AUL 1.640 1.00   P
AUS 1.040 1.00   P
AUW 1.710 1.00   P
#  2005  7 12 22 55 53.76  59.3573 -153.4327    2.110  0.40 0.00 0.00 0.00         93
AUE 2.220 1.00   P
AUH 1.170 1.00   P
AUI 1.720 1.00   P
AUP 1.050 1.00   P
AUS 1.020 1.00   P
AUW 1.770 1.00   P
#  2005  7  9  6 26 40.92  59.3587 -153.4277    2.870 -0.70 0.00 0.00 0.00         94
AUE 1.580 1.00   P
AUH 1.120 1.00   P
AUI 1.400 1.00   P
AUL 1.400 1.00   P
AUP 1.030 1.00   P
AUS 1.000 1.00   P
#  2005  7  9  6  7 50.84  59.3582 -153.4255    2.860 -0.00 0.00 0.00 0.00         97
AUE 1.550 1.00   P
AUH 1.290 1.00   P
AUI 1.350 1.00   P
AUL 1.370 1.00   P
AUP 1.000 1.00   P
AUS 1.010 1.00   P
AUW 1.390 1.00   P
#  2005  7 12  0 30 23.88  59.3588 -153.4278    2.440  0.40 0.00 0.00 0.00         99
AUE 1.960 1.00   P
AUH 1.270 1.00   P
AUI 1.720 1.00   P
AUL 1.700 1.00   P
AUP 1.070 1.00   P
AUS 1.060 1.00   P
AUW 1.750 1.00   P
#  2005  8 29  0 31 34.98  59.3610 -153.4288    2.470  0.20 0.00 0.00 0.00        100
AUE 1.840 1.00   P
AUH 1.180 1.00   P
AUI 1.700 1.00   P
AUL 1.620 1.00   P
AUP 1.010 1.00   P
AUS 1.020 1.00   P
AUW 1.700 1.00   P
#  2005  8  8 18 18 34.26  59.3585 -153.4290    2.400  0.00 0.00 0.00 0.00        101
AUE 1.880 1.00   P
AUH 1.200 1.00   P
AUI 1.680 1.00   P
AUL 1.680 1.00   P
AUS 1.040 1.00   P
#  2005  8  9 19 44 56.64  59.3580 -153.4265    2.230  0.10 0.00 0.00 0.00        102
AUE 1.870 1.00   P
AUH 1.320 1.00   P
AUI 1.700 1.00   P
AUL 2.140 1.00   P
AUS 1.000 1.00   P
#  2005  8  6 21 17 17.00  59.3588 -153.4280    2.370 -0.20 0.00 0.00 0.00        103
AUE 1.820 1.00   P
AUH 1.230 1.00   P
AUI 2.490 1.00   S
AUI 1.620 1.00   P
AUL 1.620 1.00   P
AUR 1.000 1.00   P
AUS 1.020 1.00   P
AUW 1.700 1.00   P
#  2005  8 11 11 58 12.64  59.3610 -153.4220    2.040  0.00 0.00 0.00 0.00        104
AUE 1.950 1.00   P
AUH 1.300 1.00   P
AUL 1.640 1.00   P
AUS 1.000 1.00   P
AUW 1.810 1.00   P
#  2005  8  1 18 51 31.62  59.3675 -153.4183    1.820  0.10 0.00 0.00 0.00        105
AUE 1.940 1.00   P
AUH 1.600 1.00   P
AUL 1.680 1.00   P
AUS 1.040 1.00   P
AUW 2.540 1.00   P
#  2005  8 11 17 32 26.26  59.3592 -153.4300    2.520  0.30 0.00 0.00 0.00        106
AUE 1.830 1.00   P
AUH 1.120 1.00   P
AUI 1.620 1.00   P
AUL 1.560 1.00   P
AUS 1.000 1.00   P
AUW 1.670 1.00   P
#  2005  8 20 22 23 37.16  59.3615 -153.4305    1.920  0.00 0.00 0.00 0.00        107
AUH 1.380 1.00   P
AUP 1.020 1.00   P
AUS 1.040 1.00   P
#  2005  8 12 19 17 57.38  59.3580 -153.4262    2.440 -0.20 0.00 0.00 0.00        108
AUE 1.840 1.00   P
AUH 1.420 1.00   P
AUL 2.560 1.00   S
AUS 1.040 1.00   P
AUW 1.700 1.00   P
#  2005  8 25 17 17  9.58  59.3615 -153.4333    2.180 -0.40 0.00 0.00 0.00        109
AUH 1.300 1.00   P
AUP 1.140 1.00   P
AUS 1.000 1.00   P
#  2005  8 28  9 31 18.96  59.3580 -153.4310    1.910  0.40 0.00 0.00 0.00        110
AUE 2.060 1.00   P
AUH 1.120 1.00   P
AUI 1.820 1.00   P
AUL 2.240 1.00   P
AUP 1.100 1.00   P
AUS 1.040 1.00   P
#  2005  8 14  6 47 25.50  59.3602 -153.4250    1.810  0.10 0.00 0.00 0.00        111
AUE 2.060 1.00   P
AUH 1.400 1.00   P
AUI 1.980 1.00   P
AUL 2.680 1.00   S
AUR 1.000 1.00   P
AUS 1.120 1.00   P
AUW 1.950 1.00   P
#  2005  8 11  6  3 22.48  59.3588 -153.4282    2.440  0.30 0.00 0.00 0.00        113
AUE 1.810 1.00   P
AUH 1.300 1.00   P
AUI 1.700 1.00   P
AUL 1.580 1.00   P
AUS 1.020 1.00   P
AUW 1.710 1.00   P
#  2005  8  2 17 50 48.58  59.3553 -153.4508    1.820  0.30 0.00 0.00 0.00        114
AUE 2.790 1.00   P
AUH 1.200 1.00   P
AUR 1.000 1.00   P
AUS 1.000 1.00   P
AUW 1.710 1.00   P
#  2005  9  7  2 51  4.70  59.3607 -153.4310    1.820 -0.70 0.00 0.00 0.00        115
AUP 1.220 1.00   P
AUS 1.060 1.00   P
#  2005  9 17 11 18 12.78  59.3618 -153.4273    1.830 -0.40 0.00 0.00 0.00        116
AUH 1.490 1.00   P
AUL 1.790 1.00   P
AUP 1.000 1.00   P
AUS 1.050 1.00   P
AUW 1.480 1.00   P
#  2005  9  5  3 57 20.58  59.3607 -153.4310    2.240 -0.40 0.00 0.00 0.00        117
AUH 1.300 1.00   P
AUP 1.100 1.00   P
AUS 1.040 1.00   P
#  2005  9  5  3 40 39.70  59.3617 -153.4380    2.090  0.20 0.00 0.00 0.00        118
AUH 1.000 1.00   P
AUP 1.320 1.00   P
AUS 1.040 1.00   P
#  2005  9 23 10 34 23.48  59.3597 -153.4280    2.190  0.10 0.00 0.00 0.00        119
AUE 1.930 1.00   P
AUH 1.270 1.00   P
AUL 2.670 1.00   S
AUP 1.000 1.00   P
AUS 1.010 1.00   P
AUW 1.830 1.00   P
#  2005  9 30 17 51 47.76  59.3605 -153.4327    2.380  0.20 0.00 0.00 0.00        120
AUH 1.180 1.00   P
AUP 1.180 1.00   P
AUS 1.020 1.00   P
AUW 1.740 1.00   P
#  2005  9  6 13 16 50.42  59.3608 -153.4277    1.840 -0.70 0.00 0.00 0.00        121
AUH 1.520 1.00   P
AUP 1.080 1.00   P
AUS 1.000 1.00   P
#  2005  9 30 16 35 22.64  59.3605 -153.4313    2.000 -0.20 0.00 0.00 0.00        122
AUH 1.260 1.00   P
AUP 1.020 1.00   P
AUS 1.000 1.00   P
#  2005  9 26  7  5 52.12  59.3613 -153.4295    1.840  0.00 0.00 0.00 0.00        123
AUE 2.180 1.00   P
AUH 1.480 1.00   P
AUP 1.070 1.00   P
AUS 1.020 1.00   P
#  2005  9 26 12 58 36.06  59.3590 -153.4300    2.360 -0.20 0.00 0.00 0.00        124
AUE 1.920 1.00   P
AUH 1.220 1.00   P
AUL 2.380 1.00   S
AUP 1.050 1.00   P
AUS 1.000 1.00   P
AUW 1.710 1.00   P
#  2005  9  6 21 29 45.26  59.3607 -153.4320    2.040 -0.70 0.00 0.00 0.00        125
AUH 1.740 1.00   P
AUP 1.040 1.00   P
AUS 1.000 1.00   P
