#  2005 12 10 14 14 12.34  59.3612 -153.4310    2.470 -0.20 0.00 0.00 0.00        554
AUE 1.938 1.00   P
AUH 1.248 1.00   P
AUL 1.598 1.00   P
AUP 1.098 1.00   P
AUS 1.020 1.00   P
AUW 1.678 1.00   P
#  2005 12 11 14  2 19.58  59.3612 -153.4317    2.340  0.00 0.00 0.00 0.00        555
AUH 1.659 1.00   P
AUP 1.069 1.00   P
AUS 1.000 1.00   P
AUW 1.699 1.00   P
#  2005 12 12  1 15 20.68  59.3617 -153.4288    2.110 -0.40 0.00 0.00 0.00        556
AUH 1.319 1.00   P
AUP 1.009 1.00   P
AUS 1.000 1.00   P
#  2005 12 11  1  9 44.32  59.3592 -153.4282    2.420 -0.40 0.00 0.00 0.00        559
AUE 1.870 1.00   P
AUH 1.330 1.00   P
AUL 2.490 1.00   S
AUP 1.000 1.00   P
AUS 1.051 1.00   P
AUW 1.690 1.00   P
#  2005 12 24  9 19 22.50  59.3593 -153.4268    2.300 -0.10 0.00 0.00 0.00        560
AUE 1.850 1.00   P
AUH 1.180 1.00   P
AUI 1.820 1.00   P
AUL 2.530 1.00   S
AUP 1.000 1.00   P
AUW 1.740 1.00   P
#  2005 12 12  0  1  6.40  59.3587 -153.4310    2.380  0.40 0.00 0.00 0.00        561
AUE 1.919 1.00   P
AUH 1.219 1.00   P
AUI 1.729 1.00   P
AUL 1.679 1.00   P
AUP 1.069 1.00   P
AUS 1.040 1.00   P
AUW 1.759 1.00   P
#  2005 12  8 23  5  7.40  59.3575 -153.4252    2.990 -0.10 0.00 0.00 0.00        562
AUE 1.760 1.00   P
AUH 1.310 1.00   P
AUI 1.580 1.00   P
AUL 1.580 1.00   P
AUP 1.000 1.00   P
AUS 1.229 1.00   P
AUW 1.640 1.00   P
#  2005 12 24  9  6 10.72  59.3635 -153.4305    2.240  0.20 0.00 0.00 0.00        563
AUE 1.070 1.00   P
AUH 1.200 1.00   P
AUL 1.730 1.00   P
AUP 1.000 1.00   P
AUW 1.800 1.00   P
#  2005 12 15 10 37 23.80  59.3612 -153.4295    1.860 -0.10 0.00 0.00 0.00        564
AUH 1.470 1.00   P
AUP 1.090 1.00   P
AUS 1.000 1.00   P
#  2005 12 12  1 32 17.66  59.3610 -153.4320    1.860 -0.10 0.00 0.00 0.00        565
AUH 2.339 1.00   P
AUP 2.249 1.00   P
AUS 2.000 1.00   P
#  2005 12  2  7 47 16.42  59.3592 -153.4300    2.030 -0.60 0.00 0.00 0.00        566
AUH 1.331 1.00   P
AUL 2.851 1.00   S
AUP 1.131 1.00   P
AUS 1.080 1.00   P
AUW 1.951 1.00   P
#  2005 12 21 16 13  7.12  59.3578 -153.4290    2.230  0.40 0.00 0.00 0.00        567
AUH 1.290 1.00   P
AUI 1.810 1.00   P
AUL 1.770 1.00   P
AUP 1.030 1.00   P
AUS 1.000 1.00   P
AUW 1.930 1.00   P
#  2005 12 15  5  4 41.24  59.3615 -153.4270    2.200  0.50 0.00 0.00 0.00        568
AUH 1.380 1.00   P
AUL 1.810 1.00   P
AUP 1.000 1.00   P
AUS 1.090 1.00   P
AUW 1.840 1.00   P
#  2005 12 11  7  5 33.92  59.3602 -153.4287    2.480  0.20 0.00 0.00 0.00        570
AUH 1.170 1.00   P
AUI 1.620 1.00   P
AUP 1.000 1.00   P
AUS 1.051 1.00   P
AUW 1.690 1.00   P
#  2005 12 24 10 49 24.16  59.3592 -153.4297    2.230  0.50 0.00 0.00 0.00        571
AUE 1.930 1.00   P
AUH 1.160 1.00   P
AUI 1.760 1.00   P
AUL 1.750 1.00   P
AUP 1.000 1.00   P
AUW 1.800 1.00   P
#  2005 12 11  7 47  0.36  59.3628 -153.4298    2.300 -0.20 0.00 0.00 0.00        573
AUE 1.879 1.00   P
AUH 1.159 1.00   P
AUP 1.029 1.00   P
AUS 1.060 1.00   P
AUW 1.719 1.00   P
#  2005 12 24  7 38 31.10  59.3602 -153.4285    2.340 -0.10 0.00 0.00 0.00        574
AUE 1.870 1.00   P
AUH 1.200 1.00   P
AUL 2.510 1.00   S
AUP 1.000 1.00   P
AUW 1.860 1.00   P
#  2005 12 24  9 12 33.04  59.3588 -153.4318    2.190  0.40 0.00 0.00 0.00        575
AUE 1.910 1.00   P
AUH 1.200 1.00   P
AUI 1.780 1.00   P
AUL 1.750 1.00   P
AUP 1.000 1.00   P
AUW 1.760 1.00   P
#  2005 12 13  4 15 25.24  59.3588 -153.4307    2.310  0.40 0.00 0.00 0.00        577
AUE 1.962 1.00   P
AUH 1.232 1.00   P
AUI 1.872 1.00   P
AUL 1.812 1.00   P
AUP 1.052 1.00   P
AUS 1.000 1.00   P
AUW 1.832 1.00   P
#  2005 12 10 14 14 25.64  59.3600 -153.4292    2.400 -0.20 0.00 0.00 0.00        578
AUE 1.918 1.00   P
AUH 1.268 1.00   P
AUL 1.598 1.00   P
AUP 1.018 1.00   P
AUS 1.000 1.00   P
AUW 1.678 1.00   P
#  2005 12 12 10  2 20.22  59.3635 -153.4297    2.320 -0.20 0.00 0.00 0.00        581
AUH 1.179 1.00   P
AUS 1.160 1.00   P
AUW 1.699 1.00   P
#  2005 12  2  9 20 56.16  59.3573 -153.4265    1.820  0.60 0.00 0.00 0.00        582
AUE 2.151 1.00   P
AUH 1.391 1.00   P
AUI 1.971 1.00   P
AUP 1.171 1.00   P
AUS 1.040 1.00   P
AUW 2.011 1.00   P
#  2005 12 12  1  7 18.88  59.3610 -153.4317    1.900 -0.10 0.00 0.00 0.00        583
AUH 1.339 1.00   P
AUP 1.109 1.00   P
AUS 1.000 1.00   P
#  2005 12 15 10 46 29.70  59.3615 -153.4315    2.460  0.10 0.00 0.00 0.00        586
AUH 1.196 1.00   P
AUP 1.056 1.00   P
AUS 1.146 1.00   P
AUW 1.716 1.00   P
#  2005 12 13  5 57 58.16  59.3608 -153.4305    2.330 -0.40 0.00 0.00 0.00        587
AUH 1.272 1.00   P
AUP 1.052 1.00   P
AUS 1.020 1.00   P
AUW 1.672 1.00   P
#  2005 12  1  9 11 53.06  59.3608 -153.4307    2.340 -0.50 0.00 0.00 0.00        588
AUH 1.211 1.00   P
AUL 1.671 1.00   P
AUP 1.011 1.00   P
AUS 1.000 1.00   P
AUW 1.721 1.00   P
#  2005 12 15  8 44 32.12  59.3595 -153.4303    2.420  0.50 0.00 0.00 0.00        589
AUH 1.140 1.00   P
AUL 1.590 1.00   P
AUE 1.940 1.00   P
AUI 1.720 1.00   P
AUP 1.000 1.00   P
AUS 1.030 1.00   P
AUW 1.680 1.00   P
#  2005 12  2  7 30  7.16  59.3587 -153.4237    2.500 -0.10 0.00 0.00 0.00        590
AUH 1.320 1.00   P
AUL 2.440 1.00   S
AUL 1.620 1.00   P
AUP 1.000 1.00   P
AUS 1.049 1.00   P
AUW 1.660 1.00   P
#  2005 12 24  9 21 47.22  59.3593 -153.4308    2.380 -0.30 0.00 0.00 0.00        591
AUE 1.870 1.00   P
AUH 1.160 1.00   P
AUL 2.430 1.00   S
AUP 1.000 1.00   P
AUW 1.720 1.00   P
#  2005 12  8 22 55  6.62  59.3582 -153.4248    2.860 -0.20 0.00 0.00 0.00        592
AUH 1.030 1.00   P
AUI 1.360 1.00   P
AUL 1.460 1.00   P
AUP 1.000 1.00   P
AUS 1.029 1.00   P
AUW 1.400 1.00   P
#  2005 12 24  7 47 51.46  59.3592 -153.4312    2.310  0.20 0.00 0.00 0.00        594
AUE 1.910 1.00   P
AUH 1.180 1.00   P
AUI 1.780 1.00   P
AUL 1.670 1.00   P
AUP 1.000 1.00   P
AUW 1.740 1.00   P
#  2005 12 11  3 17 12.62  59.3625 -153.4302    2.490  0.00 0.00 0.00 0.00        595
AUH 1.150 1.00   P
AUP 1.000 1.00   P
AUS 1.051 1.00   P
AUW 1.690 1.00   P
#  2005 12 12  1 32 48.48  59.3608 -153.4313    1.930  0.00 0.00 0.00 0.00        596
AUH 1.299 1.00   P
AUP 1.069 1.00   P
AUS 1.000 1.00   P
#  2005 12 15 10  1 47.12  59.3602 -153.4327    2.920 -0.30 0.00 0.00 0.00        598
AUH 1.000 1.00   P
AUP 1.220 1.00   P
AUS 1.130 1.00   P
#  2005 12 15 10 35  0.20  59.3610 -153.4337    1.830 -0.10 0.00 0.00 0.00        599
AUH 1.450 1.00   P
AUP 1.430 1.00   P
AUS 1.000 1.00   P
#  2005 12 21 19 28 32.80  59.3602 -153.4272    2.320  0.00 0.00 0.00 0.00        600
AUE 1.980 1.00   P
AUH 1.260 1.00   P
AUI 1.780 1.00   P
AUL 1.720 1.00   P
AUP 1.000 1.00   P
AUW 1.800 1.00   P
#  2005 12 11 20  8 58.94  59.3588 -153.4302    2.220  0.10 0.00 0.00 0.00        602
AUE 2.059 1.00   P
AUH 1.399 1.00   P
AUI 1.869 1.00   P
AUL 1.819 1.00   P
AUP 1.209 1.00   P
AUS 1.040 1.00   P
AUW 1.899 1.00   P
#  2005 12 22 22 43 44.86  59.3593 -153.4325    2.150  0.70 0.00 0.00 0.00        603
AUE 1.990 1.00   P
AUH 1.250 1.00   P
AUI 1.890 1.00   P
AUL 1.810 1.00   P
AUP 1.130 1.00   P
AUS 1.000 1.00   P
AUW 1.870 1.00   P
#  2005 12  5 18 23 47.14  59.3642 -153.4298    1.840 -0.60 0.00 0.00 0.00        604
AUH 1.440 1.00   P
AUP 1.000 1.00   P
AUS 1.069 1.00   P
#  2005 12 24 21 25 48.84  59.3650 -153.4275    1.830  0.00 0.00 0.00 0.00        605
AUE 2.310 1.00   P
AUH 1.240 1.00   P
AUI 1.900 1.00   P
AUP 1.000 1.00   P
#  2005 12 19 11 26 16.82  59.3590 -153.4277    2.190  0.30 0.00 0.00 0.00        607
AUE 1.940 1.00   P
AUH 1.220 1.00   P
AUI 1.740 1.00   P
AUL 1.720 1.00   P
AUP 1.000 1.00   P
AUW 1.740 1.00   P
#  2005 12  8 23  8 44.08  59.3573 -153.4300    3.370 -0.40 0.00 0.00 0.00        609
AUH 1.000 1.00   P
AUI 1.250 1.00   P
AUL 1.270 1.00   P
AUP 1.210 1.00   P
AUS 1.079 1.00   P
AUW 1.390 1.00   P
#  2005 12  9 10 39 12.12  59.3597 -153.4240    2.980 -0.40 0.00 0.00 0.00        610
AUH 1.079 1.00   P
AUL 1.939 1.00   S
AUP 1.009 1.00   P
AUS 1.000 1.00   P
AUW 1.439 1.00   P
#  2005 12 11  1 47 47.98  59.3597 -153.4292    2.400  0.20 0.00 0.00 0.00        611
AUE 1.830 1.00   P
AUH 1.190 1.00   P
AUI 1.680 1.00   P
AUL 1.630 1.00   P
AUP 1.000 1.00   P
AUS 1.031 1.00   P
AUW 1.690 1.00   P
#  2005 12 21 19 37 16.24  59.3585 -153.4338    1.830  0.00 0.00 0.00 0.00        615
AUE 2.160 1.00   P
AUH 1.000 1.00   P
AUI 1.960 1.00   P
AUL 1.900 1.00   P
AUP 1.200 1.00   P
AUW 2.000 1.00   P
#  2005 12 19 19 39 22.54  59.3597 -153.4290    2.090  0.10 0.00 0.00 0.00        617
AUE 2.020 1.00   P
AUH 1.160 1.00   P
AUI 1.860 1.00   P
AUL 1.680 1.00   P
AUP 1.000 1.00   P
AUW 1.760 1.00   P
#  2005 12 21 10 15 23.58  59.3600 -153.4303    2.150  0.20 0.00 0.00 0.00        618
AUE 1.960 1.00   P
AUH 1.200 1.00   P
AUI 1.740 1.00   P
AUL 1.720 1.00   P
AUP 1.000 1.00   P
AUW 1.820 1.00   P
#  2005 12 24 10 50  3.24  59.3608 -153.4243    2.280 -9.00 0.00 0.00 0.00        619
AUE 3.050 1.00   P
AUH 2.300 1.00   P
AUI 2.820 1.00   P
AUL 2.730 1.00   P
AUP 2.000 1.00   P
AUW 3.000 1.00   P
#  2005 12 18 20 50 22.20  59.3567 -153.4345    2.370  0.20 0.00 0.00 0.00        620
AUE 1.920 1.00   P
AUH 1.200 1.00   P
AUI 1.340 1.00   P
AUL 1.860 1.00   P
AUP 1.000 1.00   P
AUW 1.780 1.00   P
#  2005 12  9  3 30  8.00  59.3590 -153.4298    3.010  0.00 0.00 0.00 0.00        623
AUE 1.599 1.00   P
AUH 1.039 1.00   P
AUI 1.319 1.00   P
AUL 1.299 1.00   P
AUP 1.009 1.00   P
AUS 1.000 1.00   P
AUW 1.359 1.00   P
#  2005 12 16 16 33 48.08  59.3590 -153.4310    2.370  0.30 0.00 0.00 0.00        624
AUE 1.920 1.00   P
AUH 1.160 1.00   P
AUL 2.480 1.00   S
AUP 1.000 1.00   P
AUW 1.740 1.00   P
#  2005 12 21 10 18 33.34  59.3555 -153.4285    1.810  0.30 0.00 0.00 0.00        625
AUE 1.900 1.00   P
AUH 1.200 1.00   P
AUI 1.720 1.00   P
AUL 1.680 1.00   P
AUP 1.000 1.00   P
AUW 1.820 1.00   P
#  2005 12 11  5 22 44.80  59.3613 -153.4297    2.330  0.00 0.00 0.00 0.00        631
AUH 1.179 1.00   P
AUL 1.199 1.00   P
AUP 1.029 1.00   P
AUS 1.020 1.00   P
AUW 1.699 1.00   P
#  2005 12 11  7 31 41.14  59.3615 -153.4287    2.000  0.00 0.00 0.00 0.00        633
AUH 1.239 1.00   P
AUP 1.009 1.00   P
AUS 1.000 1.00   P
#  2005 12 24  7 36 53.90  59.3590 -153.4277    2.240  0.10 0.00 0.00 0.00        634
AUE 1.930 1.00   P
AUH 1.220 1.00   P
AUI 1.780 1.00   P
AUL 1.690 1.00   P
AUP 1.000 1.00   P
AUW 1.800 1.00   P
#  2005 12 22 22 38  2.70  59.3597 -153.4278    2.220  0.10 0.00 0.00 0.00        635
AUE 1.980 1.00   P
AUH 1.240 1.00   P
AUI 1.820 1.00   P
AUL 1.760 1.00   P
AUP 1.000 1.00   P
AUW 1.800 1.00   P
#  2005 12 15  7 53 40.70  59.3602 -153.4308    2.330 -0.10 0.00 0.00 0.00        636
AUH 1.156 1.00   P
AUP 1.016 1.00   P
AUS 1.066 1.00   P
AUW 1.696 1.00   P
#  2005 12 21  4 46  0.14  59.3583 -153.4293    2.260  0.70 0.00 0.00 0.00        637
AUE 1.920 1.00   P
AUH 1.180 1.00   P
AUI 1.700 1.00   P
AUL 2.520 1.00   S
AUP 1.000 1.00   P
AUW 1.760 1.00   P
#  2005 12 11  0 21 17.04  59.3600 -153.4308    2.310 -0.20 0.00 0.00 0.00        644
AUE 1.859 1.00   P
AUH 1.139 1.00   P
AUP 1.029 1.00   P
AUS 1.000 1.00   P
AUW 1.699 1.00   P
#  2005 12 22 12 25 50.18  59.3602 -153.4273    2.310  0.00 0.00 0.00 0.00        645
AUE 1.660 1.00   P
AUH 1.000 1.00   P
AUI 1.540 1.00   P
AUL 1.380 1.00   P
AUW 1.540 1.00   P
#  2005 12 24 10 49 42.46  59.3585 -153.4290    2.190  0.70 0.00 0.00 0.00        646
AUE 2.150 1.00   P
AUH 1.280 1.00   P
AUI 1.880 1.00   P
AUL 1.870 1.00   P
AUP 1.000 1.00   P
AUS 1.090 1.00   P
AUW 1.920 1.00   P
#  2005 12 11  3 41 52.28  59.3592 -153.4295    2.470 -0.20 0.00 0.00 0.00        647
AUE 1.830 1.00   P
AUH 1.230 1.00   P
AUL 2.450 1.00   S
AUP 1.000 1.00   P
AUW 1.670 1.00   P
#  2005 12 12  1 45 56.88  59.3580 -153.4320    2.220  0.30 0.00 0.00 0.00        648
AUE 2.099 1.00   P
AUH 1.239 1.00   P
AUI 1.809 1.00   P
AUL 2.719 1.00   S
AUP 1.129 1.00   P
AUS 1.000 1.00   P
AUW 1.839 1.00   P
#  2005 12 10 11  4 54.28  59.3612 -153.4297    2.070 -0.30 0.00 0.00 0.00        649
AUH 1.368 1.00   P
AUP 1.018 1.00   P
AUS 1.000 1.00   P
#  2005 12 15 11  2  1.10  59.3608 -153.4297    2.290  0.30 0.00 0.00 0.00        650
AUH 1.200 1.00   P
AUP 1.000 1.00   P
AUS 1.070 1.00   P
AUW 1.740 1.00   P
#  2005 12 17  3  1 21.96  59.3592 -153.4275    2.340  0.50 0.00 0.00 0.00        651
AUH 1.220 1.00   P
AUI 1.770 1.00   P
AUL 1.720 1.00   P
AUP 1.000 1.00   P
AUW 1.800 1.00   P
#  2005 12 21 19 22 26.96  59.3587 -153.4290    2.220 -0.10 0.00 0.00 0.00        652
AUE 1.900 1.00   P
AUH 1.180 1.00   P
AUI 1.740 1.00   P
AUL 1.660 1.00   P
AUP 1.000 1.00   P
AUW 1.740 1.00   P
#  2005 12 11  5 15 47.28  59.3612 -153.4292    2.480  0.00 0.00 0.00 0.00        653
AUH 1.219 1.00   P
AUP 1.009 1.00   P
AUS 1.040 1.00   P
#  2005 12 24 10 47 16.22  59.3573 -153.4327    2.300  0.30 0.00 0.00 0.00        654
AUE 2.220 1.00   P
AUH 1.250 1.00   P
AUI 1.830 1.00   P
AUL 1.820 1.00   P
AUP 1.070 1.00   P
AUS 1.000 1.00   P
AUW 2.370 1.00   P
#  2005 12 23 22 57 35.44  59.3688 -153.4255    1.820 -0.20 0.00 0.00 0.00        655
AUE 1.930 1.00   P
AUH 1.290 1.00   P
AUL 2.510 1.00   S
AUP 1.000 1.00   P
AUW 1.750 1.00   P
#  2006  1 26 11 58 58.52  59.3615 -153.4312    2.360  1.40 0.00 0.00 0.00        656
AUE 1.710 1.00   P
AUH 1.000 1.00   P
AUI 1.650 1.00   P
AUW 1.560 1.00   P
#  2006  1 14 20 18 55.18  59.3592 -153.4512    2.120  0.80 0.00 0.00 0.00        657
AUE 1.900 1.00   P
AUI 1.000 1.00   P
AUL 1.140 1.00   P
#  2006  1  5 23 50  7.20  59.3612 -153.4325    2.130  0.20 0.00 0.00 0.00        658
AUE 2.140 1.00   P
AUH 1.180 1.00   P
AUI 1.780 1.00   P
AUL 1.680 1.00   P
AUP 1.000 1.00   P
AUW 1.770 1.00   P
#  2006  1 26  4 54 45.80  59.3583 -153.4253    1.960  0.10 0.00 0.00 0.00        659
AUE 1.790 1.00   P
AUH 1.000 1.00   P
AUI 1.590 1.00   P
AUW 1.620 1.00   P
#  2006  1  2 10 55  9.12  59.3585 -153.4320    2.090  0.60 0.00 0.00 0.00        660
AU13 1.630 1.00   S
AU13 1.490 1.00   P
AU14 1.650 1.00   P
AU15 1.850 1.00   P
AUE 1.970 1.00   P
AUH 1.210 1.00   P
AUI 1.690 1.00   P
AUL 1.690 1.00   P
AUP 1.000 1.00   P
AUW 1.770 1.00   P
#  2006  1 11  6 42  7.10  59.3603 -153.4290    2.570  0.30 0.00 0.00 0.00        663
AUE 1.870 1.00   P
AUH 1.200 1.00   P
AUI 1.680 1.00   P
AUL 1.640 1.00   P
AUP 1.000 1.00   P
AUW 1.720 1.00   P
#  2006  1  3 18 53 36.08  59.3612 -153.4303    2.390  0.20 0.00 0.00 0.00        664
AU13 1.820 1.00   S
AU13 1.560 1.00   P
AU14 1.720 1.00   P
AU15 2.000 1.00   P
AUE 2.000 1.00   P
AUH 1.240 1.00   P
AUI 1.860 1.00   P
AUL 1.780 1.00   P
AUP 1.000 1.00   P
AUW 1.890 1.00   P
#  2006  1 11  5 45 18.28  59.3585 -153.4305    2.040  0.30 0.00 0.00 0.00        666
AU13 1.920 1.00   P
AU15 4.820 1.00   P
AUE 1.950 1.00   P
AUH 1.180 1.00   P
AUI 1.760 1.00   P
AUL 1.720 1.00   P
AUP 1.000 1.00   P
AUW 1.800 1.00   P
#  2006  1  3  7 56 38.32  59.3585 -153.4322    1.850  0.30 0.00 0.00 0.00        669
AUH 1.000 1.00   P
AUI 1.800 1.00   P
AUL 2.520 1.00   P
AUW 1.850 1.00   P
#  2006  1  2 10 13  2.46  59.3600 -153.4317    2.210  0.30 0.00 0.00 0.00        671
AUE 1.910 1.00   P
AUH 1.170 1.00   P
AUL 2.550 1.00   S
AUP 1.000 1.00   P
AUW 1.750 1.00   P
#  2006  1 14  5  1 56.56  59.3593 -153.4287    2.260  0.50 0.00 0.00 0.00        673
AUE 1.240 1.00   P
AUI 1.020 1.00   P
AUL 1.000 1.00   P
#  2006  1 11 19  7 11.52  59.3595 -153.4205    2.580 -0.40 0.00 0.00 0.00        674
AUE 1.410 1.00   P
AUH 1.160 1.00   P
AUI 1.940 1.00   P
AUL 1.660 1.00   P
AUP 1.000 1.00   P
AUW 1.740 1.00   P
#  2006  1 11 11 17 31.36  59.3585 -153.4308    2.210 -0.10 0.00 0.00 0.00        675
AUE 2.050 1.00   P
AUH 1.140 1.00   P
AUL 2.480 1.00   S
AUP 1.000 1.00   P
AUW 1.720 1.00   P
#  2006  1 11  3 58 35.34  59.3578 -153.4275    2.150  0.40 0.00 0.00 0.00        676
AUE 2.010 1.00   P
AUH 1.140 1.00   P
AUI 1.700 1.00   P
AUL 1.720 1.00   P
AUP 1.000 1.00   P
AUW 1.780 1.00   P
#  2006  1 11  5 59 29.68  59.3623 -153.4288    2.450  1.10 0.00 0.00 0.00        677
AUE 1.910 1.00   P
AUH 1.120 1.00   P
AUI 1.880 1.00   P
AUL 1.720 1.00   P
AUP 1.000 1.00   P
AUW 1.780 1.00   P
#  2006  1 12  4 17 37.42  59.3607 -153.4202    1.830  0.10 0.00 0.00 0.00        681
AUE 2.350 1.00   P
AUH 1.760 1.00   P
AUL 3.100 1.00   S
AUP 1.000 1.00   P
AUW 2.260 1.00   P
#  2006  1 11  8 50  5.24  59.3582 -153.4317    2.350 -0.10 0.00 0.00 0.00        682
AUE 1.610 1.00   P
AUH 1.160 1.00   P
AUL 1.800 1.00   P
AUP 1.000 1.00   P
AUW 1.380 1.00   P
#  2006  1 11 11 19 23.88  59.3587 -153.4305    1.820  0.30 0.00 0.00 0.00        683
AUE 2.150 1.00   P
AUH 1.300 1.00   P
AUI 2.160 1.00   P
AUL 2.560 1.00   P
AUP 1.000 1.00   P
AUW 1.980 1.00   P
#  2006  1 11 13 41 33.40  59.3585 -153.4323    2.250  0.90 0.00 0.00 0.00        684
AUE 1.970 1.00   P
AUH 1.140 1.00   P
AUI 1.720 1.00   P
AUL 1.700 1.00   P
AUP 1.000 1.00   P
AUW 1.760 1.00   P
#  2006  1 14 19 15 23.76  59.3628 -153.4387    2.500  0.20 0.00 0.00 0.00        685
AUE 1.700 1.00   P
AUI 1.080 1.00   P
AUL 1.000 1.00   P
#  2006  1 23 11 47 57.48  59.3597 -153.4290    2.290  0.60 0.00 0.00 0.00        686
AUE 1.760 1.00   P
AUH 1.000 1.00   P
AUI 1.590 1.00   P
AUW 1.600 1.00   P
#  2006  1 11  3 19 36.68  59.3573 -153.4250    2.020  0.90 0.00 0.00 0.00        688
AU13 1.580 1.00   P
AU15 2.300 1.00   P
AUE 1.950 1.00   P
AUH 1.240 1.00   P
AUI 1.780 1.00   P
AUL 1.780 1.00   P
AUP 1.000 1.00   P
AUW 1.820 1.00   P
#  2006  1 11  3  2 15.06  59.3592 -153.4263    2.420  0.60 0.00 0.00 0.00        694
AUE 1.890 1.00   P
AUH 1.180 1.00   P
AUI 1.680 1.00   P
AUL 1.700 1.00   P
AUP 1.000 1.00   P
AUW 1.780 1.00   P
#  2006  1 11  3 19 12.14  59.3590 -153.4295    2.100  0.10 0.00 0.00 0.00        695
AUE 1.910 1.00   P
AUH 1.200 1.00   P
AUI 1.840 1.00   P
AUL 1.740 1.00   P
AUP 1.000 1.00   P
AUW 1.800 1.00   P
#  2006  1  2  7 56 14.84  59.3613 -153.4288    2.380  0.30 0.00 0.00 0.00        696
AU13 1.770 1.00   S
AU13 1.570 1.00   P
AU14 1.710 1.00   P
AU15 1.970 1.00   P
AUE 1.990 1.00   P
AUH 1.190 1.00   P
AUI 1.970 1.00   P
AUL 1.810 1.00   P
AUP 1.000 1.00   P
AUW 1.830 1.00   P
#  2006  1 11  6 10 35.86  59.3590 -153.4272    2.220  0.90 0.00 0.00 0.00        698
AUE 1.930 1.00   P
AUH 1.220 1.00   P
AUI 1.780 1.00   P
AUL 1.740 1.00   P
AUP 1.000 1.00   P
AUW 1.800 1.00   P
#  2006  1 11  3 53 39.34  59.3633 -153.4278    2.260 -0.20 0.00 0.00 0.00        699
AUH 1.180 1.00   P
AUL 1.660 1.00   P
AUP 1.000 1.00   P
AUW 1.820 1.00   P
#  2006  1 11 13  1 25.78  59.3593 -153.4457    2.080 -9.00 0.00 0.00 0.00        700
AUE 3.970 1.00   P
AUH 2.000 1.00   P
AUI 3.040 1.00   P
AUL 2.980 1.00   P
AUW 3.080 1.00   P
#  2006  1 11 12 14 32.18  59.3628 -153.4260    2.360 -0.10 0.00 0.00 0.00        701
AUE 2.130 1.00   P
AUH 1.480 1.00   P
AUL 1.680 1.00   P
AUP 1.000 1.00   P
AUW 1.780 1.00   P
#  2006  1 11  0 38 27.98  59.3602 -153.4285    2.430 -0.10 0.00 0.00 0.00        702
AUE 1.630 1.00   P
AUH 1.160 1.00   P
AUL 2.480 1.00   S
AUP 1.000 1.00   P
AUW 1.700 1.00   P
#  2006  1 14  6 18 20.12  59.3618 -153.4430    1.960  0.50 0.00 0.00 0.00        703
AUE 1.220 1.00   P
AUI 1.000 1.00   P
AUL 1.080 1.00   P
#  2006  1 11  1 52 56.90  59.3612 -153.4327    2.430  0.20 0.00 0.00 0.00        704
AUH 1.080 1.00   P
AUP 1.000 1.00   P
AUW 1.700 1.00   P
#  2006  1 11 12 13 53.34  59.3600 -153.4388    2.690  0.10 0.00 0.00 0.00        707
AUH 1.020 1.00   P
AUL 2.240 1.00   S
AUP 1.000 1.00   P
AUW 1.200 1.00   P
#  2006  1 11  2 48 56.64  59.3607 -153.4290    1.950  0.00 0.00 0.00 0.00        708
AUE 2.330 1.00   P
AUH 1.180 1.00   P
AUI 1.840 1.00   P
AUL 1.720 1.00   P
AUP 1.000 1.00   P
AUW 1.780 1.00   P
#  2006  1 11 10 38 36.50  59.3585 -153.4253    1.830  1.00 0.00 0.00 0.00        710
AUE 2.290 1.00   P
AUH 1.440 1.00   P
AUI 2.040 1.00   P
AUL 2.060 1.00   P
AUP 1.000 1.00   P
AUW 2.120 1.00   P
#  2006  1 11  8 12 18.16  59.3595 -153.4278    2.460  1.00 0.00 0.00 0.00        711
AUE 1.930 1.00   P
AUH 1.200 1.00   P
AUI 1.800 1.00   P
AUL 1.760 1.00   P
AUP 1.000 1.00   P
AUW 1.800 1.00   P
