#  2006  1 11 13 30 34.56  59.3585 -153.4260    2.010  0.00 0.00 0.00 0.00       1155
AUE 2.430 1.00   P
AUH 1.700 1.00   P
AUI 2.300 1.00   P
AUL 2.200 1.00   P
AUP 1.000 1.00   P
AUW 2.380 1.00   P
#  2006  1  2  7 25  5.24  59.3588 -153.4298    2.200  0.40 0.00 0.00 0.00       1156
AUE 1.950 1.00   P
AUH 1.190 1.00   P
AUI 1.710 1.00   P
AUL 1.730 1.00   P
AUP 1.000 1.00   P
AUW 1.770 1.00   P
#  2006  1 11 11 28 39.58  59.3678 -153.4310    1.820 -0.20 0.00 0.00 0.00       1157
AUH 1.140 1.00   P
AUP 1.000 1.00   P
AUW 1.760 1.00   P
#  2006  1 14  5 45 36.14  59.3585 -153.4362    1.820  0.70 0.00 0.00 0.00       1159
AUE 1.680 1.00   P
AUI 1.100 1.00   P
AUL 1.000 1.00   P
#  2006  1 11 11  2 54.88  59.3600 -153.4282    2.490  0.10 0.00 0.00 0.00       1160
AUE 1.910 1.00   P
AUH 1.260 1.00   P
AUI 1.760 1.00   P
AUL 1.680 1.00   P
AUP 1.000 1.00   P
AUW 1.760 1.00   P
#  2006  1 11  5 30 11.08  59.3582 -153.4275    2.100  1.30 0.00 0.00 0.00       1163
AUE 1.950 1.00   P
AUH 1.180 1.00   P
AUI 1.700 1.00   P
AUL 1.720 1.00   P
AUP 1.000 1.00   P
AUW 1.780 1.00   P
#  2006  1 11  7 58 21.18  59.3580 -153.4275    2.430 -0.40 0.00 0.00 0.00       1164
AUE 1.910 1.00   P
AUH 1.300 1.00   P
AUI 1.720 1.00   P
AUL 1.680 1.00   P
AUP 1.000 1.00   P
AUW 1.780 1.00   P
#  2006  1 11 11 13 32.28  59.3600 -153.4253    2.220  0.90 0.00 0.00 0.00       1165
AUE 1.950 1.00   P
AUH 1.200 1.00   P
AUI 1.780 1.00   P
AUL 1.760 1.00   P
AUP 1.000 1.00   P
AUW 1.880 1.00   P
#  2006  1  6  7 44 30.20  59.3567 -153.4478    2.810  0.80 0.00 0.00 0.00       1168
AUE 2.400 1.00   P
AUH 1.000 1.00   P
AUI 1.590 1.00   P
AUL 1.630 1.00   P
AUW 1.390 1.00   P
#  2006  1 11  5 22  1.60  59.3585 -153.4297    1.810  0.70 0.00 0.00 0.00       1169
AUE 2.070 1.00   P
AUH 1.200 1.00   P
AUI 1.760 1.00   P
AUL 1.800 1.00   P
AUP 1.000 1.00   P
AUW 1.820 1.00   P
#  2006  1 14 20 40 59.42  59.3627 -153.4260    2.670  0.30 0.00 0.00 0.00       1170
AUE 1.120 1.00   P
AUI 1.000 1.00   P
AUL 1.080 1.00   P
#  2006  1 11 13  6 56.12  59.3582 -153.4258    2.080  1.60 0.00 0.00 0.00       1171
AUE 1.870 1.00   P
AUH 1.140 1.00   P
AUI 1.740 1.00   P
AUL 1.760 1.00   P
AUP 1.000 1.00   P
AUW 1.780 1.00   P
#  2006  1 11 22 34 40.98  59.3600 -153.4340    1.810 -0.30 0.00 0.00 0.00       1172
AU13 3.180 1.00   P
AU15 6.760 1.00   P
AUE 1.950 1.00   P
AUH 1.020 1.00   P
AUI 1.980 1.00   P
AUL 1.700 1.00   P
AUP 1.000 1.00   P
AUW 1.800 1.00   P
#  2006  1 11  9 28 49.84  59.3590 -153.4300    2.100  0.10 0.00 0.00 0.00       1183
AUE 1.990 1.00   P
AUH 1.200 1.00   P
AUI 1.920 1.00   P
AUL 1.780 1.00   P
AUP 1.000 1.00   P
AUW 1.820 1.00   P
#  2006  1 11  4 30  5.88  59.3592 -153.4313    2.200  0.70 0.00 0.00 0.00       1185
AUE 1.970 1.00   P
AUH 1.240 1.00   P
AUI 1.740 1.00   P
AUL 1.760 1.00   P
AUP 1.000 1.00   P
AUW 1.820 1.00   P
#  2006  1 11  4 13 25.46  59.3588 -153.4292    2.060  0.60 0.00 0.00 0.00       1186
AUE 2.010 1.00   P
AUH 1.180 1.00   P
AUI 1.760 1.00   P
AUL 1.740 1.00   P
AUP 1.000 1.00   P
AUW 1.780 1.00   P
#  2006  1  3 21 31 44.28  59.3585 -153.4305    2.180  0.40 0.00 0.00 0.00       1188
AUH 1.000 1.00   P
AUI 1.520 1.00   P
AUL 1.640 1.00   P
AUW 1.570 1.00   P
#  2006  1 11  4 56 33.84  59.3625 -153.4242    2.100  0.40 0.00 0.00 0.00       1189
AUH 1.560 1.00   P
AUI 2.360 1.00   P
AUP 1.000 1.00   P
AUW 1.920 1.00   P
#  2006  1 14  6 55 53.44  59.3560 -153.4495    2.410  0.80 0.00 0.00 0.00       1190
AUE 1.880 1.00   P
AUI 1.000 1.00   P
AUL 1.420 1.00   P
#  2006  1 11 11 21 30.90  59.3565 -153.4253    2.280  0.10 0.00 0.00 0.00       1193
AUE 1.910 1.00   P
AUH 1.300 1.00   P
AUI 1.560 1.00   P
AUL 2.080 1.00   P
AUP 1.000 1.00   P
#  2006  1 26  4 50 31.60  59.3578 -153.4293    2.180  0.70 0.00 0.00 0.00       1194
AUE 1.750 1.00   P
AUH 1.000 1.00   P
AUI 1.530 1.00   P
AUW 1.600 1.00   P
#  2006  1 27 11 38 39.34  59.3585 -153.4328    1.980  0.90 0.00 0.00 0.00       1195
AUE 1.890 1.00   P
AUH 1.000 1.00   P
AUI 1.610 1.00   P
AUW 1.660 1.00   P
#  2006  1 11  4 56 45.10  59.3638 -153.4328    1.820  0.90 0.00 0.00 0.00       1196
AU13 1.580 1.00   P
AU15 3.340 1.00   P
AUE 2.070 1.00   P
AUH 1.140 1.00   P
AUI 1.780 1.00   P
AUL 1.660 1.00   P
AUP 1.000 1.00   P
AUW 1.760 1.00   P
#  2006  1 11 13 23  3.04  59.3538 -153.4297    1.820  0.10 0.00 0.00 0.00       1199
AUE 1.990 1.00   P
AUH 1.240 1.00   P
AUI 1.240 1.00   P
AUL 2.420 1.00   P
AUP 1.000 1.00   P
AUW 1.900 1.00   P
#  2006  1 14 13 54 14.00  59.3622 -153.4423    2.970  0.80 0.00 0.00 0.00       1200
AUE 1.680 1.00   P
AUI 1.080 1.00   P
AUL 1.000 1.00   P
#  2006  1 11  3  9 12.70  59.3590 -153.4295    2.230  0.20 0.00 0.00 0.00       1201
AU13 1.600 1.00   P
AU15 3.460 1.00   P
AUE 1.950 1.00   P
AUH 1.200 1.00   P
AUI 1.760 1.00   P
AUL 1.740 1.00   P
AUP 1.000 1.00   P
AUW 1.800 1.00   P
#  2006  1 11  6 25 59.04  59.3535 -153.4243    2.210 -0.10 0.00 0.00 0.00       1204
AUE 1.910 1.00   P
AUH 1.220 1.00   P
AUI 1.140 1.00   P
AUL 1.660 1.00   P
AUP 1.000 1.00   P
AUW 1.800 1.00   P
#  2006  1 11  5  1 53.40  59.3587 -153.4293    1.830  1.10 0.00 0.00 0.00       1205
AUE 1.850 1.00   P
AUH 1.000 1.00   P
AUI 1.600 1.00   P
AUL 1.560 1.00   P
AUW 1.640 1.00   P
#  2006  1 14  3  4 56.10  59.3553 -153.4527    3.660  0.80 0.00 0.00 0.00       1206
AUE 1.180 1.00   P
AUI 1.000 1.00   P
AUL 1.140 1.00   P
#  2006  1 11  4 25 46.32  59.3587 -153.4303    1.970  0.10 0.00 0.00 0.00       1207
AUH 1.000 1.00   P
AUP 1.260 1.00   P
AUW 2.100 1.00   P
#  2006  1 27 11  0 49.08  59.3593 -153.4307    2.550 -0.10 0.00 0.00 0.00       1208
AUE 1.910 1.00   P
AUH 1.000 1.00   P
AUI 1.590 1.00   P
AUW 1.620 1.00   P
#  2006  1 11  4 57 15.36  59.3577 -153.4325    2.370  0.10 0.00 0.00 0.00       1209
AUE 1.950 1.00   P
AUH 1.120 1.00   P
AUI 1.620 1.00   P
AUL 1.640 1.00   P
AUP 1.000 1.00   P
AUW 1.660 1.00   P
#  2006  1 11 11 22 13.64  59.3647 -153.4283    1.830 -0.50 0.00 0.00 0.00       1210
AUE 1.910 1.00   P
AUH 1.460 1.00   P
AUI 2.480 1.00   P
AUL 1.760 1.00   P
AUP 1.000 1.00   P
AUW 1.820 1.00   P
#  2006  1 17 19  6 44.04  59.3585 -153.4303    2.070  0.20 0.00 0.00 0.00       1211
AUE 1.760 1.00   P
AUH 1.000 1.00   P
AUI 1.540 1.00   P
AUL 1.580 1.00   P
AUW 1.600 1.00   P
#  2006  1 11 11 13 23.70  59.3633 -153.4288    1.870 -0.30 0.00 0.00 0.00       1212
AUH 1.280 1.00   P
AUP 1.000 1.00   P
#  2006  1 11  5 23 11.52  59.3607 -153.4307    2.260  0.70 0.00 0.00 0.00       1213
AUE 1.850 1.00   P
AUH 1.140 1.00   P
AUI 1.780 1.00   P
AUL 1.680 1.00   P
AUP 1.000 1.00   P
AUW 1.720 1.00   P
#  2006  1 11  5 54 30.28  59.3612 -153.4307    2.370  1.30 0.00 0.00 0.00       1214
AUE 1.990 1.00   P
AUH 1.140 1.00   P
AUI 1.780 1.00   P
AUL 1.720 1.00   P
AUP 1.000 1.00   P
AUW 1.820 1.00   P
#  2006  1 14 23 58  5.82  59.3613 -153.4180    1.820  0.50 0.00 0.00 0.00       1215
AUE 1.000 1.00   P
AUI 1.400 1.00   P
#  2006  1 11  4 31 38.56  59.3590 -153.4305    2.070  0.20 0.00 0.00 0.00       1218
AUE 1.910 1.00   P
AUH 1.140 1.00   P
AUI 1.780 1.00   P
AUL 1.720 1.00   P
AUP 1.000 1.00   P
AUW 1.760 1.00   P
#  2006  1 14  9 57 33.00  59.3573 -153.4208    1.820  0.40 0.00 0.00 0.00       1219
AUE 1.180 1.00   P
AUI 1.000 1.00   P
AUL 1.260 1.00   P
#  2006  1 11  4 42 36.96  59.3670 -153.4300    1.830  0.10 0.00 0.00 0.00       1220
AUE 2.410 1.00   P
AUH 1.440 1.00   P
AUP 1.000 1.00   P
AUW 2.120 1.00   P
#  2006  1 11  5 36 27.76  59.3582 -153.4285    2.150  0.20 0.00 0.00 0.00       1223
AUE 1.930 1.00   P
AUH 1.200 1.00   P
AUP 1.000 1.00   P
AUW 1.820 1.00   P
#  2006  1 11 11 25 37.40  59.3607 -153.4320    2.390  0.00 0.00 0.00 0.00       1225
AUE 1.970 1.00   P
AUH 1.120 1.00   P
AUI 1.540 1.00   P
AUL 1.540 1.00   P
AUP 1.000 1.00   P
AUW 1.660 1.00   P
#  2006  1 11  5 53 44.74  59.3583 -153.4290    2.140  0.40 0.00 0.00 0.00       1226
AUE 1.950 1.00   P
AUH 1.160 1.00   P
AUI 1.800 1.00   P
AUL 1.740 1.00   P
AUP 1.000 1.00   P
AUW 1.760 1.00   P
#  2006  1 27  6  2 12.32  59.3585 -153.4337    2.020  0.60 0.00 0.00 0.00       1230
AUE 1.910 1.00   P
AUH 1.000 1.00   P
AUI 1.610 1.00   P
AUW 1.680 1.00   P
#  2006  1 14 13  0  3.60  59.3592 -153.4570    1.840  0.80 0.00 0.00 0.00       1233
AUE 1.680 1.00   P
AUI 1.780 1.00   P
AUL 1.000 1.00   P
#  2006  1 11  4 18  9.82  59.3595 -153.4327    2.070  1.00 0.00 0.00 0.00       1234
AUE 1.790 1.00   P
AUH 1.000 1.00   P
AUI 1.580 1.00   P
AUL 1.520 1.00   P
AUW 1.620 1.00   P
#  2006  1 26 12  5  4.54  59.3642 -153.4262    2.430  0.40 0.00 0.00 0.00       1235
AUE 1.730 1.00   P
AUH 1.000 1.00   P
AUI 1.570 1.00   P
AUW 1.520 1.00   P
#  2006  1 11  7  7 30.10  59.3593 -153.4343    2.610 -0.20 0.00 0.00 0.00       1239
AUH 1.000 1.00   P
AUP 1.040 1.00   P
AUW 1.520 1.00   P
#  2006  1 11  4 38 32.42  59.3612 -153.4268    2.580  0.80 0.00 0.00 0.00       1240
AUE 1.890 1.00   P
AUH 1.160 1.00   P
AUI 1.680 1.00   P
AUL 1.660 1.00   P
AUP 1.000 1.00   P
AUW 1.720 1.00   P
#  2006  1 12  3  7 26.70  59.3608 -153.4290    2.530  0.10 0.00 0.00 0.00       1241
AUE 1.730 1.00   P
AUH 1.120 1.00   P
AUL 2.260 1.00   S
AUP 1.000 1.00   P
AUW 1.580 1.00   P
#  2006  1 11 13 10 36.20  59.3622 -153.4327    1.930 -0.30 0.00 0.00 0.00       1242
AUH 1.140 1.00   P
AUI 2.640 1.00   P
AUL 1.700 1.00   P
AUP 1.000 1.00   P
AUW 1.760 1.00   P
#  2006  1 11 12 48  6.86  59.3598 -153.4290    2.780  0.50 0.00 0.00 0.00       1243
AUE 1.870 1.00   P
AUH 1.300 1.00   P
AUI 1.580 1.00   P
AUL 1.500 1.00   P
AUP 1.000 1.00   P
AUW 1.580 1.00   P
#  2006  1 11 10 57 13.10  59.3590 -153.4348    2.480 -0.30 0.00 0.00 0.00       1244
AUE 1.650 1.00   P
AUH 1.000 1.00   P
AUL 2.500 1.00   S
AUP 1.200 1.00   P
AUW 1.740 1.00   P
#  2006  1 11  5 24 28.48  59.3602 -153.4308    2.830  1.00 0.00 0.00 0.00       1245
AUE 1.710 1.00   P
AUH 1.000 1.00   P
AUI 1.520 1.00   P
AUL 1.520 1.00   P
AUW 1.440 1.00   P
#  2006  1 14  8 18 41.08  59.3590 -153.4288    1.980  0.10 0.00 0.00 0.00       1246
AUE 2.280 1.00   P
AUI 2.100 1.00   P
AUL 2.000 1.00   P
#  2006  1 11  5 23 29.14  59.3577 -153.4297    2.150  0.80 0.00 0.00 0.00       1247
AUE 2.010 1.00   P
AUH 1.160 1.00   P
AUI 1.740 1.00   P
AUL 1.760 1.00   P
AUP 1.000 1.00   P
AUW 1.840 1.00   P
#  2006  1 11  4 11 12.20  59.3582 -153.4280    1.830  1.30 0.00 0.00 0.00       1248
AUE 1.790 1.00   P
AUH 1.000 1.00   P
AUI 1.580 1.00   P
AUL 1.560 1.00   P
AUW 1.660 1.00   P
#  2006  1 11 18 50 19.32  59.3588 -153.4280    2.330 -0.20 0.00 0.00 0.00       1249
AUE 1.270 1.00   P
AUH 1.280 1.00   P
AUL 2.600 1.00   S
AUP 1.000 1.00   P
AUW 1.800 1.00   P
#  2006  1 11  7 11  1.00  59.3555 -153.4360    1.820 -0.20 0.00 0.00 0.00       1250
AUE 2.610 1.00   P
AUH 1.200 1.00   P
AUI 1.780 1.00   P
AUL 1.800 1.00   P
AUP 1.000 1.00   P
AUW 1.840 1.00   P
#  2006  1 27  0 25  7.12  59.3602 -153.4325    2.300  1.10 0.00 0.00 0.00       1251
AUE 1.810 1.00   P
AUH 1.000 1.00   P
AUI 2.540 1.00   S
AUI 1.630 1.00   P
AUW 1.640 1.00   P
#  2006  1 11 22 35 54.80  59.3600 -153.4302    2.230 -0.10 0.00 0.00 0.00       1252
AUE 1.910 1.00   P
AUH 1.260 1.00   P
AUI 1.760 1.00   P
AUL 1.740 1.00   P
AUP 1.000 1.00   P
AUW 1.820 1.00   P
#  2006  1 11 18 48 44.30  59.3590 -153.4240    2.330  0.20 0.00 0.00 0.00       1260
AUE 1.990 1.00   P
AUH 1.420 1.00   P
AUI 1.760 1.00   P
AUL 1.720 1.00   P
AUP 1.000 1.00   P
AUW 1.820 1.00   P
#  2006  1 14 17 42 37.50  59.3563 -153.4283    2.300  0.20 0.00 0.00 0.00       1261
AUE 1.260 1.00   P
AUI 1.040 1.00   P
AUL 1.000 1.00   P
#  2006  1 11  6 51 57.62  59.3638 -153.4345    1.870  0.00 0.00 0.00 0.00       1262
AUH 1.040 1.00   P
AUL 1.740 1.00   P
AUP 1.000 1.00   P
AUW 2.160 1.00   P
#  2006  1 11 11 14  7.02  59.3585 -153.4338    1.850  0.80 0.00 0.00 0.00       1264
AUE 1.890 1.00   P
AUH 1.160 1.00   P
AUI 1.720 1.00   P
AUL 1.680 1.00   P
AUP 1.000 1.00   P
AUW 1.740 1.00   P
#  2006  1 11 10 26 20.40  59.3590 -153.4275    2.410  0.60 0.00 0.00 0.00       1265
AU13 1.560 1.00   P
AU15 3.820 1.00   P
AUE 1.890 1.00   P
AUH 1.220 1.00   P
AUI 1.760 1.00   P
AUL 1.700 1.00   P
AUP 1.000 1.00   P
AUW 1.760 1.00   P
#  2006  1 11  1 47 37.20  59.3600 -153.4287    2.310  0.00 0.00 0.00 0.00       1267
AUE 1.950 1.00   P
AUH 1.220 1.00   P
AUI 1.900 1.00   P
AUL 1.660 1.00   P
AUP 1.000 1.00   P
AUW 1.760 1.00   P
#  2006  1 11  4  8 42.34  59.3605 -153.4242    1.840  0.50 0.00 0.00 0.00       1268
AUE 1.770 1.00   P
AUH 1.000 1.00   P
AUW 1.620 1.00   P
#  2006  1 27 17  1 39.38  59.3573 -153.4408    1.860  0.70 0.00 0.00 0.00       1269
AU13 1.580 1.00   P
AU15 4.640 1.00   P
AUE 2.270 1.00   P
AUH 1.000 1.00   P
AUI 1.710 1.00   P
AUW 1.660 1.00   P
#  2006  1 14 15 35 14.80  59.3583 -153.4328    1.930  0.60 0.00 0.00 0.00       1274
AUE 1.460 1.00   P
AUI 1.000 1.00   P
AUL 1.220 1.00   P
#  2006  1 11  4 56  4.18  59.3578 -153.4320    2.200  0.20 0.00 0.00 0.00       1276
AUE 1.930 1.00   P
AUH 1.220 1.00   P
AUI 1.700 1.00   P
AUL 1.740 1.00   P
AUP 1.000 1.00   P
AUW 1.780 1.00   P
#  2006  1 11 13 33  6.34  59.3562 -153.4323    2.340  1.30 0.00 0.00 0.00       1280
AUE 1.970 1.00   P
AUH 1.180 1.00   P
AUI 1.760 1.00   P
AUL 1.720 1.00   P
AUP 1.000 1.00   P
AUW 1.760 1.00   P
#  2006  1 11  4 19 47.80  59.3555 -153.4312    1.820  0.60 0.00 0.00 0.00       1281
AUE 2.030 1.00   P
AUH 1.200 1.00   P
AUI 1.880 1.00   P
AUL 1.780 1.00   P
AUP 1.000 1.00   P
AUW 1.800 1.00   P
#  2006  1 11 12 32 47.36  59.3533 -153.4288    2.240  0.10 0.00 0.00 0.00       1284
AUH 1.360 1.00   P
AUI 1.000 1.00   P
AUL 1.860 1.00   P
AUP 1.200 1.00   P
AUW 2.040 1.00   P
#  2006  1 11 10 47 30.02  59.3590 -153.4305    2.200  0.20 0.00 0.00 0.00       1286
AUH 1.140 1.00   P
AUI 1.980 1.00   P
AUL 1.700 1.00   P
AUP 1.000 1.00   P
AUW 1.740 1.00   P
#  2006  1 11  2 54 45.78  59.3592 -153.4283    2.240  0.30 0.00 0.00 0.00       1288
AUE 1.930 1.00   P
AUH 1.200 1.00   P
AUP 1.000 1.00   P
AUW 1.760 1.00   P
#  2006  1 11 10 43  5.86  59.3595 -153.4157    1.820 -0.20 0.00 0.00 0.00       1289
AUE 2.010 1.00   P
AUH 1.300 1.00   P
AUI 3.190 1.00   S
AUI 1.780 1.00   P
AUL 1.780 1.00   P
AUP 1.000 1.00   P
AUW 1.820 1.00   P
#  2006  1 11 20  9 53.50  59.3595 -153.4305    2.320  0.60 0.00 0.00 0.00       1290
AUE 1.930 1.00   P
AUH 1.200 1.00   P
AUI 1.720 1.00   P
AUL 1.720 1.00   P
AUP 1.000 1.00   P
AUW 1.780 1.00   P
#  2006  1 11  2 45 21.80  59.3587 -153.4293    2.250  0.60 0.00 0.00 0.00       1291
AUE 1.910 1.00   P
AUH 1.200 1.00   P
AUI 1.780 1.00   P
AUL 1.680 1.00   P
AUP 1.000 1.00   P
AUW 1.760 1.00   P
#  2006  1 26 22 53 33.80  59.3615 -153.4297    3.130  0.30 0.00 0.00 0.00       1294
AU13 1.380 1.00   P
AU15 4.520 1.00   P
AUE 1.750 1.00   P
AUH 1.000 1.00   P
AUI 1.510 1.00   P
AUW 1.600 1.00   P
#  2006  1 11  4 13 52.38  59.3595 -153.4248    1.830  1.10 0.00 0.00 0.00       1296
AUE 2.270 1.00   P
AUH 1.440 1.00   P
AUI 2.000 1.00   P
AUL 2.040 1.00   P
AUP 1.000 1.00   P
AUW 2.100 1.00   P
#  2006  1 11 10 19 26.78  59.3582 -153.4318    2.240  1.20 0.00 0.00 0.00       1297
AUE 1.890 1.00   P
AUH 1.140 1.00   P
AUI 1.700 1.00   P
AUL 1.660 1.00   P
AUP 1.000 1.00   P
AUW 1.720 1.00   P
#  2006  1 11 12 37 35.36  59.3588 -153.4310    2.130 -0.30 0.00 0.00 0.00       1298
AUH 1.140 1.00   P
AUI 1.800 1.00   P
AUL 1.720 1.00   P
AUP 1.000 1.00   P
AUW 2.020 1.00   P
#  2006  1 27 11 11 54.72  59.3588 -153.4405    3.780  0.40 0.00 0.00 0.00       1299
AUE 1.890 1.00   P
AUH 1.000 1.00   P
AUI 1.570 1.00   P
AUW 1.560 1.00   P
#  2006  1 11  0 53 47.86  59.3605 -153.4310    2.430  0.00 0.00 0.00 0.00       1300
AUE 1.890 1.00   P
AUH 1.140 1.00   P
AUI 2.020 1.00   P
AUL 1.640 1.00   P
AUP 1.000 1.00   P
AUW 1.680 1.00   P
#  2006  1 14  2 23 56.44  59.3607 -153.4553    1.810  0.80 0.00 0.00 0.00       1302
AUE 1.640 1.00   P
AUI 1.420 1.00   P
AUL 1.000 1.00   P
#  2006  1  6  0 44 45.60  59.3582 -153.4262    1.810  0.60 0.00 0.00 0.00       1303
AUE 2.150 1.00   P
AUH 1.430 1.00   P
AUI 1.920 1.00   P
AUL 2.940 1.00   S
AUP 1.000 1.00   P
AUW 2.020 1.00   P
#  2006  1 11 11 20 44.78  59.3590 -153.4300    2.380  0.10 0.00 0.00 0.00       1305
AUE 1.850 1.00   P
AUH 1.140 1.00   P
AUL 2.400 1.00   S
AUP 1.000 1.00   P
AUW 1.680 1.00   P
#  2006  1 14 21 27 29.62  59.3640 -153.4188    1.820  0.70 0.00 0.00 0.00       1308
AUE 1.000 1.00   P
AUI 1.240 1.00   P
AUL 1.100 1.00   P
#  2006  1 27 11  6 35.86  59.3643 -153.4320    2.050  1.10 0.00 0.00 0.00       1309
AUE 1.870 1.00   P
AUH 1.000 1.00   P
AUI 1.630 1.00   P
AUW 1.680 1.00   P
#  2006  1 11  4  8  9.88  59.3593 -153.4300    2.250  0.00 0.00 0.00 0.00       1313
AUH 1.160 1.00   P
AUP 1.000 1.00   P
AUW 1.780 1.00   P
#  2006  1 11  6 19 15.86  59.3598 -153.4082    2.460  0.30 0.00 0.00 0.00       1314
AUH 1.180 1.00   P
AUI 1.640 1.00   P
AUL 1.700 1.00   P
AUP 1.000 1.00   P
AUW 1.760 1.00   P
#  2006  1 12  6 54 57.60  59.3623 -153.4078    1.800 -0.30 0.00 0.00 0.00       1316
AUE 1.530 1.00   P
AUH 1.480 1.00   P
AUI 2.340 1.00   P
AUL 2.000 1.00   P
AUP 1.000 1.00   P
AUW 2.100 1.00   P
#  2006  1  6 23  1 57.70  59.3563 -153.4522    2.770  1.50 0.00 0.00 0.00       1317
AUH 1.000 1.00   P
AUI 1.510 1.00   P
AUL 1.550 1.00   P
AUW 1.490 1.00   P
#  2006  1 11  8 16 34.58  59.3577 -153.4288    2.220  1.10 0.00 0.00 0.00       1318
AUE 1.970 1.00   P
AUH 1.180 1.00   P
AUI 1.720 1.00   P
AUL 1.740 1.00   P
AUP 1.000 1.00   P
AUW 1.800 1.00   P
#  2006  1 11 12 36 47.32  59.3592 -153.4322    1.970  0.70 0.00 0.00 0.00       1319
AUE 1.930 1.00   P
AUH 1.200 1.00   P
AUI 1.760 1.00   P
AUL 1.680 1.00   P
AUP 1.000 1.00   P
AUW 1.740 1.00   P
#  2006  1 11 13 15 54.82  59.3580 -153.4323    2.280  0.40 0.00 0.00 0.00       1322
AUE 2.030 1.00   P
AUH 1.180 1.00   P
AUI 1.820 1.00   P
AUL 1.780 1.00   P
AUP 1.000 1.00   P
AUW 1.900 1.00   P
#  2006  1 11  6 24  8.72  59.3567 -153.4232    1.830  0.70 0.00 0.00 0.00       1324
AUE 1.990 1.00   P
AUH 1.260 1.00   P
AUI 1.740 1.00   P
AUL 1.760 1.00   P
AUP 1.000 1.00   P
AUW 1.900 1.00   P
#  2006  1 27 17 18 13.86  59.3610 -153.4322    2.420  0.80 0.00 0.00 0.00       1325
AUE 1.710 1.00   P
AUH 1.000 1.00   P
AUI 1.610 1.00   P
AUW 1.520 1.00   P
#  2006  1  2  7 37  8.28  59.3585 -153.4257    2.220  0.50 0.00 0.00 0.00       1326
AU13 1.690 1.00   P
AU15 2.790 1.00   P
AUE 1.930 1.00   P
AUH 1.290 1.00   P
AUI 1.810 1.00   P
AUP 1.000 1.00   P
AUW 1.870 1.00   P
#  2006  1 11  6 14 24.76  59.3587 -153.4318    1.820  1.00 0.00 0.00 0.00       1331
AUE 2.030 1.00   P
AUH 1.200 1.00   P
AUI 1.800 1.00   P
AUL 1.740 1.00   P
AUP 1.000 1.00   P
AUW 1.840 1.00   P
#  2006  1  9 12 48 43.16  59.3593 -153.4318    2.010  0.20 0.00 0.00 0.00       1332
AU13 1.580 1.00   P
AU15 2.300 1.00   P
AUE 1.960 1.00   P
AUI 1.740 1.00   P
AUL 1.760 1.00   P
AUP 1.000 1.00   P
AUW 1.760 1.00   P
#  2006  1 11 11 15 30.46  59.3608 -153.4310    1.820 -0.20 0.00 0.00 0.00       1335
AUE 2.070 1.00   P
AUH 1.180 1.00   P
AUI 1.960 1.00   P
AUL 1.760 1.00   P
AUP 1.000 1.00   P
AUW 1.880 1.00   P
#  2006  1 11  4 42 14.88  59.3575 -153.4305    1.800  1.30 0.00 0.00 0.00       1336
AUE 2.410 1.00   P
AUH 1.260 1.00   P
AUI 2.200 1.00   P
AUL 2.160 1.00   P
AUP 1.000 1.00   P
AUW 2.200 1.00   P
#  2006  1 26 11 48 30.98  59.3582 -153.4335    2.230  0.50 0.00 0.00 0.00       1337
AUE 1.770 1.00   P
AUH 1.000 1.00   P
AUI 1.530 1.00   P
AUW 1.600 1.00   P
#  2006  1 11  8 23 18.78  59.3602 -153.4285    2.380  0.30 0.00 0.00 0.00       1340
AUE 1.990 1.00   P
AUH 1.200 1.00   P
AUI 1.780 1.00   P
AUL 1.740 1.00   P
AUP 1.000 1.00   P
AUW 1.820 1.00   P
#  2006  1 12 22 55 58.12  59.3643 -153.4287    1.840 -0.30 0.00 0.00 0.00       1342
AUH 1.360 1.00   P
AUL 2.620 1.00   S
AUP 1.000 1.00   P
AUW 2.160 1.00   P
#  2006  1 11 10 50 32.10  59.3567 -153.4273    1.960  0.40 0.00 0.00 0.00       1343
AUE 1.910 1.00   P
AUH 1.140 1.00   P
AUI 1.700 1.00   P
AUL 2.180 1.00   P
AUP 1.000 1.00   P
AUW 1.760 1.00   P
