#  2006  1 11 10 41 30.62  59.3587 -153.4230    1.820  0.30 0.00 0.00 0.00        927
AUH 1.680 1.00   P
AUP 1.000 1.00   P
AUW 2.460 1.00   P
#  2006  1 27 11 12 11.08  59.3583 -153.4442    1.840  0.80 0.00 0.00 0.00        928
AUE 2.450 1.00   P
AUH 1.000 1.00   P
AUI 1.850 1.00   P
AUW 1.720 1.00   P
#  2006  1 11 12 56 51.04  59.3513 -153.4255    1.820 -0.20 0.00 0.00 0.00        929
AUH 1.040 1.00   P
AUI 1.200 1.00   P
AUL 2.380 1.00   P
AUP 1.000 1.00   P
AUW 2.140 1.00   P
#  2006  1 11 10 42 10.18  59.3552 -153.4350    2.670  0.70 0.00 0.00 0.00        930
AUH 1.000 1.00   P
AUP 1.020 1.00   P
AUW 2.180 1.00   P
#  2006  1  5  3 17 16.84  59.3600 -153.4310    2.260  0.80 0.00 0.00 0.00        931
AU13 1.460 1.00   P
AU14 1.640 1.00   P
AU15 1.840 1.00   P
AUE 1.840 1.00   P
AUH 1.120 1.00   P
AUI 1.680 1.00   P
AUL 1.680 1.00   P
AUP 1.000 1.00   P
AUW 1.730 1.00   P
#  2006  1 11  3 37 21.16  59.3583 -153.4227    2.270  1.30 0.00 0.00 0.00        933
AUE 1.910 1.00   P
AUH 1.140 1.00   P
AUI 1.720 1.00   P
AUL 1.700 1.00   P
AUP 1.000 1.00   P
AUW 1.760 1.00   P
#  2006  1 11  2 54 19.88  59.3580 -153.4290    2.300  0.90 0.00 0.00 0.00        934
AUE 1.970 1.00   P
AUH 1.180 1.00   P
AUI 1.760 1.00   P
AUL 1.740 1.00   P
AUP 1.000 1.00   P
AUW 1.780 1.00   P
#  2006  1 11  6 58 40.88  59.3652 -153.4297    2.220  0.00 0.00 0.00 0.00        935
AUE 1.870 1.00   P
AUH 1.180 1.00   P
AUI 2.740 1.00   P
AUL 1.680 1.00   P
AUP 1.000 1.00   P
AUW 1.740 1.00   P
#  2006  1 11 14  9 40.62  59.3605 -153.4460    2.970  0.20 0.00 0.00 0.00        936
AUH 1.000 1.00   P
AUI 1.500 1.00   P
AUL 1.280 1.00   P
AUW 1.240 1.00   P
#  2006  1 11  5 56  9.98  59.3608 -153.4278    1.960  0.60 0.00 0.00 0.00        938
AUE 2.130 1.00   P
AUH 1.400 1.00   P
AUL 1.760 1.00   P
AUP 1.000 1.00   P
AUW 1.900 1.00   P
#  2006  1 11  5 41 24.76  59.3587 -153.4333    2.190  0.60 0.00 0.00 0.00        939
AUE 1.910 1.00   P
AUH 1.120 1.00   P
AUI 1.680 1.00   P
AUL 1.700 1.00   P
AUP 1.000 1.00   P
AUW 1.760 1.00   P
#  2006  1 11 10 24 22.76  59.3580 -153.4325    2.190  1.00 0.00 0.00 0.00        941
AUE 1.970 1.00   P
AUH 1.200 1.00   P
AUI 1.700 1.00   P
AUL 1.880 1.00   P
AUP 1.000 1.00   P
AUW 1.760 1.00   P
#  2006  1 11 11 19 33.30  59.3572 -153.4325    1.810 -0.40 0.00 0.00 0.00        942
AUH 1.200 1.00   P
AUI 1.740 1.00   P
AUL 1.940 1.00   P
AUP 1.000 1.00   P
AUW 1.740 1.00   P
#  2006  1 27  9 50 16.76  59.3573 -153.4275    2.210  0.40 0.00 0.00 0.00        943
AU13 1.360 1.00   P
AU15 1.780 1.00   P
AUE 1.810 1.00   P
AUH 1.000 1.00   P
AUI 1.610 1.00   P
AUW 1.600 1.00   P
#  2006  1 11  3 53 22.38  59.3597 -153.4298    1.990  0.00 0.00 0.00 0.00        947
AUE 2.030 1.00   P
AUH 1.180 1.00   P
AUL 2.600 1.00   S
AUP 1.000 1.00   P
AUW 1.780 1.00   P
#  2006  1 11 21 55 31.24  59.3587 -153.4247    1.840 -0.40 0.00 0.00 0.00        948
AUE 1.990 1.00   P
AUH 1.340 1.00   P
AUI 2.300 1.00   P
AUL 2.140 1.00   P
AUP 1.000 1.00   P
AUW 1.820 1.00   P
#  2006  1 11  6 29  9.78  59.3587 -153.4362    2.450  1.20 0.00 0.00 0.00        950
AUE 1.890 1.00   P
AUH 1.000 1.00   P
AUI 1.660 1.00   P
AUL 1.540 1.00   P
AUP 1.040 1.00   P
AUW 1.640 1.00   P
#  2006  1 11  5 34  2.58  59.3590 -153.4280    1.830  0.60 0.00 0.00 0.00        951
AUE 2.230 1.00   P
AUH 1.400 1.00   P
AUI 2.000 1.00   P
AUL 2.000 1.00   P
AUP 1.000 1.00   P
AUW 2.040 1.00   P
#  2006  1  3  7 49 49.96  59.3670 -153.4405    1.830 -0.30 0.00 0.00 0.00        953
AUE 2.200 1.00   P
AUH 1.000 1.00   P
AUI 2.300 1.00   P
AUL 1.500 1.00   P
AUP 1.000 1.00   P
AUW 1.550 1.00   P
#  2006  1 11  6 25 20.56  59.3590 -153.4268    2.400  0.30 0.00 0.00 0.00        954
AUE 1.910 1.00   P
AUH 1.260 1.00   P
AUI 1.700 1.00   P
AUL 1.760 1.00   P
AUP 1.000 1.00   P
AUW 1.740 1.00   P
#  2006  1  7 15 11 24.96  59.3707 -153.4288    1.820  0.10 0.00 0.00 0.00        961
AUE 1.940 1.00   P
AUP 1.000 1.00   P
#  2006  1 11 13 31 10.44  59.3582 -153.4300    2.090  1.10 0.00 0.00 0.00        962
AUE 1.930 1.00   P
AUH 1.100 1.00   P
AUI 1.720 1.00   P
AUL 1.720 1.00   P
AUP 1.000 1.00   P
AUW 1.780 1.00   P
#  2006  1 11 18  6 40.28  59.3617 -153.4322    2.570  0.10 0.00 0.00 0.00        963
AUE 1.890 1.00   P
AUH 1.120 1.00   P
AUI 2.000 1.00   P
AUL 1.680 1.00   P
AUP 1.000 1.00   P
AUW 1.740 1.00   P
#  2006  1 16 23 35 51.26  59.3628 -153.4337    2.760  0.80 0.00 0.00 0.00        964
AUE 1.700 1.00   P
AUH 1.000 1.00   P
AUI 2.450 1.00   S
AUI 1.540 1.00   P
AUL 1.460 1.00   P
AUW 1.540 1.00   P
#  2006  1 27  9 11  7.54  59.3603 -153.4323    3.250  0.40 0.00 0.00 0.00        965
AUE 1.830 1.00   P
AUH 1.000 1.00   P
AUI 1.370 1.00   P
AUW 1.640 1.00   P
#  2006  1 14 11 21 15.22  59.3622 -153.4325    2.900  0.00 0.00 0.00 0.00        966
AUE 1.180 1.00   P
AUI 1.160 1.00   P
AUL 1.000 1.00   P
#  2006  1 11  3 39 29.72  59.3595 -153.4282    2.430  0.30 0.00 0.00 0.00        967
AUH 1.220 1.00   P
AUP 1.000 1.00   P
AUW 1.800 1.00   P
#  2006  1  2  7 28 51.46  59.3595 -153.4280    2.200  0.60 0.00 0.00 0.00        968
AUE 1.620 1.00   P
AUH 1.000 1.00   P
AUI 1.560 1.00   P
AUL 1.540 1.00   P
AUW 1.620 1.00   P
#  2006  1 11 11  7 13.42  59.3572 -153.4307    1.820  0.80 0.00 0.00 0.00        970
AUE 1.950 1.00   P
AUH 1.200 1.00   P
AUI 1.720 1.00   P
AUL 1.800 1.00   P
AUP 1.000 1.00   P
AUW 1.780 1.00   P
#  2006  1 11 11 22 21.84  59.3593 -153.4263    2.440  0.70 0.00 0.00 0.00        972
AUE 2.310 1.00   P
AUH 1.300 1.00   P
AUI 1.760 1.00   P
AUL 1.740 1.00   P
AUP 1.000 1.00   P
AUW 1.780 1.00   P
#  2006  1 12 22 49  4.52  59.3670 -153.4298    1.830  0.10 0.00 0.00 0.00        973
AU13 3.620 1.00   P
AU15 1.000 1.00   P
AUE 3.410 1.00   P
AUH 2.480 1.00   P
AUL 3.600 1.00   S
AUP 2.160 1.00   P
AUW 3.060 1.00   P
#  2006  1 11  9 45 32.34  59.3612 -153.4297    2.630  0.40 0.00 0.00 0.00        987
AUE 1.970 1.00   P
AUH 1.200 1.00   P
AUI 1.640 1.00   P
AUL 1.600 1.00   P
AUP 1.000 1.00   P
AUW 1.700 1.00   P
#  2006  1 11  5 32 38.74  59.3592 -153.4280    2.380  0.70 0.00 0.00 0.00        989
AUE 1.870 1.00   P
AUH 1.180 1.00   P
AUI 1.680 1.00   P
AUP 1.000 1.00   P
AUW 1.680 1.00   P
#  2006  1 11  4 38 46.06  59.3580 -153.4275    2.260  0.90 0.00 0.00 0.00        991
AUE 2.010 1.00   P
AUH 1.300 1.00   P
AUI 1.760 1.00   P
AUL 1.760 1.00   P
AUP 1.000 1.00   P
AUW 1.800 1.00   P
#  2006  1  6  0 42 57.32  59.3585 -153.4285    2.040  1.00 0.00 0.00 0.00        992
AUE 1.720 1.00   P
AUH 1.000 1.00   P
AUI 1.510 1.00   P
AUL 1.470 1.00   P
AUW 1.570 1.00   P
#  2006  1 11  5  3 48.86  59.3543 -153.4292    1.840  0.00 0.00 0.00 0.00        993
AUH 1.240 1.00   P
AUP 1.000 1.00   P
AUW 1.840 1.00   P
#  2006  1 11  2 40 40.70  59.3612 -153.4233    2.230  0.40 0.00 0.00 0.00        995
AUE 2.670 1.00   P
AUH 1.980 1.00   P
AUI 2.560 1.00   P
AUL 2.480 1.00   P
AUP 1.000 1.00   P
AUW 2.560 1.00   P
#  2006  1 11  1 59  9.80  59.3570 -153.4283    2.410  0.30 0.00 0.00 0.00        996
AUE 1.970 1.00   P
AUH 1.300 1.00   P
AUL 1.780 1.00   P
AUP 1.000 1.00   P
AUW 1.840 1.00   P
#  2006  1 11  6 19 52.94  59.3583 -153.4320    2.280  0.60 0.00 0.00 0.00        997
AUE 1.950 1.00   P
AUH 1.160 1.00   P
AUI 1.720 1.00   P
AUL 1.700 1.00   P
AUP 1.000 1.00   P
AUW 1.820 1.00   P
#  2006  1 11  4 41 41.82  59.3638 -153.4307    1.830  1.00 0.00 0.00 0.00        999
AUE 1.930 1.00   P
AUH 1.180 1.00   P
AUI 1.740 1.00   P
AUL 1.740 1.00   P
AUP 1.000 1.00   P
AUW 1.780 1.00   P
#  2006  1 11  2 38 59.82  59.3585 -153.4268    2.410  0.20 0.00 0.00 0.00       1000
AUE 1.870 1.00   P
AUH 1.300 1.00   P
AUI 1.740 1.00   P
AUL 1.660 1.00   P
AUP 1.000 1.00   P
AUW 1.760 1.00   P
#  2006  1 11  2 58 49.38  59.3592 -153.4293    2.470  0.70 0.00 0.00 0.00       1001
AU13 3.060 1.00   P
AU15 1.000 1.00   P
AUE 3.230 1.00   P
AUH 2.340 1.00   P
AUI 3.020 1.00   P
AUL 2.860 1.00   P
AUP 2.160 1.00   P
AUW 2.980 1.00   P
#  2006  1  5 18 38 52.68  59.3567 -153.4355    2.330 -0.20 0.00 0.00 0.00       1003
AUH 1.000 1.00   P
AUI 1.520 1.00   P
AUL 1.840 1.00   P
AUW 1.630 1.00   P
#  2006  1 11 11 51 10.06  59.3615 -153.4327    1.850  1.00 0.00 0.00 0.00       1004
AUE 1.930 1.00   P
AUH 1.120 1.00   P
AUI 1.760 1.00   P
AUL 1.700 1.00   P
AUP 1.000 1.00   P
AUW 1.780 1.00   P
#  2006  1  6  7 27 49.94  59.3588 -153.4272    2.430  0.00 0.00 0.00 0.00       1005
AUL 2.460 1.00   S
AUP 1.000 1.00   P
#  2006  1 11 20 15  1.68  59.3585 -153.4297    2.330  0.30 0.00 0.00 0.00       1008
AUE 1.910 1.00   P
AUH 1.240 1.00   P
AUI 1.720 1.00   P
AUL 2.600 1.00   S
AUP 1.000 1.00   P
AUW 1.760 1.00   P
#  2006  1 11 11 26 43.44  59.3572 -153.4305    2.010  0.00 0.00 0.00 0.00       1009
AUH 1.200 1.00   P
AUP 1.000 1.00   P
AUW 1.800 1.00   P
#  2006  1  5 18 39 11.74  59.3592 -153.4295    2.370  0.50 0.00 0.00 0.00       1010
AU13 1.760 1.00   P
AU15 5.720 1.00   P
AUE 1.920 1.00   P
AUH 1.240 1.00   P
AUI 1.720 1.00   P
AUL 1.720 1.00   P
AUP 1.000 1.00   P
AUW 1.790 1.00   P
#  2006  1 27 11  5 37.16  59.3652 -153.4217    1.980  0.10 0.00 0.00 0.00       1012
AUE 1.290 1.00   P
AUH 1.000 1.00   P
AUI 1.750 1.00   P
AUW 1.680 1.00   P
#  2006  1 11  9 12 57.98  59.3588 -153.4333    2.340  0.70 0.00 0.00 0.00       1014
AUE 1.870 1.00   P
AUH 1.160 1.00   P
AUI 1.740 1.00   P
AUL 2.500 1.00   S
AUP 1.000 1.00   P
AUW 1.720 1.00   P
#  2006  1 11  5  0 19.60  59.3650 -153.4302    2.070 -0.20 0.00 0.00 0.00       1017
AUH 1.200 1.00   P
AUL 2.200 1.00   S
AUP 1.000 1.00   P
AUW 1.820 1.00   P
#  2006  1 27  3 34 29.52  59.3613 -153.4268    2.100  0.90 0.00 0.00 0.00       1018
AUE 1.930 1.00   P
AUH 1.000 1.00   P
AUI 1.690 1.00   P
AUW 1.660 1.00   P
#  2006  1 11  5 16 59.04  59.3597 -153.4340    1.800  0.10 0.00 0.00 0.00       1019
AUE 2.230 1.00   P
AUH 1.120 1.00   P
AUI 2.620 1.00   P
AUL 1.940 1.00   P
AUP 1.000 1.00   P
AUW 1.780 1.00   P
#  2006  1 11 12 33  1.32  59.3587 -153.4312    2.250  0.60 0.00 0.00 0.00       1023
AUE 1.970 1.00   P
AUH 1.160 1.00   P
AUI 1.740 1.00   P
AUL 1.700 1.00   P
AUP 1.000 1.00   P
AUW 1.760 1.00   P
#  2006  1 11 12 36 30.34  59.3578 -153.4287    2.330  0.30 0.00 0.00 0.00       1024
AUE 1.850 1.00   P
AUH 1.320 1.00   P
AUI 1.760 1.00   P
AUL 1.700 1.00   P
AUP 1.000 1.00   P
AUW 1.800 1.00   P
#  2006  1 27  3 46  6.30  59.3617 -153.4245    2.210  0.30 0.00 0.00 0.00       1026
AUE 1.850 1.00   P
AUH 1.000 1.00   P
AUI 1.810 1.00   P
AUW 1.660 1.00   P
#  2006  1 11 13 29 52.66  59.3510 -153.4300    2.060  0.10 0.00 0.00 0.00       1030
AUH 1.000 1.00   P
AUL 1.780 1.00   P
AUP 1.180 1.00   P
AUW 1.640 1.00   P
#  2006  1 11 13 43  9.08  59.3570 -153.4287    2.350  0.00 0.00 0.00 0.00       1033
AUH 1.240 1.00   P
AUL 1.680 1.00   P
AUP 1.000 1.00   P
AUW 1.720 1.00   P
#  2006  1 11 22 22  8.28  59.3603 -153.4248    2.460  0.00 0.00 0.00 0.00       1034
AUE 1.970 1.00   P
AUH 1.220 1.00   P
AUI 1.800 1.00   P
AUL 1.720 1.00   P
AUP 1.000 1.00   P
AUW 1.800 1.00   P
#  2006  1 11 12 52 42.00  59.3583 -153.4255    1.960  1.10 0.00 0.00 0.00       1040
AUE 2.050 1.00   P
AUH 1.220 1.00   P
AUI 1.880 1.00   P
AUL 1.840 1.00   P
AUP 1.000 1.00   P
AUW 1.880 1.00   P
#  2006  1 11  3 50 39.90  59.3598 -153.4318    1.900  0.90 0.00 0.00 0.00       1041
AUE 2.010 1.00   P
AUH 1.160 1.00   P
AUI 1.800 1.00   P
AUL 1.740 1.00   P
AUP 1.000 1.00   P
AUW 1.800 1.00   P
#  2006  1 11  7 14 44.46  59.3592 -153.4272    2.470  1.10 0.00 0.00 0.00       1042
AUE 1.930 1.00   P
AUH 1.200 1.00   P
AUI 1.740 1.00   P
AUL 1.700 1.00   P
AUP 1.000 1.00   P
AUW 1.780 1.00   P
#  2006  1 11  9 50 21.22  59.3602 -153.4303    2.240  0.70 0.00 0.00 0.00       1043
AUE 3.090 1.00   P
AUH 1.000 1.00   P
AUI 1.600 1.00   P
AUL 1.540 1.00   P
AUW 1.580 1.00   P
#  2006  1  5 14  6 36.34  59.3595 -153.4333    2.330 -0.10 0.00 0.00 0.00       1044
AUH 1.000 1.00   P
AUI 1.620 1.00   P
AUL 1.520 1.00   P
AUW 1.570 1.00   P
#  2006  1  2  8 24 10.62  59.3683 -153.4270    2.450  0.20 0.00 0.00 0.00       1046
AUE 2.030 1.00   P
AUH 1.210 1.00   P
AUI 1.970 1.00   P
AUP 1.000 1.00   P
AUW 1.770 1.00   P
#  2006  1 11  4 22 44.30  59.3638 -153.4353    1.820  0.00 0.00 0.00 0.00       1047
AUE 1.670 1.00   P
AUH 1.000 1.00   P
AUI 1.840 1.00   P
AUL 1.580 1.00   P
AUP 1.100 1.00   P
AUW 1.760 1.00   P
#  2006  1 11  2 58 17.70  59.3597 -153.4232    2.610  0.10 0.00 0.00 0.00       1048
AUE 1.570 1.00   P
AUH 1.460 1.00   P
AUI 1.720 1.00   P
AUL 1.660 1.00   P
AUP 1.000 1.00   P
AUW 1.760 1.00   P
#  2006  1 11  5 31 59.08  59.3590 -153.4358    2.450  0.90 0.00 0.00 0.00       1049
AUE 1.890 1.00   P
AUH 1.160 1.00   P
AUI 1.680 1.00   P
AUL 1.640 1.00   P
AUP 1.000 1.00   P
AUW 1.740 1.00   P
#  2006  1 11 12 14 44.58  59.3598 -153.4308    2.320  0.90 0.00 0.00 0.00       1050
AUE 1.930 1.00   P
AUH 1.160 1.00   P
AUI 1.720 1.00   P
AUL 1.700 1.00   P
AUP 1.000 1.00   P
AUW 1.740 1.00   P
#  2006  1 11  6  5 49.02  59.3555 -153.4265    2.270  0.10 0.00 0.00 0.00       1051
AUE 1.990 1.00   P
AUH 1.220 1.00   P
AUI 1.340 1.00   P
AUL 1.720 1.00   P
AUP 1.000 1.00   P
AUW 1.820 1.00   P
#  2006  1 26  5  6  7.20  59.3583 -153.4297    2.330  0.90 0.00 0.00 0.00       1052
AUE 1.750 1.00   P
AUH 1.000 1.00   P
AUI 1.510 1.00   P
AUW 1.560 1.00   P
#  2006  1 27 11 29 30.44  59.3597 -153.4253    1.840  0.40 0.00 0.00 0.00       1053
AUE 1.850 1.00   P
AUH 1.000 1.00   P
AUI 1.650 1.00   P
AUW 1.680 1.00   P
#  2006  1 14 17 18 44.42  59.3607 -153.4435    2.590  1.40 0.00 0.00 0.00       1055
AUE 1.600 1.00   P
AUI 1.000 1.00   P
AUL 1.200 1.00   P
#  2006  1 11 10 39 37.48  59.3597 -153.4312    2.350  0.80 0.00 0.00 0.00       1056
AUE 2.230 1.00   P
AUH 1.120 1.00   P
AUP 1.000 1.00   P
AUW 1.660 1.00   P
#  2006  1 11  3 31  5.46  59.3582 -153.4308    1.850  0.70 0.00 0.00 0.00       1057
AUE 2.030 1.00   P
AUH 1.000 1.00   P
AUI 1.520 1.00   P
AUL 1.740 1.00   P
AUW 1.360 1.00   P
#  2006  1 12  4 22 45.96  59.3607 -153.4310    2.420  0.70 0.00 0.00 0.00       1058
AUE 1.990 1.00   P
AUH 1.220 1.00   P
AUI 1.680 1.00   P
AUL 1.760 1.00   P
AUP 1.000 1.00   P
AUW 1.780 1.00   P
#  2006  1 11  3  0 44.68  59.3593 -153.4362    2.740  0.80 0.00 0.00 0.00       1059
AUE 1.910 1.00   P
AUH 1.240 1.00   P
AUI 2.610 1.00   S
AUI 1.740 1.00   P
AUL 1.720 1.00   P
AUP 1.000 1.00   P
AUW 1.760 1.00   P
#  2006  1 11 10 23 58.34  59.3570 -153.4338    1.820  0.80 0.00 0.00 0.00       1063
AUE 2.670 1.00   P
AUH 1.180 1.00   P
AUI 1.800 1.00   P
AUL 1.720 1.00   P
AUP 1.000 1.00   P
AUW 1.760 1.00   P
#  2006  1 11  6 22  4.08  59.3580 -153.4322    2.080  1.20 0.00 0.00 0.00       1064
AUE 1.950 1.00   P
AUH 1.200 1.00   P
AUI 1.740 1.00   P
AUL 1.700 1.00   P
AUP 1.000 1.00   P
AUW 1.760 1.00   P
#  2006  1 17 19  7  0.80  59.3577 -153.4355    2.310  1.00 0.00 0.00 0.00       1065
AUE 1.840 1.00   P
AUH 1.000 1.00   P
AUI 1.520 1.00   P
AUL 1.600 1.00   P
AUW 1.580 1.00   P
#  2006  1 11  4 50 42.86  59.3567 -153.4295    2.290  1.40 0.00 0.00 0.00       1066
AUE 1.930 1.00   P
AUH 1.140 1.00   P
AUI 1.760 1.00   P
AUL 1.740 1.00   P
AUP 1.000 1.00   P
AUW 1.780 1.00   P
#  2006  1  6  6 21 13.14  59.3577 -153.4260    2.330  0.20 0.00 0.00 0.00       1068
AUE 1.950 1.00   P
AUH 1.290 1.00   P
AUI 1.740 1.00   P
AUL 1.840 1.00   P
AUP 1.000 1.00   P
#  2006  1 11 13 15 32.62  59.3582 -153.4282    2.200  0.70 0.00 0.00 0.00       1069
AUE 1.950 1.00   P
AUH 1.220 1.00   P
AUI 1.680 1.00   P
AUL 1.760 1.00   P
AUP 1.000 1.00   P
AUW 1.820 1.00   P
#  2006  1 26 17  2  3.94  59.3583 -153.4347    2.120  0.60 0.00 0.00 0.00       1070
AUE 1.910 1.00   P
AUH 1.000 1.00   P
AUI 1.750 1.00   P
AUW 1.700 1.00   P
#  2006  1 11  6 26 47.52  59.3565 -153.4297    2.230  0.80 0.00 0.00 0.00       1071
AUE 1.970 1.00   P
AUH 1.180 1.00   P
AUI 1.760 1.00   P
AUL 1.760 1.00   P
AUP 1.000 1.00   P
AUW 1.820 1.00   P
#  2006  1 11 10 44  6.26  59.3575 -153.4245    1.810  1.10 0.00 0.00 0.00       1072
AUE 2.390 1.00   P
AUH 1.680 1.00   P
AUI 2.120 1.00   P
AUL 2.220 1.00   P
AUP 1.000 1.00   P
AUW 2.240 1.00   P
#  2006  1 11  3 55 37.78  59.3592 -153.4238    2.350  0.30 0.00 0.00 0.00       1074
AUH 1.200 1.00   P
AUP 1.000 1.00   P
AUW 1.840 1.00   P
#  2006  1 11  4 53 53.12  59.3587 -153.4295    2.240  0.90 0.00 0.00 0.00       1075
AUE 1.910 1.00   P
AUH 1.180 1.00   P
AUI 1.800 1.00   P
AUL 1.700 1.00   P
AUP 1.000 1.00   P
AUW 1.780 1.00   P
#  2006  1 11 11 34  6.34  59.3587 -153.4283    2.380  0.20 0.00 0.00 0.00       1076
AUE 1.950 1.00   P
AUH 1.200 1.00   P
AUI 1.760 1.00   P
AUL 1.780 1.00   P
AUP 1.000 1.00   P
AUW 1.780 1.00   P
#  2006  1 12 11  7  7.58  59.3538 -153.4287    2.280  0.20 0.00 0.00 0.00       1077
AUE 1.990 1.00   P
AUH 1.300 1.00   P
AUI 1.280 1.00   P
AUL 1.720 1.00   P
AUP 1.000 1.00   P
AUW 1.880 1.00   P
#  2006  1 21  0  7 59.76  59.3585 -153.4298    2.230  0.30 0.00 0.00 0.00       1078
AUE 1.740 1.00   P
AUH 1.000 1.00   P
AUI 1.520 1.00   P
AUW 1.610 1.00   P
#  2006  1 12  6  3 44.10  59.3570 -153.4285    1.840  0.50 0.00 0.00 0.00       1079
AU13 2.920 1.00   P
AU15 5.520 1.00   P
AUE 2.410 1.00   P
AUH 1.200 1.00   P
AUI 1.600 1.00   P
AUL 1.920 1.00   P
AUP 1.000 1.00   P
AUW 1.920 1.00   P
#  2006  1 11 13 18 43.64  59.3592 -153.4305    2.360  0.20 0.00 0.00 0.00       1114
AUE 2.070 1.00   P
AUH 1.180 1.00   P
AUL 2.520 1.00   S
AUP 1.000 1.00   P
AUW 1.800 1.00   P
#  2006  1 11  8 34 21.42  59.3577 -153.4297    1.990  0.00 0.00 0.00 0.00       1115
AUE 1.910 1.00   P
AUH 1.180 1.00   P
AUI 1.720 1.00   P
AUL 1.740 1.00   P
AUP 1.000 1.00   P
AUW 1.780 1.00   P
#  2006  1 11  5  3 22.48  59.3617 -153.4343    3.060  1.50 0.00 0.00 0.00       1116
AUE 1.790 1.00   P
AUH 1.000 1.00   P
AUI 1.580 1.00   P
AUL 1.540 1.00   P
AUW 1.620 1.00   P
#  2006  1 11  1 21 17.32  59.3588 -153.4318    2.330  0.20 0.00 0.00 0.00       1117
AU13 1.580 1.00   S
AU13 1.420 1.00   P
AU14 1.640 1.00   P
AUE 1.890 1.00   P
AUH 1.160 1.00   P
AUI 1.680 1.00   P
AUL 1.660 1.00   P
AUP 1.000 1.00   P
AUW 1.720 1.00   P
#  2006  1 11 22 34 16.34  59.3590 -153.4142    1.810 -0.50 0.00 0.00 0.00       1121
AUE 1.490 1.00   P
AUH 1.280 1.00   P
AUL 2.880 1.00   S
AUP 1.000 1.00   P
AUW 1.820 1.00   P
#  2006  1  6  7 31 32.76  59.3597 -153.4323    2.470 -0.40 0.00 0.00 0.00       1137
AUE 2.010 1.00   P
AUI 1.620 1.00   P
AUL 1.580 1.00   P
AUP 1.000 1.00   P
#  2006  1  6  6 17 39.86  59.3592 -153.4293    2.430 -0.10 0.00 0.00 0.00       1138
AU13 1.520 1.00   P
AU15 1.000 1.00   P
AUE 3.370 1.00   P
AUH 2.750 1.00   P
AUI 3.220 1.00   P
AUL 3.120 1.00   P
AUP 2.460 1.00   P
#  2006  1 11  5  1 27.38  59.3585 -153.4335    2.320  0.70 0.00 0.00 0.00       1143
AUE 1.970 1.00   P
AUH 1.200 1.00   P
AUI 1.740 1.00   P
AUL 1.740 1.00   P
AUP 1.000 1.00   P
AUW 1.780 1.00   P
#  2006  1 11  4 55 24.90  59.3583 -153.4362    2.430  1.00 0.00 0.00 0.00       1144
AUE 1.910 1.00   P
AUH 1.200 1.00   P
AUI 1.740 1.00   P
AUL 1.760 1.00   P
AUP 1.000 1.00   P
AUW 1.800 1.00   P
#  2006  1  3  7 47 12.06  59.3540 -153.4288    2.240  0.20 0.00 0.00 0.00       1146
AUE 1.860 1.00   P
AUH 1.160 1.00   P
AUI 1.060 1.00   P
AUL 1.660 1.00   P
AUP 1.000 1.00   P
AUW 1.710 1.00   P
#  2006  1 11  4  9 37.64  59.3605 -153.4232    1.830  0.80 0.00 0.00 0.00       1147
AUE 2.390 1.00   P
AUH 1.600 1.00   P
AUI 2.220 1.00   P
AUL 2.880 1.00   S
AUP 1.000 1.00   P
AUW 2.260 1.00   P
#  2006  1 11  8  4  6.58  59.3583 -153.4340    2.210  0.60 0.00 0.00 0.00       1148
AUE 1.950 1.00   P
AUH 1.140 1.00   P
AUI 1.700 1.00   P
AUL 1.700 1.00   P
AUP 1.000 1.00   P
AUW 1.780 1.00   P
#  2006  1 11  5 49 35.46  59.3593 -153.4308    2.400  0.20 0.00 0.00 0.00       1152
AUE 1.970 1.00   P
AUH 1.220 1.00   P
AUI 1.760 1.00   P
AUL 1.720 1.00   P
AUP 1.000 1.00   P
AUW 1.780 1.00   P
#  2006  1 11  4  0 58.76  59.3587 -153.4323    2.010  0.80 0.00 0.00 0.00       1154
AUE 1.870 1.00   P
AUH 1.160 1.00   P
AUI 1.700 1.00   P
AUL 1.740 1.00   P
AUP 1.000 1.00   P
AUW 1.760 1.00   P
