# 2009 03 13 02 56 54.71  60.4760 -152.7212  0.79 0.50 0.97 0.81 0.18   60283838
AVNCT    2.770 -1.000 P
AVRDN    1.130  1.000 P
AVRDN    1.930 -1.000 S
AVRDWB    2.400 -1.000 S
AVRDWB    1.580  1.000 P
AVREF    1.330 -1.000 S
AVREF    0.260  1.000 P
AVRSO    1.540  0.200 P
# 2009 03 13 03 03 59.53  60.4762 -152.7787  3.24 0.30 0.90 1.32 0.06   60283843
AVRDN    1.720  1.000 P
AVRDWB    1.920 -1.000 S
AVRDWB    1.160 -1.000 P
AVREF    2.310  1.000 S
AVREF    2.140  1.000 S
AVREF    1.180 -1.000 P
AVRSO    1.010 -1.000 P
# 2009 03 13 03 12 55.03  60.4960 -152.7182  4.01 -0.20 0.85 1.35 0.15   60283848
AVRDN    1.160  1.000 P
AVRDN    1.960 -1.000 S
AVRDWB    2.620 -1.000 S
AVRDWB    1.780  1.000 P
AVREF    2.010 -1.000 S
AVREF    0.850 -1.000 P
AVRSO    1.380  1.000 P
# 2009 03 13 03 26 54.00  60.4863 -152.7700  2.49 -0.20 0.52 1.21 0.04   60283853
AVRDN    0.990  1.000 P
AVRDN    1.870 -1.000 S
AVRDWB    1.850 -1.000 S
AVRDWB    1.080  1.000 P
AVREF    1.940 -1.000 S
AVREF    1.110  1.000 P
AVRSO    0.890  1.000 P
# 2009 03 13 04 44 26.02  60.4912 -152.7553  4.56 -0.30 0.34 0.46 0.04   60283883
AVDFR    2.220  1.000 P
AVNCT    2.320  1.000 P
AVNCT    4.510  1.000 S
AVRDE    2.530  1.000 P
AVRDJH    2.220  1.000 P
AVRDN    1.190  1.000 P
AVRDN    2.160 -1.000 S
AVRDWB    2.440 -1.000 S
AVRDWB    1.300  1.000 P
AVREF    2.200  1.000 S
AVREF    1.170  1.000 P
AVRSO    1.290  1.000 P
AVRSO    2.370  1.000 S
# 2009 03 13 06 14 58.15  60.4868 -152.7647  3.88 0.50 0.99 2.02 0.19   60283903
AVRDN    1.320  1.000 P
AVRDN    2.170 -1.000 S
AVRDWB    2.040 -1.000 S
AVRDWB    1.440  1.000 P
AVREF    2.200 -1.000 S
AVREF    0.850  1.000 P
AVRSO    1.360  1.000 P
# 2009 03 13 08 32 24.35  60.4705 -152.7912  4.00 0.10 0.79 1.08 0.12   60283938
AVNCT    2.930  1.000 P
AVRDJH    5.680  1.000 S
AVRDJH    2.630  1.000 P
AVRDN    1.270  1.000 P
AVRDN    2.710  1.000 S
AVRDWB    1.890 -1.000 S
AVRDWB    1.270  1.000 P
AVREF    2.560  1.000 S
AVREF    2.560  1.000 S
AVREF    1.300  1.000 P
AVRSO    1.180 -1.000 P
# 2009 03 13 09 57 11.28  60.4948 -152.7673  2.33 0.20 0.90 1.55 0.09   60283973
AVRDN    1.060 -1.000 P
AVRDN    2.380  1.000 S
AVRDWB    1.810 -1.000 S
AVRDWB    1.100  1.000 P
AVREF    1.950  1.000 S
AVREF    0.940  1.000 P
AVREF    1.800  1.000 S
AVREF    0.950  1.000 P
AVRSO    1.160 -1.000 P
# 2009 03 13 10 29 24.67  60.4985 -152.7658  5.98 0.90 1.40 1.52 0.22   60284023
AVRDN    1.430  1.000 P
AVRDN    2.540 -1.000 S
AVRDWB    2.460 -1.000 S
AVRDWB    1.570  1.000 P
AVREF    2.680 -1.000 S
AVREF    1.190  1.000 P
AVRSO    1.930  1.000 P
# 2009 03 13 12 16 51.15  60.4720 -152.7685  1.00 0.10 0.64 0.78 0.19   60284038
AVRDJH    2.480 -1.000 P
AVRDN    0.870  1.000 P
AVRDN    2.010 -1.000 S
AVRDWB    1.930 -1.000 S
AVRDWB    0.960  1.000 P
AVREF    2.070 -1.000 S
AVREF    1.010  1.000 P
AVRSO    0.850  1.000 P
AVRSO    0.900 -1.000 S
# 2009 03 13 13 04 30.95  60.4327 -152.7503  2.55 0.60 3.96 5.27 0.44   60284068
AVRDJH    4.030  1.000 P
AVRDN    1.100  1.000 P
AVRDWB    2.890 -1.000 S
AVRDWB    1.610  1.000 P
AVREF    2.670 -1.000 S
AVREF    1.750  1.000 P
AVRSO    0.990 -1.000 P
# 2009 03 13 14 29 24.29  60.4873 -152.7595  4.91 0.40 1.11 0.79 0.07   60284093
AVRDN    1.630  0.200 P
AVRDWB    2.510 -1.000 S
AVRDWB    1.300 -1.000 P
AVREF    2.220 -1.000 S
AVREF    1.390 -1.000 P
AVRSO    1.260  1.000 P
AVRSO    2.340 -1.000 S
# 2009 03 13 15 18 29.90  60.4750 -152.7768  2.76 -0.10 0.60 1.31 0.13   60284128
AVRDJH    4.530  0.200 S
AVRDJH    2.550  1.000 P
AVRDN    1.020  1.000 P
AVRDN    2.130 -1.000 S
AVRDWB    1.840 -1.000 S
AVRDWB    1.100  1.000 P
AVREF    2.230 -1.000 S
AVREF    1.050  1.000 P
AVRSO    0.970 -1.000 P
# 2009 03 13 15 24 29.90  60.4752 -152.6632 -0.81 0.20 1.56 3.65 0.29   60284133
AVRDN    1.490 -1.000 P
AVRDN    2.070 -0.200 S
AVRDWB    3.260 -1.000 S
AVRDWB    2.380  1.000 P
AVREF    1.150 -1.000 S
AVREF    0.160 -1.000 P
AVRSO    0.960  0.200 P
# 2009 03 13 16 30 16.32  60.4835 -152.7677  0.78 -0.20 0.27 0.94 0.06   60284153
AVRDN    0.860  1.000 P
AVRDN    1.740 -1.000 S
AVRDWB    1.680 -1.000 S
AVRDWB    0.940  1.000 P
AVREF    1.750  1.000 S
AVREF    0.900  1.000 P
AVRSO    0.750  1.000 P
AVRSO    1.190 -1.000 S
# 2009 03 13 16 46 22.09  60.4743 -152.7695 -0.50 0.40 0.62 1.08 0.20   60284168
AVDFR    3.110 -1.000 P
AVNCT    2.760  1.000 P
AVRDJH    4.610 -1.000 S
AVRDJH    2.170  1.000 P
AVRDN    0.880  1.000 P
AVRDT    4.140  0.200 P
AVRDWB    1.590 -1.000 S
AVRDWB    0.700  1.000 P
AVREF    1.650 -1.000 S
AVREF    0.750  1.000 P
AVRSO    0.550  0.200 P
# 2009 03 13 17 03 3.91  60.5143 -152.7660  3.44 -0.60 0.61 0.95 0.08   60284183
AVRDN    1.060  1.000 P
AVRDN    1.530 -1.000 S
AVRDWB    2.340 -1.000 S
AVRDWB    1.240 -1.000 P
AVREF    2.290 -1.000 S
AVREF    1.250  1.000 P
AVRSO    1.340  1.000 P
# 2009 03 13 17 10 2.07  60.4945 -152.7758  5.02 0.50 0.77 0.67 0.03   60284188
AVRDN    1.290 -1.000 P
AVRDWB    2.320 -1.000 S
AVRDWB    1.350  1.000 P
AVREF    2.530 -1.000 S
AVREF    1.360  1.000 P
AVRSO    1.400 -1.000 P
# 2009 03 13 17 48 49.16  60.4968 -152.7545  5.16 -0.10 0.31 0.44 0.05   60284198
AVDFR    2.220  1.000 P
AVDFR    3.750  1.000 S
AVNCT    2.300  1.000 P
AVNCT    4.590  1.000 S
AVRDE    2.460  1.000 P
AVRDJH    4.340  1.000 S
AVRDJH    2.220  1.000 P
AVRDN    1.270  1.000 P
AVRDN    2.270  1.000 S
AVRDT    3.520  1.000 P
AVRDT    6.440  1.000 S
AVRDWB    2.570  1.000 S
AVRDWB    1.370  1.000 P
AVREF    2.340  1.000 S
AVREF    1.330  1.000 P
AVRSO    1.480  1.000 P
AVRSO    2.500  1.000 S
# 2009 03 13 17 56 8.94  60.4867 -152.7803  3.73 0.20 1.02 1.13 0.06   60284208
AVNCT    3.930  0.200 P
AVRDN    1.150 -1.000 P
AVRDWB    1.940 -1.000 S
AVRDWB    1.220  1.000 P
AVREF    2.320 -1.000 S
AVREF    1.230  1.000 P
AVRSO    1.110 -1.000 P
# 2009 03 13 18 07 56.58  60.4990 -152.7923  3.87 0.70 1.42 2.42 0.28   60284223
AVRDN    1.300  1.000 P
AVRDN    2.210 -1.000 S
AVRDWB    2.000 -1.000 S
AVRDWB    0.770  1.000 P
AVREF    2.220 -1.000 S
AVREF    1.100  1.000 P
AVRSO    1.800  1.000 P
# 2009 03 13 18 41 54.03  60.4852 -152.7727  0.81 0.60 0.76 0.60 0.23   60284263
AVDFR    2.710  1.000 P
AVNCT    2.500  1.000 P
AVRDJH    3.600  1.000 S
AVRDJH    2.440  1.000 P
AVRDN    0.680  1.000 P
AVRDN    2.030 -1.000 S
AVRDWB    1.380 -1.000 S
AVRDWB    1.010  1.000 P
AVREF    1.790 -1.000 S
AVREF    0.750  1.000 P
AVRSO    0.770  1.000 P
# 2009 03 13 19 18 41.09  60.4772 -152.7752  2.78 0.40 0.77 1.72 0.13   60284283
AVRDN    1.020  1.000 P
AVRDN    2.410 -1.000 S
AVRDWB    1.800 -1.000 S
AVRDWB    1.070  1.000 P
AVREF    1.320  1.000 P
AVREF    1.970 -1.000 S
AVREF    1.060  1.000 P
AVRSO    1.030 -1.000 P
# 2009 03 13 19 34 10.89  60.5352 -152.7507  9.41 0.60 0.56 0.77 0.14   60284293
AVDFR    2.170  1.000 P
AVDFR    3.570  1.000 S
AVNCT    2.330  1.000 P
AVRDE    2.540  1.000 P
AVRDJH    3.730  1.000 S
AVRDJH    2.200  1.000 P
AVRDN    2.620  1.000 P
AVRDN    3.570  1.000 S
AVRDT    6.290  0.200 S
AVRDWB    3.880  1.000 S
AVRDWB    2.690  1.000 P
AVREF    3.660  1.000 S
AVREF    2.190  1.000 P
AVREF    3.590  1.000 S
AVRSO    2.230  1.000 P
# 2009 03 13 19 43 35.71  60.4565 -152.7702  2.41 0.40 1.70 3.20 0.27   60284303
AVRDN    1.590  1.000 P
AVRDN    3.210 -1.000 S
AVRDWB    1.080 -1.000 P
AVRDWB    1.990 -1.000 S
AVREF    1.910 -1.000 S
AVREF    1.210  1.000 P
AVRSO    1.300 -1.000 P
# 2009 03 13 20 05 25.78  60.5013 -152.7742  2.10 -0.10 0.50 1.34 0.03   60284318
AVRDN    0.810  1.000 P
AVRDN    1.570 -1.000 S
AVRDWB    1.770 -1.000 S
AVRDWB    1.040 -1.000 P
AVREF    1.970 -1.000 S
AVREF    1.100  1.000 P
AVRSO    0.720  1.000 P
# 2009 03 13 20 10 50.74  60.4637 -152.7802  3.05 0.20 1.14 0.79 0.13   60284323
AVDFR    2.730  1.000 P
AVNCT    2.570  1.000 P
AVRDJH    2.550  1.000 P
AVRDN    0.930  1.000 P
AVRDT    4.370  0.200 P
AVRDWB    1.980 -1.000 S
AVRDWB    1.140  1.000 P
AVREF    2.400 -1.000 S
AVREF    1.060  1.000 P
AVRSO    1.090 -1.000 P
# 2009 03 13 21 11 25.30  60.4802 -152.7687  1.06 0.10 0.45 1.12 0.06   60284348
AVRDN    1.000  1.000 P
AVRDN    1.910 -1.000 S
AVRDWB    1.680 -1.000 S
AVRDWB    1.060  1.000 P
AVREF    1.800 -1.000 S
AVREF    0.960  1.000 P
AVRSO    0.650  1.000 P
# 2009 03 13 21 16 44.25  60.5035 -152.7712  4.63 0.50 0.89 1.33 0.15   60284358
AVRDN    0.900  1.000 P
AVRDN    2.190 -1.000 S
AVRDWB    2.230 -1.000 S
AVRDWB    1.550  1.000 P
AVREF    2.410 -1.000 S
AVREF    1.430  1.000 P
AVRSO    1.380  1.000 P
# 2009 03 13 22 16 56.35  60.4795 -152.7508 -0.33 0.60 0.66 1.24 0.21   60284378
AVDFR    2.260  0.200 P
AVNCT    2.670 -1.000 P
AVRDJH    4.780 -1.000 S
AVRDJH    2.470  1.000 P
AVRDN    0.660  1.000 P
AVRDWB    1.680 -1.000 S
AVRDWB    1.310  1.000 P
AVREF    1.340 -1.000 S
AVREF    0.480  1.000 P
AVRSO    0.400  0.200 P
# 2009 03 14 03 30 34.67  60.4835 -152.7645  4.26 0.10 0.58 0.87 0.03   60284508
AVRDN    1.240  1.000 P
AVRDN    2.300 -1.000 S
AVRDWB    2.240 -1.000 S
AVRDWB    1.320  1.000 P
AVREF    1.630  1.000 P
AVREF    2.260  1.000 S
AVREF    1.200  1.000 P
AVREF    2.210  1.000 S
AVRSO    1.190 -1.000 P
# 2009 03 14 04 24 16.18  60.4805 -152.7643  4.02 0.00 0.90 1.05 0.04   60284533
AVRDN    1.230 -1.000 P
AVRDWB    2.190 -1.000 S
AVRDWB    1.300  1.000 P
AVREF    2.210 -1.000 S
AVREF    1.230  1.000 P
AVRSO    1.090 -1.000 P
# 2009 03 14 08 18 42.32  60.5090 -152.7347  3.95 0.50 1.12 1.71 0.22   60284703
AVRDN    0.860 -1.000 P
AVRDN    2.000 -1.000 S
AVRDWB    2.400 -1.000 S
AVRDWB    1.600  1.000 P
AVREF    2.000 -1.000 S
AVREF    0.890  1.000 P
AVRSO    1.840  1.000 P
# 2009 03 14 08 20 45.71  60.4820 -152.7778  6.67 0.30 0.43 0.52 0.04   60284708
AVNCT    2.430  1.000 P
AVNCT    4.320  1.000 S
AVRDJH    4.470  1.000 S
AVRDJH    2.480  1.000 P
AVRDN    1.590  1.000 P
AVRDN    2.820  1.000 S
AVRDWB    2.700 -1.000 S
AVRDWB    1.490  1.000 P
AVREF    1.610  1.000 P
AVREF    2.890  1.000 S
AVREF    1.600  1.000 P
AVRSO    1.570  1.000 P
AVRSO    2.840  1.000 S
# 2009 03 14 08 34 9.25  60.4853 -152.7643  2.01 0.10 0.49 1.39 0.06   60284728
AVRDN    0.910  1.000 P
AVRDN    1.870 -1.000 S
AVRDWB    1.080  1.000 P
AVRDWB    1.850 -1.000 S
AVRDWB    1.070  1.000 P
AVREF    1.900  1.000 S
AVREF    1.020  1.000 P
AVREF    1.700  1.000 S
AVREF    1.030  1.000 P
AVRSO    0.880  1.000 P
# 2009 03 14 09 23 39.52  60.4710 -152.7863  4.14 0.40 1.23 1.32 0.16   60284743
AVRDJH    2.780 -1.000 P
AVRDN    1.180  1.000 P
AVRDWB    2.070 -1.000 S
AVRDWB    1.290  1.000 P
AVREF    1.470  1.000 P
AVREF    2.730 -1.000 S
AVREF    1.280  1.000 P
AVRSO    1.140 -1.000 P
# 2009 03 14 09 58 18.64  60.4782 -152.7775  3.12 0.10 0.84 1.25 0.05   60284753
AVRDN    1.200 -1.000 P
AVRDWB    1.890 -1.000 S
AVRDWB    1.160 -1.000 P
AVREF    2.220 -1.000 S
AVREF    1.160  1.000 P
AVRSO    0.980 -1.000 P
# 2009 03 14 10 30 31.22  60.4795 -152.7818  6.16 0.00 0.43 0.50 0.04   60284768
AVDFR    2.500  0.200 P
AVNCT    2.380  1.000 P
AVNCT    4.300  1.000 S
AVRDJH    4.390  1.000 S
AVRDJH    2.410  1.000 P
AVRDWB    2.620  1.000 S
AVRDWB    1.430  1.000 P
AVRDWB    2.500  1.000 S
AVREF    2.830 -1.000 S
AVREF    1.570  1.000 P
AVRSO    1.520  1.000 P
# 2009 03 14 10 46 59.47  60.4940 -152.7115  2.73 -0.30 0.67 0.89 0.09   60284773
AVRDN    0.980  1.000 P
AVRDN    1.780 -1.000 S
AVRDWB    2.590 -1.000 S
AVRDWB    1.720  1.000 P
AVREF    0.800  1.000 P
AVREF    1.530  1.000 S
AVREF    0.700  1.000 P
AVREF    1.480  1.000 S
AVRSO    1.860  1.000 P
# 2009 03 14 11 23 59.21  60.5085 -152.7782  1.39 -0.30 0.50 0.99 0.08   60284788
AVRDN    0.830  1.000 P
AVRDN    1.220 -1.000 S
AVRDWB    1.800 -1.000 S
AVRDWB    1.030 -1.000 P
AVREF    2.170 -1.000 S
AVREF    1.140  1.000 P
AVRSO    1.070  1.000 P
# 2009 03 14 11 50 55.34  60.5008 -152.7735  1.21 0.00 0.65 1.88 0.17   60284793
AVRDN    0.850 -1.000 P
AVRDN    1.290 -1.000 S
AVRDWB    1.900 -1.000 S
AVRDWB    1.080  1.000 P
AVREF    2.090 -1.000 S
AVREF    1.190  1.000 P
AVRSO    0.770  1.000 P
# 2009 03 14 13 14 28.04  60.4628 -152.7252  2.34 0.20 1.87 2.34 0.30   60284853
AVRDN    1.460 -1.000 P
AVRDWB    2.630 -1.000 S
AVRDWB    1.340  1.000 P
AVREF    2.280  1.000 S
AVREF    0.950  1.000 P
AVREF    1.140  1.000 S
AVRSO    0.930 -1.000 P
# 2009 03 14 14 12 59.47  60.4857 -152.7852  4.63 0.20 0.60 0.93 0.05   60284863
AVRDN    1.400  1.000 P
AVRDN    2.330 -1.000 S
AVRDWB    2.160 -1.000 S
AVRDWB    1.260  1.000 P
AVREF    2.570 -1.000 S
AVREF    1.350  1.000 P
AVRSO    1.230  1.000 P
# 2009 03 14 14 15 59.22  60.4912 -152.7713 -1.87 -0.70 1.29 16.20 0.30   60284873
AVRDN    0.630 -1.000 P
AVRDN    1.020 -1.000 S
AVRDWB    1.510 -1.000 S
AVRDWB    1.010  1.000 P
AVREF    1.580 -1.000 S
AVREF    1.210  1.000 P
AVRSO    0.190 -1.000 P
# 2009 03 14 14 16 22.00  60.4735 -152.7790  3.82 -0.10 0.96 0.98 0.08   60284878
AVRDN    1.380 -1.000 P
AVRDWB    2.020 -1.000 S
AVRDWB    1.290 -1.000 P
AVREF    2.450 -1.000 S
AVREF    1.230  1.000 P
AVREF    1.260  1.000 P
AVRSO    1.080 -1.000 P
# 2009 03 14 14 17 44.77  60.4540 -152.7822  4.11 0.10 0.87 0.90 0.09   60284883
AVRDJH    2.870 -1.000 P
AVRDN    1.270  1.000 P
AVRDWB    2.300 -1.000 S
AVRDWB    1.350  1.000 P
AVREF    2.720 -1.000 S
AVREF    1.340  1.000 P
AVRSO    1.190 -1.000 P
# 2009 03 14 18 41 36.13  60.5052 -152.7722 -0.86 0.70 0.71 6.74 0.37   60284948
AVNCT    1.920  1.000 P
AVRDJH    3.900  1.000 S
AVRDJH    1.770  1.000 P
AVRDN   -0.390  1.000 P
AVRDN    0.420 -1.000 S
AVRDWB    1.550 -1.000 S
AVRDWB    0.630  1.000 P
AVREF    2.100  1.000 S
AVREF    0.710  1.000 P
AVRSO    0.690  1.000 P
# 2009 03 14 18 41 38.83  60.4837 -152.8233  4.75 1.80 1.79 1.52 0.33   60284953
AVDFR    2.850  1.000 P
AVNCT    1.410  1.000 P
AVRDJH    4.170 -1.000 S
AVRDJH    2.550  1.000 P
AVRDN    1.150  1.000 P
AVRDT    4.440  1.000 P
AVRDWB    2.120 -1.000 S
AVRDWB    1.220  1.000 P
AVREF    2.550 -1.000 S
AVREF    2.210  0.200 P
# 2009 03 14 18 43 25.07  60.4810 -152.7705  2.34 0.30 0.53 1.43 0.06   60284958
AVRDN    1.000  1.000 P
AVRDN    2.110 -1.000 S
AVRDWB    1.790 -1.000 S
AVRDWB    1.100  1.000 P
AVREF    1.910 -1.000 S
AVREF    1.080  1.000 P
AVRSO    0.930 -1.000 P
# 2009 03 14 23 10 25.05  60.4812 -152.7707  6.85 0.90 1.27 0.97 0.05   60285088
AVRDN    1.540 -1.000 P
AVRDWB    2.800 -1.000 S
AVRDWB    1.620 -1.000 P
AVREF    2.890 -1.000 S
AVREF    1.660  1.000 P
AVRSO    1.500 -1.000 P
# 2009 03 14 23 17 3.00  60.5007 -152.7742  2.33 -0.10 0.60 1.48 0.01   60285098
AVRDN    0.890 -1.000 P
AVRDWB    1.840 -1.000 S
AVRDWB    1.040 -1.000 P
AVREF    2.010 -1.000 S
AVREF    1.150  1.000 P
AVRSO    1.130  1.000 P
# 2009 03 14 23 17 27.11  60.4990 -152.7712  1.32 0.40 0.57 1.10 0.03   60285103
AVRDN    0.770 -1.000 P
AVRDWB    1.740 -1.000 S
AVRDWB    1.010 -1.000 P
AVREF    1.860 -1.000 S
AVREF    1.060  1.000 P
AVRSO    0.980 -1.000 P
# 2009 03 15 00 34 48.79  60.4965 -152.7698  2.25 -0.20 0.55 1.36 0.04   60285138
AVRDN    0.830  1.000 P
AVRDN    1.670 -1.000 S
AVRDWB    1.850 -1.000 S
AVRDWB    1.030 -1.000 P
AVREF    1.850 -1.000 S
AVREF    1.120 -1.000 P
AVRSO    2.270  1.000 P
# 2009 03 15 01 29 0.44  60.5203 -152.7288  0.93 -0.50 0.55 0.57 0.05   60285158
AVRDN    0.480  1.000 P
AVRDN    0.830 -1.000 S
AVRDWB    2.620 -1.000 S
AVRDWB    1.560  1.000 P
AVREF    1.690 -1.000 S
AVREF    0.840  1.000 P
AVRSO    1.450  1.000 P
# 2009 03 15 01 44 3.05  60.4982 -152.7050  2.58 -0.10 0.65 0.97 0.04   60285168
AVRDJH    4.960  1.000 P
AVRDN    0.960 -1.000 P
AVRDWB    2.780 -1.000 S
AVRDWB    1.580  1.000 P
AVREF    1.490 -1.000 S
AVREF    0.760 -1.000 P
AVRSO    1.290  1.000 P
AVRSO    2.150 -1.000 S
# 2009 03 15 04 31 35.91  60.4815 -152.7565  2.77 0.10 0.44 1.15 0.04   60285238
AVRDN    1.020  1.000 P
AVRDN    2.030 -1.000 S
AVRDWB    2.090 -1.000 S
AVRDWB    1.140  1.000 P
AVREF    1.090  1.000 P
AVREF    1.810 -1.000 S
AVREF    1.070  1.000 P
AVRSO    0.940  1.000 P
# 2009 03 15 05 58 6.70  60.4830 -152.7602  0.32 0.50 0.27 0.54 0.05   60285268
AVRDJH    2.420 -1.000 P
AVRDN    0.870  1.000 P
AVRDN    1.710 -1.000 S
AVRDWB    1.680 -1.000 S
AVRDWB    1.000  1.000 P
AVREF    1.490  1.000 S
AVREF    0.700  1.000 P
AVRSO    0.660 -1.000 P
# 2009 03 15 06 58 14.09  60.4920 -152.7982  4.35 0.50 0.74 1.09 0.09   60285298
AVRDN    1.390  1.000 P
AVRDN    2.280 -1.000 S
AVRDWB    2.120 -1.000 S
AVRDWB    0.980  1.000 P
AVREF    2.530 -1.000 S
AVREF    1.500  1.000 P
AVRSO    1.370  1.000 P
# 2009 03 15 08 07 31.40  60.5210 -152.6963  4.28 -0.30 1.03 1.29 0.10   60285328
AVRDN    1.050 -1.000 P
AVRDWB    3.170 -1.000 S
AVRDWB    1.960 -1.000 P
AVREF    2.270 -1.000 S
AVREF    1.080  1.000 P
AVRSO    1.620  1.000 P
# 2009 03 15 12 08 52.52  60.4527 -152.7642  3.31 0.60 0.88 1.04 0.17   60285408
AVRDN    1.720  1.000 P
AVRDN    3.070 -1.000 S
AVRDWB    2.160 -1.000 S
AVRDWB    1.510  1.000 P
AVREF    2.230  1.000 S
AVREF    1.090  1.000 P
AVRSO    1.060  1.000 P
AVRSO    1.840 -1.000 S
# 2009 03 15 13 29 45.95  60.4667 -152.7098  1.93 0.60 2.79 3.01 0.37   60285428
AVNCT    3.480  1.000 P
AVRDN    1.070  1.000 P
AVRDWB    2.460 -1.000 S
AVRDWB    1.800  1.000 P
AVREF    1.780 -1.000 S
AVREF    0.350  1.000 P
AVRSO    0.990 -1.000 P
# 2009 03 15 13 36 36.27  60.5062 -152.7918 -1.45 0.40 0.82 16.87 0.22   60285438
AVRDJH    2.200 -1.000 P
AVRDN    0.420  1.000 P
AVRDN    1.140 -1.000 S
AVRDWB    0.940 -1.000 S
AVRDWB    0.700  1.000 P
AVREF    1.960 -1.000 S
AVREF    1.100  1.000 P
AVRSO    1.460 -1.000 P
# 2009 03 15 14 52 48.09  60.4792 -152.7855  3.80 0.00 0.71 1.14 0.08   60285473
AVRDN    1.280  1.000 P
AVRDN    2.380 -1.000 S
AVRDWB    1.920 -1.000 S
AVRDWB    1.230 -1.000 P
AVREF    2.460 -1.000 S
AVREF    1.250  1.000 P
AVRSO    1.110  1.000 P
# 2009 03 15 17 53 10.51  60.4795 -152.7517  4.62 0.40 1.00 1.77 0.17   60285518
AVRDN    1.280 -1.000 P
AVRDN    2.280 -1.000 S
AVRDWB    2.580 -1.000 S
AVRDWB    1.460  1.000 P
AVREF    2.310 -1.000 S
AVREF    1.490  1.000 P
AVRSO    0.910 -1.000 P
# 2009 03 15 18 41 25.65  60.4657 -152.7732  4.51 0.80 1.33 1.80 0.18   60285523
AVRDN    1.350 -1.000 P
AVRDN    3.010 -1.000 S
AVRDWB    2.100 -1.000 S
AVRDWB    1.480  1.000 P
AVREF    2.440 -1.000 S
AVREF    1.270  1.000 P
AVRSO    1.320  1.000 P
# 2009 03 15 19 30 23.93  60.4982 -152.7117  1.82 -0.10 1.67 2.75 0.25   60285528
AVRDN    0.990 -1.000 P
AVRDWB    2.470 -1.000 S
AVRDWB    1.570  1.000 P
AVREF    1.440 -1.000 S
AVREF    0.250  1.000 P
AVRSO    1.390 -1.000 P
# 2009 03 15 19 40 25.08  60.4660 -152.7513  7.15 0.80 1.03 1.47 0.15   60285533
AVRDN    1.970  1.000 P
AVRDN    2.940 -1.000 S
AVRDWB    3.200 -1.000 S
AVRDWB    1.800 -1.000 P
AVREF    3.120 -1.000 S
AVREF    1.660  1.000 P
AVRSO    1.390 -1.000 P
# 2009 03 15 20 48 38.53  60.4865 -152.7683  3.23 0.20 0.85 1.15 0.04   60285548
AVRDN    1.050 -1.000 P
AVRDWB    2.000 -1.000 S
AVRDWB    1.190  1.000 P
AVREF    2.060 -1.000 S
AVREF    1.160  1.000 P
AVRSO    1.020 -1.000 P
# 2009 03 15 20 49 22.10  60.4862 -152.7727  0.25 0.10 0.34 0.63 0.13   60285553
AVDFR    2.390  1.000 P
AVRDE    2.710  1.000 P
AVRDJH    4.160  1.000 S
AVRDJH    2.580  1.000 P
AVRDN    0.730  1.000 P
AVRDN    1.670  1.000 S
AVRDWB    1.550 -1.000 S
AVRDWB    0.790  1.000 P
AVREF    1.830 -1.000 S
AVREF    0.780  1.000 P
AVRSO    0.670  1.000 P
# 2009 03 15 20 58 50.50  60.4793 -152.7622  4.55 0.70 0.59 0.98 0.04   60285563
AVRDN    1.260  1.000 P
AVRDN    2.470 -1.000 S
AVRDWB    2.330 -1.000 S
AVRDWB    1.350  1.000 P
AVREF    2.260 -1.000 S
AVREF    1.290  1.000 P
AVRSO    1.210 -1.000 P
# 2009 03 15 21 22 31.08  60.5032 -152.7570  4.14 0.20 0.73 0.97 0.03   60285573
AVRDN    1.040 -1.000 P
AVRDWB    2.350 -1.000 S
AVRDWB    1.400  1.000 P
AVREF    2.190 -1.000 S
AVREF    1.200  1.000 P
AVRSO    1.320 -1.000 P
# 2009 03 15 21 22 39.35  60.4932 -152.7582 -0.64 0.50 0.97 6.58 0.23   60285578
AVRDN    0.730 -1.000 P
AVRDWB    1.380 -1.000 S
AVRDWB    1.280  1.000 P
AVREF    1.390 -1.000 S
AVREF    0.430 -1.000 P
AVRSO    1.010  0.200 P
