# 2009 03 08 12 42 40.32  60.4878 -152.7358 -0.22 0.50 0.60 2.61 0.16   60281958
AVRDJH    4.320 -1.000 S
AVRDJH    2.530  1.000 P
AVRDN    0.950  1.000 P
AVRDWB    2.030 -1.000 S
AVRDWB    1.060  1.000 P
AVREF    1.040 -1.000 S
AVREF    0.270  1.000 P
AVRSO    0.820 -1.000 P
# 2009 03 08 15 38 31.99  60.5357 -152.7940  0.28 0.30 1.54 3.06 0.22   60282003
AVRDN    0.590 -1.000 P
AVRDN    1.320 -1.000 S
AVRDWB    2.160 -1.000 S
AVRDWB    1.430  1.000 P
AVREF    2.850 -1.000 S
AVREF    1.900  1.000 P
AVRSO    1.360  1.000 P
# 2009 03 08 16 12 51.85  60.4722 -152.7685  4.77 0.90 0.68 1.08 0.07   60282013
AVRDN    1.400  1.000 P
AVRDN    2.650 -1.000 S
AVRDWB    2.310 -1.000 S
AVRDWB    1.470  1.000 P
AVREF    2.470 -1.000 S
AVREF    1.300  1.000 P
AVRSO    1.210 -1.000 P
# 2009 03 08 23 35 55.51  60.5127 -152.7813 -0.16 -0.20 0.48 2.34 0.11   60282078
AVRDJH    1.900  0.200 P
AVRDN    0.530 -1.000 P
AVRDWB    1.550  1.000 S
AVRDWB    1.610  1.000 S
AVRDWB    0.880  1.000 P
AVREF    1.870  1.000 S
AVREF    0.940  1.000 P
AVREF    2.090 -1.000 S
AVRSO    1.410  1.000 P
# 2009 03 09 00 56 5.59  60.5043 -152.7728  0.54 0.20 0.36 1.10 0.09   60282103
AVRDJH    2.100 -1.000 P
AVRDN    0.530  1.000 P
AVRDN    1.090 -1.000 S
AVRDWB    1.750 -1.000 S
AVRDWB    0.860  1.000 P
AVREF    1.870 -1.000 S
AVREF    0.960  1.000 P
AVRSO    0.960  1.000 P
# 2009 03 09 01 36 31.16  60.4822 -152.7598  7.94 0.20 0.96 0.72 0.08   60282123
AVNCT    4.500  1.000 P
AVRDN    1.770  1.000 P
AVRDN    3.080 -1.000 S
AVRDWB    3.090 -1.000 S
AVRDWB    1.890  1.000 P
AVREF    3.160 -1.000 S
AVREF    1.600  1.000 P
AVRSO    1.690  1.000 P
# 2009 03 09 03 19 42.47  60.4608 -152.7280  1.83 -0.70 1.33 0.71 0.12   60282148
AVRDN    1.490  1.000 P
AVRDWB    2.400 -1.000 S
AVRDWB    1.560 -1.000 P
AVREF    1.810 -1.000 S
AVREF    0.800 -1.000 P
AVRSO    0.770  1.000 P
AVRSO    1.400 -1.000 S
# 2009 03 09 04 21 47.95  60.4953 -152.7788  3.90 0.20 0.78 1.17 0.11   60282163
AVRDN    1.060  1.000 P
AVRDN    2.010 -1.000 S
AVRDWB    2.020 -1.000 S
AVRDWB    1.300  1.000 P
AVREF    2.140  1.000 S
AVREF    2.470 -1.000 S
AVREF    1.290  1.000 P
AVRSO    1.160  1.000 P
# 2009 03 09 07 03 33.46  60.5090 -152.7727  1.39 0.20 0.38 0.86 0.03   60282223
AVRDN    0.790  1.000 P
AVRDN    1.240 -1.000 S
AVRDWB    1.890 -1.000 S
AVRDWB    1.030 -1.000 P
AVREF    2.010 -1.000 S
AVREF    1.090  1.000 P
AVRSO    1.230  1.000 P
# 2009 03 09 09 57 51.15  60.5303 -152.7057  1.37 0.10 2.57 0.80 0.26   60282268
AVRDN    0.620 -1.000 P
AVRDWB    2.900 -1.000 S
AVRDWB    2.260  1.000 P
AVREF    2.040 -1.000 S
AVREF    0.840  1.000 P
AVRSO    1.420 -1.000 P
# 2009 03 09 09 58 50.00  60.4978 -152.7097  9.39 1.10 2.20 1.16 0.12   60282288
AVRDN    1.970 -1.000 P
AVRDWB    4.040 -1.000 S
AVRDWB    2.040 -1.000 P
AVREF    1.930  1.000 P
AVREF    3.190 -1.000 S
AVRSO    2.140 -1.000 P
# 2009 03 09 12 43 17.28  60.4812 -152.8193  5.93 0.70 0.68 0.68 0.05   60282318
AVRDN    1.700  1.000 P
AVRDN    2.960 -1.000 S
AVRDWB    2.300 -1.000 S
AVRDWB    1.760  1.000 P
AVREF    3.150  1.000 S
AVREF    1.680  1.000 P
AVRSO    1.590 -1.000 P
AVRSO    2.730 -1.000 S
# 2009 03 09 13 29 29.78  60.4877 -152.7648  1.41 -0.30 0.47 1.24 0.06   60282328
AVRDN    1.300  1.000 P
AVRDN    1.820 -1.000 S
AVRDWB    1.790 -1.000 S
AVRDWB    0.970 -1.000 P
AVREF    1.660 -1.000 S
AVREF    0.940 -1.000 P
AVRSO    0.970 -1.000 P
# 2009 03 09 13 37 14.62  60.4785 -152.7493 -1.81 0.00 0.57 7.67 0.05   60282333
AVRDN    0.960  1.000 P
AVRDN    1.650 -1.000 S
AVRDWB    1.870 -1.000 S
AVRDWB    0.980  1.000 P
AVREF    1.100 -1.000 S
AVREF    0.700  1.000 P
AVRSO    0.320 -1.000 P
# 2009 03 09 14 01 49.52  60.4833 -152.7653  1.09 0.00 0.35 1.09 0.04   60282338
AVRDN    1.110  1.000 P
AVRDN    1.780 -1.000 S
AVRDWB    1.760 -1.000 S
AVRDWB    0.930 -1.000 P
AVREF    1.670 -1.000 S
AVREF    0.910  1.000 P
AVRSO    0.790  1.000 P
# 2009 03 09 15 04 18.13  60.4632 -152.7698 -0.41 0.20 0.62 1.98 0.16   60282363
AVRDN    1.510  1.000 P
AVRDN    2.490 -1.000 S
AVRDWB    1.510 -1.000 S
AVRDWB    1.140 -1.000 P
AVREF    1.690  1.000 S
AVREF    0.800 -1.000 P
AVRSO    0.410 -1.000 P
# 2009 03 09 15 19 41.90  60.5202 -152.7803  2.28 0.20 0.63 0.99 0.07   60282378
AVRDN    0.720  1.000 P
AVRDN    1.490 -1.000 S
AVRDWB    2.010 -1.000 S
AVRDWB    1.260  1.000 P
AVREF    2.360 -1.000 S
AVREF    1.250  1.000 P
AVRSO    1.510  1.000 P
# 2009 03 09 15 22 58.34  60.4928 -152.7925  3.68 0.40 0.99 1.17 0.11   60282383
AVRDN    1.060 -1.000 P
AVRDWB    1.900 -1.000 S
AVRDWB    1.120  1.000 P
AVREF    2.400 -1.000 S
AVREF    1.560  1.000 P
AVRSO    1.070 -1.000 P
# 2009 03 09 15 30 1.68  60.4858 -152.7447 -0.54 0.30 0.39 2.21 0.11   60282388
AVNCT    2.600  1.000 P
AVRDN    0.880  1.000 P
AVRDN    1.510 -1.000 S
AVRDWB    1.860 -1.000 S
AVRDWB    2.770  1.000 S
AVRDWB    0.840  1.000 P
AVREF    0.950 -1.000 S
AVREF    0.600  1.000 P
AVRSO    0.790  1.000 P
# 2009 03 09 15 50 21.86  60.4875 -152.7665  0.74 0.30 0.39 1.40 0.08   60282393
AVRDN    1.100  1.000 P
AVRDN    1.550 -1.000 S
AVRDWB    1.690 -1.000 S
AVRDWB    0.900 -1.000 P
AVREF    1.700 -1.000 S
AVREF    0.850  1.000 P
AVRSO    0.750  1.000 P
# 2009 03 09 15 51 23.48  60.4878 -152.7637  1.15 0.40 0.32 0.98 0.01   60282403
AVRDN    0.940  1.000 P
AVRDN    1.650 -1.000 S
AVRDWB    1.790 -1.000 S
AVRDWB    0.980  1.000 P
AVREF    1.640 -1.000 S
AVREF    0.940  1.000 P
AVRSO    0.810  1.000 P
# 2009 03 09 18 25 19.06  60.4818 -152.7680  3.79 0.80 0.82 1.29 0.11   60282433
AVRDN    1.210  1.000 P
AVRDN    2.320 -1.000 S
AVRDWB    2.010 -1.000 S
AVRDWB    1.250  1.000 P
AVREF    2.270  1.000 S
AVREF    1.100  1.000 P
AVREF    2.050  1.000 S
AVRSO    1.280  1.000 P
# 2009 03 09 20 07 34.25  60.4798 -152.7613  6.10 0.10 1.09 0.85 0.03   60282443
AVRDN    1.510 -1.000 P
AVRDWB    2.740 -1.000 S
AVRDWB    1.480  1.000 P
AVREF    2.630 -1.000 S
AVREF    1.530  1.000 P
AVRSO    1.420 -1.000 P
# 2009 03 09 21 49 49.84  60.5158 -152.9072  4.92 0.50 0.42 0.68 0.05   60282468
AVDFR    2.750  1.000 P
AVDFR    4.650  1.000 S
AVNCT    1.340 -1.000 P
AVRDE    3.240  1.000 P
AVRDJH    3.680  1.000 S
AVRDJH    2.280  1.000 P
AVRDN    1.930  1.000 P
AVRDN    3.460  1.000 S
AVRDWB    2.500 -1.000 S
AVRDWB    1.360  1.000 P
AVREF    4.150  1.000 S
AVREF    2.360  1.000 P
AVRSO    2.130  1.000 P
# 2009 03 09 23 58 41.38  60.5120 -152.7795  0.93 0.00 0.41 0.84 0.02   60282503
AVRDN    0.680  1.000 P
AVRDN    1.140 -1.000 S
AVRDWB    1.760 -1.000 S
AVRDWB    0.980  1.000 P
AVREF    2.080 -1.000 S
AVREF    1.160 -1.000 P
AVRSO    1.210  1.000 P
# 2009 03 10 01 42 3.35  60.5178 -152.7853  1.04 -0.30 0.49 0.92 0.05   60282523
AVRDN    0.750 -1.000 P
AVRDN    1.120 -1.000 S
AVRDWB    1.840 -1.000 S
AVRDWB    1.050  1.000 P
AVREF    1.630  1.000 P
AVREF    2.340  1.000 S
AVREF    1.250  1.000 P
AVREF    2.280  1.000 S
AVRSO    1.310  1.000 P
# 2009 03 10 02 05 12.77  60.3287 -152.6622 10.84 0.40 1.12 1.75 0.09   60282533
AVNCT    5.250  1.000 P
AVNCT    9.410 -1.000 S
AVRDE    5.070  1.000 P
AVRDN    4.090  1.000 P
AVRDN    7.200  1.000 S
AVRDWB    6.830  1.000 S
AVRDWB    3.810  1.000 P
AVREF    6.450  1.000 S
AVREF    3.610  1.000 P
AVREF    6.860  1.000 S
AVRSO    3.390  1.000 P
AVRSO    6.110  1.000 S
# 2009 03 10 18 06 14.02  60.4888 -152.7603  5.35 0.60 0.62 0.98 0.09   60282693
AVRDN    1.330  1.000 P
AVRDN    2.250 -0.200 S
AVRDWB    2.560 -0.200 S
AVRDWB    1.530 -1.000 P
AVREF    2.530 -1.000 S
AVREF    1.270 -1.000 P
AVRSO    1.010  0.200 P
AVRSO    2.350 -1.000 S
# 2009 03 10 20 19 23.60  60.4858 -152.7788  0.71 0.30 0.73 0.62 0.12   60282723
AVNCT    2.360  1.000 P
AVRDJH    2.290  1.000 P
AVRDN    0.770  1.000 P
AVRDWB    1.470 -1.000 S
AVRDWB    0.870  1.000 P
AVREF    2.010 -1.000 S
AVREF    0.880  1.000 P
AVRSO    0.720 -1.000 P
# 2009 03 10 21 31 17.44  60.4817 -152.7838  3.54 0.10 0.66 1.20 0.08   60282743
AVRDN    1.160  0.200 P
AVRDN    2.260 -1.000 S
AVRDWB    1.870 -1.000 S
AVRDWB    1.190 -1.000 P
AVREF    2.380 -1.000 S
AVREF    1.210  1.000 P
AVRSO    1.070  1.000 P
# 2009 03 10 22 31 39.98  60.5085 -152.7818  0.60 0.30 0.45 1.31 0.08   60282763
AVRDN    0.720  1.000 P
AVRDN    1.110 -1.000 S
AVRDWB    1.570 -1.000 S
AVRDWB    1.000  1.000 P
AVREF    2.120 -1.000 S
AVREF    1.050  1.000 P
AVRSO    1.090  1.000 P
# 2009 03 10 23 45 46.75  60.5143 -152.7800  0.88 0.10 0.46 0.90 0.04   60282768
AVRDN    0.650 -1.000 P
AVRDN    1.140 -1.000 S
AVRDWB    1.760 -1.000 S
AVRDWB    1.060  1.000 P
AVREF    2.140 -1.000 S
AVREF    1.120  1.000 P
AVRSO    1.610  1.000 P
# 2009 03 11 02 41 47.52  60.5087 -152.7710  0.85 0.30 0.35 1.03 0.05   60282888
AVRDN    0.740  1.000 P
AVRDN    1.050 -1.000 S
AVRDWB    1.860 -1.000 S
AVRDWB    0.950 -1.000 P
AVREF    1.900  1.000 S
AVREF    1.060  1.000 P
AVREF    1.870 -1.000 S
AVRSO    1.160  1.000 P
# 2009 03 11 02 42 29.43  60.5053 -152.7747  1.37 0.30 0.46 1.00 0.07   60282893
AVRDN    0.790  1.000 P
AVRDN    1.270 -1.000 S
AVRDWB    1.820 -1.000 S
AVRDWB    1.020 -1.000 P
AVREF    2.030 -1.000 S
AVREF    1.190  1.000 P
AVRSO    0.990  1.000 P
# 2009 03 11 06 25 12.18  60.4788 -152.7787  2.49 -0.10 0.56 1.30 0.10   60282923
AVRDJH    2.460 -1.000 P
AVRDN    1.010  1.000 P
AVRDN    2.130 -1.000 S
AVRDWB    1.720 -1.000 S
AVRDWB    1.050  1.000 P
AVREF    2.210  1.000 S
AVREF    1.050  1.000 P
AVRSO    0.950 -1.000 P
# 2009 03 11 07 40 50.39  60.4913 -152.7953  6.36 0.60 1.28 1.34 0.18   60282943
AVRDN    1.760  1.000 P
AVRDN    2.520 -1.000 S
AVRDWB    2.520 -1.000 S
AVRDWB    1.600  1.000 P
AVREF    3.220 -1.000 S
AVREF    1.490  1.000 P
AVRSO    1.450 -1.000 P
# 2009 03 11 14 56 48.91  60.4648 -152.7772  2.28 0.10 0.87 1.02 0.10   60283043
AVNCT    2.630  1.000 P
AVRDJH    2.600  1.000 P
AVRDN    0.750  1.000 P
AVRDWB    1.820 -1.000 S
AVRDWB    1.090  1.000 P
AVREF    2.210  1.000 S
AVREF    1.080  1.000 P
AVREF    2.240  1.000 S
AVREF    1.100  1.000 P
AVRSO    0.970 -1.000 P
# 2009 03 11 15 11 12.36  60.4663 -152.6792  0.95 0.30 0.98 0.24 0.05   60283053
AVRDN    1.450  1.000 P
AVRDWB    3.340 -1.000 S
AVRDWB    2.210  1.000 P
AVREF    1.260 -1.000 S
AVREF    0.800  1.000 P
AVRSO    0.930 -1.000 P
AVRSO    1.820 -1.000 S
# 2009 03 11 17 25 19.23  60.5090 -152.7587  0.63 -0.50 0.35 1.04 0.05   60283088
AVRDN    0.530  1.000 P
AVRDN    0.930 -1.000 S
AVRDWB    1.990 -1.000 S
AVRDWB    1.070 -1.000 P
AVREF    1.650 -1.000 S
AVREF    1.050  1.000 P
AVRSO    1.030  1.000 P
# 2009 03 11 19 11 55.22  60.4995 -152.7815 -1.30 0.30 0.57 7.91 0.05   60283108
AVRDN    0.630 -1.000 P
AVRDWB    1.200 -1.000 S
AVRDWB    0.820 -1.000 P
AVREF    2.150  1.000 S
AVREF    0.950 -1.000 P
AVREF    1.720 -1.000 S
AVRSO    0.860  1.000 P
# 2009 03 11 19 20 45.36  60.4788 -152.7583  0.14 0.40 0.33 0.43 0.10   60283113
AVNCT    2.730  1.000 P
AVRDJH    4.440  1.000 S
AVRDJH    2.370  1.000 P
AVRDN    1.000  1.000 P
AVRDN    1.840 -1.000 S
AVRDWB    1.790  1.000 S
AVRDWB    0.840  1.000 P
AVREF    1.460 -1.000 S
AVREF    0.680  1.000 P
AVRSO    0.700  1.000 P
# 2009 03 11 20 25 34.27  60.4645 -152.7903  0.11 0.40 1.15 0.55 0.21   60283143
AVDFR    2.750  0.200 P
AVNCT    2.820  0.200 P
AVRDJH    4.710 -1.000 S
AVRDJH    2.700  1.000 P
AVRDN    1.130  1.000 P
AVRDWB    1.290 -1.000 S
AVRDWB    1.260  1.000 P
AVREF    2.300 -1.000 S
AVREF    1.260  1.000 P
AVRSO    0.250 -1.000 P
# 2009 03 11 21 39 27.11  60.5312 -152.7587  5.80 -0.30 0.37 0.68 0.08   60283173
AVDFR    1.670  1.000 P
AVDFR    3.180  1.000 S
AVNCT    2.050  1.000 P
AVNCT    3.860  1.000 S
AVRDJH    3.040  1.000 S
AVRDJH    1.630  1.000 P
AVRDN    1.260  1.000 P
AVRDN    2.280  1.000 S
AVRDWB    2.950  1.000 S
AVRDWB    1.660  1.000 P
AVREF    2.880  1.000 S
AVREF    1.610  1.000 P
AVRSO    2.060  1.000 P
AVRSO    3.330  1.000 S
# 2009 03 12 02 48 59.87  60.4925 -152.7622  1.50 0.40 0.94 1.05 0.07   60283248
AVRDN    0.880 -1.000 P
AVRDWB    1.160  1.000 P
AVRDWB    1.830 -1.000 S
AVREF    1.760 -1.000 S
AVREF    0.870  1.000 P
AVRSO    0.940 -1.000 P
# 2009 03 12 03 34 14.05  60.4947 -152.7707  0.62 0.00 0.56 1.56 0.03   60283278
AVRDN    0.790 -1.000 P
AVRDWB    1.570 -1.000 S
AVRDWB    0.930 -1.000 P
AVREF    1.690 -1.000 S
AVREF    0.870  1.000 P
AVRSO    1.260  1.000 P
# 2009 03 12 04 30 55.03  60.4658 -152.7592  0.24 0.60 1.05 2.40 0.21   60283293
AVRDN    1.680  1.000 P
AVRDWB    1.830 -1.000 S
AVRDWB    1.060  1.000 P
AVREF    1.750 -1.000 S
AVREF    0.610 -1.000 P
AVRSO    0.530 -1.000 P
# 2009 03 12 04 56 18.55  60.4982 -152.7793  1.80 -0.30 1.04 3.31 0.13   60283308
AVRDN    1.020 -1.000 P
AVRDWB    1.710 -1.000 S
AVRDWB    0.800 -1.000 P
AVREF    1.830 -1.000 S
AVREF    1.120  1.000 P
AVRSO    1.300  1.000 P
# 2009 03 12 05 59 7.66  60.4485 -152.7855  0.69 -0.10 1.14 2.46 0.21   60283333
AVRDN    1.980  1.000 P
AVRDN    2.810 -1.000 S
AVRDWB    2.060 -1.000 S
AVRDWB    1.180  1.000 P
AVREF    2.760 -1.000 S
AVREF    1.120  1.000 P
AVRSO    0.560 -1.000 P
# 2009 03 12 06 47 50.80  60.4207 -152.7557  3.11 0.20 2.22 4.22 0.34   60283338
AVNCT    3.690  1.000 P
AVRDJH    6.390 -1.000 S
AVRDJH    3.280  1.000 P
AVRDN    1.790  1.000 P
AVRDWB    2.630 -1.000 S
AVRDWB    1.500  1.000 P
AVREF    2.870 -1.000 S
AVREF    1.530  1.000 P
AVRSO    1.640 -1.000 P
# 2009 03 12 06 48 52.37  60.5062 -152.7847  2.49 0.10 1.38 2.42 0.15   60283348
AVRDN    1.070 -1.000 P
AVRDWB    1.750 -1.000 S
AVRDWB    1.030 -1.000 P
AVREF    2.220 -1.000 S
AVREF    1.010  1.000 P
AVRSO    1.560  1.000 P
# 2009 03 12 08 07 52.89  60.4683 -152.7555  2.78 0.50 0.87 1.66 0.19   60283373
AVNCT    2.750  1.000 P
AVRDJH    4.720 -1.000 S
AVRDJH    2.600  1.000 P
AVRDN    0.970  1.000 P
AVRDWB    2.080 -1.000 S
AVRDWB    1.160  1.000 P
AVREF    2.060 -1.000 S
AVREF    0.900  1.000 P
AVRSO    1.100 -1.000 P
# 2009 03 12 08 14 31.39  60.4835 -152.7572 -0.12 0.50 0.51 0.99 0.16   60283383
AVDFR    2.490 -1.000 P
AVRDN    0.740  1.000 P
AVRDN    1.790 -1.000 S
AVRDWB    1.720 -1.000 S
AVRDWB    0.850  1.000 P
AVREF    1.050  1.000 P
AVREF    1.110  1.000 S
AVREF    0.670  1.000 P
AVRSO    0.770  1.000 P
# 2009 03 12 08 33 28.29  60.4997 -152.7683  3.98 0.80 1.55 2.52 0.29   60283393
AVRDN    1.030  1.000 P
AVRDN    2.170 -1.000 S
AVRDWB    1.890 -1.000 S
AVRDWB    1.440  1.000 P
AVREF    2.220 -1.000 S
AVREF    0.900  1.000 P
AVRSO    1.860  1.000 P
# 2009 03 12 09 00 10.92  60.5040 -152.7740  2.89 0.00 0.93 2.17 0.20   60283413
AVRDN    0.920  1.000 P
AVRDN    1.800 -1.000 S
AVRDWB    1.790 -1.000 S
AVRDWB    1.160  1.000 P
AVREF    2.050 -1.000 S
AVREF    0.810  1.000 P
AVRSO    1.480 -1.000 P
# 2009 03 12 09 49 44.27  60.4877 -152.7787  5.59 0.80 1.15 0.87 0.03   60283433
AVNCT    3.300  0.200 P
AVRDN    1.420 -1.000 P
AVRDWB    2.410 -1.000 S
AVRDWB    1.400  1.000 P
AVREF    2.660 -1.000 S
AVREF    1.440  1.000 P
AVRSO    1.410 -1.000 P
# 2009 03 12 11 16 53.92  60.4902 -152.7605 -1.54 0.40 1.06 15.81 0.22   60283508
AVNCT    2.780  1.000 P
AVRDJH    1.920 -1.000 P
AVRDN    0.850  1.000 P
AVRDWB    1.360  1.000 S
AVRDWB    1.110  1.000 P
AVREF    1.490  1.000 S
AVREF    0.500  1.000 P
AVREF    1.200  1.000 S
AVREF    0.490  1.000 P
AVREF    1.300  1.000 S
AVRSO    0.690 -1.000 P
# 2009 03 12 11 42 29.33  60.4868 -152.7545  0.50 -0.40 1.45 4.32 0.32   60283513
AVRDN    1.280 -1.000 P
AVRDWB    1.780 -1.000 S
AVRDWB    0.650  1.000 P
AVREF    1.250 -1.000 S
AVREF    0.450  1.000 P
AVRSO    1.160 -1.000 P
# 2009 03 12 12 03 2.87  60.4827 -152.7842  5.03 0.20 0.86 1.13 0.13   60283523
AVNCT    3.270  0.200 P
AVRDJH    3.270  0.200 P
AVRDN    1.380  1.000 P
AVRDN    2.630 -1.000 S
AVRDWB    2.190 -1.000 S
AVRDWB    1.360  1.000 P
AVREF    2.460 -1.000 S
AVREF    2.810  1.000 S
AVREF    1.290  1.000 P
AVRSO    1.420  1.000 P
# 2009 03 12 13 16 17.33  60.4922 -152.7378 -0.77 0.10 0.67 6.11 0.25   60283548
AVRDN    0.700  1.000 P
AVRDN    1.270 -1.000 S
AVRDWB    1.680 -1.000 S
AVRDWB    1.490  1.000 P
AVREF    1.080 -1.000 S
AVREF    0.200 -1.000 P
AVRSO    0.970  1.000 P
# 2009 03 12 13 18 30.71  60.4983 -152.7727  0.13 0.90 0.31 1.59 0.07   60283553
AVNCT    2.300  1.000 P
AVRDJH    3.600 -1.000 S
AVRDJH    2.070  1.000 P
AVRDN    0.720  1.000 P
AVRDWB    1.500 -1.000 S
AVRDWB    0.840  1.000 P
AVREF    1.770 -1.000 S
AVREF    0.820 -1.000 P
AVRSO    1.250  1.000 P
# 2009 03 12 13 33 57.51  60.4865 -152.7563  6.42 0.50 0.59 0.73 0.04   60283558
AVRDN    1.500  1.000 P
AVRDN    2.710 -1.000 S
AVRDWB    2.770 -1.000 S
AVRDWB    1.610  1.000 P
AVREF    2.670 -1.000 S
AVREF    1.440  1.000 P
AVRSO    1.550 -1.000 P
# 2009 03 12 13 35 25.92  60.4340 -152.7585  4.24 0.00 1.68 2.39 0.25   60283568
AVRDJH    5.940 -1.000 S
AVRDJH    3.110  1.000 P
AVRDN    1.500  1.000 P
AVRDWB    2.780 -1.000 S
AVRDWB    1.630  1.000 P
AVREF    2.670 -1.000 S
AVREF    1.680  1.000 P
AVRSO    1.620  1.000 P
# 2009 03 12 14 11 16.63  60.4683 -152.7548  0.66 0.50 0.49 0.39 0.10   60283598
AVNCT    2.610  1.000 P
AVRDJH    3.960  1.000 S
AVRDJH    2.670  1.000 P
AVRDN    1.430  0.200 P
AVRDN    2.320 -1.000 S
AVRDWB    1.900 -1.000 S
AVRDWB    1.170  1.000 P
AVREF    1.610  1.000 S
AVREF    0.770  1.000 P
AVRSO    0.650 -1.000 P
# 2009 03 12 14 50 29.97  60.4903 -152.7735  0.82 0.50 0.34 0.52 0.11   60283628
AVNCT    2.330  1.000 P
AVRDJH    2.240  1.000 P
AVRDN    0.720  1.000 P
AVRDN    1.660 -1.000 S
AVRDWB    1.600 -1.000 S
AVRDWB    0.860  1.000 P
AVREF    1.920 -1.000 S
AVREF    0.840  1.000 P
AVRSO    0.800  1.000 P
# 2009 03 12 17 03 32.28  60.4880 -152.7637 -1.75 -0.10 1.27 16.21 0.23   60283658
AVRDN    1.170 -1.000 P
AVRDWB    1.370 -1.000 S
AVRDWB    0.890  1.000 P
AVREF    1.290 -1.000 S
AVREF    0.490  1.000 P
AVRSO    0.920 -1.000 P
# 2009 03 12 18 05 39.82  60.4925 -152.7638  2.06 1.00 0.41 1.13 0.13   60283683
AVDFR    2.290  1.000 P
AVNCT    2.360  1.000 P
AVRDJH    3.560  1.000 S
AVRDJH    2.110  1.000 P
AVRDN    0.770  1.000 P
AVRDN    1.690 -1.000 S
AVRDWB    1.930 -1.000 S
AVRDWB    0.810  1.000 P
AVREF    1.910  1.000 S
AVREF    0.890  1.000 P
AVRSO    1.050  1.000 P
# 2009 03 12 19 21 58.88  60.4797 -152.7563  1.70 0.40 0.99 2.91 0.15   60283703
AVRDN    0.910 -1.000 P
AVRDN    2.170 -1.000 S
AVRDWB    1.890 -1.000 S
AVRDWB    1.190  1.000 P
AVREF    1.580 -1.000 S
AVREF    1.180  1.000 P
AVRSO    0.820 -1.000 P
# 2009 03 12 19 32 41.84  60.4802 -152.7530  3.86 0.20 1.57 2.43 0.33   60283708
AVNCT    3.050 -1.000 P
AVRDN    0.970  1.000 P
AVRDN    1.930 -1.000 S
AVRDWB    2.360 -1.000 S
AVRDWB    1.110  1.000 P
AVREF    2.420 -1.000 S
AVREF    0.750  1.000 P
AVRSO    1.010 -1.000 P
# 2009 03 12 19 48 34.01  60.4953 -152.7698  5.20 0.60 0.87 0.70 0.06   60283723
AVRDN    2.180  1.000 P
AVRDWB    2.420 -1.000 S
AVRDWB    1.410  1.000 P
AVREF    2.570  1.000 S
AVREF    2.370  1.000 S
AVREF    1.430  1.000 P
AVRSO    1.360 -1.000 P
AVRSO    2.530 -1.000 S
# 2009 03 12 19 52 25.99  60.4743 -152.7405  1.23 0.80 1.04 0.60 0.21   60283728
AVNCT    2.710  0.200 P
AVRDJH    4.270 -1.000 S
AVRDJH    2.480  1.000 P
AVRDN    1.540  1.000 P
AVRDWB    2.090 -1.000 S
AVRDWB    1.250  1.000 P
AVREF    1.430 -1.000 S
AVREF    0.500  1.000 P
AVRSO    0.840 -1.000 P
# 2009 03 12 23 59 8.16  60.4627 -152.7675  4.74 0.50 1.43 1.00 0.15   60283798
AVRDN    1.870  1.000 P
AVRDWB    2.380 -1.000 S
AVRDWB    1.390 -1.000 P
AVREF    2.560 -1.000 S
AVREF    1.190  1.000 P
AVRSO    1.280 -1.000 P
AVRSO    2.130 -1.000 S
# 2009 03 13 00 10 51.02  60.4658 -152.7727 -1.79 0.60 1.47 13.79 0.21   60283808
AVNCT    2.870  0.200 P
AVRDN    0.950  1.000 P
AVRDN    2.090 -1.000 S
AVRDWB    1.610 -1.000 S
AVRDWB    1.040  1.000 P
AVREF    2.080 -1.000 S
AVREF    1.090  1.000 P
AVRSO    0.000 -1.000 P
# 2009 03 13 01 13 19.54  60.4807 -152.7573  2.16 0.30 0.85 2.07 0.23   60283818
AVDFR    2.410  1.000 P
AVNCT    2.790  1.000 P
AVRDN    0.760  1.000 P
AVRDN    1.730 -1.000 S
AVRDWB    2.120 -1.000 S
AVRDWB    0.920  1.000 P
AVREF    2.010 -1.000 S
AVREF    0.820  1.000 P
AVRSO    0.770 -1.000 P
