# 2009 02 26 11 06 1.27  60.5290 -152.6990  2.55 0.60 1.49 2.14 0.16   60313893
AVRDN    0.740 -1.000 P
AVRDWB    3.170 -1.000 S
AVRDWB    2.030  1.000 P
AVREF    2.030 -1.000 S
AVREF    1.190 -1.000 P
AVRSO    1.380  1.000 P
# 2009 02 26 11 46 15.41  60.4683 -152.7638 -0.79 -0.30 0.41 1.33 0.03   60313908
AVRDN    1.090  0.200 P
AVRDN    2.160 -1.000 S
AVRDWB    1.690 -1.000 S
AVRDWB    0.960 -1.000 P
AVREF    1.580  1.000 S
AVREF    0.900 -1.000 P
AVRSO    0.270 -1.000 P
# 2009 02 26 11 52 35.98  60.4743 -152.7743  1.40 0.90 0.62 0.42 0.14   60313913
AVNCT    2.510  1.000 P
AVRDJH    2.380 -1.000 P
AVRDN    0.920  1.000 P
AVRDN    2.340 -1.000 S
AVRDWB    1.700 -1.000 S
AVRDWB    0.980  1.000 P
AVREF    2.150  1.000 S
AVREF    0.900  1.000 P
AVRSO    0.820 -1.000 P
# 2009 02 26 12 07 2.72  60.4567 -152.7722  2.38 0.80 1.03 1.87 0.22   60313918
AVNCT    2.730  1.000 P
AVRDJH    5.100 -1.000 S
AVRDJH    2.670  1.000 P
AVRDN    1.100  1.000 P
AVRDWB    1.850 -1.000 S
AVRDWB    1.290  1.000 P
AVREF    2.250 -1.000 S
AVREF    1.190  1.000 P
AVRSO    1.050 -1.000 P
# 2009 02 26 12 12 28.81  60.4850 -152.7568  4.88 0.60 1.11 1.07 0.06   60313923
AVRDN    1.260 -1.000 P
AVRDWB    2.520 -1.000 S
AVRDWB    1.330  1.000 P
AVREF    1.350  1.000 P
AVREF    2.220 -1.000 S
AVREF    1.360  1.000 P
AVRSO    1.240 -1.000 P
# 2009 02 26 12 32 44.07  60.5008 -152.7872  1.06 0.50 1.00 1.86 0.14   60313943
AVRDN    0.990 -1.000 P
AVRDWB    1.420 -1.000 S
AVRDWB    0.850 -1.000 P
AVREF    2.090 -1.000 S
AVREF    0.940  1.000 P
AVRSO    1.330  1.000 P
# 2009 02 26 13 08 49.89  60.4903 -152.7448  5.90 0.40 0.91 1.13 0.06   60313963
AVRDN    2.530 -1.000 S
AVRDWB    2.760 -1.000 S
AVRDWB    2.470  1.000 P
AVREF    2.460 -1.000 S
AVREF    1.310 -1.000 P
AVRSO    1.540 -1.000 P
# 2009 02 26 13 10 3.77  60.4667 -152.7673  4.06 0.90 0.79 1.14 0.07   60313968
AVRDN    1.310  1.000 P
AVRDN    2.680 -1.000 S
AVRDWB    2.280 -1.000 S
AVRDWB    1.330 -1.000 P
AVREF    2.280 -1.000 S
AVREF    1.380  1.000 P
AVRSO    1.440  0.200 P
# 2009 02 26 13 32 58.16  60.4695 -152.7982  2.68 0.50 0.57 1.27 0.02   60313978
AVRDN    2.510 -1.000 S
AVRDWB    1.740 -1.000 S
AVRDWB    0.970 -1.000 P
AVREF    2.420 -1.000 S
AVREF    1.380  1.000 P
AVRSO    0.940 -1.000 P
# 2009 02 26 13 36 30.46  60.4888 -152.7825  6.33 0.90 0.66 0.83 0.07   60313988
AVRDN    1.620  1.000 P
AVRDN    2.670 -1.000 S
AVRDWB    2.660 -1.000 S
AVRDWB    1.360  1.000 P
AVREF    2.810 -1.000 S
AVREF    1.570  1.000 P
AVRSO    1.580 -1.000 P
# 2009 02 26 13 38 10.54  60.4932 -152.7770  2.29 0.50 0.60 1.55 0.09   60313998
AVRDN    0.940 -1.000 P
AVRDN    1.820 -1.000 S
AVRDWB    1.650 -1.000 S
AVRDWB    1.080  1.000 P
AVREF    2.000 -1.000 S
AVREF    1.000  1.000 P
AVRSO    1.160  1.000 P
# 2009 02 26 14 59 35.09  60.4695 -152.7385  1.77 -0.40 0.89 1.91 0.10   60314008
AVRDN    0.880  0.200 P
AVRDN    2.200 -1.000 S
AVRDWB    2.230 -1.000 S
AVRDWB    1.480 -1.000 P
AVREF    1.710 -1.000 S
AVREF    0.810 -1.000 P
AVRSO    0.730 -1.000 P
# 2009 02 26 15 34 1.67  60.4867 -152.7618  0.03 0.00 0.70 2.10 0.10   60314018
AVRDN    1.030 -1.000 P
AVRDWB    1.650 -1.000 S
AVRDWB    0.810 -1.000 P
AVREF    1.370 -1.000 S
AVREF    0.770  1.000 P
AVRSO    0.830 -1.000 P
# 2009 02 26 15 47 33.78  60.5117 -152.7723  1.71 0.50 0.62 1.38 0.08   60314023
AVRDN    0.860  1.000 P
AVRDN    1.210 -1.000 S
AVRDWB    1.940 -1.000 S
AVRDWB    1.050  1.000 P
AVREF    2.020 -1.000 S
AVREF    1.170  1.000 P
AVRSO    1.170  1.000 P
AVRSO    2.420 -1.000 S
# 2009 02 26 16 16 23.54  60.5140 -152.7680  3.99 0.10 1.01 1.44 0.18   60314028
AVRDN    1.140  1.000 P
AVRDN    1.720 -1.000 S
AVRDWB    2.580 -1.000 S
AVRDWB    1.100 -1.000 P
AVREF    2.210 -1.000 S
AVREF    1.580  1.000 P
AVRSO    1.490  1.000 P
# 2009 02 26 16 25 43.77  60.4835 -152.7453  2.53 0.00 1.00 2.23 0.19   60314038
AVRDN    1.090  1.000 P
AVRDN    1.980 -1.000 S
AVRDWB    2.010 -1.000 S
AVRDWB    1.430  1.000 P
AVREF    1.760 -1.000 S
AVREF    0.640  1.000 P
AVRSO    1.150  1.000 P
# 2009 02 26 16 40 10.49  60.5070 -152.7550 -1.43 0.10 0.42 8.55 0.08   60314043
AVDFR    2.170  0.200 P
AVNCT    2.190  1.000 P
AVRDJH    1.810  1.000 P
AVRDN   -0.400  1.000 P
AVRDN    0.700 -1.000 S
AVRDWB    1.870 -1.000 S
AVRDWB    1.030  1.000 P
AVREF    1.420  1.000 S
AVREF    0.670 -1.000 P
AVRSO    1.040 -1.000 P
# 2009 02 26 17 00 5.69  60.5083 -152.7872  1.96 -0.10 0.70 1.50 0.08   60314063
AVRDN    0.920 -1.000 P
AVRDN    1.440 -1.000 S
AVRDWB    1.760 -1.000 S
AVRDWB    1.010  1.000 P
AVREF    2.360 -1.000 S
AVREF    1.190  1.000 P
AVRSO    1.140  1.000 P
# 2009 02 26 17 59 22.33  60.5120 -152.6998  3.60 0.00 2.29 2.03 0.26   60314088
AVRDN    1.390 -0.200 P
AVRDWB    2.970 -1.000 S
AVRDWB    1.570  1.000 P
AVREF    1.920 -1.000 S
AVREF    0.680  1.000 P
AVRSO    1.860 -1.000 P
# 2009 02 26 18 19 28.16  60.5028 -152.6758  5.08 0.70 1.68 1.20 0.16   60314098
AVNCT    6.260  0.200 P
AVRDN    1.270 -1.000 P
AVRDWB    3.380 -1.000 S
AVRDWB    2.250  1.000 P
AVREF    2.360 -1.000 S
AVREF    1.080  1.000 P
AVRSO    1.550 -1.000 P
# 2009 02 26 18 21 20.74  60.4372 -152.7387  2.99 1.20 1.03 0.62 0.07   60314103
AVDFR    3.200  1.000 P
AVNCT    3.020  1.000 P
AVRDN    1.450  1.000 P
AVRDWB    2.960 -1.000 S
AVRDWB    1.560  1.000 P
AVREF    2.430 -1.000 S
AVREF    1.420  1.000 P
AVRSO    1.040  1.000 P
AVRSO    1.900 -1.000 S
# 2009 02 26 18 32 20.87  60.4718 -152.7687  1.71 0.50 1.18 2.30 0.10   60314108
AVRDN    1.090  1.000 P
AVRDWB    1.870 -1.000 S
AVRDWB    1.190 -1.000 P
AVREF    1.970  1.000 S
AVREF    1.140  1.000 P
AVREF    2.010  1.000 S
AVRSO    0.680 -1.000 P
# 2009 02 26 18 44 12.77  60.5008 -152.7855  4.64 0.90 0.71 0.85 0.09   60314118
AVRDN    1.180  1.000 P
AVRDN    2.220 -1.000 S
AVRDWB    2.070  1.000 S
AVRDWB    2.280  1.000 S
AVRDWB    1.340  1.000 P
AVREF    2.550 -1.000 S
AVREF    1.330  1.000 P
AVRSO    1.520  1.000 P
# 2009 02 26 18 50 9.78  60.4943 -152.7728 -1.40 0.40 0.90 15.94 0.22   60314123
AVNCT    5.020  0.200 P
AVRDN    0.560  1.000 P
AVRDN    1.450 -1.000 S
AVRDWB    1.430 -1.000 S
AVRDWB    0.670  1.000 P
AVREF    1.770  1.000 S
AVREF    0.530 -1.000 P
AVRSO    0.960 -1.000 P
# 2009 02 26 18 52 14.05  60.4582 -152.7235  5.81 1.50 2.72 1.60 0.26   60314128
AVDFR    3.170  1.000 P
AVNCT    3.120  1.000 P
AVRDN    1.260  1.000 P
AVRDWB    3.110 -1.000 S
AVRDWB    1.970  1.000 P
AVREF    2.730 -1.000 S
AVREF    1.290  1.000 P
AVRSO    1.510 -1.000 P
# 2009 02 26 20 13 7.27  60.5113 -152.7870  2.31 -0.50 0.65 1.58 0.04   60314153
AVRDN    0.860 -1.000 P
AVRDWB    1.790 -1.000 S
AVRDWB    1.070 -1.000 P
AVREF    2.320 -1.000 S
AVREF    1.240  1.000 P
AVRSO    1.280  1.000 P
# 2009 02 26 23 17 36.02  60.5170 -152.7905  1.17 0.20 0.61 0.97 0.08   60314198
AVRDN    0.810  1.000 P
AVRDN    1.270 -1.000 S
AVRDWB    1.750 -1.000 S
AVRDWB    1.090  1.000 P
AVREF    2.460 -1.000 S
AVREF    1.230  1.000 P
AVRSO    1.280  1.000 P
# 2009 02 26 23 42 55.80  60.4632 -152.7545  5.26 0.60 0.65 0.97 0.05   60314218
AVRDN    1.540  1.000 P
AVRDN    2.970 -1.000 S
AVRDWB    2.680 -1.000 S
AVRDWB    1.500  1.000 P
AVREF    2.470 -1.000 S
AVREF    1.420  1.000 P
AVRSO    1.300 -1.000 P
# 2009 02 26 23 43 11.34  60.4950 -152.7813  6.98 0.90 1.14 0.82 0.10   60314223
AVRDN    1.560  1.000 P
AVRDN    2.840 -1.000 S
AVRDWB    2.660 -1.000 S
AVRDWB    1.620 -1.000 P
AVREF    3.040 -1.000 S
AVREF    1.540  1.000 P
AVRSO    1.840  1.000 P
# 2009 02 26 23 43 25.95  60.4758 -152.6878  5.54 0.70 1.38 1.10 0.23   60314228
AVNCT    2.950  1.000 P
AVRDJH    2.930  1.000 P
AVRDN    1.430  1.000 P
AVRDN    2.680 -1.000 S
AVRDWB    2.180  1.000 P
AVRDWB    3.630 -1.000 S
AVRDWB    1.460  1.000 P
AVRED    4.230  1.000 P
AVREF    2.290 -1.000 S
AVREF    1.400  1.000 P
AVRSO    1.350  1.000 P
# 2009 02 27 01 07 20.59  60.4673 -152.7322  1.66 1.10 0.92 1.44 0.13   60314263
AVDFR    2.560  1.000 P
AVRDN    1.250  1.000 P
AVRDN    2.360 -1.000 S
AVRDWB    2.510 -1.000 S
AVRDWB    1.130  1.000 P
AVREF    1.410 -1.000 S
AVREF    1.060  1.000 P
AVRSO    0.810 -1.000 P
# 2009 02 27 01 07 39.35  60.4312 -152.6835  2.55 0.30 2.28 5.53 0.32   60314268
AVRDN    2.200  1.000 P
AVRDN    4.060 -1.000 S
AVRDWB    3.240 -1.000 S
AVRDWB    2.040  1.000 P
AVREF    2.340 -1.000 S
AVREF    1.040 -1.000 P
AVRSO    1.580 -1.000 P
# 2009 02 27 01 08 3.62  60.4733 -152.7102  1.59 0.50 2.53 1.96 0.31   60314273
AVDFR    2.940  1.000 P
AVNCT    2.790  1.000 P
AVRDN    1.190  1.000 P
AVRDWB    2.870 -1.000 S
AVRDWB    1.060  1.000 P
AVREF    1.340 -1.000 S
AVREF    0.400  1.000 P
AVRSO    1.190 -1.000 P
# 2009 02 27 01 10 1.85  60.4878 -152.7695  4.53 0.80 0.88 1.03 0.07   60314283
AVRDN    1.320 -1.000 P
AVRDWB    2.290 -1.000 S
AVRDWB    1.090  1.000 P
AVREF    2.290 -1.000 S
AVREF    1.300  1.000 P
AVRSO    1.320 -1.000 P
# 2009 02 27 01 10 41.04  60.4893 -152.7647  0.40 0.90 0.65 0.67 0.12   60314288
AVDFR    2.440  1.000 P
AVNCT    2.380  1.000 P
AVRDJH    1.580  1.000 P
AVRDN    0.690  1.000 P
AVRDWB    1.770 -1.000 S
AVRDWB    0.760  1.000 P
AVREF    1.650 -1.000 S
AVREF    0.690  1.000 P
AVRSO    0.740 -1.000 P
# 2009 02 27 01 31 1.70  60.4922 -152.7362  7.33 1.30 0.98 0.72 0.09   60314303
AVRDN    1.450  1.000 P
AVRDN    2.920 -1.000 S
AVRDWB    3.110 -1.000 S
AVRDWB    1.910  1.000 P
AVREF    2.780 -1.000 S
AVREF    1.540  1.000 P
AVRSO    1.770  1.000 P
# 2009 02 27 02 05 57.18  60.4597 -152.7807  0.13 0.80 0.94 0.40 0.15   60314323
AVDFR    1.780  1.000 P
AVNCT    2.630  1.000 P
AVRDJH    5.140 -1.000 S
AVRDJH    2.580  1.000 P
AVRDN    0.980  0.200 P
AVRDWB    1.510 -1.000 S
AVRDWB    1.140  1.000 P
AVREF    2.150 -1.000 S
AVREF    1.060  1.000 P
AVRSO    0.530 -1.000 P
# 2009 02 27 02 06 26.71  60.4627 -152.7030  1.43 0.30 2.24 0.44 0.23   60314328
AVRDN    1.530  1.000 P
AVRDWB    2.750 -1.000 S
AVRDWB    2.070  1.000 P
AVREF    1.720 -1.000 S
AVREF    0.550 -1.000 P
AVRSO    0.830  1.000 P
AVRSO    1.590 -1.000 S
# 2009 02 27 02 06 35.76  60.4715 -152.7685  2.15 0.60 1.42 1.94 0.19   60314333
AVDFR    2.660  1.000 P
AVNCT    2.620  1.000 P
AVRDN    0.920  1.000 P
AVRDWB    1.850 -1.000 S
AVRDWB    1.110  1.000 P
AVREF    2.190 -1.000 S
AVREF    0.940  1.000 P
AVRSO    0.860 -1.000 P
# 2009 02 27 02 09 26.71  60.4700 -152.7743  1.04 0.70 0.76 0.51 0.07   60314343
AVNCT    2.500 -1.000 P
AVRDN    0.730  1.000 P
AVRDWB    1.700 -1.000 S
AVRDWB    0.990  1.000 P
AVREF    2.060 -1.000 S
AVREF    0.970  1.000 P
AVRSO    0.660 -1.000 P
# 2009 02 27 02 26 25.23  60.4657 -152.7807  3.40 0.50 0.87 1.53 0.12   60314358
AVRDN    1.390 -1.000 P
AVRDN    2.830 -1.000 S
AVRDWB    1.900 -1.000 S
AVRDWB    1.290  1.000 P
AVREF    2.280 -1.000 S
AVREF    1.230  1.000 P
AVRSO    1.110 -1.000 P
# 2009 02 27 02 30 6.18  60.4753 -152.7870  5.38 1.30 0.67 0.89 0.08   60314373
AVRDN    1.500  1.000 P
AVRDN    2.790 -1.000 S
AVRDWB    2.300 -1.000 S
AVRDWB    1.480  1.000 P
AVREF    2.750 -1.000 S
AVREF    1.440  1.000 P
AVRSO    1.380  1.000 P
# 2009 02 27 02 37 6.85  60.4678 -152.7733  3.29 1.00 0.61 0.89 0.03   60314383
AVNCT    2.500 -1.000 P
AVRDN    1.070  1.000 P
AVRDN    2.490 -1.000 S
AVRDWB    2.080 -1.000 S
AVRDWB    1.140  1.000 P
AVREF    2.240 -1.000 S
AVREF    1.210  1.000 P
AVRSO    1.010  1.000 P
# 2009 02 27 02 37 55.58  60.4687 -152.7445  1.32 0.30 0.85 1.04 0.14   60314393
AVRDN    1.060  1.000 P
AVRDWB    2.370 -1.000 S
AVRDWB    1.220  1.000 P
AVREF    1.520 -1.000 S
AVREF    1.110 -1.000 P
AVRSO    0.560 -1.000 P
AVRSO    1.190 -1.000 S
# 2009 02 27 02 45 12.20  60.4542 -152.7138  6.33 0.90 1.53 1.18 0.13   60314433
AVRDN    2.020 -1.000 P
AVRDWB    3.440 -1.000 S
AVRDWB    1.670  1.000 P
AVREF    2.660 -1.000 S
AVREF    1.440  1.000 P
AVRSO    1.570 -1.000 P
# 2009 02 27 02 46 51.29  60.4798 -152.7738  6.09 1.00 0.77 0.71 0.07   60314438
AVRDN    1.460  1.000 P
AVRDN    2.790 -1.000 S
AVRDWB    2.590 -1.000 S
AVRDWB    1.530  1.000 P
AVREF    2.850  1.000 S
AVREF    1.540  1.000 P
AVREF    2.620  1.000 S
AVRSO    1.420  1.000 P
# 2009 02 27 02 51 40.17  60.4573 -152.7762  2.11 0.80 1.26 1.66 0.12   60314463
AVNCT    2.850  1.000 P
AVRDN    1.050  1.000 P
AVRDWB    1.990 -1.000 S
AVRDWB    1.050  1.000 P
AVREF    2.280 -1.000 S
AVREF    1.180  1.000 P
AVRSO    0.860 -1.000 P
# 2009 02 27 03 00 12.25  60.4788 -152.6597  6.10 1.60 1.39 0.50 0.01   60314483
AVNCT    3.560  0.200 P
AVRDN    1.700 -1.000 P
AVRDWB    3.840 -1.000 S
AVRDWB    2.160 -1.000 P
AVREF    2.460 -1.000 S
AVREF    2.000  1.000 P
AVRSO    1.690 -1.000 P
# 2009 02 27 03 01 29.15  60.4745 -152.7612  2.30 1.50 0.47 0.98 0.08   60314488
AVDFR    2.560  0.200 P
AVNCT    2.450  1.000 P
AVRDJH    2.470  0.200 P
AVRDN    1.080  1.000 P
AVRDN    2.230 -1.000 S
AVRDWB    2.010 -1.000 S
AVRDWB    1.030  1.000 P
AVREF    1.780 -1.000 S
AVREF    1.040  1.000 P
AVRSO    0.950  1.000 P
# 2009 02 27 03 17 26.36  60.5087 -152.7190 -2.17 0.90 0.97 3.99 0.34   60314523
AVDFR    2.370 -0.200 P
AVRDN   -0.010  1.000 P
AVRDN    0.720 -1.000 S
AVRDWB    2.850 -1.000 S
AVRDWB    1.530  1.000 P
AVREF    0.980 -1.000 S
AVREF    0.810  1.000 P
AVRSO    0.440  1.000 P
# 2009 02 27 03 21 34.02  60.4682 -152.7393  2.57 1.10 1.10 1.85 0.23   60314533
AVDFR    2.600  1.000 P
AVNCT    2.740  1.000 P
AVRDN    0.400  1.000 P
AVRDN    2.070 -1.000 S
AVRDWB    2.580 -1.000 S
AVRDWB    1.220  1.000 P
AVREF    2.080 -1.000 S
AVREF    1.170  1.000 P
AVRSO    0.440  1.000 P
# 2009 02 27 03 22 0.28  60.4875 -152.7072  6.33 0.90 1.32 1.45 0.21   60314538
AVRDN    1.640  1.000 P
AVRDN    2.750 -1.000 S
AVRDWB    3.150 -1.000 S
AVRDWB    1.820  1.000 P
AVREF    2.500 -1.000 S
AVREF    0.960  1.000 P
AVRSO    1.890  1.000 P
# 2009 02 27 03 26 7.19  60.4743 -152.7650  2.38 0.80 0.75 1.51 0.17   60314543
AVDFR    2.620  1.000 P
AVNCT    2.700  1.000 P
AVRDN    0.950  1.000 P
AVRDN    2.070 -1.000 S
AVRDWB    2.000 -1.000 S
AVRDWB    1.060  1.000 P
AVREF    2.100 -1.000 S
AVREF    0.970  1.000 P
AVRSO    0.790 -1.000 P
# 2009 02 27 03 27 59.19  60.4678 -152.7593  3.23 0.60 0.79 0.84 0.12   60314553
AVDFR    3.570  1.000 P
AVNCT    2.750  1.000 P
AVRDN    1.100  1.000 P
AVRDN    2.500 -1.000 S
AVRDWB    2.120 -1.000 S
AVRDWB    1.180  1.000 P
AVREF    2.110  1.000 S
AVREF    1.140 -1.000 P
AVRSO    1.730 -1.000 S
# 2009 02 27 04 04 39.21  60.5012 -152.7143  3.29 0.40 0.64 1.18 0.15   60314568
AVNCT    3.150  1.000 P
AVRDN    0.690  1.000 P
AVRDN    1.790 -1.000 S
AVRDWB    2.780 -1.000 S
AVRDWB    1.710  1.000 P
AVREF    1.750 -1.000 S
AVREF    1.070  1.000 P
AVRSO    1.200  1.000 P
AVRSO    2.170 -1.000 S
# 2009 02 27 04 08 25.41  60.4895 -152.7158  3.98 0.10 0.55 0.95 0.05   60314573
AVRDN    1.140 -1.000 P
AVRDN    2.140 -1.000 S
AVRDWB    2.730 -1.000 S
AVRDWB    2.000  0.200 P
AVREF    1.800 -1.000 S
AVREF    0.970  1.000 P
AVRSO    1.330 -1.000 P
# 2009 02 27 04 09 40.58  60.4788 -152.7740  6.02 0.60 0.83 1.06 0.12   60314578
AVNCT    3.170  1.000 P
AVRDN    1.380 -1.000 P
AVRDN    2.930 -1.000 S
AVRDWB    2.490 -1.000 S
AVRDWB    1.650  1.000 P
AVREF    2.730 -1.000 S
AVREF    1.490  1.000 P
AVRSO    1.440 -1.000 P
# 2009 02 27 04 25 47.10  60.4992 -152.7647 -0.04 0.70 1.04 3.72 0.43   60314588
AVDFR    2.560  1.000 P
AVNCT    2.590  1.000 P
AVRDN    0.160  1.000 P
AVRDN    1.270 -1.000 S
AVRDWB    1.980 -1.000 S
AVRDWB    0.310  1.000 P
AVREF    1.930 -1.000 S
AVREF    0.270  1.000 P
AVRSO    1.170  1.000 P
# 2009 02 27 04 40 14.27  60.4888 -152.7683  4.72 0.70 1.71 0.94 0.04   60314603
AVRDN    2.040  1.000 P
AVRDWB    2.300 -1.000 S
AVRDWB    1.360 -1.000 P
AVREF    2.380 -1.000 S
AVREF    1.230  1.000 P
AVRSO    1.290 -1.000 P
# 2009 02 27 04 43 43.17  60.4758 -152.6918  4.39 -0.30 0.94 1.10 0.12   60314608
AVRDN    1.570  1.000 P
AVRDN    2.360 -1.000 S
AVRDWB    3.170 -1.000 S
AVRDWB    1.930  1.000 P
AVREF    2.070 -1.000 S
AVREF    1.000  1.000 P
AVRSO    1.180 -1.000 P
# 2009 02 27 05 14 33.41  60.4767 -152.7697  5.45 0.60 0.89 0.67 0.05   60314618
AVRDN    1.430  1.000 P
AVRDWB    2.480 -1.000 S
AVRDWB    1.480  1.000 P
AVREF    2.630 -1.000 S
AVREF    1.380  1.000 P
AVRSO    1.340 -1.000 P
AVRSO    2.290 -1.000 S
# 2009 02 27 05 15 57.20  60.4785 -152.7545  7.14 0.70 1.15 0.91 0.11   60314623
AVRDN    1.910  1.000 P
AVRDN    2.850 -1.000 S
AVRDWB    2.990 -1.000 S
AVRDWB    1.730  1.000 P
AVREF    2.950 -1.000 S
AVREF    1.430  1.000 P
AVRSO    1.590 -1.000 P
# 2009 02 27 05 55 40.67  60.4618 -152.7347  5.67 1.00 1.84 1.43 0.17   60314633
AVNCT    3.170 -1.000 P
AVRDN    1.350  1.000 P
AVRDWB    3.000 -1.000 S
AVRDWB    1.520  1.000 P
AVREF    2.610 -1.000 S
AVREF    1.460  1.000 P
AVRSO    1.390 -1.000 P
# 2009 02 27 06 01 15.93  60.4730 -152.7490  2.14 0.70 0.91 2.50 0.18   60314638
AVRDN    0.930  1.000 P
AVRDN    2.350 -1.000 S
AVRDWB    2.040 -1.000 S
AVRDWB    1.590  1.000 P
AVREF    1.760 -1.000 S
AVREF    0.920 -1.000 P
AVRSO    0.830 -1.000 P
# 2009 02 27 06 13 16.08  60.4827 -152.7758  3.22 0.00 0.61 1.12 0.06   60314643
AVRDN    1.130  1.000 P
AVRDN    2.120 -1.000 S
AVRDWB    1.920 -1.000 S
AVRDWB    1.200  1.000 P
AVREF    1.270  1.000 P
AVREF    2.190 -1.000 S
AVREF    1.160  1.000 P
AVRSO    0.970  1.000 P
# 2009 02 27 06 54 22.26  60.5037 -152.7758 -1.26 0.40 1.33 18.41 0.28   60314673
AVNCT    2.610 -1.000 P
AVRDN    0.280 -1.000 P
AVRDWB    1.150 -1.000 S
AVRDWB    1.510  1.000 S
AVRDWB    0.880  1.000 P
AVREF    1.970 -1.000 S
AVREF    0.580  1.000 P
AVRSO    0.930  1.000 P
# 2009 02 27 07 02 27.71  60.4697 -152.7748  4.58 0.40 0.95 1.34 0.12   60314688
AVNCT    3.030  0.200 P
AVRDN    1.380 -1.000 P
AVRDN    2.560 -1.000 S
AVRDWB    2.300 -1.000 S
AVRDWB    1.460  1.000 P
AVREF    2.560 -1.000 S
AVREF    1.480  1.000 P
AVRSO    0.990 -1.000 P
# 2009 02 27 07 22 8.86  60.4472 -152.7755 -0.28 0.60 1.25 2.27 0.13   60314698
AVRDN    1.550  1.000 P
AVRDWB    2.160 -1.000 S
AVRDWB    1.070 -1.000 P
AVREF    2.250 -1.000 S
AVREF    1.510  1.000 P
AVRSO    0.410 -1.000 P
# 2009 02 27 07 22 27.23  60.5032 -152.7682 -0.41 0.80 0.66 3.12 0.22   60314708
AVNCT    2.460 -1.000 P
AVRDN    0.600  1.000 P
AVRDN    0.920 -1.000 S
AVRDWB    1.600 -1.000 S
AVRDWB    0.700  1.000 P
AVREF    1.820  1.000 S
AVREF    0.570  1.000 P
AVRSO    1.310  1.000 P
# 2009 02 27 07 31 14.08  60.4782 -152.7745  2.97 0.30 0.59 1.16 0.06   60314713
AVRDN    1.100  1.000 P
AVRDN    2.280 -1.000 S
AVRDWB    1.170  1.000 P
AVRDWB    1.890 -1.000 S
AVREF    1.210  1.000 P
AVREF    2.100 -1.000 S
AVREF    1.150  1.000 P
AVRSO    0.980 -1.000 P
# 2009 02 27 07 39 9.23  60.4597 -152.7892  4.74 0.60 1.57 1.34 0.16   60314718
AVNCT    3.260  1.000 P
AVRDJH    2.940 -1.000 P
AVRDN    1.420  1.000 P
AVRDWB    2.250 -1.000 S
AVRDWB    1.480  1.000 P
AVREF    1.480  1.000 P
AVREF    2.900 -1.000 S
AVREF    1.350  1.000 P
AVRSO    1.300 -1.000 P
# 2009 02 27 07 39 41.88  60.4885 -152.7725  3.95 0.20 1.11 0.94 0.07   60314723
AVRDN    1.160 -1.000 P
AVRDWB    2.080 -1.000 S
AVRDWB    1.270  1.000 P
AVREF    2.340 -1.000 S
AVREF    2.120  1.000 S
AVREF    1.220  1.000 P
AVRSO    1.140 -1.000 P
# 2009 02 27 07 40 25.21  60.4552 -152.7767  0.97 0.60 0.88 0.44 0.08   60314728
AVNCT    2.740  1.000 P
AVRDJH    2.690 -1.000 P
AVRDN    1.160  1.000 P
AVRDWB    1.910 -1.000 S
AVRDWB    1.250  1.000 P
AVREF    2.300 -1.000 S
AVREF    1.190  1.000 P
AVRSO    0.570 -1.000 P
# 2009 02 27 07 53 3.48  60.4793 -152.7762  1.94 0.10 0.54 2.02 0.07   60314733
AVRDN    2.020 -1.000 S
AVRDWB    1.660 -1.000 S
AVRDWB    1.090 -1.000 P
AVREF    2.060 -1.000 S
AVREF    1.040 -1.000 P
AVRSO    0.830 -1.000 P
# 2009 02 27 07 53 56.42  60.4803 -152.7648 -2.99 1.20 0.61 0.73 0.22   60314743
AVBGL   15.710  0.200 P
AVBKG   12.400  1.000 P
AVCRP   15.920  1.000 P
AVDFR    2.140  1.000 P
AVILW    9.080  1.000 P
AVINE    8.990  1.000 P
AVNCG   18.070  1.000 P
AVNCT    2.530  1.000 P
AVRDJH    2.080  1.000 P
AVRDN    1.030  1.000 P
AVRDT    4.120  1.000 P
AVRDWB    1.770 -1.000 S
AVRDWB    1.020  1.000 P
AVREF    1.660 -1.000 S
AVREF    1.020  1.000 P
AVRSO   -0.470  1.000 P
AVSPU   16.160  0.200 P
