# 2009 02 27 08 10 33.77  60.4668 -152.7688  5.49 0.30 2.67 2.10 0.27   60314758
AVRDN    1.090 -1.000 P
AVRDWB    2.560 -1.000 S
AVRDWB    1.720  1.000 P
AVREF    2.750 -1.000 S
AVREF    1.750  1.000 P
AVRSO    1.020 -1.000 P
# 2009 02 27 08 15 51.60  60.4627 -152.7708  4.09 -0.10 1.78 3.26 0.31   60314763
AVRDN    1.610  1.000 P
AVRDN    2.220 -1.000 S
AVRDWB    2.640 -1.000 S
AVRDWB    1.340  1.000 P
AVREF    2.760 -1.000 S
AVREF    1.590  1.000 P
AVRSO    0.720 -1.000 P
# 2009 02 27 08 21 48.29  60.4995 -152.7677  1.87 0.60 0.51 2.39 0.08   60314768
AVRDN    0.840 -1.000 P
AVRDWB    1.840 -1.000 S
AVRDWB    0.370  1.000 P
AVREF    1.730 -1.000 S
AVREF    1.140 -1.000 P
AVRSO    0.980 -1.000 P
AVRSO    1.990 -1.000 S
# 2009 02 27 08 23 17.43  60.4785 -152.7688  4.89 0.60 0.55 0.80 0.07   60314773
AVRDN    1.310  1.000 P
AVRDN    2.640 -1.000 S
AVRDWB    2.300 -1.000 S
AVRDWB    1.420  1.000 P
AVREF    2.320  1.000 S
AVREF    1.350  1.000 P
AVRSO    1.230  1.000 P
AVRSO    2.260 -1.000 S
# 2009 02 27 08 36 23.10  60.4530 -152.7670  2.21 0.70 1.38 1.11 0.17   60314783
AVDFR    2.750  1.000 P
AVNCT    2.820  1.000 P
AVRDJH    2.790  1.000 P
AVRDN    1.270  1.000 P
AVRDT    4.340  0.200 P
AVRDWB    2.190 -1.000 S
AVRDWB    1.420  1.000 P
AVREF    2.420 -1.000 S
AVREF    1.150  1.000 P
AVRSO    0.700 -1.000 P
# 2009 02 27 09 03 3.77  60.4803 -152.7647  2.79 0.70 0.52 1.24 0.05   60314788
AVRDN    1.240  1.000 P
AVRDN    2.020 -1.000 S
AVRDWB    2.050 -1.000 S
AVRDWB    1.050 -1.000 P
AVREF    1.920 -1.000 S
AVREF    1.120  1.000 P
AVRSO    0.950  1.000 P
# 2009 02 27 09 15 9.71  60.4698 -152.7722  3.84 0.40 0.88 1.65 0.13   60314793
AVRDN    1.240  1.000 P
AVRDN    2.740 -1.000 S
AVRDWB    2.080 -1.000 S
AVRDWB    1.340  1.000 P
AVREF    2.180 -1.000 S
AVREF    1.220  1.000 P
AVRSO    1.170 -1.000 P
# 2009 02 27 09 42 18.26  60.5213 -152.7775  0.95 0.20 0.98 1.81 0.11   60314803
AVRDN    0.600 -1.000 P
AVRDWB    2.050 -1.000 S
AVRDWB    1.260 -1.000 P
AVREF    2.450 -0.200 S
AVREF    1.310  1.000 P
AVRSO    1.250  1.000 P
# 2009 02 27 11 01 3.13  60.5080 -152.7253  3.86 0.90 1.45 2.82 0.28   60314843
AVNCT    4.720  1.000 P
AVRDN    1.330 -1.000 P
AVRDWB    2.490 -1.000 S
AVRDWB    1.290  1.000 P
AVREF    1.850 -1.000 S
AVREF    0.720  1.000 P
AVRSO    1.770  1.000 P
AVRSO    2.670 -1.000 S
# 2009 02 27 11 11 34.83  60.4877 -152.7697  2.71 0.20 0.68 1.39 0.04   60314853
AVRDN    1.040 -1.000 P
AVRDWB    1.860 -1.000 S
AVRDWB    1.140  1.000 P
AVREF    2.020 -1.000 S
AVREF    1.090  1.000 P
AVREF    1.060  1.000 P
AVRSO    0.990 -1.000 P
# 2009 02 27 11 21 38.71  60.5175 -152.6927  1.41 0.10 1.00 0.25 0.05   60314863
AVRDN    0.790 -1.000 P
AVRDN    1.310 -1.000 S
AVRDWB    3.100 -1.000 S
AVRDWB    2.200  0.200 P
AVREF    1.580 -1.000 S
AVREF    0.730  1.000 P
AVRSO    1.550 -1.000 P
# 2009 02 27 11 23 0.83  60.4747 -152.7110  3.77 0.00 0.93 0.62 0.07   60314868
AVRDN    1.310  1.000 P
AVRDWB    2.930 -1.000 S
AVRDWB    1.530  1.000 P
AVREF    1.840 -1.000 S
AVREF    0.970  1.000 P
AVRSO    1.270 -1.000 P
AVRSO    1.960 -1.000 S
# 2009 02 27 11 23 3.78  60.4853 -152.7292  3.83 0.80 0.98 1.36 0.19   60314873
AVDFR    2.440  1.000 P
AVNCT    2.580  1.000 P
AVRDJH    3.840  0.200 S
AVRDJH    2.420  1.000 P
AVRDN    0.850  1.000 P
AVRDWB    2.820 -1.000 S
AVRDWB    1.300  1.000 P
AVREF    1.880 -1.000 S
AVREF    1.170  1.000 P
AVRSO    0.940  1.000 P
# 2009 02 27 11 26 2.62  60.4755 -152.7510  0.67 -0.10 0.66 1.95 0.16   60314878
AVRDN    0.790  1.000 P
AVRDN    2.160 -1.000 S
AVRDWB    1.350  1.000 P
AVRDWB    1.820 -1.000 S
AVREF    1.490 -1.000 S
AVREF    0.750  1.000 P
AVRSO    0.600 -1.000 P
# 2009 02 27 11 27 17.24  60.4787 -152.7672 -2.98 0.00 0.69 0.78 0.25   60314883
AVNCT    4.720  1.000 P
AVRDJH    2.270  1.000 P
AVRDN    0.530  1.000 P
AVRDN    2.030  1.000 S
AVRDWB    1.510 -1.000 S
AVRDWB    0.720  1.000 P
AVREF    1.800 -1.000 S
AVREF    0.630  1.000 P
AVRSO    0.530 -1.000 P
# 2009 02 27 11 37 25.97  60.4548 -152.7792  6.09 0.10 1.65 1.77 0.32   60314908
AVRDN    1.860  1.000 P
AVRDN    3.190 -1.000 S
AVRDWB    2.630 -1.000 S
AVRDWB    1.920  1.000 P
AVREF    2.930 -1.000 S
AVREF    1.910  1.000 P
AVRSO    0.820  1.000 P
AVRSO    3.020 -1.000 S
# 2009 02 27 11 58 42.83  60.5230 -152.7577  0.06 -0.50 0.41 0.99 0.20   60314923
AVDFR    1.710  1.000 P
AVRDJH    3.200  1.000 S
AVRDJH    1.330  1.000 P
AVRDN    0.170  1.000 P
AVRDN    0.580 -1.000 S
AVRDWB    2.330 -1.000 S
AVRDWB    1.070  1.000 P
AVREF    2.280  1.000 S
AVREF    0.940  1.000 P
AVRSO    1.350  1.000 P
# 2009 02 27 12 16 47.74  60.4805 -152.7585  0.58 0.80 0.33 0.59 0.05   60314933
AVRDJH    2.420 -1.000 P
AVRDN    0.930  1.000 P
AVRDN    1.760 -1.000 S
AVRDWB    1.830 -1.000 S
AVRDWB    0.960  1.000 P
AVREF    1.940  1.000 S
AVREF    0.910 -1.000 P
AVRSO    0.590 -1.000 P
# 2009 02 27 12 51 1.76  60.4815 -152.7688  1.02 0.30 0.87 0.60 0.14   60314953
AVNCT    2.410 -1.000 P
AVRDN    0.850  1.000 P
AVRDWB    1.660 -1.000 S
AVRDWB    1.100  1.000 P
AVREF    1.970 -1.000 S
AVREF    0.870  1.000 P
AVRSO    0.630 -1.000 P
# 2009 02 27 13 02 44.11  60.4845 -152.7752  2.69 0.40 0.73 1.37 0.06   60314973
AVRDN    1.060 -1.000 P
AVRDWB    1.800 -1.000 S
AVRDWB    1.130  1.000 P
AVREF    2.070 -1.000 S
AVREF    1.110  1.000 P
AVRSO    0.940 -1.000 P
# 2009 02 27 13 02 59.08  60.4825 -152.7625  1.38 0.60 0.40 0.97 0.04   60314978
AVRDN    0.980  1.000 P
AVRDN    1.920 -1.000 S
AVRDWB    1.830 -1.000 S
AVRDWB    1.040 -1.000 P
AVREF    1.660 -1.000 S
AVREF    0.980  1.000 P
AVRSO    0.820  1.000 P
# 2009 02 27 13 10 41.56  60.4892 -152.7700  0.39 0.50 0.60 0.62 0.10   60314983
AVNCT    2.370  1.000 P
AVRDJH    2.310  1.000 P
AVRDN    0.730  1.000 P
AVRDWB    1.570 -1.000 S
AVRDWB    0.870  1.000 P
AVREF    1.780 -1.000 S
AVREF    0.760  1.000 P
AVRSO    0.730 -1.000 P
# 2009 02 27 13 12 14.71  60.4663 -152.7602  3.06 1.10 0.80 0.77 0.07   60314988
AVNCT    2.680  1.000 P
AVRDJH    2.550 -1.000 P
AVRDN    1.060  1.000 P
AVRDWB    2.200 -1.000 S
AVRDWB    1.120  1.000 P
AVREF    2.100 -1.000 S
AVREF    1.120  1.000 P
AVRSO    0.980 -1.000 P
# 2009 02 27 13 15 56.46  60.4378 -152.7892  1.22 0.20 1.59 0.89 0.21   60314998
AVDFR    3.070  1.000 P
AVNCT    3.060  1.000 P
AVRDJH    3.090  1.000 P
AVRDN    1.640  1.000 P
AVRDWB    2.390 -1.000 S
AVRDWB    1.640  1.000 P
AVREF    3.170 -1.000 S
AVREF    1.630  1.000 P
AVRSO    0.530 -0.200 P
# 2009 02 27 13 16 16.13  60.4962 -152.7757  0.56 0.80 0.65 0.88 0.13   60315003
AVRDJH    2.270 -1.000 P
AVRDN    0.690 -1.000 P
AVRDWB    1.500 -1.000 S
AVRDWB    0.810  1.000 P
AVREF    1.890 -1.000 S
AVREF    0.770  1.000 P
AVRSO    1.030 -1.000 P
# 2009 02 27 14 54 5.71  60.4548 -152.7720 -1.92 0.50 1.20 9.79 0.09   60315078
AVRDN    0.980  1.000 P
AVRDWB    1.810 -1.000 S
AVRDWB    1.060 -1.000 P
AVREF    1.980 -1.000 S
AVREF    1.200 -1.000 P
AVRSO    0.020 -1.000 P
# 2009 02 27 15 22 50.63  60.4618 -152.7692  3.29 0.50 0.47 0.69 0.09   60315083
AVRDN    2.610 -1.000 S
AVRDWB    1.260  1.000 P
AVRDWB    2.200 -1.000 S
AVREF    1.430  1.000 P
AVREF    2.220 -1.000 S
AVREF    1.150  1.000 P
AVREF    0.970  1.000 P
AVRSO    0.830  1.000 P
AVRSO    1.760 -1.000 S
# 2009 02 27 15 23 21.35  60.4897 -152.8065  7.72 1.00 1.87 1.21 0.18   60315088
AVRDN    1.730  1.000 P
AVRDN    3.100 -1.000 S
AVRDWB    2.580 -1.000 S
AVRDWB    1.890  1.000 P
AVREF    3.640  1.000 S
AVREF    1.770  1.000 P
AVREF    3.380  1.000 S
AVREF    1.780  1.000 P
AVRSO    1.680  1.000 P
# 2009 02 27 15 32 37.50  60.5347 -152.7337  1.68 0.60 1.89 12.00 0.15   60315093
AVRDN    3.230  0.200 S
AVRDWB    2.880 -1.000 S
AVRDWB    1.310 -1.000 P
AVREF    2.020 -1.000 S
AVREF    1.340 -1.000 P
AVRSO    1.800 -1.000 P
# 2009 02 27 17 12 2.49  60.4510 -152.7628  2.35 0.50 1.73 1.34 0.20   60315133
AVDFR    2.830  1.000 P
AVNCT    2.960  1.000 P
AVRDJH    2.910  1.000 P
AVRDN    1.340  1.000 P
AVRDWB    2.110 -1.000 S
AVRDWB    1.430  1.000 P
AVREF    2.530 -1.000 S
AVREF    1.010  1.000 P
AVRSO    0.960 -1.000 P
# 2009 02 27 19 12 17.09  60.4733 -152.7542  8.06 1.30 1.64 1.51 0.22   60315163
AVRDN    2.090  1.000 P
AVRDN    3.450 -1.000 S
AVRDWB    3.150 -1.000 S
AVRDWB    1.670  1.000 P
AVREF    2.880 -1.000 S
AVREF    1.410  1.000 P
AVRSO    1.980  1.000 P
AVRSO    3.240 -1.000 S
# 2009 02 27 20 33 1.74  60.4773 -152.7295  8.45 0.70 1.27 0.75 0.09   60315203
AVRDN    1.960  1.000 P
AVRDN    3.200 -1.000 S
AVRDWB    3.620 -1.000 S
AVRDWB    1.850  1.000 P
AVREF    3.060 -1.000 S
AVREF    1.850  1.000 P
AVRSO    1.740  1.000 P
# 2009 02 27 20 44 43.61  60.5113 -152.7937  1.29 -0.20 0.80 1.38 0.17   60315218
AVRDN    0.820  1.000 P
AVRDN    1.370 -1.000 S
AVRDWB    1.690 -1.000 S
AVRDWB    0.950  1.000 P
AVREF    1.650  1.000 P
AVREF    2.440 -1.000 S
AVREF    1.360  1.000 P
AVREF    1.080  1.000 P
AVRSO    1.040  1.000 P
# 2009 02 27 21 24 2.30  60.4907 -152.7737  3.01 0.60 0.75 1.27 0.03   60315233
AVRDN    1.110 -1.000 P
AVRDWB    1.930 -1.000 S
AVRDWB    1.050 -1.000 P
AVREF    2.040 -1.000 S
AVREF    1.920  1.000 P
AVRSO    1.120 -1.000 P
# 2009 02 27 21 25 17.56  60.4885 -152.7590  0.22 -0.30 0.41 1.41 0.04   60315238
AVRDN    0.870 -1.000 P
AVRDN    1.410 -1.000 S
AVRDWB    1.700 -1.000 S
AVRDWB    0.950 -1.000 P
AVREF    1.450 -1.000 S
AVREF    0.740 -1.000 P
AVRSO    1.120  1.000 P
# 2009 02 27 21 25 56.92  60.4988 -152.7798  1.38 0.10 0.40 1.10 0.10   60315243
AVRDN    0.860  1.000 P
AVRDN    1.420 -1.000 S
AVRDWB    1.680 -1.000 S
AVRDWB    0.970  1.000 P
AVREF    2.310  1.000 S
AVREF    0.980  1.000 P
AVREF    2.140 -1.000 S
AVRSO    1.060  1.000 P
AVRSO    1.750 -1.000 S
# 2009 02 27 22 48 41.74  60.4765 -152.7508  3.66 0.30 1.74 2.34 0.27   60315278
AVRDJH    2.950 -1.000 P
AVRDN    0.940  1.000 P
AVRDWB    2.500 -1.000 S
AVRDWB    1.060  1.000 P
AVREF    2.070 -1.000 S
AVREF    1.160  1.000 P
AVRSO    1.240 -1.000 P
# 2009 02 27 23 08 56.65  60.4832 -152.7735  1.96 -0.10 0.74 1.52 0.06   60315293
AVRDN    1.060  1.000 P
AVRDWB    1.690 -1.000 S
AVRDWB    1.040  1.000 P
AVREF    2.010 -1.000 S
AVREF    0.970  1.000 P
AVRSO    0.910  1.000 P
AVRSO    1.550 -1.000 S
# 2009 02 27 23 09 19.58  60.4770 -152.7687  0.81 0.70 0.34 0.26 0.05   60315298
AVNCT    2.460  1.000 P
AVRDJH    2.420 -1.000 P
AVRDN    0.850  1.000 P
AVRDN    2.030 -1.000 S
AVRDWB    1.650 -1.000 S
AVRDWB    0.950  1.000 P
AVREF    1.760 -1.000 S
AVREF    0.850  1.000 P
AVRSO    0.680 -1.000 P
# 2009 02 28 00 40 27.64  60.5183 -152.7672  0.01 0.10 0.39 1.15 0.13   60315318
AVRDJH    3.110 -1.000 S
AVRDN    0.220  1.000 P
AVRDN    0.740 -1.000 S
AVRDWB    1.990 -1.000 S
AVRDWB    1.000  1.000 P
AVREF    2.140  1.000 S
AVREF    0.960  1.000 P
AVRSO    1.360  1.000 P
# 2009 02 28 02 43 23.22  60.5158 -152.7922  2.48 0.00 0.82 1.36 0.12   60315358
AVRDN    0.970 -1.000 P
AVRDN    1.470 -1.000 S
AVRDWB    1.870 -1.000 S
AVRDWB    1.180  1.000 P
AVREF    2.660 -1.000 S
AVREF    1.310  1.000 P
AVRSO    1.260  1.000 P
# 2009 02 28 03 09 49.22  60.4797 -152.7597  3.92 0.70 0.65 1.87 0.09   60315368
AVRDN    1.210  1.000 P
AVRDN    2.300 -1.000 S
AVRDWB    2.220 -1.000 S
AVRDWB    1.320 -1.000 P
AVREF    1.330  1.000 P
AVREF    1.020  1.000 P
AVRSO    1.140 -1.000 P
# 2009 02 28 03 16 55.92  60.5268 -152.7392  0.78 -0.10 0.64 0.41 0.04   60315373
AVRDN    0.410  1.000 P
AVRDN    0.790 -1.000 S
AVRDWB    2.600 -1.000 S
AVRDWB    1.550  1.000 P
AVREF    1.920 -1.000 S
AVREF    1.030 -1.000 P
AVRSO    1.130  1.000 P
# 2009 02 28 03 43 44.49  60.5248 -152.6850  0.94 -0.50 1.33 0.39 0.14   60315378
AVRDN    0.850  1.000 P
AVRDN    1.290 -1.000 S
AVRDWB    3.330 -1.000 S
AVRDWB    2.050 -1.000 P
AVREF    1.880 -1.000 S
AVREF    0.810 -1.000 P
AVRSO    1.470  1.000 P
# 2009 02 28 04 07 32.00  60.4525 -152.7065  3.28 0.00 1.05 1.77 0.14   60315388
AVRDN    1.380  1.000 P
AVRDN    3.100 -1.000 S
AVRDWB    1.710  1.000 P
AVRDWB    3.040 -1.000 S
AVREF    1.890 -1.000 S
AVREF    1.270  1.000 P
AVRSO    1.150 -1.000 P
# 2009 02 28 04 11 40.80  60.4713 -152.7122  7.87 1.00 1.27 0.68 0.10   60315393
AVRDN    1.920  1.000 P
AVRDN    3.210 -1.000 S
AVRDWB    3.670 -1.000 S
AVRDWB    1.910  1.000 P
AVREF    3.050  1.000 S
AVREF    1.750  1.000 P
AVREF    2.780  1.000 S
AVRSO    1.680  1.000 P
# 2009 02 28 06 20 54.89  60.5077 -152.7738  0.31 0.00 0.41 1.44 0.07   60315423
AVRDN    0.730  1.000 P
AVRDN    0.950 -1.000 S
AVRDWB    1.720 -1.000 S
AVRDWB    0.890 -1.000 P
AVREF    1.870 -1.000 S
AVREF    1.000  1.000 P
AVRSO    1.070  1.000 P
# 2009 02 28 06 23 25.40  60.4563 -152.7640  4.53 0.70 0.66 1.34 0.04   60315428
AVRDN    1.280  1.000 P
AVRDN    3.000 -1.000 S
AVRDWB    2.530 -1.000 S
AVRDWB    1.450  1.000 P
AVREF    2.520 -1.000 S
AVREF    1.380 -1.000 P
AVRSO    1.200 -1.000 P
# 2009 02 28 08 30 13.18  60.5022 -152.7847  0.68 -0.40 1.41 3.89 0.31   60315528
AVRDN    0.960 -1.000 P
AVRDWB    1.450 -1.000 S
AVRDWB    0.680 -1.000 P
AVREF    2.180  1.000 S
AVREF    0.580  1.000 P
AVREF    1.690  1.000 S
AVRSO    1.670  1.000 P
# 2009 02 28 09 04 24.70  60.4437 -152.7663 -2.32 0.00 1.08 8.01 0.07   60315553
AVRDN    1.140  1.000 P
AVRDWB    2.230 -1.000 S
AVRDWB    1.280 -1.000 P
AVREF    2.210 -1.000 S
AVREF    1.340 -1.000 P
AVRSO    0.290 -1.000 P
# 2009 02 28 09 04 41.67  60.4808 -152.7288  6.64 0.90 0.92 1.00 0.11   60315558
AVRDN    1.510  1.000 P
AVRDN    2.800 -1.000 S
AVRDWB    3.260 -1.000 S
AVRDWB    1.560  1.000 P
AVREF    1.590  1.000 P
AVREF    2.470 -1.000 S
AVREF    1.560  1.000 P
AVREF    1.500  1.000 P
AVRSO    1.470  1.000 P
# 2009 02 28 11 16 19.38  60.5217 -152.7857  0.30 -0.40 0.63 1.19 0.07   60315673
AVRDN    0.690  1.000 P
AVRDN    0.960 -1.000 S
AVRDWB    1.820 -1.000 S
AVRDWB    1.070  1.000 P
AVREF    2.600  1.000 S
AVREF    1.180  1.000 P
AVREF    2.340 -1.000 S
AVRSO    1.350  1.000 P
# 2009 02 28 12 24 59.88  60.4847 -152.7680  1.03 0.30 0.53 1.22 0.08   60315703
AVRDN    0.860  1.000 P
AVRDWB    1.750 -1.000 S
AVRDWB    0.990 -1.000 P
AVREF    1.860 -1.000 S
AVREF    0.950 -1.000 P
AVRSO    0.800  1.000 P
AVRSO    1.350 -1.000 S
# 2009 02 28 12 55 51.39  60.5113 -152.7842  1.09 0.00 0.37 0.84 0.04   60315718
AVRDN    0.800  1.000 P
AVRDN    1.230 -1.000 S
AVRDWB    0.950  1.000 P
AVRDWB    1.730 -1.000 S
AVRDWB    1.020  1.000 P
AVREF    2.170  1.000 S
AVREF    1.190  1.000 P
AVREF    2.170  1.000 S
AVRSO    1.210  1.000 P
# 2009 02 28 12 57 5.50  60.4933 -152.7888  0.53 0.50 0.36 0.28 0.08   60315728
AVDFR    2.240  1.000 P
AVNCT    2.180  1.000 P
AVRDJH    3.950  1.000 S
AVRDJH    2.070  1.000 P
AVRDN    0.640  1.000 P
AVRDN    1.600 -1.000 S
AVRDWB    1.330 -1.000 S
AVRDWB    0.660  1.000 P
AVREF    2.090 -1.000 S
AVREF    0.620  1.000 P
AVRSO    0.880  1.000 P
# 2009 02 28 13 03 54.65  60.4660 -152.7348  2.31 0.30 1.32 2.39 0.30   60315733
AVRDJH    4.900  1.000 S
AVRDJH    2.710  1.000 P
AVRDN    1.150  1.000 P
AVRDWB    2.380 -1.000 S
AVRDWB    1.210  1.000 P
AVREF    1.310  1.000 P
AVREF    2.130  1.000 S
AVREF    1.210  1.000 S
AVREF    0.640  1.000 P
AVRSO    1.040 -1.000 P
# 2009 02 28 13 59 38.38  60.5042 -152.7387  1.31 -0.70 0.68 1.54 0.17   60315743
AVRDN    0.630  1.000 P
AVRDN    1.190 -1.000 S
AVRDWB    2.260 -1.000 S
AVRDWB    1.340 -1.000 P
AVREF    1.100  1.000 P
AVREF    1.480 -1.000 S
AVREF    0.500  1.000 P
AVRSO    1.180  1.000 P
# 2009 02 28 13 59 58.24  60.5055 -152.7747  1.13 0.00 0.39 0.90 0.03   60315748
AVRDN    0.740 -1.000 P
AVRDN    1.240 -1.000 S
AVRDWB    1.750 -1.000 S
AVRDWB    1.000  1.000 P
AVREF    1.980 -1.000 S
AVREF    1.070  1.000 P
AVRSO    1.110  1.000 P
# 2009 02 28 14 15 34.16  60.5223 -152.7928  3.40 -0.40 0.93 0.90 0.11   60315788
AVRDN    1.000  1.000 P
AVRDN    1.830 -1.000 S
AVRDWB    2.050 -1.000 S
AVRDWB    1.280 -1.000 P
AVREF    2.670 -1.000 S
AVREF    1.320  1.000 P
AVRSO    1.770  1.000 P
# 2009 02 28 15 37 18.64  60.4667 -152.7727  3.45 0.50 0.78 1.38 0.20   60315818
AVNCT    2.820  1.000 P
AVRDJH    4.540  1.000 S
AVRDJH    2.550  1.000 P
AVRDN    1.340  1.000 P
AVRDN    2.710  0.200 S
AVRDWB    2.060 -1.000 S
AVRDWB    1.040  1.000 P
AVREF    2.400 -1.000 S
AVREF    0.970  1.000 P
AVRSO    1.240 -1.000 P
# 2009 02 28 17 15 36.18  60.5120 -152.8173  2.20 0.40 0.89 1.31 0.09   60315843
AVRDN    0.960  1.000 P
AVRDN    1.860 -1.000 S
AVRDWB    1.560 -1.000 S
AVRDWB    1.030 -1.000 P
AVREF    2.780 -1.000 S
AVREF    0.890  1.000 P
AVRSO    1.280  1.000 P
# 2009 02 28 19 48 49.51  60.4987 -152.7878  3.19 -0.30 0.54 0.95 0.03   60315888
AVRDN    1.060  1.000 P
AVRDN    1.850 -1.000 S
AVRDWB    1.850 -1.000 S
AVRDWB    1.060  1.000 P
AVREF    2.300 -1.000 S
AVREF    1.300  1.000 P
AVRSO    1.170  1.000 P
# 2009 02 28 20 20 5.72  60.4967 -152.7405  8.14 0.60 2.68 1.77 0.26   60315898
AVRDN    1.350  1.000 P
AVRDN    3.250 -1.000 S
AVRDWB    3.120 -1.000 S
AVRDWB    2.210  1.000 P
AVREF    3.110 -1.000 S
AVREF    1.420  1.000 P
AVRSO    2.080  1.000 P
# 2009 02 28 20 22 21.81  60.4857 -152.7800  6.74 0.70 0.73 0.77 0.05   60315903
AVRDN    1.590  1.000 P
AVRDN    2.800 -1.000 S
AVRDWB    2.670 -1.000 S
AVRDWB    1.590 -1.000 P
AVREF    3.000 -1.000 S
AVREF    1.610  1.000 P
AVRSO    1.540 -1.000 P
# 2009 02 28 20 56 41.01  60.5040 -152.7710 -1.41 0.40 0.51 10.21 0.10   60315918
AVNCT    3.890  1.000 P
AVRDJH    1.950  1.000 P
AVRDN    0.500  1.000 P
AVRDN    0.930 -1.000 S
AVRDWB    1.660 -1.000 S
AVRDWB    0.750  1.000 P
AVREF    1.740 -1.000 S
AVREF    0.810  1.000 P
AVRSO    0.830 -1.000 P
# 2009 02 28 21 22 4.72  60.4997 -152.7773  6.78 0.70 1.43 1.08 0.18   60315923
AVRDN    1.420  1.000 P
AVRDN    2.750 -1.000 S
AVRDWB    2.590 -1.000 S
AVRDWB    1.800  1.000 P
AVREF    3.000 -1.000 S
AVREF    1.340  1.000 P
AVRSO    1.810  1.000 P
# 2009 02 28 22 18 38.21  60.5127 -152.7575  2.27 -0.20 0.50 1.08 0.07   60315953
AVRDN    0.780 -1.000 P
AVRDN    1.240 -1.000 S
AVRDWB    2.190 -1.000 S
AVRDWB    1.280  1.000 P
AVREF    1.890  1.000 S
AVREF    1.050  1.000 P
AVREF    2.030 -1.000 S
AVRSO    1.170  1.000 P
# 2009 03 01 01 31 43.06  60.4800 -152.7475  7.32 0.40 1.03 0.91 0.10   60279618
AVRDN    1.460  1.000 P
AVRDN    3.130 -1.000 S
AVRDWB    3.090 -1.000 S
AVRDWB    1.710  1.000 P
AVREF    2.770 -1.000 S
AVREF    1.700  1.000 P
AVRSO    1.660 -1.000 P
# 2009 03 01 03 13 14.92  60.4972 -152.7393  4.91 0.80 0.62 0.91 0.07   60279643
AVRDN    1.250  1.000 P
AVRDN    2.100 -1.000 S
AVRDWB    2.760 -1.000 S
AVRDWB    1.390  1.000 P
AVREF    2.160 -1.000 S
AVREF    1.330  1.000 P
AVRSO    1.370  1.000 P
# 2009 03 01 04 00 56.92  60.4653 -152.7763  3.06 0.00 1.11 1.95 0.17   60279663
AVRDN    1.250 -1.000 P
AVRDN    2.370 -1.000 S
AVRDWB    2.060 -1.000 S
AVRDWB    1.340  1.000 P
AVREF    2.390 -1.000 S
AVREF    1.400  1.000 P
AVRSO    0.690 -1.000 P
# 2009 03 01 11 13 28.65  60.5025 -152.7280 -1.26 0.20 0.48 7.06 0.05   60279778
AVRDN    0.450 -1.000 P
AVRDWB    2.200 -1.000 S
AVRDWB    0.740  1.000 P
AVREF    0.770 -1.000 S
AVREF    0.490 -1.000 P
AVRSO    1.040  1.000 P
# 2009 03 01 11 23 43.65  60.4952 -152.7275  2.28 0.50 0.66 1.33 0.07   60279783
AVRDN    1.240  1.000 P
AVRDN    1.630 -1.000 S
AVRDWB    2.370 -1.000 S
AVRDWB    1.420  1.000 P
AVREF    1.420  1.000 S
AVREF    0.710 -1.000 P
AVREF    1.500  1.000 S
AVRSO    1.180  1.000 P
# 2009 03 01 11 41 2.36  60.4870 -152.7703  2.44 0.70 0.50 1.33 0.04   60279788
AVRDN    1.000  1.000 P
AVRDN    1.900 -1.000 S
AVRDWB    1.810 -1.000 S
AVRDWB    1.100 -1.000 P
AVREF    1.100  1.000 P
AVREF    1.950 -1.000 S
AVREF    1.030  1.000 P
AVRSO    1.750  1.000 P
# 2009 03 01 20 44 13.37  60.4703 -152.6860  6.25 0.30 1.43 0.72 0.09   60279843
AVRDN    1.810 -1.000 P
AVRDWB    3.610 -1.000 S
AVRDWB    1.820  1.000 P
AVREF    2.470 -1.000 S
AVREF    1.380  1.000 P
AVRSO    1.630 -1.000 P
# 2009 03 01 23 14 58.98  60.4662 -152.7677  5.41 0.70 0.88 1.38 0.13   60279878
AVRDN    1.800  1.000 P
AVRDN    2.840 -1.000 S
AVRDWB    2.520 -1.000 S
AVRDWB    1.540  1.000 P
AVREF    2.720 -1.000 S
AVREF    1.250  1.000 P
AVRSO    1.370  1.000 P
