# 2009 03 01 23 15 25.70  60.4848 -152.7645  3.49 0.50 0.84 1.04 0.03   60279883
AVRDN    1.120 -1.000 P
AVRDWB    2.110 -1.000 S
AVRDWB    1.220  1.000 P
AVREF    2.070 -1.000 S
AVREF    1.180  1.000 P
AVRSO    1.060 -1.000 P
# 2009 03 01 23 43 53.79  60.4938 -152.7980  4.36 0.60 1.46 1.01 0.13   60279888
AVRDN    1.220 -1.000 P
AVRDWB    1.970 -1.000 S
AVRDWB    1.280  1.000 P
AVREF    2.430  1.000 S
AVREF    1.450  1.000 P
AVREF    2.810  1.000 S
AVRSO    1.200 -1.000 P
# 2009 03 02 05 39 5.27  60.4762 -152.7603  1.50 -0.10 1.70 3.74 0.19   60279943
AVRDN    1.160  1.000 P
AVRDN    1.870 -1.000 S
AVRDWB    1.960 -1.000 S
AVRDWB    1.460  1.000 P
AVREF    1.970 -1.000 S
AVREF    0.840  1.000 P
AVRSO    0.560 -1.000 P
# 2009 03 02 05 42 10.57  60.4872 -152.7693  0.56 -0.10 0.63 1.74 0.09   60279948
AVRDN    1.080 -1.000 P
AVRDWB    1.560 -1.000 S
AVRDWB    0.840 -1.000 P
AVREF    1.620 -1.000 S
AVREF    0.820  1.000 P
AVRSO    0.850 -1.000 P
# 2009 03 02 07 24 59.14  60.4643 -152.7788  6.34 0.60 1.28 0.88 0.07   60279968
AVRDN    1.870 -1.000 P
AVRDWB    2.720 -1.000 S
AVRDWB    1.510  1.000 P
AVREF    2.960 -1.000 S
AVREF    1.540  1.000 P
AVRSO    1.500 -1.000 P
# 2009 03 02 07 25 13.88  60.4885 -152.7153  5.68 0.80 0.73 0.98 0.11   60279973
AVNCT    3.170  0.200 P
AVRDN    1.220 -1.000 P
AVRDN    2.610 -1.000 S
AVRDWB    2.940 -0.200 S
AVRDWB    1.890  0.200 P
AVREF    2.190 -1.000 S
AVREF    1.310 -1.000 P
AVRSO    1.560 -1.000 P
# 2009 03 02 10 26 18.40  60.5168 -152.7758  1.09 -0.10 0.60 1.12 0.12   60280023
AVRDN    0.390  1.000 P
AVRDN    1.210 -1.000 S
AVRDWB    1.910 -1.000 S
AVRDWB    1.160 -1.000 P
AVREF    2.140  1.000 S
AVREF    2.070  1.000 S
AVREF    1.390  1.000 P
AVRSO    1.210  1.000 P
# 2009 03 02 12 33 15.05  60.4775 -152.7720  0.90 0.00 1.05 1.97 0.16   60280028
AVRDN    1.020 -1.000 P
AVRDWB    1.530 -1.000 S
AVRDWB    1.200  1.000 P
AVREF    1.930 -1.000 S
AVREF    0.870  1.000 P
AVRSO    0.540 -1.000 P
# 2009 03 02 14 15 46.50  60.4968 -152.7707  0.42 0.00 0.65 1.75 0.08   60280088
AVRDN    0.740 -1.000 P
AVRDWB    1.520 -1.000 S
AVRDWB    1.050  1.000 P
AVREF    1.710 -1.000 S
AVREF    0.830 -1.000 P
AVRSO    0.910 -1.000 P
# 2009 03 02 14 49 57.56  60.4617 -152.7308  5.32 0.60 1.12 1.11 0.10   60280098
AVRDN    1.440  1.000 P
AVRDN    3.030 -1.000 S
AVRDWB    2.860 -1.000 S
AVRDWB    1.770 -1.000 P
AVREF    2.420 -1.000 S
AVREF    1.370 -1.000 P
AVRSO    2.070  1.000 P
# 2009 03 02 15 46 58.84  60.4980 -152.7807  3.35 -0.10 0.74 1.20 0.07   60280113
AVRDN    2.040  1.000 P
AVRDWB    1.960 -1.000 S
AVRDWB    1.090  1.000 P
AVREF    2.260 -1.000 S
AVREF    1.150  1.000 P
AVRSO    1.340  1.000 P
AVRSO    2.120 -1.000 S
# 2009 03 02 16 12 36.66  60.4645 -152.7222  6.82 -0.10 1.74 1.00 0.11   60280128
AVRDN    1.830 -1.000 P
AVRDWB    3.460 -1.000 S
AVRDWB    1.700  1.000 P
AVREF    2.660 -1.000 S
AVREF    1.650  1.000 P
AVRSO    1.560 -1.000 P
# 2009 03 02 17 31 24.55  60.4922 -152.7833  2.05 0.40 0.72 1.76 0.03   60280143
AVRDN    1.040 -1.000 P
AVRDWB    1.640 -1.000 S
AVRDWB    0.880 -1.000 P
AVREF    2.020 -1.000 S
AVREF    0.760  1.000 P
AVRSO    1.070 -1.000 P
# 2009 03 02 18 16 56.55  60.4885 -152.7812  5.94 -0.20 0.81 0.91 0.08   60280163
AVRDN    1.440  1.000 P
AVRDN    2.560 -1.000 S
AVRDWB    2.460 -1.000 S
AVRDWB    1.540  1.000 P
AVREF    2.890 -1.000 S
AVREF    1.500  1.000 P
AVRSO    1.390 -1.000 P
# 2009 03 02 20 38 23.42  60.5080 -152.7822 -0.67 -0.40 0.40 2.83 0.09   60280193
AVRDN    0.490 -1.000 P
AVRDN    1.050 -1.000 S
AVRDWB    1.450 -1.000 S
AVRDWB    0.760  1.000 P
AVREF    1.740 -1.000 S
AVREF    1.970  1.000 S
AVREF    1.220  1.000 P
AVRSO    1.140  1.000 P
# 2009 03 02 20 54 49.38  60.5033 -152.7875  0.41 0.10 0.48 1.49 0.09   60280198
AVRDN    0.710  1.000 P
AVRDN    1.330 -1.000 S
AVRDWB    1.310 -1.000 S
AVRDWB    0.950  1.000 P
AVREF    2.090 -1.000 S
AVREF    1.010  1.000 P
AVRSO    1.040  1.000 P
# 2009 03 03 03 20 39.14  60.4825 -152.8180  2.53 -0.20 1.17 1.48 0.12   60280368
AVRDN    1.160 -1.000 P
AVRDWB    1.420 -1.000 S
AVRDWB    0.870  1.000 P
AVREF    2.620 -1.000 S
AVREF    1.720  1.000 P
AVRSO    1.020 -1.000 P
# 2009 03 03 03 30 57.92  60.5170 -152.7275  2.56 0.00 0.63 0.69 0.03   60280373
AVRDN    0.760  1.000 P
AVRDN    1.320 -1.000 S
AVRDWB    2.630 -1.000 S
AVRDWB    1.500  1.000 P
AVREF    1.830 -1.000 S
AVREF    0.960  1.000 P
AVRSO    1.460  1.000 P
# 2009 03 03 03 52 41.15  60.5123 -152.7848  0.59 -0.20 0.48 1.18 0.06   60280388
AVRDN    0.740 -1.000 P
AVRDN    1.070 -1.000 S
AVRDWB    1.700 -1.000 S
AVRDWB    0.860  1.000 P
AVREF    2.170 -1.000 S
AVREF    1.160  1.000 P
AVRSO    1.210  1.000 P
# 2009 03 03 04 24 6.76  60.4548 -152.7815  0.58 -0.90 1.54 2.20 0.18   60280393
AVRDN    1.290 -1.000 P
AVRDWB    1.880 -1.000 S
AVRDWB    1.210 -1.000 P
AVREF    2.350 -1.000 S
AVREF    1.430  1.000 P
AVRSO    0.300 -0.200 P
# 2009 03 03 05 47 56.56  60.5002 -152.7787  0.63 0.40 0.37 1.41 0.15   60280418
AVRDJH    3.760 -1.000 S
AVRDJH    1.960  1.000 P
AVRDN    0.670  1.000 P
AVRDN    1.140 -1.000 S
AVRDWB    1.590 -1.000 S
AVRDWB    0.900  1.000 P
AVREF    2.100  1.000 S
AVREF    1.180  1.000 P
AVRSO    0.800  1.000 P
# 2009 03 03 07 04 55.09  60.4757 -152.7777  2.94 0.20 2.77 3.83 0.34   60280438
AVRDN    1.580 -1.000 P
AVRDWB    1.710 -1.000 S
AVRDWB    1.450  1.000 P
AVREF    2.400 -1.000 S
AVREF    0.700  1.000 P
AVRSO    1.230 -1.000 P
# 2009 03 03 08 12 18.02  60.4702 -152.7263  2.26 -0.60 1.05 1.88 0.15   60280458
AVRDN    1.510 -1.000 P
AVRDWB    2.390 -1.000 S
AVRDWB    1.410  1.000 P
AVREF    1.670 -1.000 S
AVREF    0.690 -1.000 P
AVRSO    0.960 -1.000 P
# 2009 03 03 09 14 23.27  60.5247 -152.7705  1.32 -0.60 1.13 1.33 0.21   60280483
AVRDN    0.670  1.000 P
AVRDN    1.100 -1.000 S
AVRDWB    2.390 -1.000 S
AVRDWB    1.310  1.000 P
AVREF    2.380 -1.000 S
AVREF    1.520  1.000 P
AVRSO    1.150  1.000 P
# 2009 03 03 09 58 55.12  60.5117 -152.7735  2.15 0.50 0.62 1.26 0.08   60280493
AVRDN    0.930  1.000 P
AVRDN    1.300 -1.000 S
AVRDWB    2.020 -1.000 S
AVRDWB    1.030 -1.000 P
AVREF    2.110 -1.000 S
AVREF    1.200  1.000 P
AVRSO    1.260  1.000 P
# 2009 03 03 10 14 33.98  60.5033 -152.7835  0.70 0.30 0.89 1.86 0.14   60280498
AVRDN    1.350 -0.200 S
AVRDWB    1.600 -1.000 S
AVRDWB    0.680 -1.000 P
AVREF    1.880 -1.000 S
AVREF    1.410  1.000 P
AVRSO    1.100  1.000 P
# 2009 03 03 10 16 32.61  60.5038 -152.7838  5.28 0.80 0.84 1.04 0.13   60280503
AVRDN    1.140  1.000 P
AVRDN    2.340 -1.000 S
AVRDWB    2.450 -1.000 S
AVRDWB    1.250  1.000 P
AVREF    2.550 -1.000 S
AVREF    1.750  1.000 P
AVRSO    1.510  1.000 P
# 2009 03 03 11 33 7.49  60.5138 -152.7890  1.12 0.10 0.50 0.83 0.04   60280518
AVRDN    0.720  1.000 P
AVRDN    1.330 -1.000 S
AVRDWB    1.730 -1.000 S
AVRDWB    0.930 -1.000 P
AVREF    2.220 -1.000 S
AVREF    1.350  1.000 P
AVRSO    1.320  1.000 P
# 2009 03 03 11 35 59.69  60.4715 -152.7452 -1.24 0.30 0.79 3.80 0.13   60280523
AVRDN    0.940  1.000 P
AVRDN    1.980 -1.000 S
AVRDWB    1.990 -1.000 S
AVRDWB    1.010 -1.000 P
AVREF    1.000  1.000 S
AVREF    0.930  1.000 P
AVRSO    0.180 -1.000 P
# 2009 03 03 12 01 58.52  60.5017 -152.7687  2.04 0.00 0.62 1.92 0.03   60280528
AVRDN    0.840 -1.000 P
AVRDWB    1.890 -1.000 S
AVRDWB    1.020 -1.000 P
AVREF    1.910  1.000 S
AVREF    1.130  1.000 P
AVREF    1.880  1.000 S
AVRSO    1.780  1.000 P
# 2009 03 03 14 57 51.97  60.4880 -152.7712  3.37 -0.10 0.91 1.70 0.15   60280548
AVRDN    1.030  1.000 P
AVRDN    2.160 -1.000 S
AVRDWB    1.900 -1.000 S
AVRDWB    1.270 -1.000 P
AVREF    2.130 -1.000 S
AVREF    0.910  1.000 P
AVRSO    1.280  1.000 P
# 2009 03 03 16 06 44.68  60.5130 -152.7697  3.28 -0.50 0.83 1.42 0.15   60280563
AVRDN    0.880  1.000 P
AVRDN    1.700 -1.000 S
AVRDWB    2.060 -1.000 S
AVRDWB    1.320  1.000 P
AVREF    2.230 -1.000 S
AVREF    0.990  1.000 P
AVRSO    1.640  1.000 P
# 2009 03 03 19 29 27.71  60.5005 -152.7813  3.01 -0.70 0.74 1.31 0.04   60280613
AVRDN    0.980 -1.000 P
AVRDWB    1.870 -1.000 S
AVRDWB    1.110 -1.000 P
AVREF    2.220 -1.000 S
AVREF    1.230  1.000 P
AVRSO    1.150  1.000 P
# 2009 03 03 20 38 54.55  60.5052 -152.7747  0.95 -0.20 0.47 1.25 0.02   60280633
AVRDN    0.700 -1.000 P
AVRDWB    1.700 -1.000 S
AVRDWB    0.930 -1.000 P
AVREF    1.870 -1.000 S
AVREF    1.060  1.000 P
AVRSO    1.140  1.000 P
# 2009 03 03 21 12 46.62  60.5118 -152.7795  0.81 0.30 0.41 0.93 0.02   60280643
AVRDN    0.650 -1.000 P
AVRDN    1.130 -1.000 S
AVRDWB    1.710 -1.000 S
AVRDWB    0.980 -1.000 P
AVREF    2.060 -1.000 S
AVREF    1.110  1.000 P
AVRSO    1.260  1.000 P
# 2009 03 04 02 24 12.07  60.4972 -152.7893  3.77 -0.10 0.57 1.00 0.07   60280698
AVRDN    1.150  1.000 P
AVRDN    2.010 -1.000 S
AVRDWB    1.940 -1.000 S
AVRDWB    1.170 -1.000 P
AVREF    2.510 -1.000 S
AVREF    1.360  1.000 P
AVRSO    1.120  1.000 P
# 2009 03 04 05 14 3.07  60.5113 -152.7812 -1.02 -0.30 0.31 3.94 0.08   60280763
AVRDJH    1.890 -1.000 P
AVRDN    0.440  1.000 P
AVRDN    0.870 -1.000 S
AVRDWB    1.580 -1.000 S
AVRDWB    0.790  1.000 P
AVREF    1.850  1.000 S
AVREF    2.020  1.000 S
AVREF    0.990  1.000 P
AVRSO    1.090  1.000 P
# 2009 03 04 05 22 8.66  60.5145 -152.7760  0.62 -0.20 0.47 1.12 0.08   60280768
AVRDN    0.410  1.000 P
AVRDN    1.080 -1.000 S
AVRDWB    1.730 -1.000 S
AVRDWB    1.070 -1.000 P
AVREF    1.970 -1.000 S
AVREF    1.150  1.000 P
AVRSO    1.340  1.000 P
# 2009 03 04 06 20 43.98  60.4827 -152.7857  4.36 0.60 0.89 0.98 0.03   60280773
AVRDN    1.290 -1.000 P
AVRDWB    2.090 -1.000 S
AVRDWB    1.210  1.000 P
AVREF    2.470 -1.000 S
AVREF    1.440  1.000 P
AVRSO    1.190 -1.000 P
# 2009 03 04 07 24 5.36  60.3195 -152.6657 10.84 0.40 0.84 0.99 0.10   60280793
AVINE    6.140 -1.000 P
AVNCT    5.460  1.000 P
AVNCT    9.570  1.000 S
AVRDE    6.040  1.000 P
AVRDJH    9.780  1.000 S
AVRDJH    5.540  1.000 P
AVRDN    4.220  1.000 P
AVRDN    7.360  1.000 S
AVRDWB    6.990  1.000 S
AVRDWB    3.950  1.000 P
AVRED    5.170  1.000 S
AVRED    2.840  1.000 P
AVREF    6.590  1.000 S
AVREF    3.760  1.000 P
AVREF    6.610  1.000 S
AVRSO    3.540  1.000 P
AVRSO    6.260  1.000 S
# 2009 03 04 08 58 29.99  60.5133 -152.7830  2.30 0.00 0.50 1.08 0.05   60280823
AVRDN    0.790 -1.000 P
AVRDN    1.550 -1.000 S
AVRDWB    1.930 -1.000 S
AVRDWB    1.020  1.000 P
AVREF    2.210 -1.000 S
AVREF    1.340  1.000 P
AVRSO    1.380  1.000 P
# 2009 03 04 10 05 20.12  60.4993 -152.7775 -0.52 0.00 0.57 4.35 0.20   60280843
AVRDN    0.770 -1.000 P
AVRDN    1.170 -1.000 S
AVRDWB    1.170 -1.000 S
AVRDWB    0.980  1.000 P
AVREF    1.920 -1.000 S
AVREF    0.660  1.000 P
AVREF    1.450  1.000 S
AVRSO    1.120  1.000 P
# 2009 03 04 10 15 49.27  60.4822 -152.7735  2.00 -0.20 0.78 1.51 0.06   60280853
AVRDN    1.110  1.000 P
AVRDWB    1.840 -1.000 S
AVRDWB    0.910 -1.000 P
AVREF    1.880 -1.000 S
AVREF    1.200  1.000 P
AVRSO    0.910  1.000 P
AVRSO    1.570 -1.000 S
# 2009 03 04 10 17 52.54  60.5050 -152.7750  1.01 -0.50 0.39 0.95 0.04   60280858
AVRDN    0.730  1.000 P
AVRDN    1.220 -1.000 S
AVRDWB    1.700 -1.000 S
AVRDWB    0.980 -1.000 P
AVREF    1.960 -1.000 S
AVREF    1.060  1.000 P
AVRSO    1.040  1.000 P
# 2009 03 04 16 43 10.59  60.4877 -152.8023  2.42 -0.30 1.51 3.19 0.28   60280968
AVRDN    0.980  1.000 P
AVRDN    2.480 -1.000 S
AVRDWB    1.310 -1.000 S
AVRDWB    0.850 -1.000 P
AVREF    2.180 -1.000 S
AVREF    1.060  1.000 P
AVRSO    1.640  1.000 P
# 2009 03 04 17 13 19.35  60.5175 -152.7880  3.82 -0.60 0.68 0.75 0.05   60280973
AVRDN    0.970  1.000 P
AVRDN    1.870 -1.000 S
AVRDWB    1.300  1.000 P
AVRDWB    2.130 -1.000 S
AVRDWB    1.290  1.000 P
AVREF    2.630 -1.000 S
AVREF    1.400  1.000 P
AVRSO    1.490  1.000 P
# 2009 03 04 19 55 52.65  60.5228 -152.7935  4.95 0.30 3.30 4.30 0.43   60281013
AVRDN    1.470 -1.000 P
AVRDWB    2.280 -1.000 S
AVRDWB    1.510  1.000 P
AVREF    3.050 -1.000 S
AVREF    0.790  1.000 P
AVRSO    2.230 -1.000 P
# 2009 03 04 22 27 40.25  60.4663 -152.7318  1.69 -0.10 1.05 1.88 0.14   60281043
AVRDN    1.470  1.000 P
AVRDN    2.410 -1.000 S
AVRDWB    2.350 -1.000 S
AVRDWB    1.430  1.000 P
AVREF    1.590 -1.000 S
AVREF    0.580  1.000 P
AVRSO    0.900 -1.000 P
# 2009 03 04 23 20 49.40  60.5075 -152.7237  3.90 -0.80 0.99 1.34 0.17   60281053
AVRDN    0.860  1.000 P
AVRDN    1.850 -1.000 S
AVRDWB    2.540 -1.000 S
AVRDWB    1.750 -1.000 P
AVREF    2.070 -1.000 S
AVREF    0.840  1.000 P
AVRSO    1.430  1.000 P
# 2009 03 05 01 03 0.53  60.4730 -152.7640  4.33 0.10 1.81 1.80 0.26   60281078
AVRDN    1.890  1.000 P
AVRDWB    2.210 -1.000 S
AVRDWB    1.150  1.000 P
AVREF    2.020 -1.000 S
AVREF    1.160  1.000 P
AVRSO    1.020  1.000 P
AVRSO    2.330 -1.000 S
# 2009 03 05 01 03 3.82  60.5215 -152.7355  5.00 1.00 1.13 0.88 0.16   60281083
AVRDN    0.800  1.000 P
AVRDN    2.170 -1.000 S
AVRDWB    2.860 -1.000 S
AVRDWB    1.760  1.000 P
AVREF    2.380 -1.000 S
AVREF    1.530  1.000 P
AVRSO    1.740  1.000 P
# 2009 03 05 11 41 7.60  60.5028 -152.7490 -0.48 0.50 0.90 5.52 0.31   60281233
AVNCT    2.490  1.000 P
AVRDN    0.860 -1.000 P
AVRDWB    1.610 -1.000 S
AVRDWB    0.970  1.000 P
AVREF    0.260  1.000 P
AVREF    0.970 -1.000 S
AVREF    0.910  1.000 P
AVRSO    1.170  1.000 P
AVRSO    2.180  1.000 S
# 2009 03 05 14 07 17.10  60.4838 -152.7458  5.40 -0.10 0.34 0.42 0.07   60281253
AVDFR    2.350  1.000 P
AVNCT    2.470  1.000 P
AVNCT    4.560  1.000 S
AVRDE    2.420  1.000 P
AVRDE    4.130  1.000 S
AVRDJH    4.350  1.000 S
AVRDJH    2.400  1.000 P
AVRDN    1.360  1.000 P
AVRDN    2.360  1.000 S
AVRDT    5.010  1.000 P
AVRDT    6.490  1.000 S
AVRDWB    2.630  1.000 S
AVRDWB    2.620  1.000 S
AVRDWB    1.460  1.000 P
AVREF    2.400  1.000 S
AVREF    2.350  1.000 S
AVREF    1.350  1.000 P
AVREF    2.370  1.000 S
AVRSO    1.450  1.000 P
AVRSO    2.420  1.000 S
# 2009 03 05 16 36 12.97  60.4718 -152.7873  2.91 0.00 0.81 1.10 0.07   60281263
AVRDN    1.290 -1.000 P
AVRDWB    1.930 -1.000 S
AVRDWB    0.990 -1.000 P
AVREF    2.340 -1.000 S
AVREF    1.790  1.000 P
AVRSO    1.060 -1.000 P
AVRSO    1.640 -1.000 S
# 2009 03 05 20 55 27.34  60.4797 -152.7238 -0.44 -0.80 1.54 3.83 0.30   60281298
AVRDN    1.470 -1.000 P
AVRDWB    2.110 -1.000 S
AVRDWB    1.110  1.000 P
AVREF    0.730  1.000 S
AVREF    0.070 -1.000 P
AVREF    0.900 -1.000 S
AVRSO    1.000 -1.000 P
# 2009 03 05 20 55 29.00  60.4705 -152.7618  3.08 0.70 0.99 1.97 0.16   60281303
AVRDN    1.270  1.000 P
AVRDN    2.610 -1.000 S
AVRDWB    2.040 -1.000 S
AVRDWB    1.200  1.000 P
AVREF    1.870 -1.000 S
AVREF    1.060  1.000 P
AVRSO    1.230 -1.000 P
# 2009 03 05 22 44 45.88  60.4768 -152.7965  6.91 0.80 2.30 1.26 0.14   60281318
AVRDN    1.650 -1.000 P
AVRDWB    2.560 -1.000 S
AVRDWB    1.680  1.000 P
AVREF    2.950  1.000 S
AVREF    3.290 -1.000 S
AVREF    1.670  1.000 P
AVRSO    1.490 -1.000 P
# 2009 03 06 00 54 30.65  60.4847 -152.7505  5.48 0.20 0.26 0.39 0.06   60281353
AVDFR    2.400  1.000 P
AVNCT    2.470  1.000 P
AVNCT    4.480  1.000 S
AVRDE    2.530  1.000 P
AVRDE    4.630  1.000 S
AVRDN    1.430  1.000 P
AVRDN    2.510  1.000 S
AVRDT    3.610  1.000 P
AVRDWB    1.410  1.000 P
AVRDWB    2.620  1.000 S
AVRDWB    2.600  1.000 S
AVRDWB    1.410  1.000 P
AVRED    3.010  1.000 S
AVRED    1.630  1.000 P
AVRED    3.060  1.000 S
AVREF    2.460  1.000 S
AVREF    1.360  1.000 P
AVREF    2.280  1.000 S
AVRSO    1.420  1.000 P
AVRSO    2.450  1.000 S
# 2009 03 06 01 38 37.70  60.5232 -152.7917  0.94 -0.50 0.66 1.90 0.10   60281373
AVRDN    0.670 -1.000 P
AVRDWB    1.960 -1.000 S
AVRDWB    0.990 -1.000 P
AVREF    2.540 -1.000 S
AVREF    1.340  1.000 P
AVRSO    1.680  1.000 P
AVRSO    2.490 -1.000 S
# 2009 03 06 03 05 53.53  60.5045 -152.7847  2.85 0.10 0.83 1.33 0.04   60281398
AVRDN    0.970 -1.000 P
AVRDWB    1.840 -1.000 S
AVRDWB    1.100 -1.000 P
AVREF    2.290 -1.000 S
AVREF    1.210  1.000 P
AVRSO    1.260 -1.000 P
# 2009 03 06 04 45 35.87  60.5268 -152.7608  2.38 0.00 1.04 0.80 0.10   60281418
AVRDN    0.890 -1.000 P
AVRDN    1.220 -1.000 S
AVRDWB    2.510 -1.000 S
AVRDWB    1.230  1.000 P
AVREF    2.280 -1.000 S
AVREF    1.330  1.000 P
AVRSO    1.470  1.000 P
# 2009 03 06 05 13 56.41  60.5183 -152.7885  0.37 -0.30 0.69 1.26 0.09   60281428
AVRDN    0.680  1.000 P
AVRDN    1.110 -1.000 S
AVRDWB    1.690 -1.000 S
AVRDWB    0.950 -1.000 P
AVREF    2.240 -1.000 S
AVREF    1.090  1.000 P
AVRSO    1.540  1.000 P
# 2009 03 06 07 15 38.89  60.5138 -152.7818  0.73 0.20 0.50 1.03 0.06   60281458
AVRDN    0.710  1.000 P
AVRDN    1.060 -1.000 S
AVRDWB    1.730 -1.000 S
AVRDWB    1.000 -1.000 P
AVREF    2.200 -1.000 S
AVREF    1.150  1.000 P
AVRSO    1.200  1.000 P
# 2009 03 06 07 18 8.05  60.5092 -152.7783  0.69 -0.20 0.40 0.97 0.03   60281463
AVRDN    0.690  1.000 P
AVRDN    1.110 -1.000 S
AVRDWB    1.690 -1.000 S
AVRDWB    0.940 -1.000 P
AVREF    2.000 -1.000 S
AVREF    1.120  1.000 P
AVRSO    1.120  1.000 P
# 2009 03 06 15 55 35.55  60.4780 -152.7092  1.87 0.30 1.37 1.59 0.17   60281583
AVRDN    1.170 -1.000 P
AVRDWB    2.570 -1.000 S
AVRDWB    1.860  1.000 P
AVREF    1.400 -1.000 S
AVREF    0.520  1.000 P
AVRSO    0.950 -1.000 P
# 2009 03 07 06 29 24.08  60.4843 -152.7527  5.67 0.80 0.21 0.21 0.05   60281698
AVBGL   14.470  1.000 P
AVBKG   11.310  1.000 P
AVCKL   13.220  1.000 P
AVDFR    2.410  1.000 P
AVDFR    3.960  1.000 S
AVILW    8.530  1.000 P
AVINE    8.230  1.000 P
AVIVE    8.850  1.000 P
AVNCG   17.450  1.000 P
AVNCT    2.500  1.000 P
AVNCT    4.470  1.000 S
AVRDE    2.520  1.000 P
AVRDN    1.450  1.000 P
AVRDN    2.510  1.000 S
AVRDT    3.600  1.000 P
AVRDWB    2.620  1.000 S
AVRDWB    1.440  1.000 P
AVRED    3.010  1.000 S
AVRED    1.670  1.000 P
AVREF    2.540  1.000 S
AVREF    1.390  1.000 P
AVRSO    1.450  1.000 P
AVRSO    2.430  1.000 S
AVSPNW   15.810  1.000 P
AVSPU   13.710  1.000 P
AVSTLK   19.730  1.000 P
# 2009 03 07 10 10 32.49  60.4867 -152.7592  3.57 0.20 0.63 1.14 0.07   60281728
AVRDN    1.000  1.000 P
AVRDN    2.170 -1.000 S
AVRDWB    2.130 -1.000 S
AVRDWB    1.280  1.000 P
AVREF    1.990 -1.000 S
AVREF    1.120  1.000 P
AVRSO    1.160  1.000 P
# 2009 03 07 15 32 37.48  60.5082 -152.7772  0.46 -0.90 0.35 1.09 0.02   60281783
AVRDN    0.580  1.000 P
AVRDN    1.110 -1.000 S
AVRDWB    1.640 -1.000 S
AVRDWB    0.910 -1.000 P
AVREF    1.880 -1.000 S
AVREF    1.120  1.000 P
AVRSO    1.120  1.000 P
# 2009 03 07 15 32 48.62  60.4557 -152.7733  4.33 0.80 1.33 1.99 0.19   60281788
AVRDN    1.710  1.000 P
AVRDN    3.170 -1.000 S
AVRDWB    2.360 -1.000 S
AVRDWB    1.320 -1.000 P
AVREF    2.690 -1.000 S
AVREF    1.270  1.000 P
AVREF    2.230  1.000 S
AVRSO    1.440 -1.000 P
# 2009 03 07 16 55 23.55  60.4738 -152.7765  3.28 0.30 0.69 1.18 0.08   60281798
AVRDN    1.150  1.000 P
AVRDN    2.510 -1.000 S
AVRDWB    1.870 -1.000 S
AVRDWB    1.210  1.000 P
AVREF    2.220  1.000 S
AVREF    1.230  1.000 P
AVREF    2.170  1.000 S
AVREF    1.230  1.000 P
AVRSO    1.050 -1.000 P
# 2009 03 08 01 07 14.20  60.4988 -152.7267  2.49 -0.60 1.29 2.74 0.20   60281858
AVRDN    1.010 -1.000 P
AVRDWB    2.400 -1.000 S
AVRDWB    1.360  1.000 P
AVREF    1.620 -1.000 S
AVREF    0.580 -1.000 P
AVRSO    1.550  1.000 P
# 2009 03 08 04 53 3.02  60.4737 -152.7643  3.84 0.50 0.70 1.29 0.08   60281893
AVRDN    1.180  1.000 P
AVRDN    2.540 -1.000 S
AVRDWB    2.190 -1.000 S
AVRDWB    1.260 -1.000 P
AVREF    2.070 -1.000 S
AVREF    1.260  1.000 P
AVRSO    1.110 -1.000 P
# 2009 03 08 04 59 51.99  60.4780 -152.7773  1.26 0.10 0.59 1.43 0.12   60281898
AVRDN    1.330  1.000 P
AVRDN    2.100 -1.000 S
AVRDWB    1.590 -1.000 S
AVRDWB    0.880 -1.000 P
AVREF    1.890 -1.000 S
AVREF    0.850  1.000 P
AVRSO    0.930 -1.000 P
# 2009 03 08 09 52 51.89  60.5198 -152.7542  2.50 0.10 0.99 1.20 0.13   60281933
AVRDN    0.560  1.000 P
AVRDN    1.440 -1.000 S
AVRDWB    2.280 -1.000 S
AVRDWB    1.490  1.000 P
AVREF    2.050 -1.000 S
AVREF    1.050  1.000 P
AVRSO    1.630  1.000 P
