<?xml version='1.0' encoding='utf-8'?>
<q:quakeml xmlns="http://quakeml.org/xmlns/bed/1.2" xmlns:q="http://quakeml.org/xmlns/quakeml/1.2">
  <eventParameters publicID="smi:local/cc135e3f-9db7-41f1-85fd-f73cb8d5f948">
    <event publicID="smi:local/46dc122e-f969-4675-920b-a3d00b204ddc">
      <origin publicID="smi:local/1cc9408f-4c8a-4f90-b2e3-eba586c944ba">
        <time>
          <value>2008-08-07T23:39:29.270000Z</value>
        </time>
        <latitude/>
        <longitude/>
        <comment id="smi:local/5f52e3ce-4ffa-4e9f-ad58-1549d96df016">
          <text>CLUSTER 0 CORE EVENT; NOT IN PEC</text>
        </comment>
      </origin>
    </event>
    <event publicID="smi:local/cb326aaa-3d50-4c45-96b1-9aa85778a1c8">
      <origin publicID="smi:local/edb81001-f887-4fce-b0e4-7073850183f2">
        <time>
          <value>2008-12-07T08:26:53.590000Z</value>
        </time>
        <latitude/>
        <longitude/>
        <comment id="smi:local/0d73e6e8-8b12-4f65-beb3-b14b50d06db1">
          <text>CLUSTER 1 CORE EVENT; NOT IN PEC</text>
        </comment>
      </origin>
    </event>
    <event publicID="smi:local/b83a215c-0e2b-4aee-898f-dff43d353889">
      <origin publicID="smi:local/44bd2b6e-152c-4778-beaf-8192986d854c">
        <time>
          <value>2008-06-04T19:15:26.260000Z</value>
        </time>
        <latitude/>
        <longitude/>
        <comment id="smi:local/930f9ab4-e4a6-4832-87ef-9b6e3c8ea906">
          <text>CLUSTER 2 CORE EVENT; NOT IN PEC</text>
        </comment>
        <arrival publicID="smi:local/917b1b6f-a929-46c7-acea-82b18366a522">
          <pickID>smi:local/49e2a8ac-4ce3-4fb2-9a7c-62a763a2ffb0</pickID>
          <phase>P</phase>
          <timeWeight>0.1</timeWeight>
        </arrival>
        <arrival publicID="smi:local/aff805ed-811e-4882-84d8-18ed0a23d31f">
          <pickID>smi:local/cb51c4a6-2eeb-4ad7-af66-c9cb2d8ed973</pickID>
          <phase>P</phase>
          <timeWeight>0.1</timeWeight>
        </arrival>
        <arrival publicID="smi:local/bed5daa8-a639-4785-8696-ecced41e7a2f">
          <pickID>smi:local/babcc0dc-731a-43d0-9dd3-bf723c0e291c</pickID>
          <phase>P</phase>
          <timeWeight>0.1</timeWeight>
        </arrival>
      </origin>
      <pick publicID="smi:local/49e2a8ac-4ce3-4fb2-9a7c-62a763a2ffb0">
        <time>
          <value>2008-06-04T19:15:35.830000Z</value>
        </time>
        <waveformID networkCode="AV" stationCode="RDN" locationCode="" channelCode="EHZ"></waveformID>
        <phaseHint>P</phaseHint>
      </pick>
      <pick publicID="smi:local/cb51c4a6-2eeb-4ad7-af66-c9cb2d8ed973">
        <time>
          <value>2008-06-04T19:15:35.010000Z</value>
        </time>
        <waveformID networkCode="AV" stationCode="REF" locationCode="" channelCode="EHZ"></waveformID>
        <phaseHint>P</phaseHint>
      </pick>
      <pick publicID="smi:local/babcc0dc-731a-43d0-9dd3-bf723c0e291c">
        <time>
          <value>2008-06-04T19:15:31.849491Z</value>
        </time>
        <waveformID networkCode="AV" stationCode="RSO" locationCode="" channelCode="EHZ"></waveformID>
        <phaseHint>P</phaseHint>
      </pick>
    </event>
    <event publicID="smi:local/f0aeddcf-a13e-4ae7-b6e8-c2703af9cc83">
      <origin publicID="smi:local/7012a582-4449-497a-b9f2-dfc9dede0194">
        <time>
          <value>2008-10-18T17:02:17.060000Z</value>
        </time>
        <latitude/>
        <longitude/>
        <comment id="smi:local/c493930b-550a-411e-946b-82ec222a2a63">
          <text>CLUSTER 3 CORE EVENT; NOT IN PEC</text>
        </comment>
        <arrival publicID="smi:local/235ac536-5112-417f-9923-b50ee0a88d98">
          <pickID>smi:local/983c744a-86dd-4e20-8c4a-7b2c18a606eb</pickID>
          <phase>P</phase>
          <timeWeight>0.1</timeWeight>
        </arrival>
        <arrival publicID="smi:local/e06cdaf3-5870-4c2f-9652-bf64c44105ba">
          <pickID>smi:local/6c51274a-a2ca-469f-8e78-4c0bf484ab19</pickID>
          <phase>P</phase>
          <timeWeight>0.1</timeWeight>
        </arrival>
        <arrival publicID="smi:local/45cb396d-44c1-49b6-9311-f09f378aae47">
          <pickID>smi:local/226c3abf-de99-4104-9691-0a70caa8f251</pickID>
          <phase>P</phase>
          <timeWeight>0.1</timeWeight>
        </arrival>
      </origin>
      <pick publicID="smi:local/983c744a-86dd-4e20-8c4a-7b2c18a606eb">
        <time>
          <value>2008-10-18T17:02:17.080000Z</value>
        </time>
        <waveformID networkCode="AV" stationCode="RDN" locationCode="" channelCode="EHZ"></waveformID>
        <phaseHint>P</phaseHint>
      </pick>
      <pick publicID="smi:local/6c51274a-a2ca-469f-8e78-4c0bf484ab19">
        <time>
          <value>2008-10-18T17:02:17.780000Z</value>
        </time>
        <waveformID networkCode="AV" stationCode="REF" locationCode="" channelCode="EHZ"></waveformID>
        <phaseHint>P</phaseHint>
      </pick>
      <pick publicID="smi:local/226c3abf-de99-4104-9691-0a70caa8f251">
        <time>
          <value>2008-10-18T17:02:17.334536Z</value>
        </time>
        <waveformID networkCode="AV" stationCode="RSO" locationCode="" channelCode="EHZ"></waveformID>
        <phaseHint>P</phaseHint>
      </pick>
    </event>
    <event publicID="smi:local/befe1103-a390-4c7d-9df7-d9eedaedfd11">
      <origin publicID="smi:local/f92df456-b23e-4f71-be14-65aebb88b93d">
        <time>
          <value>2008-05-23T13:02:09.530000Z</value>
        </time>
        <latitude/>
        <longitude/>
        <comment id="smi:local/4614fdb1-7614-40ec-b3bc-901c2bbbf3b4">
          <text>CLUSTER 4 CORE EVENT; NOT IN PEC</text>
        </comment>
        <arrival publicID="smi:local/29aa374b-8dc1-41af-9af7-17739d862ae4">
          <pickID>smi:local/bf677d4b-ec7c-4149-9980-ca4887e74f96</pickID>
          <phase>P</phase>
          <timeWeight>0.1</timeWeight>
        </arrival>
        <arrival publicID="smi:local/c219b570-1bdb-4e95-bba0-4071a9bf6036">
          <pickID>smi:local/4c730d27-545a-4415-946a-fc91cf5e835a</pickID>
          <phase>P</phase>
          <timeWeight>0.1</timeWeight>
        </arrival>
      </origin>
      <pick publicID="smi:local/bf677d4b-ec7c-4149-9980-ca4887e74f96">
        <time>
          <value>2008-05-23T13:02:10.420000Z</value>
        </time>
        <waveformID networkCode="AV" stationCode="RDN" locationCode="" channelCode="EHZ"></waveformID>
        <phaseHint>P</phaseHint>
      </pick>
      <pick publicID="smi:local/4c730d27-545a-4415-946a-fc91cf5e835a">
        <time>
          <value>2008-05-23T13:02:09.846180Z</value>
        </time>
        <waveformID networkCode="AV" stationCode="RSO" locationCode="" channelCode="EHZ"></waveformID>
        <phaseHint>P</phaseHint>
      </pick>
    </event>
    <event publicID="smi:local/1cda31a0-6277-4941-b9ce-18e53be6c501">
      <origin publicID="smi:local/d2b42f1e-babf-49e8-aad5-b2f8a6ce5c6b">
        <time>
          <value>2008-05-05T04:26:09.450000Z</value>
        </time>
        <latitude/>
        <longitude/>
        <comment id="smi:local/43cad55b-446e-41f1-8ba0-766b9a478b97">
          <text>CLUSTER 5 CORE EVENT; NOT IN PEC</text>
        </comment>
      </origin>
    </event>
    <event publicID="smi:local/b489df0b-3424-40ff-a939-aa5d35093e14">
      <origin publicID="smi:local/d36d7bc4-d4b3-47cf-a41e-7deb6fff4b50">
        <time>
          <value>2008-06-11T08:25:44.940000Z</value>
        </time>
        <latitude/>
        <longitude/>
        <comment id="smi:local/22fdc01d-a415-4806-9481-abc9113dd701">
          <text>CLUSTER 6 CORE EVENT; NOT IN PEC</text>
        </comment>
      </origin>
    </event>
    <event publicID="smi:local/e19b0109-93e4-4aa3-879f-c35e3d0d62da">
      <origin publicID="smi:local/21942209-3b54-4030-8c27-cd8c2327fce4">
        <time>
          <value>2008-05-01T19:28:05.510000Z</value>
        </time>
        <latitude/>
        <longitude/>
        <comment id="smi:local/04f1c143-12d6-4540-8f0d-80d22a5af368">
          <text>CLUSTER 7 CORE EVENT; NOT IN PEC</text>
        </comment>
        <arrival publicID="smi:local/2f3cf51e-f182-4d72-b0bf-8af28e0c62f0">
          <pickID>smi:local/3cdcde27-dcf5-41f8-8341-fdedb2fc2c58</pickID>
          <phase>P</phase>
          <timeWeight>0.1</timeWeight>
        </arrival>
        <arrival publicID="smi:local/820e941a-f2e6-4b7c-879d-2507f380bd62">
          <pickID>smi:local/ef3d88a8-79f0-4df6-984f-17f09fb1d81b</pickID>
          <phase>P</phase>
          <timeWeight>0.1</timeWeight>
        </arrival>
      </origin>
      <pick publicID="smi:local/3cdcde27-dcf5-41f8-8341-fdedb2fc2c58">
        <time>
          <value>2008-05-01T19:28:03.550000Z</value>
        </time>
        <waveformID networkCode="AV" stationCode="RDN" locationCode="" channelCode="EHZ"></waveformID>
        <phaseHint>P</phaseHint>
      </pick>
      <pick publicID="smi:local/ef3d88a8-79f0-4df6-984f-17f09fb1d81b">
        <time>
          <value>2008-05-01T19:28:01.992308Z</value>
        </time>
        <waveformID networkCode="AV" stationCode="RSO" locationCode="" channelCode="EHZ"></waveformID>
        <phaseHint>P</phaseHint>
      </pick>
    </event>
    <event publicID="smi:local/6b7ba737-55dd-4049-8af6-a2c2980d7278">
      <origin publicID="smi:local/2923bdb6-b6e8-4557-a054-1c3f349f886f">
        <time>
          <value>2008-09-04T17:11:00.500000Z</value>
        </time>
        <latitude/>
        <longitude/>
        <comment id="smi:local/331aec67-77d2-423b-b938-67abd7a37e8d">
          <text>CLUSTER 8 CORE EVENT; NOT IN PEC</text>
        </comment>
      </origin>
    </event>
    <event publicID="smi:local/d9a6312c-e8a4-4466-a05d-739ae171abd9">
      <origin publicID="smi:local/f100bac9-2744-49a5-b245-a5ee451ea1ac">
        <time>
          <value>2008-10-16T06:23:30.100000Z</value>
        </time>
        <latitude/>
        <longitude/>
        <comment id="smi:local/0cec2397-1110-4990-84d5-bccf0d976dc1">
          <text>CLUSTER 9 CORE EVENT; NOT IN PEC</text>
        </comment>
        <arrival publicID="smi:local/502cec9e-151d-4797-8234-6722c8877eda">
          <pickID>smi:local/10c409f9-d030-4658-883e-9f7cb806ce93</pickID>
          <phase>P</phase>
          <timeWeight>0.1</timeWeight>
        </arrival>
        <arrival publicID="smi:local/8237c349-80a3-4cf7-b3d2-527030176ebe">
          <pickID>smi:local/feba9868-4745-4020-b686-efad7376b529</pickID>
          <phase>P</phase>
          <timeWeight>0.1</timeWeight>
        </arrival>
        <arrival publicID="smi:local/12e881ef-3bf6-4751-9b0c-c75890646ab0">
          <pickID>smi:local/0320cea2-aa19-45b1-82ea-2c6ab4a8031e</pickID>
          <phase>P</phase>
          <timeWeight>0.1</timeWeight>
        </arrival>
      </origin>
      <pick publicID="smi:local/10c409f9-d030-4658-883e-9f7cb806ce93">
        <time>
          <value>2008-10-16T06:23:31.500000Z</value>
        </time>
        <waveformID networkCode="AV" stationCode="RDN" locationCode="" channelCode="EHZ"></waveformID>
        <phaseHint>P</phaseHint>
      </pick>
      <pick publicID="smi:local/feba9868-4745-4020-b686-efad7376b529">
        <time>
          <value>2008-10-16T06:23:29.600000Z</value>
        </time>
        <waveformID networkCode="AV" stationCode="REF" locationCode="" channelCode="EHZ"></waveformID>
        <phaseHint>P</phaseHint>
      </pick>
      <pick publicID="smi:local/0320cea2-aa19-45b1-82ea-2c6ab4a8031e">
        <time>
          <value>2008-10-16T06:23:30.359794Z</value>
        </time>
        <waveformID networkCode="AV" stationCode="RSO" locationCode="" channelCode="EHZ"></waveformID>
        <phaseHint>P</phaseHint>
      </pick>
    </event>
    <event publicID="smi:local/5d17006c-e055-4a12-8288-39cb4952a4f1">
      <origin publicID="smi:local/5321bd0e-0fbf-4a9b-9aee-f03347e8aa23">
        <time>
          <value>2009-05-27T17:44:57.810000Z</value>
        </time>
        <latitude/>
        <longitude/>
        <comment id="smi:local/3e681fac-1dec-4bec-a01c-f3f48984ba98">
          <text>CLUSTER 10 CORE EVENT; NOT IN PEC</text>
        </comment>
        <arrival publicID="smi:local/a2ff43b5-a566-4aa2-9ac3-7f7daa81472d">
          <pickID>smi:local/1dfb2dce-a864-4d31-ab9a-b0d5b5c7a70f</pickID>
          <phase>P</phase>
          <timeWeight>0.1</timeWeight>
        </arrival>
        <arrival publicID="smi:local/3dffbef4-0a20-476e-9fa1-01978d78d6ce">
          <pickID>smi:local/9418d53e-c874-46fc-a5f4-76f33751dd66</pickID>
          <phase>P</phase>
          <timeWeight>0.1</timeWeight>
        </arrival>
        <arrival publicID="smi:local/9dea4e95-813a-4534-8a61-c2a1aefed58a">
          <pickID>smi:local/8764540e-3ec6-4647-9e4e-d0bdf212d3af</pickID>
          <phase>P</phase>
          <timeWeight>0.1</timeWeight>
        </arrival>
      </origin>
      <pick publicID="smi:local/1dfb2dce-a864-4d31-ab9a-b0d5b5c7a70f">
        <time>
          <value>2009-05-27T17:44:55.450000Z</value>
        </time>
        <waveformID networkCode="AV" stationCode="RDN" locationCode="" channelCode="EHZ"></waveformID>
        <phaseHint>P</phaseHint>
      </pick>
      <pick publicID="smi:local/9418d53e-c874-46fc-a5f4-76f33751dd66">
        <time>
          <value>2009-05-27T17:45:00.140000Z</value>
        </time>
        <waveformID networkCode="AV" stationCode="REF" locationCode="" channelCode="EHZ"></waveformID>
        <phaseHint>P</phaseHint>
      </pick>
      <pick publicID="smi:local/8764540e-3ec6-4647-9e4e-d0bdf212d3af">
        <time>
          <value>2009-05-27T17:44:54.950400Z</value>
        </time>
        <waveformID networkCode="AV" stationCode="RSO" locationCode="" channelCode="EHZ"></waveformID>
        <phaseHint>P</phaseHint>
      </pick>
    </event>
    <event publicID="smi:local/7554e3f1-ac65-4206-9ee5-155bd857b0ab">
      <origin publicID="smi:local/0778edb8-7da9-47aa-b603-7a0962590676">
        <time>
          <value>2008-08-26T23:54:07.810000Z</value>
        </time>
        <latitude/>
        <longitude/>
        <comment id="smi:local/baaa7861-d545-480b-94ba-f919a19b9275">
          <text>CLUSTER 11 CORE EVENT; NOT IN PEC</text>
        </comment>
        <arrival publicID="smi:local/6dc219cc-5212-4c56-b354-c95e5659eb55">
          <pickID>smi:local/789a2c64-550a-4e6b-bf45-80c720c1e63e</pickID>
          <phase>P</phase>
          <timeWeight>0.1</timeWeight>
        </arrival>
        <arrival publicID="smi:local/5fbc694c-f17e-4e34-9f2c-24e90a1b14be">
          <pickID>smi:local/c2a309ba-d33c-47a6-92d4-617cce9d9ad7</pickID>
          <phase>P</phase>
          <timeWeight>0.1</timeWeight>
        </arrival>
        <arrival publicID="smi:local/d564c838-0cb9-4fcb-b957-76927d8505fd">
          <pickID>smi:local/778cbb82-c901-425f-908f-ae179048374e</pickID>
          <phase>P</phase>
          <timeWeight>0.1</timeWeight>
        </arrival>
      </origin>
      <pick publicID="smi:local/789a2c64-550a-4e6b-bf45-80c720c1e63e">
        <time>
          <value>2008-08-26T23:54:09.380000Z</value>
        </time>
        <waveformID networkCode="AV" stationCode="RDN" locationCode="" channelCode="EHZ"></waveformID>
        <phaseHint>P</phaseHint>
      </pick>
      <pick publicID="smi:local/c2a309ba-d33c-47a6-92d4-617cce9d9ad7">
        <time>
          <value>2008-08-26T23:54:07.040000Z</value>
        </time>
        <waveformID networkCode="AV" stationCode="REF" locationCode="" channelCode="EHZ"></waveformID>
        <phaseHint>P</phaseHint>
      </pick>
      <pick publicID="smi:local/778cbb82-c901-425f-908f-ae179048374e">
        <time>
          <value>2008-08-26T23:54:06.734634Z</value>
        </time>
        <waveformID networkCode="AV" stationCode="RSO" locationCode="" channelCode="EHZ"></waveformID>
        <phaseHint>P</phaseHint>
      </pick>
    </event>
    <event publicID="smi:local/ca94c665-b676-4d24-b723-ab7104cb2ba7">
      <origin publicID="smi:local/b7270164-133f-4771-8a4a-0ebd04500cfc">
        <time>
          <value>2008-06-08T14:38:57.840000Z</value>
        </time>
        <latitude/>
        <longitude/>
        <comment id="smi:local/93386559-be54-4502-8d78-87d5f4f863aa">
          <text>CLUSTER 12 CORE EVENT; NOT IN PEC</text>
        </comment>
        <arrival publicID="smi:local/3fde75fb-7e0a-46e0-b5e8-9ac244399e42">
          <pickID>smi:local/6d5c52ac-aa43-4e67-aced-20010d34f804</pickID>
          <phase>P</phase>
          <timeWeight>0.1</timeWeight>
        </arrival>
        <arrival publicID="smi:local/0e1f4d76-68fb-4c4c-80ab-b7da8d902b99">
          <pickID>smi:local/715d9f33-143f-4521-8ce8-117118c20a3a</pickID>
          <phase>P</phase>
          <timeWeight>0.1</timeWeight>
        </arrival>
      </origin>
      <pick publicID="smi:local/6d5c52ac-aa43-4e67-aced-20010d34f804">
        <time>
          <value>2008-06-08T14:38:57.830000Z</value>
        </time>
        <waveformID networkCode="AV" stationCode="RDN" locationCode="" channelCode="EHZ"></waveformID>
        <phaseHint>P</phaseHint>
      </pick>
      <pick publicID="smi:local/715d9f33-143f-4521-8ce8-117118c20a3a">
        <time>
          <value>2008-06-08T14:38:58.967961Z</value>
        </time>
        <waveformID networkCode="AV" stationCode="RSO" locationCode="" channelCode="EHZ"></waveformID>
        <phaseHint>P</phaseHint>
      </pick>
    </event>
    <event publicID="smi:local/84751715-fe92-44f0-989e-fc1f5f2459a6">
      <origin publicID="smi:local/8fc1ae80-ce16-40ee-85fd-219a55cacec5">
        <time>
          <value>2008-05-03T16:31:59.190000Z</value>
        </time>
        <latitude/>
        <longitude/>
        <comment id="smi:local/88a612e7-3917-4132-8a33-6feaedee879a">
          <text>CLUSTER 13 CORE EVENT; NOT IN PEC</text>
        </comment>
        <arrival publicID="smi:local/220c2d6a-d977-4384-9bd4-b4a058cbf312">
          <pickID>smi:local/a12e58e3-6a9a-4632-b71c-87db64700a96</pickID>
          <phase>P</phase>
          <timeWeight>0.1</timeWeight>
        </arrival>
        <arrival publicID="smi:local/c9c4027d-ad9f-4222-b680-151eea605cf1">
          <pickID>smi:local/c401bf9a-6ccd-4325-90d6-4b8a1d62f7fb</pickID>
          <phase>P</phase>
          <timeWeight>0.1</timeWeight>
        </arrival>
      </origin>
      <pick publicID="smi:local/a12e58e3-6a9a-4632-b71c-87db64700a96">
        <time>
          <value>2008-05-03T16:32:00.470000Z</value>
        </time>
        <waveformID networkCode="AV" stationCode="RDN" locationCode="" channelCode="EHZ"></waveformID>
        <phaseHint>P</phaseHint>
      </pick>
      <pick publicID="smi:local/c401bf9a-6ccd-4325-90d6-4b8a1d62f7fb">
        <time>
          <value>2008-05-03T16:31:59.031290Z</value>
        </time>
        <waveformID networkCode="AV" stationCode="RSO" locationCode="" channelCode="EHZ"></waveformID>
        <phaseHint>P</phaseHint>
      </pick>
    </event>
    <event publicID="smi:local/ce7f4c58-7cd9-4071-bc60-690ce0f1b5f9">
      <origin publicID="smi:local/ac1c7b14-ec3a-43a5-87d4-efa11d697e55">
        <time>
          <value>2008-12-05T07:03:34.810000Z</value>
        </time>
        <latitude/>
        <longitude/>
        <comment id="smi:local/0ece6962-75eb-4bba-a29a-682467d06393">
          <text>CLUSTER 14 CORE EVENT; NOT IN PEC</text>
        </comment>
      </origin>
    </event>
    <event publicID="smi:local/aedf987f-bb70-4111-ae28-24de61e020d3">
      <origin publicID="smi:local/94174cdc-f46e-4584-9158-d1e6e9a3bb2e">
        <time>
          <value>2008-08-31T14:45:02.200000Z</value>
        </time>
        <latitude/>
        <longitude/>
        <comment id="smi:local/41ae0baa-38ca-4fbc-9194-19bdba2027e8">
          <text>CLUSTER 15 CORE EVENT; NOT IN PEC</text>
        </comment>
      </origin>
    </event>
    <event publicID="smi:local/037953ca-712d-473f-85d1-75b2a7ad9b88">
      <origin publicID="smi:local/aae29e35-408d-4eee-9e7b-998f114d76ed">
        <time>
          <value>2008-08-27T17:47:22.290000Z</value>
        </time>
        <latitude/>
        <longitude/>
