<?xml version='1.0' encoding='utf-8'?>
<q:quakeml xmlns="http://quakeml.org/xmlns/bed/1.2" xmlns:q="http://quakeml.org/xmlns/quakeml/1.2">
  <eventParameters publicID="smi:local/2f603195-a840-4a84-bf1c-210a3ea6b0e9">
    <event publicID="smi:local/46dc122e-f969-4675-920b-a3d00b204ddc">
      <origin publicID="smi:local/1cc9408f-4c8a-4f90-b2e3-eba586c944ba">
        <time>
          <value>2008-08-07T23:39:29.270000Z</value>
        </time>
        <latitude/>
        <longitude/>
        <comment id="smi:local/5f52e3ce-4ffa-4e9f-ad58-1549d96df016">
          <text>CLUSTER 0 CORE EVENT; NOT IN PEC</text>
        </comment>
      </origin>
    </event>
    <event publicID="smi:local/cb326aaa-3d50-4c45-96b1-9aa85778a1c8">
      <origin publicID="smi:local/edb81001-f887-4fce-b0e4-7073850183f2">
        <time>
          <value>2008-12-07T08:26:53.590000Z</value>
        </time>
        <latitude/>
        <longitude/>
        <comment id="smi:local/0d73e6e8-8b12-4f65-beb3-b14b50d06db1">
          <text>CLUSTER 1 CORE EVENT; NOT IN PEC</text>
        </comment>
      </origin>
    </event>
    <event publicID="smi:local/b83a215c-0e2b-4aee-898f-dff43d353889">
      <origin publicID="smi:local/44bd2b6e-152c-4778-beaf-8192986d854c">
        <time>
          <value>2008-06-04T19:15:26.260000Z</value>
        </time>
        <latitude/>
        <longitude/>
        <comment id="smi:local/930f9ab4-e4a6-4832-87ef-9b6e3c8ea906">
          <text>CLUSTER 2 CORE EVENT; NOT IN PEC</text>
        </comment>
      </origin>
    </event>
    <event publicID="smi:local/f0aeddcf-a13e-4ae7-b6e8-c2703af9cc83">
      <origin publicID="smi:local/7012a582-4449-497a-b9f2-dfc9dede0194">
        <time>
          <value>2008-10-18T17:02:17.060000Z</value>
        </time>
        <latitude/>
        <longitude/>
        <comment id="smi:local/c493930b-550a-411e-946b-82ec222a2a63">
          <text>CLUSTER 3 CORE EVENT; NOT IN PEC</text>
        </comment>
      </origin>
    </event>
    <event publicID="smi:local/befe1103-a390-4c7d-9df7-d9eedaedfd11">
      <origin publicID="smi:local/f92df456-b23e-4f71-be14-65aebb88b93d">
        <time>
          <value>2008-05-23T13:02:09.530000Z</value>
        </time>
        <latitude/>
        <longitude/>
        <comment id="smi:local/4614fdb1-7614-40ec-b3bc-901c2bbbf3b4">
          <text>CLUSTER 4 CORE EVENT; NOT IN PEC</text>
        </comment>
      </origin>
    </event>
    <event publicID="smi:local/1cda31a0-6277-4941-b9ce-18e53be6c501">
      <origin publicID="smi:local/d2b42f1e-babf-49e8-aad5-b2f8a6ce5c6b">
        <time>
          <value>2008-05-05T04:26:09.450000Z</value>
        </time>
        <latitude/>
        <longitude/>
        <comment id="smi:local/43cad55b-446e-41f1-8ba0-766b9a478b97">
          <text>CLUSTER 5 CORE EVENT; NOT IN PEC</text>
        </comment>
      </origin>
    </event>
    <event publicID="smi:local/b489df0b-3424-40ff-a939-aa5d35093e14">
      <origin publicID="smi:local/d36d7bc4-d4b3-47cf-a41e-7deb6fff4b50">
        <time>
          <value>2008-06-11T08:25:44.940000Z</value>
        </time>
        <latitude/>
        <longitude/>
        <comment id="smi:local/22fdc01d-a415-4806-9481-abc9113dd701">
          <text>CLUSTER 6 CORE EVENT; NOT IN PEC</text>
        </comment>
      </origin>
    </event>
    <event publicID="smi:local/e19b0109-93e4-4aa3-879f-c35e3d0d62da">
      <origin publicID="smi:local/21942209-3b54-4030-8c27-cd8c2327fce4">
        <time>
          <value>2008-05-01T19:28:05.510000Z</value>
        </time>
        <latitude/>
        <longitude/>
        <comment id="smi:local/04f1c143-12d6-4540-8f0d-80d22a5af368">
          <text>CLUSTER 7 CORE EVENT; NOT IN PEC</text>
        </comment>
      </origin>
    </event>
    <event publicID="smi:local/6b7ba737-55dd-4049-8af6-a2c2980d7278">
      <origin publicID="smi:local/2923bdb6-b6e8-4557-a054-1c3f349f886f">
        <time>
          <value>2008-09-04T17:11:00.500000Z</value>
        </time>
        <latitude/>
        <longitude/>
        <comment id="smi:local/331aec67-77d2-423b-b938-67abd7a37e8d">
          <text>CLUSTER 8 CORE EVENT; NOT IN PEC</text>
        </comment>
      </origin>
    </event>
    <event publicID="smi:local/d9a6312c-e8a4-4466-a05d-739ae171abd9">
      <origin publicID="smi:local/f100bac9-2744-49a5-b245-a5ee451ea1ac">
        <time>
          <value>2008-10-16T06:23:30.100000Z</value>
        </time>
        <latitude/>
        <longitude/>
        <comment id="smi:local/0cec2397-1110-4990-84d5-bccf0d976dc1">
          <text>CLUSTER 9 CORE EVENT; NOT IN PEC</text>
        </comment>
      </origin>
    </event>
    <event publicID="smi:local/5d17006c-e055-4a12-8288-39cb4952a4f1">
      <origin publicID="smi:local/5321bd0e-0fbf-4a9b-9aee-f03347e8aa23">
        <time>
          <value>2009-05-27T17:44:57.810000Z</value>
        </time>
        <latitude/>
        <longitude/>
        <comment id="smi:local/3e681fac-1dec-4bec-a01c-f3f48984ba98">
          <text>CLUSTER 10 CORE EVENT; NOT IN PEC</text>
        </comment>
      </origin>
    </event>
    <event publicID="smi:local/7554e3f1-ac65-4206-9ee5-155bd857b0ab">
      <origin publicID="smi:local/0778edb8-7da9-47aa-b603-7a0962590676">
        <time>
          <value>2008-08-26T23:54:07.810000Z</value>
        </time>
        <latitude/>
        <longitude/>
        <comment id="smi:local/baaa7861-d545-480b-94ba-f919a19b9275">
          <text>CLUSTER 11 CORE EVENT; NOT IN PEC</text>
        </comment>
      </origin>
    </event>
    <event publicID="smi:local/ca94c665-b676-4d24-b723-ab7104cb2ba7">
      <origin publicID="smi:local/b7270164-133f-4771-8a4a-0ebd04500cfc">
        <time>
          <value>2008-06-08T14:38:57.840000Z</value>
        </time>
        <latitude/>
        <longitude/>
        <comment id="smi:local/93386559-be54-4502-8d78-87d5f4f863aa">
          <text>CLUSTER 12 CORE EVENT; NOT IN PEC</text>
        </comment>
      </origin>
    </event>
    <event publicID="smi:local/84751715-fe92-44f0-989e-fc1f5f2459a6">
      <origin publicID="smi:local/8fc1ae80-ce16-40ee-85fd-219a55cacec5">
        <time>
          <value>2008-05-03T16:31:59.190000Z</value>
        </time>
        <latitude/>
        <longitude/>
        <comment id="smi:local/88a612e7-3917-4132-8a33-6feaedee879a">
          <text>CLUSTER 13 CORE EVENT; NOT IN PEC</text>
        </comment>
      </origin>
    </event>
    <event publicID="smi:local/ce7f4c58-7cd9-4071-bc60-690ce0f1b5f9">
      <origin publicID="smi:local/ac1c7b14-ec3a-43a5-87d4-efa11d697e55">
        <time>
          <value>2008-12-05T07:03:34.810000Z</value>
        </time>
        <latitude/>
        <longitude/>
        <comment id="smi:local/0ece6962-75eb-4bba-a29a-682467d06393">
          <text>CLUSTER 14 CORE EVENT; NOT IN PEC</text>
        </comment>
      </origin>
    </event>
    <event publicID="smi:local/aedf987f-bb70-4111-ae28-24de61e020d3">
      <origin publicID="smi:local/94174cdc-f46e-4584-9158-d1e6e9a3bb2e">
        <time>
          <value>2008-08-31T14:45:02.200000Z</value>
        </time>
        <latitude/>
        <longitude/>
        <comment id="smi:local/41ae0baa-38ca-4fbc-9194-19bdba2027e8">
          <text>CLUSTER 15 CORE EVENT; NOT IN PEC</text>
        </comment>
      </origin>
    </event>
    <event publicID="smi:local/037953ca-712d-473f-85d1-75b2a7ad9b88">
      <origin publicID="smi:local/aae29e35-408d-4eee-9e7b-998f114d76ed">
        <time>
          <value>2008-08-27T17:47:22.290000Z</value>
        </time>
        <latitude/>
        <longitude/>
        <comment id="smi:local/691d5393-9ebc-41c8-a0c6-4427b76164ef">
          <text>CLUSTER 16 CORE EVENT; NOT IN PEC</text>
        </comment>
      </origin>
    </event>
    <event publicID="smi:local/3cc499da-1cc8-468d-b820-13ff7ba9164a">
      <origin publicID="smi:local/6fb3a6c7-77ae-43dc-998d-83a00207f050">
        <time>
          <value>2008-11-04T03:00:51.170000Z</value>
        </time>
        <latitude/>
        <longitude/>
        <comment id="smi:local/7925a9ec-77f5-48fe-972e-5307a82c0794">
          <text>CLUSTER 17 CORE EVENT; NOT IN PEC</text>
        </comment>
      </origin>
    </event>
    <event publicID="smi:local/e14f74e9-e6b6-4600-bd22-5217a5afe7f0">
      <origin publicID="smi:local/ecb1c2a0-0e9f-4568-86e1-0fb95a3a3489">
        <time>
          <value>2009-01-20T20:19:04.920000Z</value>
        </time>
        <latitude/>
        <longitude/>
        <comment id="smi:local/4012290e-dbd8-437d-855f-4f5d4a0e49cf">
          <text>CLUSTER 18 CORE EVENT; NOT IN PEC</text>
        </comment>
      </origin>
    </event>
    <event publicID="smi:local/ee8af5ad-1e33-434a-ab9d-74eb5fbb53fb">
      <origin publicID="smi:local/52205971-85cb-44b7-bb9b-05c0db2f30de">
        <time>
          <value>2008-11-17T06:40:56.450000Z</value>
        </time>
        <latitude/>
        <longitude/>
        <comment id="smi:local/7c8c9f7d-7361-4bb8-b5f2-97ff31e52cd2">
          <text>CLUSTER 19 CORE EVENT; NOT IN PEC</text>
        </comment>
      </origin>
    </event>
    <event publicID="smi:local/140fb11e-02e9-4d45-a503-90e4d31db2d8">
      <origin publicID="smi:local/b995f018-e5e4-4259-b943-5894896bdeee">
        <time>
          <value>2008-05-05T01:13:45.750000Z</value>
        </time>
        <latitude/>
        <longitude/>
        <comment id="smi:local/6d8874fa-24ca-465e-828a-684024ae30e3">
          <text>CLUSTER 20 CORE EVENT; NOT IN PEC</text>
        </comment>
      </origin>
    </event>
    <event publicID="smi:local/6d497ce0-375d-4c7b-8294-70a55d43c5b7">
      <origin publicID="smi:local/f97d219e-7673-425a-a4e6-6d83b494e2d9">
        <time>
          <value>2008-10-22T02:32:13.160000Z</value>
        </time>
        <latitude/>
        <longitude/>
        <comment id="smi:local/861edf6c-721c-4cb3-a1b4-513508611fbc">
          <text>CLUSTER 21 CORE EVENT; NOT IN PEC</text>
        </comment>
      </origin>
    </event>
    <event publicID="smi:local/c3e81d9f-d4f8-445a-8dd2-a7769f8ad950">
      <origin publicID="smi:local/72553522-f084-499a-a907-bd62a7a82e4a">
        <time>
          <value>2008-09-30T21:16:13.880000Z</value>
        </time>
        <latitude/>
        <longitude/>
        <comment id="smi:local/c34cde52-4152-4a1d-8a12-372ea5249cac">
          <text>CLUSTER 22 CORE EVENT; NOT IN PEC</text>
        </comment>
      </origin>
    </event>
    <event publicID="smi:local/785296aa-2f8b-4d8c-b690-6e9083343d18">
      <origin publicID="smi:local/a62f065a-df76-4f99-b124-a91e3e1f11be">
        <time>
          <value>2008-06-12T01:40:51.110000Z</value>
        </time>
        <latitude/>
        <longitude/>
        <comment id="smi:local/d8ac9255-191b-4a52-b8a1-9ad0dd2635b0">
          <text>CLUSTER 23 CORE EVENT; NOT IN PEC</text>
        </comment>
      </origin>
    </event>
    <event publicID="smi:local/b6e6b891-9a51-4d54-b93a-c98d0f0c3b01">
      <origin publicID="smi:local/69665383-36bf-463d-9027-0c0d8bf0363b">
        <time>
          <value>2009-03-03T00:25:42.230000Z</value>
        </time>
        <latitude/>
        <longitude/>
        <comment id="smi:local/d26d3240-7121-49d2-bf81-ed100945afc6">
          <text>CLUSTER 24 CORE EVENT; NOT IN PEC</text>
        </comment>
      </origin>
    </event>
    <event publicID="smi:local/cd8ed2dc-f586-46e2-9050-626370f2dc0c">
      <origin publicID="smi:local/1431a49f-4a02-4b99-acf3-f8fd67548749">
        <time>
          <value>2008-05-08T01:15:45.170000Z</value>
        </time>
        <latitude/>
        <longitude/>
        <comment id="smi:local/d53f4d98-d51a-40f3-82e7-23ffa9ae71f6">
          <text>CLUSTER 25 CORE EVENT; NOT IN PEC</text>
        </comment>
      </origin>
    </event>
    <event publicID="smi:local/f5c07b91-2bf2-4d4c-a41c-a4995b45a106">
      <origin publicID="smi:local/39e6609b-107e-4638-a103-73babb0664e3">
        <time>
          <value>2009-01-27T22:12:02.520000Z</value>
        </time>
        <latitude/>
        <longitude/>
        <comment id="smi:local/28592946-59db-4f0e-b46d-b696336e6469">
          <text>CLUSTER 26 CORE EVENT; NOT IN PEC</text>
        </comment>
      </origin>
    </event>
    <event publicID="smi:local/e312135f-4fbd-4f19-9668-210ebe9af7a4">
      <origin publicID="smi:local/8fb89390-9011-477b-b50e-bb41ff812ec3">
        <time>
          <value>2009-05-25T16:54:51.250000Z</value>
        </time>
        <latitude/>
        <longitude/>
        <comment id="smi:local/3d945bfc-b44d-42f3-8e1a-d9e9b3b41cbb">
          <text>CLUSTER 27 CORE EVENT; NOT IN PEC</text>
        </comment>
      </origin>
    </event>
    <event publicID="smi:local/dcc9fd48-bcb5-409b-99c5-2ad3fc784789">
      <origin publicID="smi:local/afb8da3f-3d8a-4490-9b82-323e363abe32">
        <time>
          <value>2008-05-10T01:41:19.210000Z</value>
        </time>
        <latitude/>
        <longitude/>
        <comment id="smi:local/d410a85f-789e-4433-a7c7-cc6ba458b696">
          <text>CLUSTER 28 CORE EVENT; NOT IN PEC</text>
        </comment>
      </origin>
    </event>
    <event publicID="smi:local/f611be9d-fc7f-41cf-a096-62fa5a720a07">
      <origin publicID="smi:local/2885e74b-ed72-4ad7-ae17-f92961b4ad58">
        <time>
          <value>2008-05-11T09:30:00.200000Z</value>
        </time>
        <latitude/>
        <longitude/>
        <comment id="smi:local/41ee45dd-48f6-4f81-a192-26b569634e04">
          <text>CLUSTER 29 CORE EVENT; NOT IN PEC</text>
        </comment>
      </origin>
    </event>
    <event publicID="smi:local/d017263f-9558-4d7a-af87-dd90424f552d">
      <origin publicID="smi:local/863bb6ad-024f-40ad-8b8b-49493c2492a1">
        <time>
          <value>2009-01-12T20:00:17.560000Z</value>
        </time>
        <latitude/>
        <longitude/>
        <comment id="smi:local/5b07703e-15e1-4935-ba29-e6db8bb18744">
          <text>CLUSTER 30 CORE EVENT; NOT IN PEC</text>
        </comment>
      </origin>
    </event>
    <event publicID="smi:local/bb1b8e1a-e19f-4866-b62d-4743a3041fca">
      <origin publicID="smi:local/a96ae82b-217f-4af8-96a1-6ed0f4e47914">
        <time>
          <value>2008-05-18T13:09:06.420000Z</value>
        </time>
        <latitude/>
        <longitude/>
        <comment id="smi:local/ec364a81-e3cc-43f6-b0cc-bddda24df468">
          <text>CLUSTER 31 CORE EVENT; NOT IN PEC</text>
        </comment>
      </origin>
    </event>
    <event publicID="smi:local/cd92861a-6096-4a2f-aaa1-4e00651d31c4">
      <origin publicID="smi:local/c159a59e-0331-4457-b528-226ec02f41fa">
        <time>
          <value>2008-10-26T23:23:50.020000Z</value>
        </time>
        <latitude/>
        <longitude/>
        <comment id="smi:local/36139435-c31a-4a5c-b37c-5c7f8db110a2">
          <text>CLUSTER 32 CORE EVENT; NOT IN PEC</text>
        </comment>
      </origin>
    </event>
    <event publicID="smi:local/1313df7c-ed6a-4039-bd39-a3aa0fa4fc8b">
      <origin publicID="smi:local/1e1fff34-099c-43ac-baf4-e6b06ee424c6">
        <time>
          <value>2008-10-06T08:57:55.580000Z</value>
        </time>
        <latitude/>
        <longitude/>
        <comment id="smi:local/81bef58a-37c6-4101-aece-9a6b02199b3f">
          <text>CLUSTER 33 CORE EVENT; NOT IN PEC</text>
        </comment>
      </origin>
    </event>
    <event publicID="smi:local/ab27f629-0edb-44a0-bc59-41596b8aa196">
      <origin publicID="smi:local/1903cdb1-b142-44ef-9298-793f48dc0659">
        <time>
          <value>2008-05-11T03:50:53.050000Z</value>
        </time>
        <latitude/>
        <longitude/>
        <comment id="smi:local/c19d9118-c9ee-4df7-856c-e11df68050c8">
          <text>CLUSTER 34 CORE EVENT; NOT IN PEC</text>
        </comment>
      </origin>
    </event>
    <event publicID="smi:local/da335667-2e95-4d24-9ec1-9f31d3b796a6">
      <origin publicID="smi:local/db3ebcc4-30c7-471f-a514-e554da89c0f1">
        <time>
          <value>2008-05-11T07:52:03.820000Z</value>
        </time>
        <latitude/>
        <longitude/>
        <comment id="smi:local/60d4cd6d-c8c9-4208-b1fa-f14c1860665a">
          <text>CLUSTER 35 CORE EVENT; NOT IN PEC</text>
        </comment>
      </origin>
    </event>
    <event publicID="smi:local/0f749f0a-89a9-43e8-ba1b-766682f85a8b">
      <origin publicID="smi:local/ed858bb6-878c-4f00-bbf7-0fe60e867a3a">
        <time>
          <value>2008-08-24T02:57:42.780000Z</value>
        </time>
        <latitude/>
        <longitude/>
        <comment id="smi:local/5101fa59-8bb2-4a26-bf58-ddcf06f93716">
          <text>CLUSTER 36 CORE EVENT; NOT IN PEC</text>
        </comment>
      </origin>
    </event>
    <event publicID="smi:local/f548ce10-e121-4ddf-9731-d1e424caae30">
      <origin publicID="smi:local/ffc623ae-8159-4960-96a3-fc7cae8793ba">
        <time>
          <value>2008-05-11T14:27:20.620000Z</value>
        </time>
        <latitude/>
        <longitude/>
        <comment id="smi:local/ce46daa8-e24b-440f-927a-0f723e9bd1fb">
          <text>CLUSTER 37 CORE EVENT; NOT IN PEC</text>
        </comment>
      </origin>
    </event>
    <event publicID="smi:local/ea9ee493-e18c-4db5-8102-9df0fafcdf26">
      <origin publicID="smi:local/035b2f70-669f-4b09-a957-94e4f8d8bd90">
        <time>
          <value>2009-04-10T18:27:33.310000Z</value>
        </time>
        <latitude>
          <value>60.5238</value>
        </latitude>
        <longitude>
          <value>-152.85</value>
        </longitude>
        <depth>
          <value>4590.0</value>
        </depth>
        <comment id="smi:local/f162ad18-265e-49b5-86cb-3bdbaa71b660">
          <text>CLUSTER 38 CORE EVENT; IN PEC, DT = 1.60</text>
        </comment>
        <arrival publicID="smi:local/46fcb595-dfce-40a6-9e75-2012389a85a9">
          <pickID>smi:local/752ec3e5-3901-436d-97ab-8368c4bd00ff</pickID>
          <phase>P</phase>
          <timeWeight>1.0</timeWeight>
        </arrival>
        <arrival publicID="smi:local/508e9c6b-81d4-4079-ba63-7073a59e67b1">
          <pickID>smi:local/fcf49622-5155-429b-a9cb-f8a794c921c6</pickID>
          <phase>P</phase>
          <timeWeight>-1.0</timeWeight>
        </arrival>
        <arrival publicID="smi:local/737616d1-2617-4cc1-bbed-d24217302f35">
          <pickID>smi:local/59f6f90c-054c-4e9c-8e92-3242ab65cd2f</pickID>
          <phase>P</phase>
          <timeWeight>0.2</timeWeight>
        </arrival>
        <arrival publicID="smi:local/b9416723-bf8f-44d0-9cf3-af7c3d420566">
          <pickID>smi:local/4407ff84-3675-4388-8c7f-42df664fd33d</pickID>
          <phase>P</phase>
          <timeWeight>1.0</timeWeight>
        </arrival>
        <arrival publicID="smi:local/6c3ade8a-a1e4-4f3e-88f9-dee3f180e4e8">
          <pickID>smi:local/634535a6-bb3c-4fb3-9982-5cb00b38f590</pickID>
          <phase>P</phase>
          <timeWeight>1.0</timeWeight>
        </arrival>
        <arrival publicID="smi:local/b81f9d86-fd77-48e9-8987-f5c59c32ce6e">
          <pickID>smi:local/11af1f15-0332-4324-87c5-8e36c28b090c</pickID>
          <phase>S</phase>
          <timeWeight>1.0</timeWeight>
        </arrival>
        <arrival publicID="smi:local/8d2d113e-b903-4103-ab39-6bc40d232657">
          <pickID>smi:local/5b9d0201-9758-4929-a86d-d84d41dc0dac</pickID>
          <phase>P</phase>
          <timeWeight>1.0</timeWeight>
        </arrival>
        <arrival publicID="smi:local/3a16cea8-6bcf-4a8f-98fd-64a638ab2d50">
          <pickID>smi:local/99100e33-e36c-4126-9442-b8aced00e488</pickID>
          <phase>P</phase>
          <timeWeight>-1.0</timeWeight>
        </arrival>
        <arrival publicID="smi:local/730de2dd-d48f-4751-8ebf-e5f8bf937831">
          <pickID>smi:local/e6b03a68-bc97-4ca4-97fb-d09afcfd8a5b</pickID>
          <phase>S</phase>
          <timeWeight>1.0</timeWeight>
        </arrival>
        <arrival publicID="smi:local/4a1be5dc-ea49-49b4-af97-2d6ac6f507bc">
          <pickID>smi:local/87158114-df3e-4041-9179-a511a9a12e6d</pickID>
          <phase>S</phase>
          <timeWeight>1.0</timeWeight>
        </arrival>
