<?xml version='1.0' encoding='utf-8'?>
<q:quakeml xmlns="http://quakeml.org/xmlns/bed/1.2" xmlns:q="http://quakeml.org/xmlns/quakeml/1.2">
  <eventParameters publicID="smi:local/e8ae6a61-0a4b-4685-a381-7898ee1a7879">
    <event publicID="smi:local/event/91036743">
      <preferredOriginID>smi:local/origin/91036743</preferredOriginID>
      <preferredMagnitudeID>smi:local/magnitude/91036743</preferredMagnitudeID>
      <origin publicID="smi:local/origin/91036743">
        <time>
          <value>2021-07-31T00:55:07.160000Z</value>
        </time>
        <latitude>
          <value>52.0212</value>
        </latitude>
        <longitude>
          <value>-176.0872</value>
        </longitude>
        <depth>
          <value>8360.0</value>
        </depth>
        <quality>
          <standardError>0.29</standardError>
        </quality>
        <arrival publicID="smi:local/8d1c213f-9f14-4b28-998a-719db844aefe">
          <pickID>smi:local/e0f0279a-9bcf-4a8b-bdde-adcca19265a9</pickID>
          <phase>S</phase>
          <timeWeight>-1.0</timeWeight>
        </arrival>
        <arrival publicID="smi:local/50932d95-4f01-4b38-91c7-4d36a2b21bdf">
          <pickID>smi:local/45d8ca67-9bfa-49f7-be15-5c80a2288fde</pickID>
          <phase>P</phase>
          <timeWeight>1.0</timeWeight>
        </arrival>
        <arrival publicID="smi:local/5fb46613-2699-49b0-83ac-c33810a54851">
          <pickID>smi:local/76809b62-1dd0-4aee-b925-694d64d86c87</pickID>
          <phase>S</phase>
          <timeWeight>-1.0</timeWeight>
        </arrival>
        <arrival publicID="smi:local/806b5746-c637-4393-a891-b0f0a3d760c2">
          <pickID>smi:local/0d8309c4-90b6-4767-ac27-731ae7202358</pickID>
          <phase>P</phase>
          <timeWeight>1.0</timeWeight>
        </arrival>
        <arrival publicID="smi:local/2d744c4f-4445-4f8b-97b7-011578554e0c">
          <pickID>smi:local/e10fe9d7-cb43-4d90-8317-509f77ad7eed</pickID>
          <phase>S</phase>
          <timeWeight>-1.0</timeWeight>
        </arrival>
        <arrival publicID="smi:local/7d1ce9c4-a6a4-4310-b6de-6069dd4ef439">
          <pickID>smi:local/29a8ef89-d749-4e70-8e69-ddcbd5d7003b</pickID>
          <phase>P</phase>
          <timeWeight>1.0</timeWeight>
        </arrival>
        <arrival publicID="smi:local/0ccc7d89-31fe-44e1-bd84-473748022566">
          <pickID>smi:local/3eb73544-8044-40fe-88d9-b6becf52d017</pickID>
          <phase>S</phase>
          <timeWeight>-1.0</timeWeight>
        </arrival>
        <arrival publicID="smi:local/29ca9f92-6e74-4dac-9a6b-728ef1e1c97f">
          <pickID>smi:local/7b171883-f546-4def-8671-a110ea529168</pickID>
          <phase>P</phase>
          <timeWeight>1.0</timeWeight>
        </arrival>
      </origin>
      <magnitude publicID="smi:local/magnitude/91036743">
        <mag>
          <value>-0.47</value>
        </mag>
      </magnitude>
      <pick publicID="smi:local/e0f0279a-9bcf-4a8b-bdde-adcca19265a9">
        <time>
          <value>2021-07-31T00:55:10.420000Z</value>
        </time>
        <waveformID networkCode="AV" stationCode="GSCK" locationCode="" channelCode="BHN"></waveformID>
        <phaseHint>S</phaseHint>
      </pick>
      <pick publicID="smi:local/45d8ca67-9bfa-49f7-be15-5c80a2288fde">
        <time>
          <value>2021-07-31T00:55:08.800000Z</value>
        </time>
        <waveformID networkCode="AV" stationCode="GSCK" locationCode="" channelCode="BHZ"></waveformID>
        <phaseHint>P</phaseHint>
      </pick>
      <pick publicID="smi:local/76809b62-1dd0-4aee-b925-694d64d86c87">
        <time>
          <value>2021-07-31T00:55:11.740000Z</value>
        </time>
        <waveformID networkCode="AV" stationCode="GSIG" locationCode="" channelCode="BHN"></waveformID>
        <phaseHint>S</phaseHint>
      </pick>
      <pick publicID="smi:local/0d8309c4-90b6-4767-ac27-731ae7202358">
        <time>
          <value>2021-07-31T00:55:09.440000Z</value>
        </time>
        <waveformID networkCode="AV" stationCode="GSIG" locationCode="" channelCode="BHZ"></waveformID>
        <phaseHint>P</phaseHint>
      </pick>
      <pick publicID="smi:local/e10fe9d7-cb43-4d90-8317-509f77ad7eed">
        <time>
          <value>2021-07-31T00:55:09.460000Z</value>
        </time>
        <waveformID networkCode="AV" stationCode="GSMY" locationCode="" channelCode="BHE"></waveformID>
        <phaseHint>S</phaseHint>
      </pick>
      <pick publicID="smi:local/29a8ef89-d749-4e70-8e69-ddcbd5d7003b">
        <time>
          <value>2021-07-31T00:55:08.340000Z</value>
        </time>
        <waveformID networkCode="AV" stationCode="GSMY" locationCode="" channelCode="BHZ"></waveformID>
        <phaseHint>P</phaseHint>
      </pick>
      <pick publicID="smi:local/3eb73544-8044-40fe-88d9-b6becf52d017">
        <time>
          <value>2021-07-31T00:55:11.120000Z</value>
        </time>
        <waveformID networkCode="AV" stationCode="GSTR" locationCode="" channelCode="BHE"></waveformID>
        <phaseHint>S</phaseHint>
      </pick>
      <pick publicID="smi:local/7b171883-f546-4def-8671-a110ea529168">
        <time>
          <value>2021-07-31T00:55:09.080000Z</value>
        </time>
        <waveformID networkCode="AV" stationCode="GSTR" locationCode="" channelCode="BHZ"></waveformID>
        <phaseHint>P</phaseHint>
      </pick>
    </event>
    <event publicID="smi:local/event/91036758">
      <preferredOriginID>smi:local/origin/91036758</preferredOriginID>
      <preferredMagnitudeID>smi:local/magnitude/91036758</preferredMagnitudeID>
      <origin publicID="smi:local/origin/91036758">
        <time>
          <value>2021-07-31T01:07:45.690000Z</value>
        </time>
        <latitude>
          <value>52.087</value>
        </latitude>
        <longitude>
          <value>-175.9823</value>
        </longitude>
        <depth>
          <value>8280.0</value>
        </depth>
        <quality>
          <standardError>0.23</standardError>
        </quality>
        <arrival publicID="smi:local/65a39762-af8c-4784-bf34-25c61114a9dc">
          <pickID>smi:local/54aadf26-e6ad-41b0-82ef-b49238cc1ea4</pickID>
          <phase>S</phase>
          <timeWeight>-1.0</timeWeight>
        </arrival>
        <arrival publicID="smi:local/16a16b0c-4a1c-4f7d-b2c4-52d47bcc75af">
          <pickID>smi:local/c4e43d81-8308-4257-988a-38676ed70923</pickID>
          <phase>P</phase>
          <timeWeight>1.0</timeWeight>
        </arrival>
        <arrival publicID="smi:local/069a00c3-09fd-4aa0-a1ff-cf423aa40d54">
          <pickID>smi:local/b8c0d3d1-a847-4646-bdb3-c8c909df63f6</pickID>
          <phase>S</phase>
          <timeWeight>-0.5</timeWeight>
        </arrival>
        <arrival publicID="smi:local/24a21cb5-8596-4c68-b4ee-0aa74eb0096e">
          <pickID>smi:local/7a572288-c225-4a3d-8335-c416413fe1f5</pickID>
          <phase>S</phase>
          <timeWeight>1.0</timeWeight>
        </arrival>
        <arrival publicID="smi:local/b431b4c6-ef83-41c9-b448-61bb437abd55">
          <pickID>smi:local/4bcf7e6b-3eb8-4903-9a0b-0735052a154b</pickID>
          <phase>P</phase>
          <timeWeight>0.5</timeWeight>
        </arrival>
        <arrival publicID="smi:local/3cdc7d3e-14c7-4a53-b375-6fe7c019573c">
          <pickID>smi:local/df197397-8c28-4ace-aa24-39efb9061dc3</pickID>
          <phase>S</phase>
          <timeWeight>1.0</timeWeight>
        </arrival>
        <arrival publicID="smi:local/71a97917-0377-42e0-a612-96c6bb525aba">
          <pickID>smi:local/c29ea836-6a3f-4c0e-82da-57eaf7c58ac4</pickID>
          <phase>P</phase>
          <timeWeight>0.5</timeWeight>
        </arrival>
        <arrival publicID="smi:local/37abf52b-49b4-4497-902e-afa1423679ea">
          <pickID>smi:local/dd9d2371-16b5-4a34-8029-59930922c4c7</pickID>
          <phase>S</phase>
          <timeWeight>-1.0</timeWeight>
        </arrival>
        <arrival publicID="smi:local/9cb05b9f-7fda-47b1-a99a-78c62e03069c">
          <pickID>smi:local/ff9514b9-3b19-4c5e-b8e7-7e384e73da85</pickID>
          <phase>P</phase>
          <timeWeight>1.0</timeWeight>
        </arrival>
        <arrival publicID="smi:local/35ebfcb0-ebb3-42be-8723-934c8ac5fecd">
          <pickID>smi:local/35ff10b5-d2e2-4f45-8f6c-05e65b6f17b7</pickID>
          <phase>P</phase>
          <timeWeight>0.0</timeWeight>
        </arrival>
      </origin>
      <magnitude publicID="smi:local/magnitude/91036758">
        <mag>
          <value>-0.62</value>
        </mag>
      </magnitude>
      <pick publicID="smi:local/54aadf26-e6ad-41b0-82ef-b49238cc1ea4">
        <time>
          <value>2021-07-31T01:07:50.840000Z</value>
        </time>
        <waveformID networkCode="AV" stationCode="GSCK" locationCode="" channelCode="BHN"></waveformID>
        <phaseHint>S</phaseHint>
      </pick>
      <pick publicID="smi:local/c4e43d81-8308-4257-988a-38676ed70923">
        <time>
          <value>2021-07-31T01:07:48.440000Z</value>
        </time>
        <waveformID networkCode="AV" stationCode="GSCK" locationCode="" channelCode="BHZ"></waveformID>
        <phaseHint>P</phaseHint>
      </pick>
      <pick publicID="smi:local/b8c0d3d1-a847-4646-bdb3-c8c909df63f6">
        <time>
          <value>2021-07-31T01:07:50.260000Z</value>
        </time>
        <waveformID networkCode="AV" stationCode="GSIG" locationCode="" channelCode="BHN"></waveformID>
        <phaseHint>S</phaseHint>
      </pick>
      <pick publicID="smi:local/7a572288-c225-4a3d-8335-c416413fe1f5">
        <time>
          <value>2021-07-31T01:07:48.780000Z</value>
        </time>
        <waveformID networkCode="AV" stationCode="GSMY" locationCode="" channelCode="BHN"></waveformID>
        <phaseHint>S</phaseHint>
      </pick>
      <pick publicID="smi:local/4bcf7e6b-3eb8-4903-9a0b-0735052a154b">
        <time>
          <value>2021-07-31T01:07:47.260000Z</value>
        </time>
        <waveformID networkCode="AV" stationCode="GSMY" locationCode="" channelCode="BHZ"></waveformID>
        <phaseHint>P</phaseHint>
      </pick>
      <pick publicID="smi:local/df197397-8c28-4ace-aa24-39efb9061dc3">
        <time>
          <value>2021-07-31T01:07:50.280000Z</value>
        </time>
        <waveformID networkCode="AV" stationCode="GSSP" locationCode="" channelCode="BHE"></waveformID>
        <phaseHint>S</phaseHint>
      </pick>
      <pick publicID="smi:local/c29ea836-6a3f-4c0e-82da-57eaf7c58ac4">
        <time>
          <value>2021-07-31T01:07:48.760000Z</value>
        </time>
        <waveformID networkCode="AV" stationCode="GSSP" locationCode="" channelCode="BHZ"></waveformID>
        <phaseHint>P</phaseHint>
      </pick>
      <pick publicID="smi:local/dd9d2371-16b5-4a34-8029-59930922c4c7">
        <time>
          <value>2021-07-31T01:07:48.960000Z</value>
        </time>
        <waveformID networkCode="AV" stationCode="GSTR" locationCode="" channelCode="BHN"></waveformID>
        <phaseHint>S</phaseHint>
      </pick>
      <pick publicID="smi:local/ff9514b9-3b19-4c5e-b8e7-7e384e73da85">
        <time>
          <value>2021-07-31T01:07:47.140000Z</value>
        </time>
        <waveformID networkCode="AV" stationCode="GSTR" locationCode="" channelCode="BHZ"></waveformID>
        <phaseHint>P</phaseHint>
      </pick>
      <pick publicID="smi:local/35ff10b5-d2e2-4f45-8f6c-05e65b6f17b7">
        <time>
          <value>2021-07-31T01:07:45.690000Z</value>
        </time>
        <waveformID networkCode="AV" stationCode="GSIG" locationCode="" channelCode="BHZ"></waveformID>
        <phaseHint>P</phaseHint>
      </pick>
    </event>
    <event publicID="smi:local/event/91036763">
      <preferredOriginID>smi:local/origin/91036763</preferredOriginID>
      <preferredMagnitudeID>smi:local/magnitude/91036763</preferredMagnitudeID>
      <origin publicID="smi:local/origin/91036763">
        <time>
          <value>2021-07-31T01:41:36.410000Z</value>
        </time>
        <latitude>
          <value>52.043</value>
        </latitude>
        <longitude>
          <value>-176.0828</value>
        </longitude>
        <depth>
          <value>6470.0</value>
        </depth>
        <quality>
          <standardError>0.14</standardError>
        </quality>
        <arrival publicID="smi:local/1459cf6a-9a46-40bb-989d-d99299bdc925">
          <pickID>smi:local/064ef4be-fcb2-48cf-b80f-18ecc6c5cfc7</pickID>
          <phase>S</phase>
          <timeWeight>-1.0</timeWeight>
        </arrival>
        <arrival publicID="smi:local/1d114c37-b4f2-42f8-abe4-53bd179567b8">
          <pickID>smi:local/0d5f1552-029c-47bb-bbc5-d8c41f5c6aa3</pickID>
          <phase>P</phase>
          <timeWeight>1.0</timeWeight>
        </arrival>
        <arrival publicID="smi:local/ec30964d-9650-4c8e-b031-ee4f1cf5b306">
          <pickID>smi:local/27b91e99-f509-4b81-8380-2a0f27d844a3</pickID>
          <phase>S</phase>
          <timeWeight>-1.0</timeWeight>
        </arrival>
        <arrival publicID="smi:local/f0611a79-b0db-49f0-91fa-b5ecd8d2e3ec">
          <pickID>smi:local/cd3e7b1e-4670-4037-9254-92908a31616b</pickID>
          <phase>P</phase>
          <timeWeight>1.0</timeWeight>
        </arrival>
        <arrival publicID="smi:local/11bba45e-646b-424b-b036-0b3b0c9094fd">
          <pickID>smi:local/3e19e8a0-658b-4551-998e-519246b0cf7e</pickID>
          <phase>S</phase>
          <timeWeight>-1.0</timeWeight>
        </arrival>
        <arrival publicID="smi:local/48475bcc-f910-4dc7-b56d-f05013a843a8">
          <pickID>smi:local/d1c849b1-2f6f-457a-acac-8499441be1ff</pickID>
          <phase>P</phase>
          <timeWeight>1.0</timeWeight>
        </arrival>
        <arrival publicID="smi:local/d7cf5b5a-ebe8-4ffa-a863-54224497a82f">
          <pickID>smi:local/39f6e20e-834a-4059-a7f0-7ebcb8325a1e</pickID>
          <phase>S</phase>
          <timeWeight>-1.0</timeWeight>
        </arrival>
        <arrival publicID="smi:local/133eff68-da44-4de3-9e20-3e3287442336">
          <pickID>smi:local/e0f8659f-8717-46e3-9244-9efb4365a957</pickID>
          <phase>P</phase>
          <timeWeight>0.5</timeWeight>
        </arrival>
      </origin>
      <magnitude publicID="smi:local/magnitude/91036763">
        <mag>
          <value>-0.72</value>
        </mag>
      </magnitude>
      <pick publicID="smi:local/064ef4be-fcb2-48cf-b80f-18ecc6c5cfc7">
        <time>
          <value>2021-07-31T01:41:39.460000Z</value>
        </time>
        <waveformID networkCode="AV" stationCode="GSCK" locationCode="" channelCode="BHN"></waveformID>
        <phaseHint>S</phaseHint>
      </pick>
      <pick publicID="smi:local/0d5f1552-029c-47bb-bbc5-d8c41f5c6aa3">
        <time>
          <value>2021-07-31T01:41:37.780000Z</value>
        </time>
        <waveformID networkCode="AV" stationCode="GSCK" locationCode="" channelCode="BHZ"></waveformID>
        <phaseHint>P</phaseHint>
      </pick>
      <pick publicID="smi:local/27b91e99-f509-4b81-8380-2a0f27d844a3">
        <time>
          <value>2021-07-31T01:41:40.700000Z</value>
        </time>
        <waveformID networkCode="AV" stationCode="GSIG" locationCode="" channelCode="BHN"></waveformID>
        <phaseHint>S</phaseHint>
      </pick>
      <pick publicID="smi:local/cd3e7b1e-4670-4037-9254-92908a31616b">
        <time>
          <value>2021-07-31T01:41:38.820000Z</value>
        </time>
        <waveformID networkCode="AV" stationCode="GSIG" locationCode="" channelCode="BHZ"></waveformID>
        <phaseHint>P</phaseHint>
      </pick>
      <pick publicID="smi:local/3e19e8a0-658b-4551-998e-519246b0cf7e">
        <time>
          <value>2021-07-31T01:41:38.420000Z</value>
        </time>
        <waveformID networkCode="AV" stationCode="GSMY" locationCode="" channelCode="BHE"></waveformID>
        <phaseHint>S</phaseHint>
      </pick>
      <pick publicID="smi:local/d1c849b1-2f6f-457a-acac-8499441be1ff">
        <time>
          <value>2021-07-31T01:41:37.460000Z</value>
        </time>
        <waveformID networkCode="AV" stationCode="GSMY" locationCode="" channelCode="BHZ"></waveformID>
        <phaseHint>P</phaseHint>
      </pick>
      <pick publicID="smi:local/39f6e20e-834a-4059-a7f0-7ebcb8325a1e">
        <time>
          <value>2021-07-31T01:41:39.260000Z</value>
        </time>
        <waveformID networkCode="AV" stationCode="GSTR" locationCode="" channelCode="BHN"></waveformID>
        <phaseHint>S</phaseHint>
      </pick>
      <pick publicID="smi:local/e0f8659f-8717-46e3-9244-9efb4365a957">
        <time>
          <value>2021-07-31T01:41:37.920000Z</value>
        </time>
        <waveformID networkCode="AV" stationCode="GSTR" locationCode="" channelCode="BHZ"></waveformID>
        <phaseHint>P</phaseHint>
      </pick>
    </event>
    <event publicID="smi:local/event/91036768">
      <preferredOriginID>smi:local/origin/91036768</preferredOriginID>
      <preferredMagnitudeID>smi:local/magnitude/91036768</preferredMagnitudeID>
      <origin publicID="smi:local/origin/91036768">
        <time>
          <value>2021-07-31T01:57:38.660000Z</value>
        </time>
        <latitude>
          <value>52.0718</value>
        </latitude>
        <longitude>
          <value>-176.1028</value>
        </longitude>
        <depth>
          <value>11810.0</value>
        </depth>
        <quality>
          <standardError>0.26</standardError>
        </quality>
        <arrival publicID="smi:local/631059fa-8bd7-44ef-b7f4-7dcbf0cdf143">
          <pickID>smi:local/5d9ac435-9bd3-40dc-ad87-ae757d6a4600</pickID>
          <phase>P</phase>
          <timeWeight>-1.0</timeWeight>
        </arrival>
        <arrival publicID="smi:local/596b0967-1612-4e8a-acae-b9a8bf96f629">
          <pickID>smi:local/cac80281-1a25-4d47-804e-6ddc561ac545</pickID>
          <phase>S</phase>
          <timeWeight>-0.5</timeWeight>
        </arrival>
        <arrival publicID="smi:local/714df810-764d-4e92-a50b-0175b628b573">
          <pickID>smi:local/7c0ae53d-2642-4e0a-ae57-dd286f617f5f</pickID>
          <phase>P</phase>
          <timeWeight>-1.0</timeWeight>
        </arrival>
        <arrival publicID="smi:local/ec9094d1-65c1-4042-baa6-c40a91e2417b">
          <pickID>smi:local/1747d051-2c30-4863-a131-fd2115f88297</pickID>
          <phase>S</phase>
          <timeWeight>-1.0</timeWeight>
        </arrival>
        <arrival publicID="smi:local/39714de5-cd77-402f-a6f4-b95e72df9def">
          <pickID>smi:local/6b9197dc-dda7-45d4-bbc5-1829751ed423</pickID>
          <phase>P</phase>
          <timeWeight>1.0</timeWeight>
        </arrival>
        <arrival publicID="smi:local/b486490d-f857-45f5-a60e-13ffd4f50018">
          <pickID>smi:local/e1294483-ec03-4b67-b59a-03a1e064fe95</pickID>
          <phase>S</phase>
          <timeWeight>-1.0</timeWeight>
        </arrival>
        <arrival publicID="smi:local/fbb9f4e5-6862-4de9-ac47-a98026ff9532">
          <pickID>smi:local/602f2aa4-6fc4-4435-8078-4dff98881fd9</pickID>
          <phase>P</phase>
          <timeWeight>1.0</timeWeight>
        </arrival>
      </origin>
      <magnitude publicID="smi:local/magnitude/91036768">
        <mag>
          <value>-0.56</value>
        </mag>
      </magnitude>
      <pick publicID="smi:local/5d9ac435-9bd3-40dc-ad87-ae757d6a4600">
        <time>
          <value>2021-07-31T01:57:41.260000Z</value>
        </time>
        <waveformID networkCode="AV" stationCode="GSCK" locationCode="" channelCode="BHZ"></waveformID>
        <phaseHint>P</phaseHint>
      </pick>
      <pick publicID="smi:local/cac80281-1a25-4d47-804e-6ddc561ac545">
        <time>
          <value>2021-07-31T01:57:44.540000Z</value>
        </time>
        <waveformID networkCode="AV" stationCode="GSIG" locationCode="" channelCode="BHN"></waveformID>
        <phaseHint>S</phaseHint>
      </pick>
      <pick publicID="smi:local/7c0ae53d-2642-4e0a-ae57-dd286f617f5f">
        <time>
          <value>2021-07-31T01:57:41.760000Z</value>
        </time>
        <waveformID networkCode="AV" stationCode="GSIG" locationCode="" channelCode="BHZ"></waveformID>
