<?xml version='1.0' encoding='utf-8'?>
<q:quakeml xmlns="http://quakeml.org/xmlns/bed/1.2" xmlns:q="http://quakeml.org/xmlns/quakeml/1.2">
  <eventParameters publicID="smi:local/33f9d8c7-74ca-446b-be5c-4ff5f88f2aa1">
    <event publicID="smi:local/81c59954-6ca8-4725-96df-287d08a4f024">
      <origin publicID="smi:local/3a9c9193-eb30-42d3-9f14-7afa7fe576c8">
        <time>
          <value>2012-10-01T00:49:16.490000Z</value>
        </time>
        <latitude>
          <value>37.6543</value>
        </latitude>
        <longitude>
          <value>-119.0203</value>
        </longitude>
        <depth>
          <value>580.0</value>
        </depth>
        <comment id="smi:local/c536634a-6d43-4804-bab6-c9ff24d32fd2">
          <text>CLUSTER 0 CORE EVENT; IN PEC, DT = 0.24</text>
        </comment>
        <arrival publicID="smi:local/dcc15e3a-97ed-43c5-8a9e-72c4bfbfb247">
          <pickID>smi:local/e25004b9-bd48-4fed-986c-77d4f93c5c8c</pickID>
          <phase>P</phase>
          <timeWeight>0.2</timeWeight>
        </arrival>
        <arrival publicID="smi:local/94049036-f3d0-4f28-99bd-805aa6de51d3">
          <pickID>smi:local/43211a09-bf3d-40c3-8be0-cbc9c2abb0fc</pickID>
          <phase>S</phase>
          <timeWeight>0.5</timeWeight>
        </arrival>
        <arrival publicID="smi:local/675a72c9-23af-4d87-9fe8-026bc6f5b9bb">
          <pickID>smi:local/2481e2ad-154f-420a-81fe-1742e86defb7</pickID>
          <phase>P</phase>
          <timeWeight>1.0</timeWeight>
        </arrival>
        <arrival publicID="smi:local/3568dd5b-dedd-459a-8113-b8f3d4c39dff">
          <pickID>smi:local/f3efc51c-4fb8-4f27-b166-b5fd3d4c4d17</pickID>
          <phase>P</phase>
          <timeWeight>0.2</timeWeight>
        </arrival>
        <arrival publicID="smi:local/b09680e6-108a-4283-b648-58346dd8998b">
          <pickID>smi:local/68bad721-8ed4-4270-9f2a-9d79896ce47d</pickID>
          <phase>S</phase>
          <timeWeight>-1.0</timeWeight>
        </arrival>
        <arrival publicID="smi:local/21e48e78-52b0-4c1e-96fc-bd571adb84c8">
          <pickID>smi:local/0d927d44-fe0b-4c8c-a846-820bfb147293</pickID>
          <phase>P</phase>
          <timeWeight>1.0</timeWeight>
        </arrival>
        <arrival publicID="smi:local/50e6a72a-747a-46c5-959d-0cb6d1a5674e">
          <pickID>smi:local/bbdbb029-ba10-4ddf-a334-3658e2d911d8</pickID>
          <phase>P</phase>
          <timeWeight>0.2</timeWeight>
        </arrival>
        <arrival publicID="smi:local/a5feac92-54c8-4a15-af89-cb9740c39c35">
          <pickID>smi:local/91dd0fcc-aa68-43fa-b7ba-14598f477b32</pickID>
          <phase>P</phase>
          <timeWeight>1.0</timeWeight>
        </arrival>
        <arrival publicID="smi:local/f8bc544b-8aea-4f87-a47c-b7c39203e051">
          <pickID>smi:local/ede9f4e5-ca23-4cd8-ab07-db67e8daa6ec</pickID>
          <phase>P</phase>
          <timeWeight>0.2</timeWeight>
        </arrival>
        <arrival publicID="smi:local/bfd5cdee-b10d-4ac8-b146-b53659d3d4f2">
          <pickID>smi:local/54f421df-bfac-462e-be68-eab523bf84a7</pickID>
          <phase>P</phase>
          <timeWeight>-1.0</timeWeight>
        </arrival>
        <arrival publicID="smi:local/332fd645-39cb-4930-b469-aa67a1b11298">
          <pickID>smi:local/a73c6c14-c16e-44e5-91ea-9804d650002f</pickID>
          <phase>P</phase>
          <timeWeight>0.5</timeWeight>
        </arrival>
        <arrival publicID="smi:local/2d3e3018-0c87-492f-84bc-d84e2eb4e721">
          <pickID>smi:local/ddeb3a3b-f17f-4913-97fd-494dc7ee7e03</pickID>
          <phase>P</phase>
          <timeWeight>0.2</timeWeight>
        </arrival>
        <arrival publicID="smi:local/3d5173e6-4042-40c5-8ba0-59578b1c6907">
          <pickID>smi:local/0a527b1a-99d0-4e32-b23e-f3f1f9df7f5b</pickID>
          <phase>P</phase>
          <timeWeight>1.0</timeWeight>
        </arrival>
        <arrival publicID="smi:local/0932c897-6edd-43e0-ae8c-a2d63034a919">
          <pickID>smi:local/c1bc2a9e-021b-4be4-a3eb-e1f217719090</pickID>
          <phase>P</phase>
          <timeWeight>1.0</timeWeight>
        </arrival>
        <arrival publicID="smi:local/f9e17d36-a6f2-4b58-8bc3-2a3d7b452711">
          <pickID>smi:local/030a3e96-ffc2-47ce-b6a0-ea38f301e9e3</pickID>
          <phase>P</phase>
          <timeWeight>0.1</timeWeight>
        </arrival>
        <arrival publicID="smi:local/05af1319-3594-4f7f-9e2a-ba35ba8f8108">
          <pickID>smi:local/b2b46e62-1279-4c4b-9ce8-5606c08ae96b</pickID>
          <phase>P</phase>
          <timeWeight>0.1</timeWeight>
        </arrival>
        <arrival publicID="smi:local/c2fb4ca5-2b97-4f6f-851e-82e6b2c9f038">
          <pickID>smi:local/a5ead076-2f50-4fed-8406-8cbc3c6d0509</pickID>
          <phase>P</phase>
          <timeWeight>0.1</timeWeight>
        </arrival>
        <arrival publicID="smi:local/d2f58179-9214-46bb-afd3-cf3fb990a0f2">
          <pickID>smi:local/061cf46d-8a80-4f02-ab0c-5efb583fbf27</pickID>
          <phase>P</phase>
          <timeWeight>0.1</timeWeight>
        </arrival>
        <arrival publicID="smi:local/5a3550a8-52a1-4165-96cf-a251a46d060c">
          <pickID>smi:local/92a84cf3-3468-4a41-886d-5fa39c1d7082</pickID>
          <phase>P</phase>
          <timeWeight>0.1</timeWeight>
        </arrival>
        <arrival publicID="smi:local/cabb693c-659c-41bb-b396-39fe7e2ee5dc">
          <pickID>smi:local/6f53644b-6219-44ce-9f60-84c3b10e2e8a</pickID>
          <phase>P</phase>
          <timeWeight>0.1</timeWeight>
        </arrival>
        <arrival publicID="smi:local/7fb57548-7115-4819-bce3-4d4f83aee214">
          <pickID>smi:local/ebac7de9-6aea-4406-9b30-b598fc189995</pickID>
          <phase>P</phase>
          <timeWeight>0.1</timeWeight>
        </arrival>
        <arrival publicID="smi:local/b7792186-06d2-46ae-99c9-6af388964dff">
          <pickID>smi:local/710e9ce5-7b1f-4bba-82e6-732a1bfb8d1a</pickID>
          <phase>P</phase>
          <timeWeight>0.1</timeWeight>
        </arrival>
        <arrival publicID="smi:local/0ab91a57-d9fe-41ee-b51b-a4b6ee209c10">
          <pickID>smi:local/7bb59da3-bdcd-4ecd-925a-c311ce1a1362</pickID>
          <phase>P</phase>
          <timeWeight>0.1</timeWeight>
        </arrival>
        <arrival publicID="smi:local/7b054627-c194-4f30-81de-ab2b418ef7cc">
          <pickID>smi:local/13449132-33c3-46ec-8181-faf360feabeb</pickID>
          <phase>P</phase>
          <timeWeight>0.1</timeWeight>
        </arrival>
      </origin>
      <magnitude publicID="smi:local/magnitude/71850380">
        <mag>
          <value>0.49</value>
        </mag>
      </magnitude>
      <pick publicID="smi:local/e25004b9-bd48-4fed-986c-77d4f93c5c8c">
        <time>
          <value>2012-10-01T00:49:19.070000Z</value>
        </time>
        <waveformID networkCode="NC" stationCode="MCM" locationCode="" channelCode="EHZ"></waveformID>
        <phaseHint>P</phaseHint>
      </pick>
      <pick publicID="smi:local/43211a09-bf3d-40c3-8be0-cbc9c2abb0fc">
        <time>
          <value>2012-10-01T00:49:17.580000Z</value>
        </time>
        <waveformID networkCode="NC" stationCode="MCY" locationCode="" channelCode="EHN"></waveformID>
        <phaseHint>S</phaseHint>
      </pick>
      <pick publicID="smi:local/2481e2ad-154f-420a-81fe-1742e86defb7">
        <time>
          <value>2012-10-01T00:49:17.110000Z</value>
        </time>
        <waveformID networkCode="NC" stationCode="MCY" locationCode="" channelCode="EHZ"></waveformID>
        <phaseHint>P</phaseHint>
      </pick>
      <pick publicID="smi:local/f3efc51c-4fb8-4f27-b166-b5fd3d4c4d17">
        <time>
          <value>2012-10-01T00:49:17.810000Z</value>
        </time>
        <waveformID networkCode="NC" stationCode="MDC" locationCode="" channelCode="EHZ"></waveformID>
        <phaseHint>P</phaseHint>
      </pick>
      <pick publicID="smi:local/68bad721-8ed4-4270-9f2a-9d79896ce47d">
        <time>
          <value>2012-10-01T00:49:17.830000Z</value>
        </time>
        <waveformID networkCode="NC" stationCode="MDY" locationCode="" channelCode="HHE"></waveformID>
        <phaseHint>S</phaseHint>
      </pick>
      <pick publicID="smi:local/0d927d44-fe0b-4c8c-a846-820bfb147293">
        <time>
          <value>2012-10-01T00:49:17.080000Z</value>
        </time>
        <waveformID networkCode="NC" stationCode="MDY" locationCode="" channelCode="HHZ"></waveformID>
        <phaseHint>P</phaseHint>
      </pick>
      <pick publicID="smi:local/bbdbb029-ba10-4ddf-a334-3658e2d911d8">
        <time>
          <value>2012-10-01T00:49:18.790000Z</value>
        </time>
        <waveformID networkCode="NC" stationCode="MGPB" locationCode="" channelCode="EHZ"></waveformID>
        <phaseHint>P</phaseHint>
      </pick>
      <pick publicID="smi:local/91dd0fcc-aa68-43fa-b7ba-14598f477b32">
        <time>
          <value>2012-10-01T00:49:17.320000Z</value>
        </time>
        <waveformID networkCode="NC" stationCode="MINS" locationCode="" channelCode="HHZ"></waveformID>
        <phaseHint>P</phaseHint>
      </pick>
      <pick publicID="smi:local/ede9f4e5-ca23-4cd8-ab07-db67e8daa6ec">
        <time>
          <value>2012-10-01T00:49:17.400000Z</value>
        </time>
        <waveformID networkCode="NC" stationCode="MLI" locationCode="" channelCode="HHZ"></waveformID>
        <phaseHint>P</phaseHint>
      </pick>
      <pick publicID="smi:local/54f421df-bfac-462e-be68-eab523bf84a7">
        <time>
          <value>2012-10-01T00:49:17.580000Z</value>
        </time>
        <waveformID networkCode="NC" stationCode="MLK" locationCode="" channelCode="EHZ"></waveformID>
        <phaseHint>P</phaseHint>
      </pick>
      <pick publicID="smi:local/a73c6c14-c16e-44e5-91ea-9804d650002f">
        <time>
          <value>2012-10-01T00:49:17.440000Z</value>
        </time>
        <waveformID networkCode="NC" stationCode="MMLB" locationCode="" channelCode="HHZ"></waveformID>
        <phaseHint>P</phaseHint>
      </pick>
      <pick publicID="smi:local/ddeb3a3b-f17f-4913-97fd-494dc7ee7e03">
        <time>
          <value>2012-10-01T00:49:17.420000Z</value>
        </time>
        <waveformID networkCode="NC" stationCode="MMP" locationCode="" channelCode="EHZ"></waveformID>
        <phaseHint>P</phaseHint>
      </pick>
      <pick publicID="smi:local/0a527b1a-99d0-4e32-b23e-f3f1f9df7f5b">
        <time>
          <value>2012-10-01T00:49:17.380000Z</value>
        </time>
        <waveformID networkCode="NC" stationCode="MMS" locationCode="" channelCode="EHZ"></waveformID>
        <phaseHint>P</phaseHint>
      </pick>
      <pick publicID="smi:local/c1bc2a9e-021b-4be4-a3eb-e1f217719090">
        <time>
          <value>2012-10-01T00:49:17.950000Z</value>
        </time>
        <waveformID networkCode="NC" stationCode="MRD" locationCode="" channelCode="EHZ"></waveformID>
        <phaseHint>P</phaseHint>
      </pick>
      <pick publicID="smi:local/030a3e96-ffc2-47ce-b6a0-ea38f301e9e3">
        <time>
          <value>2012-10-01T00:49:18.030000Z</value>
        </time>
        <waveformID networkCode="8E" stationCode="MB01" locationCode="" channelCode="HHZ"></waveformID>
        <phaseHint>P</phaseHint>
      </pick>
      <pick publicID="smi:local/b2b46e62-1279-4c4b-9ce8-5606c08ae96b">
        <time>
          <value>2012-10-01T00:49:17.390000Z</value>
        </time>
        <waveformID networkCode="8E" stationCode="MB02" locationCode="" channelCode="HHZ"></waveformID>
        <phaseHint>P</phaseHint>
      </pick>
      <pick publicID="smi:local/a5ead076-2f50-4fed-8406-8cbc3c6d0509">
        <time>
          <value>2012-10-01T00:49:17.090000Z</value>
        </time>
        <waveformID networkCode="8E" stationCode="MB03" locationCode="" channelCode="HHZ"></waveformID>
        <phaseHint>P</phaseHint>
      </pick>
      <pick publicID="smi:local/061cf46d-8a80-4f02-ab0c-5efb583fbf27">
        <time>
          <value>2012-10-01T00:49:17.550000Z</value>
        </time>
        <waveformID networkCode="8E" stationCode="MB05" locationCode="" channelCode="HHZ"></waveformID>
        <phaseHint>P</phaseHint>
      </pick>
      <pick publicID="smi:local/92a84cf3-3468-4a41-886d-5fa39c1d7082">
        <time>
          <value>2012-10-01T00:49:17.590000Z</value>
        </time>
        <waveformID networkCode="8E" stationCode="MB06" locationCode="" channelCode="HHZ"></waveformID>
        <phaseHint>P</phaseHint>
      </pick>
      <pick publicID="smi:local/6f53644b-6219-44ce-9f60-84c3b10e2e8a">
        <time>
          <value>2012-10-01T00:49:17.390000Z</value>
        </time>
        <waveformID networkCode="8E" stationCode="MB07" locationCode="" channelCode="HHZ"></waveformID>
        <phaseHint>P</phaseHint>
      </pick>
      <pick publicID="smi:local/ebac7de9-6aea-4406-9b30-b598fc189995">
        <time>
          <value>2012-10-01T00:49:17.110000Z</value>
        </time>
        <waveformID networkCode="8E" stationCode="MB08" locationCode="" channelCode="HHZ"></waveformID>
        <phaseHint>P</phaseHint>
      </pick>
      <pick publicID="smi:local/710e9ce5-7b1f-4bba-82e6-732a1bfb8d1a">
        <time>
          <value>2012-10-01T00:49:17.300000Z</value>
        </time>
        <waveformID networkCode="8E" stationCode="MB09" locationCode="" channelCode="HHZ"></waveformID>
        <phaseHint>P</phaseHint>
      </pick>
      <pick publicID="smi:local/7bb59da3-bdcd-4ecd-925a-c311ce1a1362">
        <time>
          <value>2012-10-01T00:49:17.260000Z</value>
        </time>
        <waveformID networkCode="8E" stationCode="MB10" locationCode="" channelCode="HHZ"></waveformID>
        <phaseHint>P</phaseHint>
      </pick>
      <pick publicID="smi:local/13449132-33c3-46ec-8181-faf360feabeb">
        <time>
          <value>2012-10-01T00:49:18.280000Z</value>
        </time>
        <waveformID networkCode="8E" stationCode="MB11" locationCode="" channelCode="HHZ"></waveformID>
        <phaseHint>P</phaseHint>
      </pick>
    </event>
    <event publicID="smi:local/45a93666-c1cb-4209-b10b-165cef243f89">
      <origin publicID="smi:local/7416db95-2565-4fcb-9bd0-46f9e61f9b10">
        <time>
          <value>2012-10-06T08:00:56.650000Z</value>
        </time>
        <latitude/>
        <longitude/>
        <comment id="smi:local/2eae27c7-d735-4fa5-b3cd-e5ed76cccff8">
          <text>CLUSTER 1 CORE EVENT; NOT IN PEC</text>
        </comment>
      </origin>
    </event>
    <event publicID="smi:local/abd1299e-3a59-43ee-9241-e45752f12c14">
      <origin publicID="smi:local/792730f3-9559-4f39-9582-be1a0910e337">
        <time>
          <value>2012-10-01T06:13:03.190000Z</value>
        </time>
        <latitude/>
        <longitude/>
        <comment id="smi:local/773caa52-a34c-4cf5-91d0-684d60901d57">
          <text>CLUSTER 2 CORE EVENT; NOT IN PEC</text>
        </comment>
        <arrival publicID="smi:local/ca0199d5-1ec4-4fed-8c53-f5b9cd6774bc">
          <pickID>smi:local/20780cd9-1a3b-488d-832c-1a96198e90ba</pickID>
          <phase>P</phase>
          <timeWeight>0.1</timeWeight>
        </arrival>
        <arrival publicID="smi:local/3abfb893-3abf-4346-9e73-1de61d57df36">
          <pickID>smi:local/98664581-9b69-47ab-80ee-2c77756bb8ef</pickID>
          <phase>P</phase>
          <timeWeight>0.1</timeWeight>
        </arrival>
        <arrival publicID="smi:local/ec2e4cac-5eae-4688-9658-6f44df2e3676">
          <pickID>smi:local/46587f0b-7f71-4269-8bd2-e8ce312d58b5</pickID>
          <phase>P</phase>
          <timeWeight>0.1</timeWeight>
        </arrival>
        <arrival publicID="smi:local/c8dc2736-6706-44d7-8ded-f412bf42448c">
          <pickID>smi:local/b011a00d-e514-4413-8a46-d687fe5c3ca4</pickID>
          <phase>P</phase>
          <timeWeight>0.1</timeWeight>
        </arrival>
        <arrival publicID="smi:local/6422aa1d-0791-47ff-beaf-b178256bd7fd">
          <pickID>smi:local/9d2f91d6-c94e-43f1-956d-23ff6ba6a6f7</pickID>
          <phase>P</phase>
          <timeWeight>0.1</timeWeight>
        </arrival>
        <arrival publicID="smi:local/a33399f1-f77e-4c54-81af-a0e34cbbef2e">
          <pickID>smi:local/279e2940-da1e-4cbb-8568-2f5351ab6eec</pickID>
          <phase>P</phase>
          <timeWeight>0.1</timeWeight>
        </arrival>
        <arrival publicID="smi:local/92ef720d-7d01-4e1f-8025-8d5f7264d19e">
          <pickID>smi:local/9df48f87-4ad0-4918-9efa-301b7c561c11</pickID>
          <phase>P</phase>
          <timeWeight>0.1</timeWeight>
        </arrival>
        <arrival publicID="smi:local/b2bd2f3b-7b44-4bfe-9594-c9aa72840ad0">
          <pickID>smi:local/f63169e6-0f82-4458-abc7-88d5e40f54e7</pickID>
          <phase>P</phase>
          <timeWeight>0.1</timeWeight>
        </arrival>
        <arrival publicID="smi:local/2c8c5004-f01b-4a22-a324-aac3bfa06c52">
          <pickID>smi:local/dc42a6ca-afb2-4137-bb7b-bf470e1a9627</pickID>
          <phase>P</phase>
          <timeWeight>0.1</timeWeight>
        </arrival>
        <arrival publicID="smi:local/b9dfb835-0182-4624-a3a0-65695d9eb054">
          <pickID>smi:local/e4fd404a-f99d-42c4-8d21-ce5ce0deeed3</pickID>
          <phase>P</phase>
          <timeWeight>0.1</timeWeight>
        </arrival>
        <arrival publicID="smi:local/43b0d5be-4685-4b33-a7a5-dc7b337b335e">
          <pickID>smi:local/652d5398-a960-4a64-a105-b7e697f5f8de</pickID>
          <phase>P</phase>
          <timeWeight>0.1</timeWeight>
        </arrival>
        <arrival publicID="smi:local/33118717-315d-4a2f-8ca4-713563be4702">
          <pickID>smi:local/7922ca08-51a7-4ee0-a794-768e1ee8cb39</pickID>
          <phase>P</phase>
          <timeWeight>0.1</timeWeight>
        </arrival>
        <arrival publicID="smi:local/fc1d2500-749e-4b28-a7c8-c034f9dbbcac">
          <pickID>smi:local/3cd62b00-4c58-4db3-8be9-6b6cd2cf7e5d</pickID>
          <phase>P</phase>
          <timeWeight>0.1</timeWeight>
        </arrival>
        <arrival publicID="smi:local/8d7baa52-086c-436d-b9d6-7fa33ee2ec38">
          <pickID>smi:local/0cf17975-c826-4dad-bf3c-57e6e28d087d</pickID>
          <phase>P</phase>
          <timeWeight>0.1</timeWeight>
        </arrival>
        <arrival publicID="smi:local/2a8c3998-7f7a-4c17-a506-025da3d0a2b3">
          <pickID>smi:local/aabb3d16-4974-498b-bbe9-a023b84ace24</pickID>
          <phase>P</phase>
          <timeWeight>0.1</timeWeight>
        </arrival>
        <arrival publicID="smi:local/a1d5d7fe-c17f-4741-be8b-6f5cfa7fb435">
          <pickID>smi:local/dde1ca82-a72b-41d4-9ae2-b5db2fba15c9</pickID>
          <phase>P</phase>
          <timeWeight>0.1</timeWeight>
        </arrival>
        <arrival publicID="smi:local/c0e06f01-8ed5-431b-a94e-91d11dff80ef">
          <pickID>smi:local/d071b423-88e2-4da0-93bb-3bff71c8ec40</pickID>
          <phase>P</phase>
          <timeWeight>0.1</timeWeight>
        </arrival>
      </origin>
      <pick publicID="smi:local/20780cd9-1a3b-488d-832c-1a96198e90ba">
        <time>
          <value>2012-10-01T06:13:04.030000Z</value>
        </time>
        <waveformID networkCode="8E" stationCode="MB01" locationCode="" channelCode="HHZ"></waveformID>
        <phaseHint>P</phaseHint>
      </pick>
      <pick publicID="smi:local/98664581-9b69-47ab-80ee-2c77756bb8ef">
        <time>
          <value>2012-10-01T06:13:03.640000Z</value>
        </time>
        <waveformID networkCode="8E" stationCode="MB02" locationCode="" channelCode="HHZ"></waveformID>
        <phaseHint>P</phaseHint>
      </pick>
      <pick publicID="smi:local/46587f0b-7f71-4269-8bd2-e8ce312d58b5">
        <time>
          <value>2012-10-01T06:13:03.050000Z</value>
        </time>
        <waveformID networkCode="8E" stationCode="MB03" locationCode="" channelCode="HHZ"></waveformID>
        <phaseHint>P</phaseHint>
      </pick>
      <pick publicID="smi:local/b011a00d-e514-4413-8a46-d687fe5c3ca4">
        <time>
          <value>2012-10-01T06:13:03.800000Z</value>
        </time>
        <waveformID networkCode="8E" stationCode="MB05" locationCode="" channelCode="HHZ"></waveformID>
