<?xml version='1.0' encoding='utf-8'?>
<q:quakeml xmlns="http://quakeml.org/xmlns/bed/1.2" xmlns:q="http://quakeml.org/xmlns/quakeml/1.2">
  <eventParameters publicID="smi:local/9b619aca-5d7c-4d66-a119-4891215598cb">
    <event publicID="smi:local/81c59954-6ca8-4725-96df-287d08a4f024">
      <origin publicID="smi:local/3a9c9193-eb30-42d3-9f14-7afa7fe576c8">
        <time>
          <value>2012-10-01T00:49:16.490000Z</value>
        </time>
        <latitude>
          <value>37.6543</value>
        </latitude>
        <longitude>
          <value>-119.0203</value>
        </longitude>
        <depth>
          <value>580.0</value>
        </depth>
        <comment id="smi:local/c536634a-6d43-4804-bab6-c9ff24d32fd2">
          <text>CLUSTER 0 CORE EVENT; IN PEC, DT = 0.24</text>
        </comment>
        <arrival publicID="smi:local/dcc15e3a-97ed-43c5-8a9e-72c4bfbfb247">
          <pickID>smi:local/e25004b9-bd48-4fed-986c-77d4f93c5c8c</pickID>
          <phase>P</phase>
          <timeWeight>0.2</timeWeight>
        </arrival>
        <arrival publicID="smi:local/94049036-f3d0-4f28-99bd-805aa6de51d3">
          <pickID>smi:local/43211a09-bf3d-40c3-8be0-cbc9c2abb0fc</pickID>
          <phase>S</phase>
          <timeWeight>0.5</timeWeight>
        </arrival>
        <arrival publicID="smi:local/675a72c9-23af-4d87-9fe8-026bc6f5b9bb">
          <pickID>smi:local/2481e2ad-154f-420a-81fe-1742e86defb7</pickID>
          <phase>P</phase>
          <timeWeight>1.0</timeWeight>
        </arrival>
        <arrival publicID="smi:local/3568dd5b-dedd-459a-8113-b8f3d4c39dff">
          <pickID>smi:local/f3efc51c-4fb8-4f27-b166-b5fd3d4c4d17</pickID>
          <phase>P</phase>
          <timeWeight>0.2</timeWeight>
        </arrival>
        <arrival publicID="smi:local/b09680e6-108a-4283-b648-58346dd8998b">
          <pickID>smi:local/68bad721-8ed4-4270-9f2a-9d79896ce47d</pickID>
          <phase>S</phase>
          <timeWeight>-1.0</timeWeight>
        </arrival>
        <arrival publicID="smi:local/21e48e78-52b0-4c1e-96fc-bd571adb84c8">
          <pickID>smi:local/0d927d44-fe0b-4c8c-a846-820bfb147293</pickID>
          <phase>P</phase>
          <timeWeight>1.0</timeWeight>
        </arrival>
        <arrival publicID="smi:local/50e6a72a-747a-46c5-959d-0cb6d1a5674e">
          <pickID>smi:local/bbdbb029-ba10-4ddf-a334-3658e2d911d8</pickID>
          <phase>P</phase>
          <timeWeight>0.2</timeWeight>
        </arrival>
        <arrival publicID="smi:local/a5feac92-54c8-4a15-af89-cb9740c39c35">
          <pickID>smi:local/91dd0fcc-aa68-43fa-b7ba-14598f477b32</pickID>
          <phase>P</phase>
          <timeWeight>1.0</timeWeight>
        </arrival>
        <arrival publicID="smi:local/f8bc544b-8aea-4f87-a47c-b7c39203e051">
          <pickID>smi:local/ede9f4e5-ca23-4cd8-ab07-db67e8daa6ec</pickID>
          <phase>P</phase>
          <timeWeight>0.2</timeWeight>
        </arrival>
        <arrival publicID="smi:local/bfd5cdee-b10d-4ac8-b146-b53659d3d4f2">
          <pickID>smi:local/54f421df-bfac-462e-be68-eab523bf84a7</pickID>
          <phase>P</phase>
          <timeWeight>-1.0</timeWeight>
        </arrival>
        <arrival publicID="smi:local/332fd645-39cb-4930-b469-aa67a1b11298">
          <pickID>smi:local/a73c6c14-c16e-44e5-91ea-9804d650002f</pickID>
          <phase>P</phase>
          <timeWeight>0.5</timeWeight>
        </arrival>
        <arrival publicID="smi:local/2d3e3018-0c87-492f-84bc-d84e2eb4e721">
          <pickID>smi:local/ddeb3a3b-f17f-4913-97fd-494dc7ee7e03</pickID>
          <phase>P</phase>
          <timeWeight>0.2</timeWeight>
        </arrival>
        <arrival publicID="smi:local/3d5173e6-4042-40c5-8ba0-59578b1c6907">
          <pickID>smi:local/0a527b1a-99d0-4e32-b23e-f3f1f9df7f5b</pickID>
          <phase>P</phase>
          <timeWeight>1.0</timeWeight>
        </arrival>
        <arrival publicID="smi:local/0932c897-6edd-43e0-ae8c-a2d63034a919">
          <pickID>smi:local/c1bc2a9e-021b-4be4-a3eb-e1f217719090</pickID>
          <phase>P</phase>
          <timeWeight>1.0</timeWeight>
        </arrival>
      </origin>
      <magnitude publicID="smi:local/magnitude/71850380">
        <mag>
          <value>0.49</value>
        </mag>
      </magnitude>
      <pick publicID="smi:local/e25004b9-bd48-4fed-986c-77d4f93c5c8c">
        <time>
          <value>2012-10-01T00:49:19.070000Z</value>
        </time>
        <waveformID networkCode="NC" stationCode="MCM" locationCode="" channelCode="EHZ"></waveformID>
        <phaseHint>P</phaseHint>
      </pick>
      <pick publicID="smi:local/43211a09-bf3d-40c3-8be0-cbc9c2abb0fc">
        <time>
          <value>2012-10-01T00:49:17.580000Z</value>
        </time>
        <waveformID networkCode="NC" stationCode="MCY" locationCode="" channelCode="EHN"></waveformID>
        <phaseHint>S</phaseHint>
      </pick>
      <pick publicID="smi:local/2481e2ad-154f-420a-81fe-1742e86defb7">
        <time>
          <value>2012-10-01T00:49:17.110000Z</value>
        </time>
        <waveformID networkCode="NC" stationCode="MCY" locationCode="" channelCode="EHZ"></waveformID>
        <phaseHint>P</phaseHint>
      </pick>
      <pick publicID="smi:local/f3efc51c-4fb8-4f27-b166-b5fd3d4c4d17">
        <time>
          <value>2012-10-01T00:49:17.810000Z</value>
        </time>
        <waveformID networkCode="NC" stationCode="MDC" locationCode="" channelCode="EHZ"></waveformID>
        <phaseHint>P</phaseHint>
      </pick>
      <pick publicID="smi:local/68bad721-8ed4-4270-9f2a-9d79896ce47d">
        <time>
          <value>2012-10-01T00:49:17.830000Z</value>
        </time>
        <waveformID networkCode="NC" stationCode="MDY" locationCode="" channelCode="HHE"></waveformID>
        <phaseHint>S</phaseHint>
      </pick>
      <pick publicID="smi:local/0d927d44-fe0b-4c8c-a846-820bfb147293">
        <time>
          <value>2012-10-01T00:49:17.080000Z</value>
        </time>
        <waveformID networkCode="NC" stationCode="MDY" locationCode="" channelCode="HHZ"></waveformID>
        <phaseHint>P</phaseHint>
      </pick>
      <pick publicID="smi:local/bbdbb029-ba10-4ddf-a334-3658e2d911d8">
        <time>
          <value>2012-10-01T00:49:18.790000Z</value>
        </time>
        <waveformID networkCode="NC" stationCode="MGPB" locationCode="" channelCode="EHZ"></waveformID>
        <phaseHint>P</phaseHint>
      </pick>
      <pick publicID="smi:local/91dd0fcc-aa68-43fa-b7ba-14598f477b32">
        <time>
          <value>2012-10-01T00:49:17.320000Z</value>
        </time>
        <waveformID networkCode="NC" stationCode="MINS" locationCode="" channelCode="HHZ"></waveformID>
        <phaseHint>P</phaseHint>
      </pick>
      <pick publicID="smi:local/ede9f4e5-ca23-4cd8-ab07-db67e8daa6ec">
        <time>
          <value>2012-10-01T00:49:17.400000Z</value>
        </time>
        <waveformID networkCode="NC" stationCode="MLI" locationCode="" channelCode="HHZ"></waveformID>
        <phaseHint>P</phaseHint>
      </pick>
      <pick publicID="smi:local/54f421df-bfac-462e-be68-eab523bf84a7">
        <time>
          <value>2012-10-01T00:49:17.580000Z</value>
        </time>
        <waveformID networkCode="NC" stationCode="MLK" locationCode="" channelCode="EHZ"></waveformID>
        <phaseHint>P</phaseHint>
      </pick>
      <pick publicID="smi:local/a73c6c14-c16e-44e5-91ea-9804d650002f">
        <time>
          <value>2012-10-01T00:49:17.440000Z</value>
        </time>
        <waveformID networkCode="NC" stationCode="MMLB" locationCode="" channelCode="HHZ"></waveformID>
        <phaseHint>P</phaseHint>
      </pick>
      <pick publicID="smi:local/ddeb3a3b-f17f-4913-97fd-494dc7ee7e03">
        <time>
          <value>2012-10-01T00:49:17.420000Z</value>
        </time>
        <waveformID networkCode="NC" stationCode="MMP" locationCode="" channelCode="EHZ"></waveformID>
        <phaseHint>P</phaseHint>
      </pick>
      <pick publicID="smi:local/0a527b1a-99d0-4e32-b23e-f3f1f9df7f5b">
        <time>
          <value>2012-10-01T00:49:17.380000Z</value>
        </time>
        <waveformID networkCode="NC" stationCode="MMS" locationCode="" channelCode="EHZ"></waveformID>
        <phaseHint>P</phaseHint>
      </pick>
      <pick publicID="smi:local/c1bc2a9e-021b-4be4-a3eb-e1f217719090">
        <time>
          <value>2012-10-01T00:49:17.950000Z</value>
        </time>
        <waveformID networkCode="NC" stationCode="MRD" locationCode="" channelCode="EHZ"></waveformID>
        <phaseHint>P</phaseHint>
      </pick>
    </event>
    <event publicID="smi:local/45a93666-c1cb-4209-b10b-165cef243f89">
      <origin publicID="smi:local/7416db95-2565-4fcb-9bd0-46f9e61f9b10">
        <time>
          <value>2012-10-06T08:00:56.650000Z</value>
        </time>
        <latitude/>
        <longitude/>
        <comment id="smi:local/2eae27c7-d735-4fa5-b3cd-e5ed76cccff8">
          <text>CLUSTER 1 CORE EVENT; NOT IN PEC</text>
        </comment>
      </origin>
    </event>
    <event publicID="smi:local/abd1299e-3a59-43ee-9241-e45752f12c14">
      <origin publicID="smi:local/792730f3-9559-4f39-9582-be1a0910e337">
        <time>
          <value>2012-10-01T06:13:03.190000Z</value>
        </time>
        <latitude/>
        <longitude/>
        <comment id="smi:local/773caa52-a34c-4cf5-91d0-684d60901d57">
          <text>CLUSTER 2 CORE EVENT; NOT IN PEC</text>
        </comment>
      </origin>
    </event>
    <event publicID="smi:local/897cf029-eb04-43c4-b05b-07e270bc540e">
      <origin publicID="smi:local/0bc9dfc0-a00b-455a-a51f-b80571890c32">
        <time>
          <value>2012-10-02T04:02:10.980000Z</value>
        </time>
        <latitude/>
        <longitude/>
        <comment id="smi:local/688b01ed-d433-4058-bbf0-bc7af56f78a2">
          <text>CLUSTER 3 CORE EVENT; NOT IN PEC</text>
        </comment>
      </origin>
    </event>
    <event publicID="smi:local/34b41481-cd3d-4c8c-8726-b316daa4d718">
      <origin publicID="smi:local/f424e1fb-c7b5-4dac-b11b-f0126315a6d5">
        <time>
          <value>2012-10-15T20:18:18.630000Z</value>
        </time>
        <latitude>
          <value>37.5862</value>
        </latitude>
        <longitude>
          <value>-119.0015</value>
        </longitude>
        <depth>
          <value>1290.0</value>
        </depth>
        <comment id="smi:local/c8d7ac4f-c3d1-46aa-b448-5d6dc8865969">
          <text>CLUSTER 4 CORE EVENT; IN PEC, DT = 0.70</text>
        </comment>
        <arrival publicID="smi:local/feec4ebf-8a60-4e01-b097-6e390b21b379">
          <pickID>smi:local/a28cb37d-3b2f-4fe0-97ab-a23906c41646</pickID>
          <phase>P</phase>
          <timeWeight>0.2</timeWeight>
        </arrival>
        <arrival publicID="smi:local/be2017ca-1d3b-4e60-8c12-89edeac99ebe">
          <pickID>smi:local/c8a6c7d5-0a26-4878-8572-1dfbbeeb4193</pickID>
          <phase>P</phase>
          <timeWeight>1.0</timeWeight>
        </arrival>
        <arrival publicID="smi:local/d6ad46dd-a71f-407b-8c76-3761c3d7f717">
          <pickID>smi:local/371f8166-4e55-4e22-b1be-8c7ed636d7c5</pickID>
          <phase>P</phase>
          <timeWeight>1.0</timeWeight>
        </arrival>
        <arrival publicID="smi:local/fa8197e7-1732-4aab-b7d6-3b3513e80418">
          <pickID>smi:local/060c5553-11fb-49e3-b3c0-6404f79da4f7</pickID>
          <phase>P</phase>
          <timeWeight>0.5</timeWeight>
        </arrival>
        <arrival publicID="smi:local/a22acc03-5a92-46c7-915a-28f003b96c67">
          <pickID>smi:local/6bea8c07-c2fe-4b59-bf63-1d09c6f47513</pickID>
          <phase>P</phase>
          <timeWeight>1.0</timeWeight>
        </arrival>
        <arrival publicID="smi:local/c8b7579e-c527-48b8-858a-9feda6670d2f">
          <pickID>smi:local/1d74f63e-5bc2-4fe6-87da-78fb4e551f24</pickID>
          <phase>S</phase>
          <timeWeight>0.2</timeWeight>
        </arrival>
        <arrival publicID="smi:local/24145ac9-841a-43c0-b470-d88c3105fa8a">
          <pickID>smi:local/2beec346-b48e-479b-8f91-095a6c0ea553</pickID>
          <phase>P</phase>
          <timeWeight>0.2</timeWeight>
        </arrival>
        <arrival publicID="smi:local/7d67f0ea-2a59-457d-8375-12fc68ead4d0">
          <pickID>smi:local/f0051ddb-dc09-49a1-a271-f3f63fe44d3c</pickID>
          <phase>P</phase>
          <timeWeight>0.5</timeWeight>
        </arrival>
        <arrival publicID="smi:local/1615a6d3-abc5-42f9-ae21-c4ee779929b2">
          <pickID>smi:local/982cf232-6f81-45d3-b08b-b374a192fc6d</pickID>
          <phase>S</phase>
          <timeWeight>0.2</timeWeight>
        </arrival>
        <arrival publicID="smi:local/ce68fe6c-10e6-4982-be8a-83ed42dd8e95">
          <pickID>smi:local/d7d8c1b7-0bc9-41de-957d-0e31fa140044</pickID>
          <phase>S</phase>
          <timeWeight>0.2</timeWeight>
        </arrival>
        <arrival publicID="smi:local/06773ebe-bf7d-4e71-aa53-d0968eafaa99">
          <pickID>smi:local/7b13e32f-11b5-444b-a4be-a1c1ba9f0c7a</pickID>
          <phase>P</phase>
          <timeWeight>1.0</timeWeight>
        </arrival>
        <arrival publicID="smi:local/201d8742-59ef-49f8-9548-745bc5c8b512">
          <pickID>smi:local/52c017a2-d831-4f08-81fa-1d4a1215aff8</pickID>
          <phase>P</phase>
          <timeWeight>1.0</timeWeight>
        </arrival>
        <arrival publicID="smi:local/389a131e-6de5-46b7-b168-e8cce57718b9">
          <pickID>smi:local/1f1dc931-e64c-4d4d-9c1c-c50aeecb0c1e</pickID>
          <phase>P</phase>
          <timeWeight>0.2</timeWeight>
        </arrival>
        <arrival publicID="smi:local/f27dd176-48a1-4e82-8219-315f182f43ab">
          <pickID>smi:local/0e97462b-b4c9-4651-8447-dd9b75e5063d</pickID>
          <phase>P</phase>
          <timeWeight>0.5</timeWeight>
        </arrival>
        <arrival publicID="smi:local/9736d543-f2d0-4fc6-8492-fe9852bdc725">
          <pickID>smi:local/bee679fb-afc6-4142-9892-dfe115103bc7</pickID>
          <phase>P</phase>
          <timeWeight>1.0</timeWeight>
        </arrival>
        <arrival publicID="smi:local/06cf18fc-89da-4b82-a2fc-c0013a7977d9">
          <pickID>smi:local/5ae73b76-aebb-4d7c-91e6-586e820cc806</pickID>
          <phase>S</phase>
          <timeWeight>0.2</timeWeight>
        </arrival>
        <arrival publicID="smi:local/fe41ec21-bd3f-4013-bf33-f31ea2f28d4d">
          <pickID>smi:local/17a5db92-5072-4b08-8123-3b517920b079</pickID>
          <phase>P</phase>
          <timeWeight>0.5</timeWeight>
        </arrival>
        <arrival publicID="smi:local/ea733caf-95b0-4a27-8144-c1c6e5a4da16">
          <pickID>smi:local/f26728df-4b48-47ff-b9c7-72bf09935569</pickID>
          <phase>P</phase>
          <timeWeight>1.0</timeWeight>
        </arrival>
        <arrival publicID="smi:local/5bc917cb-d846-4d52-a82a-6782a7871e7a">
          <pickID>smi:local/41c376d5-a895-46de-a596-1fe96a0f726c</pickID>
          <phase>P</phase>
          <timeWeight>0.2</timeWeight>
        </arrival>
        <arrival publicID="smi:local/3e335608-42f4-4319-ab21-87b9a26b7f14">
          <pickID>smi:local/ab3efde6-d5cb-41b1-9b6e-04fce2c3991c</pickID>
          <phase>P</phase>
          <timeWeight>0.5</timeWeight>
        </arrival>
        <arrival publicID="smi:local/fa9f0243-36bf-4d92-9663-db8f9fda5ff9">
          <pickID>smi:local/ce3a41d0-8960-4371-b87e-f583eabf463e</pickID>
          <phase>P</phase>
          <timeWeight>1.0</timeWeight>
        </arrival>
        <arrival publicID="smi:local/dcc29eb2-59b9-497e-9590-9922f455feda">
          <pickID>smi:local/7642850f-704e-4081-8089-6554c30ca913</pickID>
          <phase>P</phase>
          <timeWeight>1.0</timeWeight>
        </arrival>
        <arrival publicID="smi:local/eec376cb-763b-435c-ad5b-2fc1a25989bc">
          <pickID>smi:local/0a949c6b-62bf-44ad-81a8-2b091a2216ba</pickID>
          <phase>P</phase>
          <timeWeight>0.1</timeWeight>
        </arrival>
        <arrival publicID="smi:local/8f8fe9ea-c8c2-48f1-af9b-d54c43a94a1d">
          <pickID>smi:local/879bcaaa-5f14-4ec5-bd7c-fdcd41732aa1</pickID>
          <phase>S</phase>
          <timeWeight>0.5</timeWeight>
        </arrival>
        <arrival publicID="smi:local/ff731f6e-4eee-4915-b222-e39937db0ad3">
          <pickID>smi:local/47d95156-ada3-4f97-9b3b-26e1450918d8</pickID>
          <phase>S</phase>
          <timeWeight>0.2</timeWeight>
        </arrival>
        <arrival publicID="smi:local/e7dd0165-5e0a-407e-a318-3c0ee5db07b4">
          <pickID>smi:local/924d85cc-8d06-4b6e-ab73-ec388d047e44</pickID>
          <phase>P</phase>
          <timeWeight>1.0</timeWeight>
        </arrival>
        <arrival publicID="smi:local/84211b0f-a4f1-44ad-b43a-4a58495d29e3">
          <pickID>smi:local/5b8ace84-3741-4a69-8f0f-a379b5c659e1</pickID>
          <phase>P</phase>
          <timeWeight>1.0</timeWeight>
        </arrival>
        <arrival publicID="smi:local/d5b5b331-a869-42b4-b7ff-7fecaffc9aaa">
          <pickID>smi:local/05a8e058-c368-4282-87f1-41cac431b57f</pickID>
          <phase>P</phase>
          <timeWeight>0.2</timeWeight>
        </arrival>
        <arrival publicID="smi:local/7477922d-13dc-408a-8e36-c3c995bab2c6">
          <pickID>smi:local/e87536b2-2785-4593-8b55-aff4b7eac11b</pickID>
          <phase>P</phase>
          <timeWeight>0.5</timeWeight>
        </arrival>
        <arrival publicID="smi:local/3a312673-cf02-4de4-a421-22fa91f94e1e">
          <pickID>smi:local/06917855-3ac6-4507-bc6f-dc913dd60c62</pickID>
          <phase>P</phase>
          <timeWeight>0.5</timeWeight>
        </arrival>
        <arrival publicID="smi:local/2a08f714-89f2-4490-8f9d-a6bd54ed3177">
          <pickID>smi:local/b3719b66-8472-4a86-a2b3-4c530cbd85dc</pickID>
          <phase>P</phase>
          <timeWeight>0.2</timeWeight>
        </arrival>
      </origin>
      <magnitude publicID="smi:local/magnitude/71860460">
        <mag>
          <value>1.19</value>
        </mag>
      </magnitude>
      <pick publicID="smi:local/a28cb37d-3b2f-4fe0-97ab-a23906c41646">
        <time>
          <value>2012-10-15T20:18:21.250000Z</value>
        </time>
        <waveformID networkCode="CI" stationCode="MLAC" locationCode="" channelCode="HHZ"></waveformID>
        <phaseHint>P</phaseHint>
      </pick>
      <pick publicID="smi:local/c8a6c7d5-0a26-4878-8572-1dfbbeeb4193">
        <time>
          <value>2012-10-15T20:18:20.540000Z</value>
        </time>
        <waveformID networkCode="NC" stationCode="MCB" locationCode="" channelCode="HHZ"></waveformID>
        <phaseHint>P</phaseHint>
      </pick>
      <pick publicID="smi:local/371f8166-4e55-4e22-b1be-8c7ed636d7c5">
        <time>
          <value>2012-10-15T20:18:20.350000Z</value>
        </time>
        <waveformID networkCode="NC" stationCode="MCM" locationCode="" channelCode="EHZ"></waveformID>
        <phaseHint>P</phaseHint>
      </pick>
      <pick publicID="smi:local/060c5553-11fb-49e3-b3c0-6404f79da4f7">
        <time>
          <value>2012-10-15T20:18:20.480000Z</value>
        </time>
        <waveformID networkCode="NC" stationCode="MCS" locationCode="" channelCode="EHZ"></waveformID>
        <phaseHint>P</phaseHint>
      </pick>
      <pick publicID="smi:local/6bea8c07-c2fe-4b59-bf63-1d09c6f47513">
        <time>
          <value>2012-10-15T20:18:20.930000Z</value>
        </time>
        <waveformID networkCode="NC" stationCode="MCV" locationCode="" channelCode="EHZ"></waveformID>
        <phaseHint>P</phaseHint>
      </pick>
      <pick publicID="smi:local/1d74f63e-5bc2-4fe6-87da-78fb4e551f24">
        <time>
          <value>2012-10-15T20:18:20.470000Z</value>
        </time>
        <waveformID networkCode="NC" stationCode="MCY" locationCode="" channelCode="EHE"></waveformID>
        <phaseHint>S</phaseHint>
      </pick>
      <pick publicID="smi:local/2beec346-b48e-479b-8f91-095a6c0ea553">
        <time>
          <value>2012-10-15T20:18:19.640000Z</value>
        </time>
        <waveformID networkCode="NC" stationCode="MCY" locationCode="" channelCode="EHZ"></waveformID>
