<?xml version='1.0' encoding='utf-8'?>
<q:quakeml xmlns="http://quakeml.org/xmlns/bed/1.2" xmlns:q="http://quakeml.org/xmlns/quakeml/1.2">
  <eventParameters publicID="smi:local/0fe12656-5e81-4f5f-a738-b7aa1669bf9b">
    <event publicID="smi:local/event/71065539">
      <preferredOriginID>smi:local/origin/71065539</preferredOriginID>
      <preferredMagnitudeID>smi:local/magnitude/71065539</preferredMagnitudeID>
      <origin publicID="smi:local/origin/71065539">
        <time>
          <value>2012-10-01T03:19:56.280000Z</value>
        </time>
        <latitude>
          <value>37.6542</value>
        </latitude>
        <longitude>
          <value>-119.0232</value>
        </longitude>
        <depth>
          <value>370.0</value>
        </depth>
        <quality>
          <standardError>0.05</standardError>
        </quality>
        <arrival publicID="smi:local/eb877d76-f950-43b5-920e-e3a5d8a1c3f1">
          <pickID>smi:local/37ee9b7c-f87f-4ab1-a794-af7ca8a45e46</pickID>
          <phase>S</phase>
          <timeWeight>0.5</timeWeight>
        </arrival>
        <arrival publicID="smi:local/8845f0b9-c6d7-44e4-8b64-97998d79d096">
          <pickID>smi:local/e57829af-3555-48e8-962f-005431274a99</pickID>
          <phase>P</phase>
          <timeWeight>0.5</timeWeight>
        </arrival>
        <arrival publicID="smi:local/46f67327-8c33-404d-95ac-5734ddb4abb4">
          <pickID>smi:local/4dce2f73-974d-4045-98f5-4b3e15c99512</pickID>
          <phase>P</phase>
          <timeWeight>0.5</timeWeight>
        </arrival>
        <arrival publicID="smi:local/5a663b14-f36d-4899-9143-d5847d3e26b0">
          <pickID>smi:local/f560b5f9-011e-4616-a9ea-9ec7ea644c7d</pickID>
          <phase>S</phase>
          <timeWeight>-1.0</timeWeight>
        </arrival>
        <arrival publicID="smi:local/346df0df-6bd1-40f3-8112-04c079fdd332">
          <pickID>smi:local/fccb2656-ab6f-455a-8759-e373cd372a28</pickID>
          <phase>S</phase>
          <timeWeight>0.5</timeWeight>
        </arrival>
        <arrival publicID="smi:local/6371a6ab-6715-43f2-a8e1-f8c20056ab6d">
          <pickID>smi:local/0623f436-5fed-40c1-8d3a-05a451567958</pickID>
          <phase>P</phase>
          <timeWeight>1.0</timeWeight>
        </arrival>
        <arrival publicID="smi:local/5f0398d6-2f93-4b09-803d-97eb21ffb8e6">
          <pickID>smi:local/38bcaed5-20c9-46f0-8a16-17aa97e42cf9</pickID>
          <phase>P</phase>
          <timeWeight>0.5</timeWeight>
        </arrival>
        <arrival publicID="smi:local/d15a5f55-c8ff-4638-9e1e-055420ec1f56">
          <pickID>smi:local/409095ef-35b3-424c-9bb2-a54433df2285</pickID>
          <phase>P</phase>
          <timeWeight>1.0</timeWeight>
        </arrival>
        <arrival publicID="smi:local/d69eabc6-86f5-43e3-aa4d-b591dff79e7d">
          <pickID>smi:local/c2e3cff8-3c41-4c43-91e6-e3e9191e0dd2</pickID>
          <phase>P</phase>
          <timeWeight>0.2</timeWeight>
        </arrival>
        <arrival publicID="smi:local/d08db7f6-e5cf-4fae-a589-558b36fe779f">
          <pickID>smi:local/1ddd88d1-d9b7-4c1b-ba8e-c420ab192df4</pickID>
          <phase>P</phase>
          <timeWeight>-1.0</timeWeight>
        </arrival>
        <arrival publicID="smi:local/6ae88142-5e94-4a50-b111-71f61de9b90f">
          <pickID>smi:local/8052ccc5-03ad-4781-80a3-cac174ed9f8d</pickID>
          <phase>P</phase>
          <timeWeight>0.2</timeWeight>
        </arrival>
        <arrival publicID="smi:local/2790494c-ce26-46e9-9c6b-f219b45e1abe">
          <pickID>smi:local/bf59f734-88b4-4d7e-87ef-422e01457906</pickID>
          <phase>P</phase>
          <timeWeight>0.2</timeWeight>
        </arrival>
        <arrival publicID="smi:local/fa878558-3cf6-48fd-82c0-621aad360317">
          <pickID>smi:local/246bda81-fe22-4caa-a1b0-4a5b0f50f71b</pickID>
          <phase>P</phase>
          <timeWeight>0.5</timeWeight>
        </arrival>
        <arrival publicID="smi:local/bdd03d0d-43c8-42c1-995f-e1127b985cd4">
          <pickID>smi:local/4c3e67f0-a074-4604-857b-e56c52438bed</pickID>
          <phase>P</phase>
          <timeWeight>0.5</timeWeight>
        </arrival>
      </origin>
      <magnitude publicID="smi:local/magnitude/71065539">
        <mag>
          <value>0.27</value>
        </mag>
      </magnitude>
      <pick publicID="smi:local/37ee9b7c-f87f-4ab1-a794-af7ca8a45e46">
        <time>
          <value>2012-10-01T03:19:57.640000Z</value>
        </time>
        <waveformID networkCode="NC" stationCode="MCY" locationCode="" channelCode="EHN"></waveformID>
        <phaseHint>S</phaseHint>
      </pick>
      <pick publicID="smi:local/e57829af-3555-48e8-962f-005431274a99">
        <time>
          <value>2012-10-01T03:19:57.130000Z</value>
        </time>
        <waveformID networkCode="NC" stationCode="MCY" locationCode="" channelCode="EHZ"></waveformID>
        <phaseHint>P</phaseHint>
      </pick>
      <pick publicID="smi:local/4dce2f73-974d-4045-98f5-4b3e15c99512">
        <time>
          <value>2012-10-01T03:19:57.780000Z</value>
        </time>
        <waveformID networkCode="NC" stationCode="MDC" locationCode="" channelCode="EHZ"></waveformID>
        <phaseHint>P</phaseHint>
      </pick>
      <pick publicID="smi:local/f560b5f9-011e-4616-a9ea-9ec7ea644c7d">
        <time>
          <value>2012-10-01T03:19:58.570000Z</value>
        </time>
        <waveformID networkCode="NC" stationCode="MDP1" locationCode="" channelCode="EP2"></waveformID>
        <phaseHint>S</phaseHint>
      </pick>
      <pick publicID="smi:local/fccb2656-ab6f-455a-8759-e373cd372a28">
        <time>
          <value>2012-10-01T03:19:57.890000Z</value>
        </time>
        <waveformID networkCode="NC" stationCode="MDY" locationCode="" channelCode="HHN"></waveformID>
        <phaseHint>S</phaseHint>
      </pick>
      <pick publicID="smi:local/0623f436-5fed-40c1-8d3a-05a451567958">
        <time>
          <value>2012-10-01T03:19:57.110000Z</value>
        </time>
        <waveformID networkCode="NC" stationCode="MDY" locationCode="" channelCode="HHZ"></waveformID>
        <phaseHint>P</phaseHint>
      </pick>
      <pick publicID="smi:local/38bcaed5-20c9-46f0-8a16-17aa97e42cf9">
        <time>
          <value>2012-10-01T03:19:58.090000Z</value>
        </time>
        <waveformID networkCode="NC" stationCode="MEM" locationCode="" channelCode="EHZ"></waveformID>
        <phaseHint>P</phaseHint>
      </pick>
      <pick publicID="smi:local/409095ef-35b3-424c-9bb2-a54433df2285">
        <time>
          <value>2012-10-01T03:19:57.350000Z</value>
        </time>
        <waveformID networkCode="NC" stationCode="MINS" locationCode="" channelCode="HHZ"></waveformID>
        <phaseHint>P</phaseHint>
      </pick>
      <pick publicID="smi:local/c2e3cff8-3c41-4c43-91e6-e3e9191e0dd2">
        <time>
          <value>2012-10-01T03:19:57.350000Z</value>
        </time>
        <waveformID networkCode="NC" stationCode="MLI" locationCode="" channelCode="HHZ"></waveformID>
        <phaseHint>P</phaseHint>
      </pick>
      <pick publicID="smi:local/1ddd88d1-d9b7-4c1b-ba8e-c420ab192df4">
        <time>
          <value>2012-10-01T03:19:57.610000Z</value>
        </time>
        <waveformID networkCode="NC" stationCode="MLK" locationCode="" channelCode="EHZ"></waveformID>
        <phaseHint>P</phaseHint>
      </pick>
      <pick publicID="smi:local/8052ccc5-03ad-4781-80a3-cac174ed9f8d">
        <time>
          <value>2012-10-01T03:19:57.500000Z</value>
        </time>
        <waveformID networkCode="NC" stationCode="MMLB" locationCode="" channelCode="HHZ"></waveformID>
        <phaseHint>P</phaseHint>
      </pick>
      <pick publicID="smi:local/bf59f734-88b4-4d7e-87ef-422e01457906">
        <time>
          <value>2012-10-01T03:19:57.640000Z</value>
        </time>
        <waveformID networkCode="NC" stationCode="MMP" locationCode="" channelCode="EHZ"></waveformID>
        <phaseHint>P</phaseHint>
      </pick>
      <pick publicID="smi:local/246bda81-fe22-4caa-a1b0-4a5b0f50f71b">
        <time>
          <value>2012-10-01T03:19:57.430000Z</value>
        </time>
        <waveformID networkCode="NC" stationCode="MMS" locationCode="" channelCode="EHZ"></waveformID>
        <phaseHint>P</phaseHint>
      </pick>
      <pick publicID="smi:local/4c3e67f0-a074-4604-857b-e56c52438bed">
        <time>
          <value>2012-10-01T03:19:57.980000Z</value>
        </time>
        <waveformID networkCode="NC" stationCode="MRD" locationCode="" channelCode="EHZ"></waveformID>
        <phaseHint>P</phaseHint>
      </pick>
    </event>
    <event publicID="smi:local/event/71850450">
      <preferredOriginID>smi:local/origin/71850450</preferredOriginID>
      <preferredMagnitudeID>smi:local/magnitude/71850450</preferredMagnitudeID>
      <origin publicID="smi:local/origin/71850450">
        <time>
          <value>2012-10-01T03:20:03.920000Z</value>
        </time>
        <latitude>
          <value>37.653</value>
        </latitude>
        <longitude>
          <value>-119.021</value>
        </longitude>
        <depth>
          <value>410.0</value>
        </depth>
        <quality>
          <standardError>0.07</standardError>
        </quality>
        <arrival publicID="smi:local/8d5e2066-c312-4d9a-83fe-4b082e34970b">
          <pickID>smi:local/a14081cf-16ee-4124-9d3c-d2b1b340e8f3</pickID>
          <phase>P</phase>
          <timeWeight>0.2</timeWeight>
        </arrival>
        <arrival publicID="smi:local/9a21fac1-468d-4bf1-a614-4146ab7ba426">
          <pickID>smi:local/0402b339-6c45-4199-892a-d8ecef021375</pickID>
          <phase>P</phase>
          <timeWeight>1.0</timeWeight>
        </arrival>
        <arrival publicID="smi:local/558b174f-083e-4c3f-b0fc-f6a7f79ef3b2">
          <pickID>smi:local/9e1eaf6e-3a76-41a4-9062-0f00c2523f99</pickID>
          <phase>P</phase>
          <timeWeight>1.0</timeWeight>
        </arrival>
        <arrival publicID="smi:local/e40688b1-7800-48f5-a9cd-93872eca1a31">
          <pickID>smi:local/fa93e5ce-0da6-4d40-9886-969dc463b4b2</pickID>
          <phase>P</phase>
          <timeWeight>1.0</timeWeight>
        </arrival>
        <arrival publicID="smi:local/2598b9f5-65ce-40b5-b207-1186ce305555">
          <pickID>smi:local/98678bb3-8c4c-4c4b-a6a7-f16a4ae819c3</pickID>
          <phase>P</phase>
          <timeWeight>1.0</timeWeight>
        </arrival>
        <arrival publicID="smi:local/c19fb8cc-781c-45ef-b9cf-fb12145d6a09">
          <pickID>smi:local/5e0c4c31-9bdb-402e-92ac-5641ff63930b</pickID>
          <phase>S</phase>
          <timeWeight>0.5</timeWeight>
        </arrival>
        <arrival publicID="smi:local/31c248ff-6b48-4281-a269-cdd46708eb61">
          <pickID>smi:local/87e24aff-3bde-4a23-871a-f34b8bda0da7</pickID>
          <phase>P</phase>
          <timeWeight>1.0</timeWeight>
        </arrival>
        <arrival publicID="smi:local/c78a18c5-9f65-425a-874c-511dd8669e48">
          <pickID>smi:local/c0b25839-07e4-46cc-b403-4017f12c0d58</pickID>
          <phase>P</phase>
          <timeWeight>0.5</timeWeight>
        </arrival>
        <arrival publicID="smi:local/8c0ad3b6-9da1-4ae6-999b-9462ab5279bc">
          <pickID>smi:local/a136d30c-2419-40f9-b25f-2d2f71cae9f9</pickID>
          <phase>S</phase>
          <timeWeight>1.0</timeWeight>
        </arrival>
        <arrival publicID="smi:local/3634820e-87df-4ac3-b40b-bff636b17959">
          <pickID>smi:local/12644f93-c680-4178-befd-9b98fae58d26</pickID>
          <phase>S</phase>
          <timeWeight>1.0</timeWeight>
        </arrival>
        <arrival publicID="smi:local/89c34190-f694-4012-8808-6153560fe02a">
          <pickID>smi:local/026470f8-8b14-4ef9-adf6-dfc56be862cb</pickID>
          <phase>P</phase>
          <timeWeight>1.0</timeWeight>
        </arrival>
        <arrival publicID="smi:local/5d234f05-1ddc-4cca-8681-996dc4f01859">
          <pickID>smi:local/8173ff9b-ea83-417e-ae78-b751b14d57fa</pickID>
          <phase>S</phase>
          <timeWeight>0.2</timeWeight>
        </arrival>
        <arrival publicID="smi:local/76d06a3f-8f53-4995-9384-e1c60f357f7b">
          <pickID>smi:local/fc715e40-e00b-461a-8eed-a44a1e1fe761</pickID>
          <phase>P</phase>
          <timeWeight>1.0</timeWeight>
        </arrival>
        <arrival publicID="smi:local/8666839d-d31e-4d8c-ada8-cd4d242e32ab">
          <pickID>smi:local/51fc48ab-b5ac-4cf0-9dda-16262ee42ce5</pickID>
          <phase>P</phase>
          <timeWeight>1.0</timeWeight>
        </arrival>
        <arrival publicID="smi:local/81aadb9e-cea9-43ed-9784-4136e73d9e6e">
          <pickID>smi:local/4d66ac0a-77fb-4a92-90a1-2f35cbf7c568</pickID>
          <phase>P</phase>
          <timeWeight>1.0</timeWeight>
        </arrival>
        <arrival publicID="smi:local/2a952285-40d3-4bb1-a4d2-c61280b45ffd">
          <pickID>smi:local/10c491ef-6e06-4a57-a632-4eb7002a1274</pickID>
          <phase>P</phase>
          <timeWeight>0.5</timeWeight>
        </arrival>
        <arrival publicID="smi:local/aee46ba9-2689-4f47-8087-40b0d58522d7">
          <pickID>smi:local/9eb2a752-4d9c-4a3f-8c82-4be6ce3d26b2</pickID>
          <phase>P</phase>
          <timeWeight>1.0</timeWeight>
        </arrival>
        <arrival publicID="smi:local/a7294d9d-7a5a-44e0-a706-6de1e914a6d6">
          <pickID>smi:local/a89ad458-aa4b-4d3b-8a2d-b71526c959d0</pickID>
          <phase>P</phase>
          <timeWeight>0.5</timeWeight>
        </arrival>
        <arrival publicID="smi:local/709b00e9-25d3-4571-a005-5419f2abc6c9">
          <pickID>smi:local/6719624a-a127-49a3-86a3-2eb6f543dcbe</pickID>
          <phase>S</phase>
          <timeWeight>0.5</timeWeight>
        </arrival>
        <arrival publicID="smi:local/e1bc0c34-ca47-47b9-84e8-a8380a81f05b">
          <pickID>smi:local/44528d1e-728c-46c0-ab06-3ac45f2bff4b</pickID>
          <phase>P</phase>
          <timeWeight>0.5</timeWeight>
        </arrival>
        <arrival publicID="smi:local/0682ba48-4ca4-484e-8e18-f7e86f5b6e1a">
          <pickID>smi:local/8217f765-a6c9-4bf8-bfc6-a34c8e6abe13</pickID>
          <phase>P</phase>
          <timeWeight>1.0</timeWeight>
        </arrival>
        <arrival publicID="smi:local/6715efb3-72f3-4ff3-b42a-effc067664e7">
          <pickID>smi:local/1e20741e-c6ef-467a-a62e-b6b88f72b069</pickID>
          <phase>P</phase>
          <timeWeight>1.0</timeWeight>
        </arrival>
        <arrival publicID="smi:local/d2c6e1da-c583-47b1-87b7-8d68c7dd82d7">
          <pickID>smi:local/87891856-de71-4f06-9ee8-a5207aac9bf7</pickID>
          <phase>P</phase>
          <timeWeight>0.5</timeWeight>
        </arrival>
        <arrival publicID="smi:local/dd3b8c64-f897-4f71-8a59-819840dbfa60">
          <pickID>smi:local/41067f92-48c9-4999-bca3-18f6b49534ed</pickID>
          <phase>P</phase>
          <timeWeight>1.0</timeWeight>
        </arrival>
        <arrival publicID="smi:local/fe294ed4-db20-41b9-906a-eff351e2f908">
          <pickID>smi:local/86177c87-4b0a-4958-866f-e34d21a00862</pickID>
          <phase>P</phase>
          <timeWeight>0.2</timeWeight>
        </arrival>
        <arrival publicID="smi:local/d80e2f68-e0b0-45d9-95a1-77f9c56abc1a">
          <pickID>smi:local/1f70efa1-5248-4e4a-aa64-481de0faaf01</pickID>
          <phase>P</phase>
          <timeWeight>1.0</timeWeight>
        </arrival>
        <arrival publicID="smi:local/9aa6fd6c-f505-4d25-a102-a331efd528cb">
          <pickID>smi:local/cc1a5fe6-da72-4ea2-a701-a0820fecf9ea</pickID>
          <phase>P</phase>
          <timeWeight>0.2</timeWeight>
        </arrival>
        <arrival publicID="smi:local/b3a5ee0a-097e-40e2-bb73-190b708cbbb0">
          <pickID>smi:local/270e62d1-5cea-4e65-8b04-7cf7a9bb2c81</pickID>
          <phase>P</phase>
          <timeWeight>1.0</timeWeight>
        </arrival>
        <arrival publicID="smi:local/142827a5-ecc0-41cd-98a8-89c059246ca4">
          <pickID>smi:local/b3fb37d5-6ac8-4c89-84f5-eea8be8d9ab6</pickID>
          <phase>P</phase>
          <timeWeight>1.0</timeWeight>
        </arrival>
        <arrival publicID="smi:local/70a4a982-40eb-4701-8b28-a4d7cdb82e65">
          <pickID>smi:local/fdf8d440-2b82-45f9-874b-4ab4e4e2b41e</pickID>
          <phase>P</phase>
          <timeWeight>0.5</timeWeight>
        </arrival>
      </origin>
      <magnitude publicID="smi:local/magnitude/71850450">
        <mag>
          <value>1.48</value>
        </mag>
      </magnitude>
      <pick publicID="smi:local/a14081cf-16ee-4124-9d3c-d2b1b340e8f3">
        <time>
          <value>2012-10-01T03:20:07.420000Z</value>
        </time>
        <waveformID networkCode="CI" stationCode="MLAC" locationCode="" channelCode="HHZ"></waveformID>
        <phaseHint>P</phaseHint>
      </pick>
      <pick publicID="smi:local/0402b339-6c45-4199-892a-d8ecef021375">
        <time>
          <value>2012-10-01T03:20:06.450000Z</value>
        </time>
        <waveformID networkCode="NC" stationCode="MCB" locationCode="" channelCode="HHZ"></waveformID>
        <phaseHint>P</phaseHint>
      </pick>
      <pick publicID="smi:local/9e1eaf6e-3a76-41a4-9062-0f00c2523f99">
        <time>
          <value>2012-10-01T03:20:06.740000Z</value>
        </time>
        <waveformID networkCode="NC" stationCode="MCM" locationCode="" channelCode="EHZ"></waveformID>
        <phaseHint>P</phaseHint>
      </pick>
      <pick publicID="smi:local/fa93e5ce-0da6-4d40-9886-969dc463b4b2">
        <time>
          <value>2012-10-01T03:20:06.280000Z</value>
        </time>
        <waveformID networkCode="NC" stationCode="MCS" locationCode="" channelCode="EHZ"></waveformID>
        <phaseHint>P</phaseHint>
      </pick>
      <pick publicID="smi:local/98678bb3-8c4c-4c4b-a6a7-f16a4ae819c3">
        <time>
          <value>2012-10-01T03:20:07.460000Z</value>
        </time>
        <waveformID networkCode="NC" stationCode="MCV" locationCode="" channelCode="EHZ"></waveformID>
        <phaseHint>P</phaseHint>
      </pick>
      <pick publicID="smi:local/5e0c4c31-9bdb-402e-92ac-5641ff63930b">
        <time>
          <value>2012-10-01T03:20:05.260000Z</value>
        </time>
        <waveformID networkCode="NC" stationCode="MCY" locationCode="" channelCode="EHN"></waveformID>
        <phaseHint>S</phaseHint>
      </pick>
      <pick publicID="smi:local/87e24aff-3bde-4a23-871a-f34b8bda0da7">
        <time>
          <value>2012-10-01T03:20:04.750000Z</value>
        </time>
        <waveformID networkCode="NC" stationCode="MCY" locationCode="" channelCode="EHZ"></waveformID>
        <phaseHint>P</phaseHint>
      </pick>
      <pick publicID="smi:local/c0b25839-07e4-46cc-b403-4017f12c0d58">
        <time>
          <value>2012-10-01T03:20:05.390000Z</value>
        </time>
        <waveformID networkCode="NC" stationCode="MDC" locationCode="" channelCode="EHZ"></waveformID>
        <phaseHint>P</phaseHint>
      </pick>
      <pick publicID="smi:local/a136d30c-2419-40f9-b25f-2d2f71cae9f9">
        <time>
          <value>2012-10-01T03:20:07.080000Z</value>
        </time>
        <waveformID networkCode="NC" stationCode="MDH1" locationCode="" channelCode="DP1"></waveformID>
        <phaseHint>S</phaseHint>
      </pick>
      <pick publicID="smi:local/12644f93-c680-4178-befd-9b98fae58d26">
        <time>
          <value>2012-10-01T03:20:06.180000Z</value>
        </time>
        <waveformID networkCode="NC" stationCode="MDP1" locationCode="" channelCode="EP2"></waveformID>
        <phaseHint>S</phaseHint>
      </pick>
      <pick publicID="smi:local/026470f8-8b14-4ef9-adf6-dfc56be862cb">
        <time>
          <value>2012-10-01T03:20:07.470000Z</value>
        </time>
        <waveformID networkCode="NC" stationCode="MDR" locationCode="" channelCode="EHZ"></waveformID>
        <phaseHint>P</phaseHint>
      </pick>
      <pick publicID="smi:local/8173ff9b-ea83-417e-ae78-b751b14d57fa">
        <time>
          <value>2012-10-01T03:20:05.470000Z</value>
        </time>
