<?xml version='1.0' encoding='utf-8'?>
<q:quakeml xmlns="http://quakeml.org/xmlns/bed/1.2" xmlns:q="http://quakeml.org/xmlns/quakeml/1.2">
  <eventParameters publicID="smi:local/af1002a7-b8ef-495d-9178-2d74543b625d">
    <event publicID="smi:local/77e44663-c814-4071-a48f-bcf9048a462d">
      <origin publicID="smi:local/3f5164d9-720f-4542-a64a-dbc5c4c20514">
        <time>
          <value>2021-06-01T04:58:20.410000Z</value>
        </time>
        <latitude/>
        <longitude/>
        <comment id="smi:local/7f93ab49-675a-4520-9e7e-1d8a3f3ba44d">
          <text>CLUSTER 0 EVENT; NOT IN PEC</text>
        </comment>
        <arrival publicID="smi:local/74726e2c-245d-4a4d-bff3-446bba9b5c29">
          <pickID>smi:local/78e6bdb1-bc4d-4b2f-85fb-5beba91b23fe</pickID>
          <phase>P</phase>
          <timeWeight>0.1</timeWeight>
        </arrival>
        <arrival publicID="smi:local/10fc0790-edd4-4302-a6b3-35c938bac032">
          <pickID>smi:local/4ef736b5-ef52-449c-bffe-4ed881645d44</pickID>
          <phase>P</phase>
          <timeWeight>0.1</timeWeight>
        </arrival>
        <arrival publicID="smi:local/20bc5dd3-4900-4c84-8340-f2bce375aea2">
          <pickID>smi:local/70772c2b-f38f-4640-b70a-f44640a9fb2d</pickID>
          <phase>P</phase>
          <timeWeight>0.1</timeWeight>
        </arrival>
        <arrival publicID="smi:local/f83b7548-bda2-4d71-86f4-78fb679134f1">
          <pickID>smi:local/a71adecb-4c47-445e-8c2b-61a6d90ffe15</pickID>
          <phase>P</phase>
          <timeWeight>0.1</timeWeight>
        </arrival>
        <arrival publicID="smi:local/59e9b403-623c-4ef8-b876-e6d2ed91398a">
          <pickID>smi:local/4f7d3fee-57fa-4303-8049-479d0de69142</pickID>
          <phase>P</phase>
          <timeWeight>0.1</timeWeight>
        </arrival>
        <arrival publicID="smi:local/74ba9366-d2ff-4cdc-87d6-f73611e5664e">
          <pickID>smi:local/e4a0d0ad-4e64-463a-a56e-bcdf115e752e</pickID>
          <phase>P</phase>
          <timeWeight>0.1</timeWeight>
        </arrival>
        <arrival publicID="smi:local/6d034ddd-f409-4f8e-b29a-4616985a6edf">
          <pickID>smi:local/39a20e63-8cc5-47f5-94e9-33e313ce566b</pickID>
          <phase>P</phase>
          <timeWeight>0.1</timeWeight>
        </arrival>
        <arrival publicID="smi:local/51b31e40-771c-4721-b551-3873335df35c">
          <pickID>smi:local/8e991f7b-f3eb-48e6-803a-4c76bee15f64</pickID>
          <phase>P</phase>
          <timeWeight>0.1</timeWeight>
        </arrival>
        <arrival publicID="smi:local/2a5655a8-ef88-49b2-b063-dcffaf66079b">
          <pickID>smi:local/39bafb41-1125-452c-ab93-b65ace2de4b7</pickID>
          <phase>P</phase>
          <timeWeight>0.1</timeWeight>
        </arrival>
        <arrival publicID="smi:local/14aa7950-fa20-4b95-97df-dc47ce4dd345">
          <pickID>smi:local/d80c33e6-99f0-4c18-a0a8-2f02f281da9d</pickID>
          <phase>P</phase>
          <timeWeight>0.1</timeWeight>
        </arrival>
      </origin>
      <pick publicID="smi:local/78e6bdb1-bc4d-4b2f-85fb-5beba91b23fe">
        <time>
          <value>2021-06-01T04:58:20.340000Z</value>
        </time>
        <waveformID networkCode="AV" stationCode="GSCK" locationCode="" channelCode="BHZ"></waveformID>
        <phaseHint>P</phaseHint>
      </pick>
      <pick publicID="smi:local/4ef736b5-ef52-449c-bffe-4ed881645d44">
        <time>
          <value>2021-06-01T04:58:22.000000Z</value>
        </time>
        <waveformID networkCode="AV" stationCode="GSIG" locationCode="" channelCode="BHZ"></waveformID>
        <phaseHint>P</phaseHint>
      </pick>
      <pick publicID="smi:local/70772c2b-f38f-4640-b70a-f44640a9fb2d">
        <time>
          <value>2021-06-01T04:58:21.700000Z</value>
        </time>
        <waveformID networkCode="AV" stationCode="GSMY" locationCode="" channelCode="BHZ"></waveformID>
        <phaseHint>P</phaseHint>
      </pick>
      <pick publicID="smi:local/a71adecb-4c47-445e-8c2b-61a6d90ffe15">
        <time>
          <value>2021-06-01T04:58:22.580000Z</value>
        </time>
        <waveformID networkCode="AV" stationCode="GSSP" locationCode="" channelCode="BHZ"></waveformID>
        <phaseHint>P</phaseHint>
      </pick>
      <pick publicID="smi:local/4f7d3fee-57fa-4303-8049-479d0de69142">
        <time>
          <value>2021-06-01T04:58:25.760000Z</value>
        </time>
        <waveformID networkCode="AV" stationCode="GSTR" locationCode="" channelCode="BHZ"></waveformID>
        <phaseHint>P</phaseHint>
      </pick>
      <pick publicID="smi:local/e4a0d0ad-4e64-463a-a56e-bcdf115e752e">
        <time>
          <value>2021-06-01T04:58:20.340000Z</value>
        </time>
        <waveformID networkCode="AV" stationCode="GSCK" locationCode="" channelCode="BHZ"></waveformID>
        <phaseHint>P</phaseHint>
      </pick>
      <pick publicID="smi:local/39a20e63-8cc5-47f5-94e9-33e313ce566b">
        <time>
          <value>2021-06-01T04:58:22.000000Z</value>
        </time>
        <waveformID networkCode="AV" stationCode="GSIG" locationCode="" channelCode="BHZ"></waveformID>
        <phaseHint>P</phaseHint>
      </pick>
      <pick publicID="smi:local/8e991f7b-f3eb-48e6-803a-4c76bee15f64">
        <time>
          <value>2021-06-01T04:58:21.700000Z</value>
        </time>
        <waveformID networkCode="AV" stationCode="GSMY" locationCode="" channelCode="BHZ"></waveformID>
        <phaseHint>P</phaseHint>
      </pick>
      <pick publicID="smi:local/39bafb41-1125-452c-ab93-b65ace2de4b7">
        <time>
          <value>2021-06-01T04:58:22.580000Z</value>
        </time>
        <waveformID networkCode="AV" stationCode="GSSP" locationCode="" channelCode="BHZ"></waveformID>
        <phaseHint>P</phaseHint>
      </pick>
      <pick publicID="smi:local/d80c33e6-99f0-4c18-a0a8-2f02f281da9d">
        <time>
          <value>2021-06-01T04:58:25.760000Z</value>
        </time>
        <waveformID networkCode="AV" stationCode="GSTR" locationCode="" channelCode="BHZ"></waveformID>
        <phaseHint>P</phaseHint>
      </pick>
    </event>
    <event publicID="smi:local/1c6726cb-b44f-4a78-926a-d6a7857bd738">
      <origin publicID="smi:local/458b8d04-8d69-4360-a6b5-6fed1539cabd">
        <time>
          <value>2021-06-01T14:27:53.200000Z</value>
        </time>
        <latitude/>
        <longitude/>
        <comment id="smi:local/74542303-0188-4d5c-a89b-55ee5467fbc9">
          <text>CLUSTER 0 CORE EVENT; NOT IN PEC</text>
        </comment>
        <arrival publicID="smi:local/a0a66410-7a95-4070-905d-76c1cbcd4c90">
          <pickID>smi:local/6f85cba6-0274-4329-b7c8-6201b0a6ba02</pickID>
          <phase>P</phase>
          <timeWeight>0.1</timeWeight>
        </arrival>
        <arrival publicID="smi:local/b795912e-5cc1-4612-84ae-5627103b2d93">
          <pickID>smi:local/fc343a88-f5c0-49aa-8c59-b00a03ecfda5</pickID>
          <phase>P</phase>
          <timeWeight>0.1</timeWeight>
        </arrival>
        <arrival publicID="smi:local/bf2092ca-0ec0-4aec-9b41-d32f52c0d973">
          <pickID>smi:local/0a182706-474a-4a22-a23b-914004d62119</pickID>
          <phase>P</phase>
          <timeWeight>0.1</timeWeight>
        </arrival>
        <arrival publicID="smi:local/970d7776-d5fc-4111-93ba-1ffe4b554410">
          <pickID>smi:local/251126c4-2af8-4168-aaf0-5a78357a2c72</pickID>
          <phase>P</phase>
          <timeWeight>0.1</timeWeight>
        </arrival>
        <arrival publicID="smi:local/ef72996c-f861-48ba-9b47-b3eb0acf203a">
          <pickID>smi:local/337deaa1-cded-46e6-8a0b-c83b2fdac087</pickID>
          <phase>P</phase>
          <timeWeight>0.1</timeWeight>
        </arrival>
        <arrival publicID="smi:local/d63e25d9-0ba4-430c-93d5-9cae9b86de54">
          <pickID>smi:local/122bfbc2-120c-4025-ad97-656cc95d01bc</pickID>
          <phase>P</phase>
          <timeWeight>0.1</timeWeight>
        </arrival>
        <arrival publicID="smi:local/5228ab50-4040-4140-87ce-6598d09a3bed">
          <pickID>smi:local/89e1fc95-1ca8-4d6f-bf64-151bda530529</pickID>
          <phase>P</phase>
          <timeWeight>0.1</timeWeight>
        </arrival>
        <arrival publicID="smi:local/e08007e6-5ca3-4c00-a2fa-b3630c60cae2">
          <pickID>smi:local/dac82742-95c6-478a-968f-47e3954019f7</pickID>
          <phase>P</phase>
          <timeWeight>0.1</timeWeight>
        </arrival>
        <arrival publicID="smi:local/26021165-2057-447c-aa31-bb284654c57e">
          <pickID>smi:local/a24829a3-05b0-4d72-9b0e-d0b4c901ca16</pickID>
          <phase>P</phase>
          <timeWeight>0.1</timeWeight>
        </arrival>
        <arrival publicID="smi:local/767740d7-f046-4a7c-8077-392b079b522d">
          <pickID>smi:local/d4c64d61-185b-43fc-afb2-71ef3c72499b</pickID>
          <phase>P</phase>
          <timeWeight>0.1</timeWeight>
        </arrival>
      </origin>
      <pick publicID="smi:local/6f85cba6-0274-4329-b7c8-6201b0a6ba02">
        <time>
          <value>2021-06-01T14:27:53.120000Z</value>
        </time>
        <waveformID networkCode="AV" stationCode="GSCK" locationCode="" channelCode="BHZ"></waveformID>
        <phaseHint>P</phaseHint>
      </pick>
      <pick publicID="smi:local/fc343a88-f5c0-49aa-8c59-b00a03ecfda5">
        <time>
          <value>2021-06-01T14:27:54.800000Z</value>
        </time>
        <waveformID networkCode="AV" stationCode="GSIG" locationCode="" channelCode="BHZ"></waveformID>
        <phaseHint>P</phaseHint>
      </pick>
      <pick publicID="smi:local/0a182706-474a-4a22-a23b-914004d62119">
        <time>
          <value>2021-06-01T14:27:54.220000Z</value>
        </time>
        <waveformID networkCode="AV" stationCode="GSMY" locationCode="" channelCode="BHZ"></waveformID>
        <phaseHint>P</phaseHint>
      </pick>
      <pick publicID="smi:local/251126c4-2af8-4168-aaf0-5a78357a2c72">
        <time>
          <value>2021-06-01T14:27:49.180000Z</value>
        </time>
        <waveformID networkCode="AV" stationCode="GSSP" locationCode="" channelCode="BHZ"></waveformID>
        <phaseHint>P</phaseHint>
      </pick>
      <pick publicID="smi:local/337deaa1-cded-46e6-8a0b-c83b2fdac087">
        <time>
          <value>2021-06-01T14:27:58.280000Z</value>
        </time>
        <waveformID networkCode="AV" stationCode="GSTR" locationCode="" channelCode="BHZ"></waveformID>
        <phaseHint>P</phaseHint>
      </pick>
      <pick publicID="smi:local/122bfbc2-120c-4025-ad97-656cc95d01bc">
        <time>
          <value>2021-06-01T14:27:53.120000Z</value>
        </time>
        <waveformID networkCode="AV" stationCode="GSCK" locationCode="" channelCode="BHZ"></waveformID>
        <phaseHint>P</phaseHint>
      </pick>
      <pick publicID="smi:local/89e1fc95-1ca8-4d6f-bf64-151bda530529">
        <time>
          <value>2021-06-01T14:27:54.800000Z</value>
        </time>
        <waveformID networkCode="AV" stationCode="GSIG" locationCode="" channelCode="BHZ"></waveformID>
        <phaseHint>P</phaseHint>
      </pick>
      <pick publicID="smi:local/dac82742-95c6-478a-968f-47e3954019f7">
        <time>
          <value>2021-06-01T14:27:54.220000Z</value>
        </time>
        <waveformID networkCode="AV" stationCode="GSMY" locationCode="" channelCode="BHZ"></waveformID>
        <phaseHint>P</phaseHint>
      </pick>
      <pick publicID="smi:local/a24829a3-05b0-4d72-9b0e-d0b4c901ca16">
        <time>
          <value>2021-06-01T14:27:49.180000Z</value>
        </time>
        <waveformID networkCode="AV" stationCode="GSSP" locationCode="" channelCode="BHZ"></waveformID>
        <phaseHint>P</phaseHint>
      </pick>
      <pick publicID="smi:local/d4c64d61-185b-43fc-afb2-71ef3c72499b">
        <time>
          <value>2021-06-01T14:27:58.280000Z</value>
        </time>
        <waveformID networkCode="AV" stationCode="GSTR" locationCode="" channelCode="BHZ"></waveformID>
        <phaseHint>P</phaseHint>
      </pick>
    </event>
    <event publicID="smi:local/b216213c-09bc-4cde-a41c-e916cab962f5">
      <origin publicID="smi:local/ea7d905d-cf10-4987-a099-08102fccd07a">
        <time>
          <value>2021-06-09T15:53:20.940000Z</value>
        </time>
        <latitude>
          <value>52.0707</value>
        </latitude>
        <longitude>
          <value>-176.1085</value>
        </longitude>
        <depth>
          <value>-1800.0</value>
        </depth>
        <comment id="smi:local/0e65d735-0e82-495d-a268-46e3c3623dcb">
          <text>CLUSTER 1 EVENT; IN PEC, DT = 0.67</text>
        </comment>
        <arrival publicID="smi:local/5dddc179-627e-407d-9aab-266e43220ebd">
          <pickID>smi:local/ecdff262-5ad0-4ce0-8bd2-d472d76779ee</pickID>
          <phase>P</phase>
          <timeWeight>1.0</timeWeight>
        </arrival>
        <arrival publicID="smi:local/5b86eed1-3696-4ed7-9158-860c1edd8e3f">
          <pickID>smi:local/5f17e2ee-c67a-452a-9832-7fc53a15358e</pickID>
          <phase>P</phase>
          <timeWeight>0.5</timeWeight>
        </arrival>
        <arrival publicID="smi:local/373455f9-8dba-43f5-996a-14af1ed7be0c">
          <pickID>smi:local/83a5eb69-334a-476b-9c59-8782dc80f5eb</pickID>
          <phase>S</phase>
          <timeWeight>-1.0</timeWeight>
        </arrival>
        <arrival publicID="smi:local/dfbe34cf-42c1-43a0-911b-d846ff9a5306">
          <pickID>smi:local/bd40d82b-4695-4ad2-b887-4828d14372d0</pickID>
          <phase>P</phase>
          <timeWeight>1.0</timeWeight>
        </arrival>
        <arrival publicID="smi:local/3e557d81-8f59-439f-a483-4d73ed439803">
          <pickID>smi:local/6fe89a95-e132-4374-a67d-2bb77982069c</pickID>
          <phase>S</phase>
          <timeWeight>1.0</timeWeight>
        </arrival>
        <arrival publicID="smi:local/88134adb-89b2-4dc0-b311-90494e69e752">
          <pickID>smi:local/e960ff7d-0f4a-423b-9e42-07944eea6edd</pickID>
          <phase>P</phase>
          <timeWeight>1.0</timeWeight>
        </arrival>
        <arrival publicID="smi:local/dd8f04da-c368-40d2-aa36-41200fca0d3c">
          <pickID>smi:local/4003aa63-50eb-4c4b-9e71-1e540c25d7b7</pickID>
          <phase>S</phase>
          <timeWeight>1.0</timeWeight>
        </arrival>
        <arrival publicID="smi:local/0cf03430-a691-4b3f-a5b7-c3e7cc0cde62">
          <pickID>smi:local/82121139-3255-42e7-99f7-eaa18e44885b</pickID>
          <phase>P</phase>
          <timeWeight>1.0</timeWeight>
        </arrival>
        <arrival publicID="smi:local/a9da690d-5206-42ec-b197-bb05d81deed9">
          <pickID>smi:local/3686e38f-881b-402c-845f-68e1459920d2</pickID>
          <phase>S</phase>
          <timeWeight>-1.0</timeWeight>
        </arrival>
        <arrival publicID="smi:local/778a4f96-fee3-4b47-993a-8529532cf2f3">
          <pickID>smi:local/6cea01d7-742d-4cb6-b8bc-00674c7f58c1</pickID>
          <phase>P</phase>
          <timeWeight>1.0</timeWeight>
        </arrival>
        <arrival publicID="smi:local/2a928e51-d8d0-4d0b-ad62-92aa855f05db">
          <pickID>smi:local/fa2b3e44-e3cc-49cd-bdfb-51a4404f4a7b</pickID>
          <phase>S</phase>
          <timeWeight>-1.0</timeWeight>
        </arrival>
        <arrival publicID="smi:local/d43cec6c-8a4f-416c-a19e-5d4b54ffb466">
          <pickID>smi:local/c6dcaa10-7da0-478e-ba28-32f0c58ef61d</pickID>
          <phase>P</phase>
          <timeWeight>1.0</timeWeight>
        </arrival>
        <arrival publicID="smi:local/ccfd64b8-3361-4160-a4de-c38fd240380b">
          <pickID>smi:local/c5cb023c-c206-4f94-b18c-ea4eb8522d16</pickID>
          <phase>P</phase>
          <timeWeight>0.5</timeWeight>
        </arrival>
      </origin>
      <magnitude publicID="smi:local/magnitude/91268826">
        <mag>
          <value>1.06</value>
        </mag>
      </magnitude>
      <pick publicID="smi:local/ecdff262-5ad0-4ce0-8bd2-d472d76779ee">
        <time>
          <value>2021-06-09T15:53:27.160000Z</value>
        </time>
        <waveformID networkCode="AV" stationCode="ADAG" locationCode="" channelCode="BHZ"></waveformID>
        <phaseHint>P</phaseHint>
      </pick>
      <pick publicID="smi:local/5f17e2ee-c67a-452a-9832-7fc53a15358e">
        <time>
          <value>2021-06-09T15:53:25.700000Z</value>
        </time>
        <waveformID networkCode="AV" stationCode="ETKA" locationCode="" channelCode="BHZ"></waveformID>
        <phaseHint>P</phaseHint>
      </pick>
      <pick publicID="smi:local/83a5eb69-334a-476b-9c59-8782dc80f5eb">
        <time>
          <value>2021-06-09T15:53:23.260000Z</value>
        </time>
        <waveformID networkCode="AV" stationCode="GSCK" locationCode="" channelCode="BHN"></waveformID>
        <phaseHint>S</phaseHint>
      </pick>
      <pick publicID="smi:local/bd40d82b-4695-4ad2-b887-4828d14372d0">
        <time>
          <value>2021-06-09T15:53:21.740000Z</value>
        </time>
        <waveformID networkCode="AV" stationCode="GSCK" locationCode="" channelCode="BHZ"></waveformID>
        <phaseHint>P</phaseHint>
      </pick>
      <pick publicID="smi:local/6fe89a95-e132-4374-a67d-2bb77982069c">
        <time>
          <value>2021-06-09T15:53:25.340000Z</value>
        </time>
        <waveformID networkCode="AV" stationCode="GSIG" locationCode="" channelCode="BHN"></waveformID>
        <phaseHint>S</phaseHint>
      </pick>
      <pick publicID="smi:local/e960ff7d-0f4a-423b-9e42-07944eea6edd">
        <time>
          <value>2021-06-09T15:53:22.780000Z</value>
        </time>
        <waveformID networkCode="AV" stationCode="GSIG" locationCode="" channelCode="BHZ"></waveformID>
        <phaseHint>P</phaseHint>
      </pick>
      <pick publicID="smi:local/4003aa63-50eb-4c4b-9e71-1e540c25d7b7">
        <time>
          <value>2021-06-09T15:53:22.220000Z</value>
        </time>
        <waveformID networkCode="AV" stationCode="GSMY" locationCode="" channelCode="BHN"></waveformID>
        <phaseHint>S</phaseHint>
      </pick>
      <pick publicID="smi:local/82121139-3255-42e7-99f7-eaa18e44885b">
        <time>
          <value>2021-06-09T15:53:21.200000Z</value>
        </time>
        <waveformID networkCode="AV" stationCode="GSMY" locationCode="" channelCode="BHZ"></waveformID>
        <phaseHint>P</phaseHint>
      </pick>
      <pick publicID="smi:local/3686e38f-881b-402c-845f-68e1459920d2">
        <time>
          <value>2021-06-09T15:53:21.820000Z</value>
        </time>
        <waveformID networkCode="AV" stationCode="GSSP" locationCode="" channelCode="BHE"></waveformID>
        <phaseHint>S</phaseHint>
      </pick>
      <pick publicID="smi:local/6cea01d7-742d-4cb6-b8bc-00674c7f58c1">
        <time>
          <value>2021-06-09T15:53:21.260000Z</value>
        </time>
        <waveformID networkCode="AV" stationCode="GSSP" locationCode="" channelCode="BHZ"></waveformID>
        <phaseHint>P</phaseHint>
      </pick>
      <pick publicID="smi:local/fa2b3e44-e3cc-49cd-bdfb-51a4404f4a7b">
        <time>
          <value>2021-06-09T15:53:22.240000Z</value>
        </time>
        <waveformID networkCode="AV" stationCode="GSTR" locationCode="" channelCode="BHN"></waveformID>
        <phaseHint>S</phaseHint>
      </pick>
      <pick publicID="smi:local/c6dcaa10-7da0-478e-ba28-32f0c58ef61d">
        <time>
          <value>2021-06-09T15:53:21.120000Z</value>
        </time>
        <waveformID networkCode="AV" stationCode="GSTR" locationCode="" channelCode="BHZ"></waveformID>
        <phaseHint>P</phaseHint>
      </pick>
      <pick publicID="smi:local/c5cb023c-c206-4f94-b18c-ea4eb8522d16">
        <time>
          <value>2021-06-09T15:53:32.540000Z</value>
        </time>
        <waveformID networkCode="AV" stationCode="KIRH" locationCode="" channelCode="BHZ"></waveformID>
        <phaseHint>P</phaseHint>
      </pick>
    </event>
    <event publicID="smi:local/6fb88060-f25c-4e27-ba41-1930f64dbc07">
      <origin publicID="smi:local/bb3fe4ae-e0b8-4bd9-b876-6d97c14fa915">
        <time>
          <value>2021-06-09T15:54:18.550000Z</value>
        </time>
        <latitude>
          <value>52.0818</value>
