#  2008  6 17 13 27 50.42  60.5500 -152.8520    0.190  0.40 0.00 0.00 0.00          1
RDN 1.000 1.00   P
RED 4.680 1.00   S
RED 2.420 1.00   P
RSO 1.900 1.00   P
#  2008  8  9 16 47 34.84  60.5567 -152.7008    6.270  0.10 0.00 0.00 0.00         20
RDN 1.000 1.00   P
RED 2.160 1.00   P
REF 2.780 1.00   S
REF 1.440 1.00   P
RSO 1.900 1.00   P
#  2008  9 22  6 32 57.12  60.4797 -152.9115    7.340  1.40 0.00 0.00 0.00         24
RDN 1.133 1.00   P
REF 3.253 1.00   S
REF 1.373 1.00   P
RSO 1.000 1.00   P
#  2008 10  5 21 45 13.98  60.5053 -152.8662   18.450  1.60 0.00 0.00 0.00         27
RDN 1.000 1.00   P
RED 4.120 1.00   S
RED 1.260 1.00   P
REF 4.040 1.00   S
REF 1.400 1.00   P
RSO 1.641 1.00   P
#  2008 10  5  3 45 35.74  60.5090 -152.9217    8.960  0.70 0.00 0.00 0.00         28
RDN 1.000 1.00   P
RED 1.200 1.00   P
REF 3.520 1.00   S
REF 1.360 1.00   P
#  2008 10  9 15 25 55.20  60.5318 -152.7753    4.020 -0.20 0.00 0.00 0.00         29
DFR 1.580 1.00   P
RDN 1.000 1.00   P
RED 2.260 1.00   P
REF 2.660 1.00   S
REF 1.540 1.00   P
RSO 1.760 1.00   P
#  2008 10 14  3 41 34.42  60.4918 -152.7668    1.450 -0.30 0.00 0.00 0.00         31
RDN 1.099 1.00   P
RED 1.619 1.00   P
REF 1.779 1.00   S
REF 1.119 1.00   P
RSO 1.000 1.00   P
#  2008 10  2 23 41 42.32  60.4897 -152.7703    0.250  0.60 0.00 0.00 0.00         33
DFR 2.940 1.00   P
NCT 3.000 1.00   P
RDN 1.000 1.00   P
RED 2.120 1.00   P
REF 2.300 1.00   S
REF 1.520 1.00   P
RSO 1.441 1.00   P
#  2008 10  2 17 30 48.22  60.5022 -152.7353    2.610  0.30 0.00 0.00 0.00         35
RDN 1.000 1.00   P
RED 1.720 1.00   P
REF 1.740 1.00   S
REF 1.080 1.00   P
RSO 1.401 1.00   P
#  2008 10 24  7 46 31.42  60.4987 -152.8200    2.200 -0.10 0.00 0.00 0.00         52
RDN 1.000 1.00   P
RED 1.520 1.00   P
REF 2.400 1.00   S
REF 1.200 1.00   P
RSO 1.460 1.00   P
#  2008 10 28  9 29 18.22  60.5115 -152.9680    3.920  0.60 0.00 0.00 0.00         53
DFR 2.720 1.00   P
NCT 1.000 1.00   P
RDN 2.040 1.00   P
RED 4.400 1.00   S
RED 2.280 1.00   P
REF 4.640 1.00   S
REF 2.500 1.00   P
RSO 2.240 1.00   P
#  2008 10 30 17 25 36.12  60.4955 -152.8038    0.880  0.20 0.00 0.00 0.00         54
RDN 1.100 1.00   P
REF 2.340 1.00   S
REF 1.100 1.00   P
RSO 1.000 1.00   P
#  2008 10 21  6 17 24.54  60.4902 -152.7682    1.020 -0.10 0.00 0.00 0.00         55
RDN 1.120 1.00   P
RED 1.780 1.00   P
REF 1.840 1.00   S
REF 1.200 1.00   P
RSO 1.000 1.00   P
#  2008 10 21 16 44  8.52  60.5255 -152.7272    4.440 -0.00 0.00 0.00 0.00         56
RDN 1.000 1.00   P
RED 2.300 1.00   P
REF 2.380 1.00   S
REF 1.320 1.00   P
RSO 1.760 1.00   P
#  2008 10 29  1 24 38.54  60.5388 -152.6253    3.490  0.60 0.00 0.00 0.00         58
RDN 1.060 1.00   P
RED 2.560 1.00   P
REF 2.440 1.00   S
REF 1.000 1.00   P
RSO 1.900 1.00   P
#  2008 10 22  7 10 45.28  60.4950 -152.7717    0.840  0.20 0.00 0.00 0.00         59
RDN 1.000 1.00   P
RED 1.880 1.00   P
REF 1.960 1.00   S
REF 1.340 1.00   P
RSO 1.160 1.00   P
#  2008 10 21 15 37 12.00  60.5385 -152.7745    2.890  0.50 0.00 0.00 0.00         61
RDN 1.000 1.00   P
RED 2.820 1.00   P
REF 2.900 1.00   S
REF 1.740 1.00   P
RSO 2.000 1.00   P
#  2008 10 30  1 22 30.42  60.4968 -152.6263    4.800  0.90 0.00 0.00 0.00         62
RDN 1.320 1.00   P
REF 2.040 1.00   S
REF 1.000 1.00   P
RSO 1.460 1.00   P
#  2008 10 26  2 26 32.66  60.5017 -152.7485   -2.980 -0.40 0.00 0.00 0.00         64
RDN 1.100 1.00   P
RED 6.540 1.00   S
RED 2.740 1.00   P
REF 2.160 1.00   S
REF 1.000 1.00   P
RSO 1.001 1.00   P
#  2008 10 31 20 58 38.84  60.4907 -152.7757   -2.670  0.20 0.00 0.00 0.00         65
DFR 2.019 1.00   P
NCT 2.259 1.00   P
RDN 1.039 1.00   P
REF 1.759 1.00   S
REF 1.659 1.00   S
REF 1.099 1.00   P
RSO 1.000 1.00   P
#  2008 10 19  3 15  1.86  60.5070 -152.9965   10.970  0.60 0.00 0.00 0.00         66
NCT 1.000 1.00   P
RDN 1.900 1.00   P
RED 1.940 1.00   P
REF 4.880 1.00   S
REF 2.280 1.00   P
RSO 1.960 1.00   P
#  2008 10 26  9 24  4.62  60.5428 -152.6583    7.480 -0.00 0.00 0.00 0.00         67
DFR 1.020 1.00   P
RDN 1.000 1.00   P
RED 4.200 1.00   S
RED 2.000 1.00   P
REF 2.600 1.00   S
REF 1.780 1.00   P
RSO 1.741 1.00   P
#  2008 10 23 18 31  4.58  60.4760 -152.5953    0.770  0.60 0.00 0.00 0.00         68
RDN 1.340 1.00   P
REF 1.660 1.00   S
REF 1.000 1.00   P
RSO 1.641 1.00   P
#  2008 11  4 21 48 10.66  60.4897 -152.7752   -3.000  0.50 0.00 0.00 0.00         76
NCT 2.579 1.00   P
RDN 1.039 1.00   P
RED 3.499 1.00   S
RED 1.679 1.00   P
REF 2.419 1.00   S
REF 1.099 1.00   P
RSO 1.000 1.00   P
#  2008 11  6  4  8 48.44  60.4955 -152.7042    5.940 -0.50 0.00 0.00 0.00         77
RDN 1.180 1.00   P
RED 2.760 1.00   P
REF 1.840 1.00   S
REF 1.000 1.00   P
RSO 1.380 1.00   P
#  2008 11  7 15 37 54.36  60.4945 -152.7582    0.850  0.10 0.00 0.00 0.00         78
RDN 1.119 1.00   P
REF 1.879 1.00   S
REF 1.159 1.00   P
RSO 1.000 1.00   P
#  2008 11 11  3 30 56.48  60.4830 -152.6343    2.700  0.70 0.00 0.00 0.00         79
RDN 1.460 1.00   P
RED 2.340 1.00   P
REF 1.800 1.00   S
REF 1.000 1.00   P
RSO 1.580 1.00   P
#  2008 11  8  1 25 50.10  60.5550 -152.5972    1.940  0.50 0.00 0.00 0.00         80
RDN 1.040 1.00   P
RED 2.700 1.00   P
REF 2.580 1.00   S
REF 2.300 1.00   S
REF 1.000 1.00   P
RSO 1.581 1.00   P
#  2008 11  6  5 55 57.36  60.4943 -152.7377    3.330 -0.10 0.00 0.00 0.00         81
RDN 1.000 1.00   P
RED 2.780 1.00   S
REF 1.720 1.00   S
REF 1.080 1.00   P
RSO 1.260 1.00   P
#  2008 11  4  3 42 34.58  60.4893 -152.7712   -0.250  0.10 0.00 0.00 0.00         86
RDN 1.039 1.00   P
RED 2.919 1.00   S
RED 1.719 1.00   P
REF 1.719 1.00   S
REF 1.119 1.00   P
RSO 1.000 1.00   P
#  2008 11  2 14 49  8.90  60.3505 -152.6905   14.610  0.10 0.00 0.00 0.00         89
RDN 2.120 1.00   P
RED 1.000 1.00   P
REF 4.680 1.00   S
RSO 1.540 1.00   P
#  2008 11 17 12 53 54.14  60.5060 -152.7528    1.330 -0.20 0.00 0.00 0.00         94
RDN 1.000 1.00   P
RED 3.620 1.00   S
RED 2.140 1.00   P
REF 2.100 1.00   S
REF 1.320 1.00   P
RSO 1.580 1.00   P
#  2008 11 15 18 43 15.34  60.4820 -152.7975    1.310  1.00 0.00 0.00 0.00         95
RDN 1.639 1.00   P
RED 3.559 1.00   S
RED 2.359 1.00   P
REF 2.799 1.00   S
REF 1.339 1.00   P
RSO 1.000 1.00   P
#  2008 11 20 21  3  6.08  60.5275 -152.7398    6.930  0.70 0.00 0.00 0.00         96
RDN 1.000 1.00   P
RED 3.920 1.00   S
RED 1.720 1.00   P
REF 2.380 1.00   S
REF 1.100 1.00   P
RSO 1.040 1.00   P
#  2008 11 15 16 53 59.16  60.5385 -152.5565    7.630 -0.40 0.00 0.00 0.00         98
RDN 1.259 1.00   P
RDT 1.000 1.00   P
RED 4.739 1.00   S
RED 2.279 1.00   P
REF 2.899 1.00   S
REF 1.159 1.00   P
RSO 1.780 1.00   P
#  2008 11 15  1 39 10.68  60.5447 -153.0638   27.700  1.40 0.00 0.00 0.00         99
RDN 1.099 1.00   P
RDT 2.340 1.00   P
REF 5.439 1.00   S
REF 1.139 1.00   P
RSO 1.000 1.00   P
#  2008 12 12 17 17 58.56  60.4837 -152.6600   28.960  0.70 0.00 0.00 0.00        101
DFR 1.280 1.00   P
RDN 1.000 1.00   P
RDT 1.661 1.00   P
REF 5.020 1.00   S
RSO 1.361 1.00   P
#  2008 12  4 10 20 14.74  60.4985 -153.1402    6.310  0.80 0.00 0.00 0.00        103
NCT 1.000 1.00   P
RDN 2.360 1.00   P
RDT 5.180 1.00   P
RED 2.300 1.00   P
REF 6.080 1.00   S
REF 6.040 1.00   S
REF 2.780 1.00   P
RSO 2.420 1.00   P
#  2008 12 13  7  7 45.44  60.5383 -152.6108   11.450  1.90 0.00 0.00 0.00        104
DFR 1.000 1.00   P
NCT 2.140 1.00   P
RDN 1.080 1.00   P
RDT 1.361 1.00   P
RED 4.400 1.00   S
RED 1.840 1.00   P
REF 2.980 1.00   S
REF 1.040 1.00   P
RSO 1.521 1.00   P
#  2008 12 19 10  3  7.82  60.4903 -152.7392   31.620  0.50 0.00 0.00 0.00        107
DFR 1.419 1.00   P
RDN 1.059 1.00   P
RDT 1.760 1.00   P
RED 5.219 1.00   S
REF 5.159 1.00   S
REF 1.059 1.00   P
RSO 1.000 1.00   P
#  2008 12 21 16 36  5.24  60.5467 -152.6553    5.990  0.40 0.00 0.00 0.00        108
DFR 1.000 1.00   P
NCT 2.220 1.00   P
RDN 1.060 1.00   P
RDT 2.160 1.00   P
RED 4.440 1.00   S
RED 2.260 1.00   P
REF 2.620 1.00   S
REF 1.220 1.00   P
#  2008 12 27 11  4 38.24  60.6953 -152.8087   25.950  1.80 0.00 0.00 0.00        109
RDN 1.000 1.00   P
RED 6.980 1.00   S
REF 5.860 1.00   S
REF 1.320 1.00   P
RSO 1.400 1.00   P
#  2008 12 15  6 35 19.14  60.4870 -152.7240   31.600  1.20 0.00 0.00 0.00        112
DFR 1.000 1.00   P
NCT 1.340 1.00   P
RSO 1.401 1.00   P
#  2008 12 18  0 20 44.44  60.5178 -152.7238    5.480  0.20 0.00 0.00 0.00        118
DFR 2.100 1.00   P
NCT 2.160 1.00   P
RDN 1.000 1.00   P
RDT 3.920 1.00   P
RED 2.040 1.00   P
REF 2.280 1.00   S
REF 1.200 1.00   P
RSO 1.560 1.00   P
#  2008 12 21 21 14  1.80  60.4818 -152.7693   30.630  1.50 0.00 0.00 0.00        121
DFR 1.320 1.00   P
NCT 2.000 1.00   P
RDN 1.000 1.00   P
RDT 1.960 1.00   P
RED 5.220 1.00   S
RED 1.860 1.00   P
REF 5.140 1.00   S
RSO 1.260 1.00   P
#  2009  1  2  8 27  9.42  60.5445 -152.5233    9.730  1.30 0.00 0.00 0.00        122
DFR 1.360 1.00   P
NCT 2.960 1.00   P
RDN 1.580 1.00   P
RDT 1.000 1.00   P
RED 5.260 1.00   S
RED 2.420 1.00   P
REF 3.600 1.00   S
REF 3.500 1.00   S
REF 1.480 1.00   P
RSO 2.120 1.00   P
#  2009  1 12  1 18 42.42  60.5530 -152.5243    8.850  0.70 0.00 0.00 0.00        123
DFR 1.420 1.00   P
NCT 3.020 1.00   P
RDN 1.660 1.00   P
RDT 1.000 1.00   P
REF 3.660 1.00   S
REF 1.600 1.00   P
RSO 2.220 1.00   P
#  2009  1 12  7 40 52.38  60.5052 -152.7498   32.250  1.50 0.00 0.00 0.00        124
DFR 1.200 1.00   P
NCT 1.720 1.00   P
RDN 1.000 1.00   P
RDT 2.400 1.00   P
REF 5.700 1.00   S
REF 1.880 1.00   P
RSO 1.320 1.00   P
#  2009  1 31  2 14 13.24  60.5038 -152.7653   -1.840  0.30 0.00 0.00 0.00        126
NCT 2.780 1.00   P
RDN 1.000 1.00   P
REF 2.020 1.00   S
REF 1.480 1.00   P
RSO 1.460 1.00   P
#  2009  1 30 19 50 13.00  60.4815 -152.7442   -2.970  1.80 0.00 0.00 0.00        127
DFR 3.001 1.00   P
NCT 2.561 1.00   P
RDN 1.540 1.00   P
RDT 4.781 1.00   P
REF 2.000 1.00   S
REF 1.000 1.00   P
RSO 1.421 1.00   P
#  2009  1 27  6 18  6.00  60.5030 -152.7525    2.970  0.50 0.00 0.00 0.00        128
DFR 2.140 1.00   P
NCT 2.180 1.00   P
RDN 1.000 1.00   P
RDT 3.660 1.00   P
REF 2.060 1.00   S
REF 1.200 1.00   P
RSO 1.340 1.00   P
#  2009  1 25 17 29 30.28  60.4960 -152.7725   -2.950 -0.30 0.00 0.00 0.00        132
DFR 3.621 1.00   P
RDN 1.000 1.00   P
REF 2.280 1.00   S
REF 1.180 1.00   P
#  2009  1 30  6 53 38.68  60.4912 -152.9352    0.690  0.30 0.00 0.00 0.00        133
DFR 2.420 1.00   P
NCT 1.000 1.00   P
RDN 1.499 1.00   P
REF 3.779 1.00   S
REF 1.839 1.00   P
RSO 1.400 1.00   P
#  2009  1 27  5 11 46.96  60.4957 -152.7632    2.350  0.70 0.00 0.00 0.00        134
DFR 2.520 1.00   P
NCT 2.300 1.00   P
RDN 1.000 1.00   P
REF 1.980 1.00   S
REF 1.240 1.00   P
RSO 1.340 1.00   P
#  2009  1 31  8 36 14.56  60.4870 -152.7853    4.940 -0.50 0.00 0.00 0.00        135
DFR 4.480 1.00   P
RDN 1.120 1.00   P
REF 2.280 1.00   S
REF 1.140 1.00   P
RSO 1.000 1.00   P
#  2009  1 29 12 32 42.92  60.4772 -152.7350    3.730  0.70 0.00 0.00 0.00        136
NCT 2.421 1.00   P
RDN 1.000 1.00   P
REF 1.700 1.00   S
REF 1.160 1.00   P
RSO 1.040 1.00   P
#  2009  1 25 15  5  0.86  60.4673 -152.6792    3.580  0.40 0.00 0.00 0.00        140
DFR 3.541 1.00   P
RDN 1.500 1.00   P
REF 2.100 1.00   S
REF 1.000 1.00   P
#  2009  1 27  4 57  3.22  60.4880 -152.7755    5.090  0.40 0.00 0.00 0.00        141
DFR 2.840 1.00   P
NCT 2.540 1.00   P
RDN 1.000 1.00   P
REF 2.160 1.00   S
REF 1.060 1.00   P
RSO 1.020 1.00   P
#  2009  1 28  6 23  4.30  60.4945 -152.7560    2.170  0.50 0.00 0.00 0.00        142
DFR 2.780 1.00   P
NCT 2.560 1.00   P
RDN 1.000 1.00   P
REF 2.160 1.00   S
REF 1.040 1.00   P
RSO 1.180 1.00   P
#  2009  1 25 15 25 25.32  60.4630 -152.7423    3.800  0.70 0.00 0.00 0.00        143
DFR 2.561 1.00   P
RDN 1.000 1.00   P
REF 2.040 1.00   S
REF 1.080 1.00   P
#  2009  1 26 23 29 26.87  60.4930 -152.7180    1.360 -0.00 0.00 0.00 0.00        146
DFR 2.930 1.00   P
NCT 2.690 1.00   P
RDN 1.160 1.00   P
REF 1.680 1.00   S
REF 1.000 1.00   P
#  2009  1 25 21 56  1.56  60.4937 -152.7020   -1.630 -0.20 0.00 0.00 0.00        147
DFR 3.621 1.00   P
RDN 1.620 1.00   P
REF 1.360 1.00   S
REF 1.000 1.00   P
#  2009  1 25 14  6 16.78  60.4803 -152.7658    2.760  0.70 0.00 0.00 0.00        148
DFR 3.101 1.00   P
RDN 1.000 1.00   P
REF 2.160 1.00   S
REF 1.080 1.00   P
#  2009  1 25 19 28 41.74  60.4902 -152.7615   -3.000  0.80 0.00 0.00 0.00        149
DFR 4.001 1.00   P
RDN 1.020 1.00   P
REF 1.900 1.00   S
REF 1.000 1.00   P
#  2009  1 26 11 52 40.07  60.4873 -152.7530   -2.980  1.29 0.00 0.00 0.00        150
DFR 2.850 1.00   P
NCT 3.330 1.00   P
RDN 1.300 1.00   P
REF 2.120 1.00   S
REF 1.000 1.00   P
#  2009  1 29 20 35 40.96  60.4938 -152.7298    0.510 -0.00 0.00 0.00 0.00        151
DFR 3.120 1.00   P
NCT 2.861 1.00   P
RDN 1.260 1.00   P
REF 1.000 1.00   P
RSO 1.101 1.00   P
#  2009  1 23  9  8 25.78  60.5645 -152.8698   29.900  1.60 0.00 0.00 0.00        152
DFR 1.000 1.00   P
NCT 1.080 1.00   P
RDN 1.172 1.00   P
REF 5.332 1.00   S
REF 1.632 1.00   P
#  2009  1 31 15 11  0.40  60.4972 -152.7480    0.160 -0.20 0.00 0.00 0.00        153
DFR 3.080 1.00   P
RDN 1.000 1.00   P
REF 1.900 1.00   S
REF 1.280 1.00   P
RSO 1.520 1.00   P
#  2009  1 25 12 16 36.76  60.4897 -152.7520    1.980  0.70 0.00 0.00 0.00        154
DFR 2.621 1.00   P
RDN 1.000 1.00   P
REF 1.960 1.00   S
REF 1.060 1.00   P
#  2009  1 27 10 47 16.06  60.5088 -152.7258    0.220  0.00 0.00 0.00 0.00        155
DFR 3.480 1.00   P
NCT 2.860 1.00   P
RDN 1.000 1.00   P
REF 1.900 1.00   S
REF 1.520 1.00   P
RSO 1.840 1.00   P
#  2009  1 28  1 58 39.32  60.5113 -152.7450    4.380  1.00 0.00 0.00 0.00        156
NCT 1.840 1.00   P
RDN 1.000 1.00   P
REF 1.900 1.00   S
REF 1.040 1.00   P
RSO 1.600 1.00   P
#  2009  1 28 10 47 54.52  60.5028 -152.7605    0.180  0.50 0.00 0.00 0.00        157
DFR 3.460 1.00   P
NCT 3.400 1.00   P
RDN 1.000 1.00   P
REF 2.700 1.00   S
REF 1.520 1.00   P
RSO 1.620 1.00   P
#  2009  1 31  5 35 26.86  60.4977 -152.8117   -0.530  0.30 0.00 0.00 0.00        158
DFR 2.500 1.00   P
RDN 1.000 1.00   P
REF 2.420 1.00   S
REF 1.280 1.00   P
RSO 1.260 1.00   P
#  2009  1 25 23  7 15.24  60.4718 -152.7578    3.350  0.40 0.00 0.00 0.00        159
DFR 2.721 1.00   P
RDN 1.000 1.00   P
REF 2.220 1.00   S
REF 1.000 1.00   P
#  2009  1 29 13 46 53.84  60.5237 -152.6813    1.980  0.20 0.00 0.00 0.00        160
DFR 4.120 1.00   P
NCT 2.961 1.00   P
RDN 1.000 1.00   P
REF 2.180 1.00   S
REF 1.100 1.00   P
RSO 2.061 1.00   P
#  2009  1 30 19 52 36.24  60.4845 -152.7338    2.550  0.60 0.00 0.00 0.00        161
DFR 2.701 1.00   P
NCT 2.581 1.00   P
RDN 1.000 1.00   P
REF 1.940 1.00   S
REF 1.100 1.00   P
RSO 1.061 1.00   P
#  2009  1 28  2 44 36.66  60.5065 -152.7513    1.730  0.10 0.00 0.00 0.00        162
NCT 2.440 1.00   P
RDN 1.000 1.00   P
REF 1.940 1.00   S
REF 1.420 1.00   P
RSO 1.400 1.00   P
#  2009  1 31 17 31 13.08  60.4843 -152.7452   -1.650  0.50 0.00 0.00 0.00        163
DFR 3.740 1.00   P
NCT 3.760 1.00   P
RDN 1.620 1.00   P
REF 2.240 1.00   S
REF 1.000 1.00   P
RSO 1.440 1.00   P
#  2009  1 25 12 14 56.64  60.4843 -152.7382    4.220  0.80 0.00 0.00 0.00        164
DFR 3.061 1.00   P
RDN 1.000 1.00   P
REF 2.140 1.00   S
REF 1.080 1.00   P
#  2009  1 30 11 44 36.62  60.4957 -152.7865    0.340  0.30 0.00 0.00 0.00        166
DFR 2.681 1.00   P
NCT 2.361 1.00   P
RDN 1.000 1.00   P
REF 2.200 1.00   S
REF 1.100 1.00   P
#  2009  1 30  7 20 36.38  60.5083 -152.7350   -1.500  0.20 0.00 0.00 0.00        167
DFR 2.661 1.00   P
RDN 1.000 1.00   P
REF 2.000 1.00   S
REF 1.280 1.00   P
RSO 1.921 1.00   P
#  2009  1 28 16 47 22.70  60.5010 -152.7773    5.090 -0.00 0.00 0.00 0.00        168
NCT 2.540 1.00   P
RDN 1.000 1.00   P
REF 2.260 1.00   S
REF 1.100 1.00   P
RSO 1.160 1.00   P
#  2009  1 25 15  9 34.46  60.4807 -152.7608    0.980  0.50 0.00 0.00 0.00        169
DFR 2.641 1.00   P
RDN 1.000 1.00   P
REF 1.760 1.00   S
REF 1.000 1.00   P
#  2009  1 28 17 34 16.44  60.4848 -152.7505    3.060  0.10 0.00 0.00 0.00        170
NCT 2.500 1.00   P
RDN 1.000 1.00   P
REF 1.940 1.00   S
REF 1.000 1.00   P
RSO 1.060 1.00   P
#  2009  1 28  9 56 54.82  60.4978 -152.7613    0.580  0.80 0.00 0.00 0.00        171
DFR 2.780 1.00   P
NCT 2.660 1.00   P
RDN 1.000 1.00   P
REF 2.040 1.00   S
REF 1.220 1.00   P
RSO 1.340 1.00   P
#  2009  1 30 20 41 29.80  60.4670 -152.6880   -2.970  0.80 0.00 0.00 0.00        172
DFR 4.141 1.00   P
NCT 4.101 1.00   P
RDN 2.160 1.00   P
REF 2.180 1.00   S
REF 1.000 1.00   P
#  2009  1 25 22 51  6.62  60.4628 -152.7567   -1.600  1.80 0.00 0.00 0.00        173
DFR 3.741 1.00   P
RDN 1.440 1.00   P
REF 1.860 1.00   S
REF 1.000 1.00   P
#  2009  1 25 20 19  3.00  60.4893 -152.7428   -3.000  0.10 0.00 0.00 0.00        174
DFR 2.801 1.00   P
RDN 1.020 1.00   P
REF 1.660 1.00   S
REF 1.000 1.00   P
#  2009  1 25 17 53 49.26  60.4485 -152.6935    4.440  0.60 0.00 0.00 0.00        175
DFR 2.741 1.00   P
RDN 1.000 1.00   P
REF 2.360 1.00   S
REF 1.180 1.00   P
#  2009  1 25 18 16 32.26  60.4895 -152.7075    4.520  0.70 0.00 0.00 0.00        176
DFR 2.861 1.00   P
RDN 1.000 1.00   P
REF 2.420 1.00   S
REF 1.120 1.00   P
#  2009  1 29 23 44 41.26  60.4775 -152.7642    4.530  0.50 0.00 0.00 0.00        177
DFR 2.600 1.00   P
NCT 2.560 1.00   P
RDN 1.020 1.00   P
REF 2.320 1.00   S
REF 1.220 1.00   P
RSO 1.000 1.00   P
#  2009  1 27  4  0  4.58  60.4755 -152.7718    2.400  0.90 0.00 0.00 0.00        178
DFR 2.720 1.00   P
NCT 2.800 1.00   P
RDN 1.160 1.00   P
REF 2.440 1.00   S
REF 1.280 1.00   P
RSO 1.000 1.00   P
#  2009  1 25 12 14  6.48  60.4762 -152.7497    4.220  0.90 0.00 0.00 0.00        179
DFR 2.621 1.00   P
RDN 1.000 1.00   P
REF 2.160 1.00   S
REF 1.020 1.00   P
#  2009  1 30 18 28 52.44  60.4943 -152.7652   -1.750  0.20 0.00 0.00 0.00        180
DFR 3.121 1.00   P
NCT 2.601 1.00   P
RDN 1.000 1.00   P
REF 1.700 1.00   S
REF 1.280 1.00   P
RSO 1.301 1.00   P
#  2009  1 30  3 27  5.04  60.4943 -152.7660    0.960  0.30 0.00 0.00 0.00        181
NCT 2.581 1.00   P
RDN 1.000 1.00   P
REF 2.000 1.00   S
#  2009  1 28  0 59 22.66  60.4900 -152.7730    0.720  0.80 0.00 0.00 0.00        184
DFR 2.660 1.00   P
NCT 2.540 1.00   P
RDN 1.060 1.00   P
RDT 4.120 1.00   P
REF 2.080 1.00   S
REF 1.000 1.00   P
RSO 1.060 1.00   P
#  2009  1 31 11 48 13.14  60.5095 -152.7473    0.400  0.10 0.00 0.00 0.00        185
DFR 2.920 1.00   P
NCT 2.700 1.00   P
RDN 1.000 1.00   P
REF 2.080 1.00   S
REF 1.140 1.00   P
RSO 1.480 1.00   P
#  2009  1 27 21  2 48.70  60.5137 -152.7723    3.970  0.90 0.00 0.00 0.00        187
NCT 1.900 1.00   P
RDN 1.020 1.00   P
REF 2.580 1.00   S
REF 1.000 1.00   P
RSO 1.400 1.00   P
#  2009  1 29 12 28 28.74  60.5062 -152.7658    0.000  0.60 0.00 0.00 0.00        191
NCT 2.521 1.00   P
RDN 1.000 1.00   P
REF 2.060 1.00   S
REF 1.280 1.00   P
RSO 1.520 1.00   P
#  2009  1 25 22 50  2.00  60.4932 -152.7650    0.170  0.80 0.00 0.00 0.00        192
DFR 2.961 1.00   P
RDN 1.000 1.00   P
REF 1.700 1.00   S
REF 1.040 1.00   P
#  2009  1 28  1 57 39.08  60.4940 -152.7357    1.850  1.10 0.00 0.00 0.00        193
DFR 2.720 1.00   P
NCT 2.600 1.00   P
RDN 1.060 1.00   P
REF 1.880 1.00   S
REF 1.000 1.00   P
RSO 1.640 1.00   P
#  2009  1 30  3 22 40.00  60.4855 -152.7212    1.380  0.80 0.00 0.00 0.00        194
DFR 2.520 1.00   P
NCT 2.620 1.00   P
RDN 1.079 1.00   P
REF 1.159 1.00   S
REF 1.119 1.00   P
RSO 1.000 1.00   P
#  2009  1 29 13 53 45.86  60.4975 -152.7808   -1.430  0.30 0.00 0.00 0.00        196
NCT 2.620 1.00   P
RDN 1.000 1.00   P
REF 2.240 1.00   S
REF 1.280 1.00   P
RSO 1.220 1.00   P
#  2009  1 25 11 34 53.06  60.4837 -152.7453    4.430  0.80 0.00 0.00 0.00        197
DFR 2.701 1.00   P
RDN 1.000 1.00   P
REF 2.140 1.00   S
REF 1.060 1.00   P
#  2009  1 27  5  8 25.00  60.4877 -152.7743    1.190 -0.00 0.00 0.00 0.00        198
DFR 3.060 1.00   P
NCT 2.480 1.00   P
RDN 1.040 1.00   P
REF 2.040 1.00   S
REF 1.220 1.00   P
RSO 1.000 1.00   P
#  2009  1 25 20 25  9.92  60.5038 -152.7643   -1.760  0.30 0.00 0.00 0.00        199
DFR 3.441 1.00   P
RDN 1.000 1.00   P
REF 2.520 1.00   S
REF 1.360 1.00   P
