#  2009  3 12 11 16 53.42  60.4902 -152.7605   -1.540  0.40 0.00 0.00 0.00        685
NCT 3.281 1.00   P
RDJH 2.420 1.00   P
RDN 1.360 1.00   P
RDWB 1.860 1.00   S
RDWB 1.620 1.00   P
REF 2.000 1.00   S
REF 1.700 1.00   S
REF 1.000 1.00   P
#  2009  3 12 14 11 16.40  60.4683 -152.7548    0.660  0.50 0.00 0.00 0.00        686
NCT 2.841 1.00   P
RDJH 4.200 1.00   S
RDJH 2.900 1.00   P
RDN 1.660 1.00   P
RDWB 2.140 1.00   S
RDWB 1.400 1.00   P
REF 1.840 1.00   S
REF 1.000 1.00   P
#  2009  3 12 13 35 26.42  60.4340 -152.7585    4.240  0.00 0.00 0.00 0.00        687
RDJH 5.440 1.00   S
RDJH 2.620 1.00   P
RDN 1.000 1.00   P
RDWB 2.280 1.00   S
RDWB 1.140 1.00   P
REF 2.180 1.00   S
REF 1.180 1.00   P
#  2009  3  6  3  5 53.50  60.5045 -152.7847    2.850  0.10 0.00 0.00 0.00        688
RDN 1.000 1.00   P
RDWB 1.880 1.00   S
RDWB 1.140 1.00   P
REF 2.320 1.00   S
REF 1.240 1.00   P
RSO 1.301 1.00   P
#  2009  3 11 19 11 54.86  60.4995 -152.7815   -1.300  0.30 0.00 0.00 0.00        689
RDN 1.000 1.00   P
RDWB 1.560 1.00   S
RDWB 1.180 1.00   P
REF 2.520 1.00   S
REF 1.320 1.00   P
RSO 1.220 1.00   P
#  2009  3  2 15 46 58.94  60.4980 -152.7807    3.350 -0.10 0.00 0.00 0.00        690
RDN 1.940 1.00   P
RDWB 1.860 1.00   S
RDWB 1.000 1.00   P
REF 2.160 1.00   S
REF 1.060 1.00   P
RSO 1.240 1.00   P
#  2009  3 12 19 52 25.50  60.4743 -152.7405    1.230  0.80 0.00 0.00 0.00        691
NCT 3.201 1.00   P
RDJH 4.760 1.00   S
RDJH 2.980 1.00   P
RDN 2.040 1.00   P
RDWB 2.580 1.00   S
RDWB 1.740 1.00   P
REF 1.920 1.00   S
REF 1.000 1.00   P
#  2009  3  9  3 19 42.24  60.4608 -152.7280    1.830 -0.70 0.00 0.00 0.00        692
RDN 1.719 1.00   P
RDWB 2.639 1.00   S
RDWB 1.799 1.00   P
RSO 1.000 1.00   P
#  2009  3 11 19 20 45.04  60.4788 -152.7583    0.140  0.40 0.00 0.00 0.00        696
NCT 3.060 1.00   P
RDJH 4.760 1.00   S
RDJH 2.700 1.00   P
RDN 1.320 1.00   P
RDWB 2.120 1.00   S
RDWB 1.160 1.00   P
REF 1.780 1.00   S
REF 1.000 1.00   P
RSO 1.020 1.00   P
#  2009  3  5 14  7 17.46  60.4838 -152.7458    5.400 -0.10 0.00 0.00 0.00        697
DFR 2.000 1.00   P
NCT 2.120 1.00   P
RDE 2.060 1.00   P
RDJH 4.000 1.00   S
RDN 1.000 1.00   P
RDT 4.660 1.00   P
RDWB 2.280 1.00   S
RDWB 2.260 1.00   S
RDWB 1.100 1.00   P
REF 2.040 1.00   S
REF 2.000 1.00   S
REF 1.000 1.00   P
#  2009  3  7 15 32 37.06  60.5082 -152.7772    0.460 -0.90 0.00 0.00 0.00        698
RDN 1.000 1.00   P
RDWB 1.340 1.00   P
REF 2.300 1.00   S
REF 1.540 1.00   P
RSO 1.540 1.00   P
#  2009  3  1 11 13 28.10  60.5025 -152.7280   -1.260  0.20 0.00 0.00 0.00        699
RDN 1.000 1.00   P
RDWB 2.760 1.00   S
RDWB 1.300 1.00   P
REF 1.320 1.00   S
REF 1.040 1.00   P
RSO 1.604 1.00   P
#  2009  3  7 16 55 23.60  60.4738 -152.7765    3.280  0.30 0.00 0.00 0.00        709
RDN 1.100 1.00   P
RDWB 1.820 1.00   S
RDWB 1.160 1.00   P
REF 2.180 1.00   S
REF 2.120 1.00   S
REF 1.180 1.00   P
RSO 1.000 1.00   P
#  2009  3  2  5 39  4.84  60.4762 -152.7603    1.500 -0.10 0.00 0.00 0.00        732
RDN 1.600 1.00   P
RDWB 2.400 1.00   S
RDWB 1.900 1.00   P
REF 2.400 1.00   S
REF 1.280 1.00   P
RSO 1.000 1.00   P
#  2009  3  2 20 38 22.92  60.5080 -152.7822   -0.670 -0.40 0.00 0.00 0.00        733
RDN 1.000 1.00   P
RDWB 1.960 1.00   S
RDWB 1.260 1.00   P
REF 2.240 1.00   S
REF 2.480 1.00   S
REF 1.720 1.00   P
RSO 1.640 1.00   P
#  2009  3 30 16 23 28.38  60.4723 -152.7722    0.750  1.00 0.00 0.00 0.00        797
DFR 2.860 1.00   P
NCT 2.780 1.00   P
RDN 1.160 1.00   P
RDWB 2.060 1.00   S
RDWB 1.000 1.00   P
REF 2.080 1.00   S
REF 1.320 1.00   P
#  2009  3 22 16 40  9.24  60.4983 -152.7417    3.360  0.90 0.00 0.00 0.00        840
RDJH 2.320 1.00   P
RDN 1.000 1.00   P
RDWB 2.240 1.00   S
RDWB 1.700 1.00   P
REF 2.000 1.00   S
REF 1.060 1.00   P
RSO 1.840 1.00   P
#  2009  3 27  7  8 35.60  60.4917 -152.7670   -0.280  1.60 0.00 0.00 0.00        841
DFR 2.600 1.00   P
NCT 2.560 1.00   P
RDE 2.860 1.00   P
RDN 1.000 1.00   P
RDT 4.120 1.00   P
RDWB 1.800 1.00   S
RDWB 1.080 1.00   P
RED 2.940 1.00   S
RED 1.700 1.00   P
REF 1.800 1.00   S
REF 1.060 1.00   P
#  2009  3 22 21 20 31.80  60.4770 -152.7597    3.830  0.30 0.00 0.00 0.00        885
RDN 1.000 1.00   P
RDWB 2.100 1.00   S
RDWB 1.000 1.00   P
REF 1.820 1.00   S
REF 1.080 1.00   P
RSO 1.600 1.00   P
#  2009  3 22 11 59 38.38  60.4957 -152.7665    0.380  0.40 0.00 0.00 0.00        886
RDJH 2.480 1.00   P
RDN 1.000 1.00   P
RDWB 1.900 1.00   S
RDWB 1.080 1.00   P
REF 1.780 1.00   S
REF 1.040 1.00   P
RSO 1.320 1.00   P
#  2009  3 22 17  6 16.42  60.4750 -152.7640    1.440  0.10 0.00 0.00 0.00        888
RDN 1.680 1.00   P
RDWB 2.040 1.00   S
RDWB 1.180 1.00   P
REF 1.880 1.00   S
REF 1.140 1.00   P
RSO 1.000 1.00   P
#  2009  3 22  8 27 30.56  60.4888 -152.7643    0.640  0.20 0.00 0.00 0.00        889
RDN 1.240 1.00   P
RDWB 1.860 1.00   S
RDWB 1.020 1.00   P
REF 1.660 1.00   S
REF 1.000 1.00   P
RSO 1.340 1.00   P
#  2009  3 22  7 32  7.30  60.4835 -152.7763    2.290  0.50 0.00 0.00 0.00        912
RDN 1.100 1.00   P
RDWB 1.840 1.00   S
RDWB 1.040 1.00   P
REF 2.100 1.00   S
REF 1.180 1.00   P
RSO 1.000 1.00   P
#  2009  3 22 19 51 12.34  60.4985 -152.7740    4.460  0.70 0.00 0.00 0.00        935
RDN 1.460 1.00   P
RDWB 2.340 1.00   S
RDWB 1.460 1.00   P
REF 2.520 1.00   S
REF 1.360 1.00   P
RSO 1.000 1.00   P
#  2009  3 22 19  9 19.24  60.4848 -152.7657    1.120  0.80 0.00 0.00 0.00        936
RDJH 2.560 1.00   P
RDN 1.100 1.00   P
RDWB 1.980 1.00   S
RDWB 1.200 1.00   P
REF 1.880 1.00   S
REF 1.140 1.00   P
RSO 1.000 1.00   P
#  2009  3 23  5 51 58.54  60.4978 -152.7655    1.220  1.30 0.00 0.00 0.00        988
RDE 3.181 1.00   P
RDN 1.300 1.00   P
REF 2.760 1.00   S
REF 1.000 1.00   P
#  2009  3 22 16 40  0.06  60.4895 -152.7677    0.720  0.20 0.00 0.00 0.00        989
RDN 1.060 1.00   P
RDWB 2.020 1.00   S
RDWB 1.100 1.00   P
REF 1.900 1.00   S
REF 1.120 1.00   P
RSO 1.000 1.00   P
#  2009  3 22 13 27  7.12  60.4713 -152.7510    3.090  0.20 0.00 0.00 0.00       1086
NCT 2.840 1.00   P
RDJH 2.740 1.00   P
RDN 1.220 1.00   P
RDWB 2.620 1.00   S
RDWB 1.020 1.00   P
REF 2.340 1.00   S
REF 1.140 1.00   P
RSO 1.000 1.00   P
#  2009  3 22 20 59 51.62  60.4805 -152.7723    1.290  0.00 0.00 0.00 0.00       1087
RDN 1.320 1.00   P
RDWB 1.960 1.00   S
RDWB 1.180 1.00   P
REF 2.160 1.00   S
REF 1.180 1.00   P
RSO 1.000 1.00   P
#  2009  3 22  7 21  8.60  60.5003 -152.7705   -0.220  0.10 0.00 0.00 0.00       1187
RDN 1.000 1.00   P
RDWB 1.820 1.00   S
RDWB 1.060 1.00   P
REF 1.840 1.00   S
REF 1.100 1.00   P
RSO 1.400 1.00   P
#  2009  3 22 16 38 47.48  60.4827 -152.7680    1.100  0.70 0.00 0.00 0.00       1188
RDJH 2.540 1.00   P
RDN 1.080 1.00   P
RDWB 2.000 1.00   S
RDWB 1.200 1.00   P
REF 1.980 1.00   S
REF 1.140 1.00   P
RSO 1.000 1.00   P
#  2009  3 22 10 53 46.86  60.4723 -152.7648   -0.340  0.30 0.00 0.00 0.00       1200
NCT 2.920 1.00   P
RDN 1.260 1.00   P
RDWB 1.860 1.00   S
RDWB 1.040 1.00   P
REF 1.760 1.00   S
REF 1.760 1.00   S
REF 1.000 1.00   P
RSO 1.480 1.00   P
#  2009  3 22  8 23 46.52  60.4860 -152.7598    0.690  0.40 0.00 0.00 0.00       1202
RDN 1.420 1.00   P
RDWB 2.360 1.00   S
RDWB 1.500 1.00   P
REF 2.100 1.00   S
REF 1.460 1.00   P
RSO 1.000 1.00   P
#  2009  3 23  3 28 27.50  60.5040 -152.7882    4.850  0.60 0.00 0.00 0.00       1218
RD01 6.200 1.00   P
RD02 1.000 1.00   P
RD03 1.600 1.00   P
RDN 1.060 1.00   P
RDW 1.260 1.00   P
REF 2.240 1.00   S
REF 1.020 1.00   P
#  2009  3 22 17 10 32.64  60.5080 -152.7655    1.700  0.00 0.00 0.00 0.00       1221
RDN 1.060 1.00   P
RDWB 2.340 1.00   S
RDWB 1.560 1.00   P
REF 2.300 1.00   S
REF 1.000 1.00   P
RSO 1.660 1.00   P
#  2009  3 18  2  9 35.56  60.4737 -152.7712    5.380  0.30 0.00 0.00 0.00       1239
RDN 1.180 1.00   P
RDWB 2.100 1.00   S
RDWB 1.040 1.00   P
REF 2.240 1.00   S
REF 1.000 1.00   P
#  2009  3 27  6 13 59.90  60.4923 -152.7680   -0.140  1.70 0.00 0.00 0.00       1240
DFR 2.600 1.00   P
NCT 2.540 1.00   P
RDE 2.880 1.00   P
RDN 1.000 1.00   P
RDT 4.120 1.00   P
RDWB 1.820 1.00   S
RDWB 1.080 1.00   P
RED 2.920 1.00   S
RED 1.720 1.00   P
REF 1.840 1.00   S
REF 1.100 1.00   P
#  2009  3 30 17 34 38.44  60.4903 -152.7670    0.910  1.10 0.00 0.00 0.00       1248
DFR 2.680 1.00   P
NCT 2.460 1.00   P
RDN 1.000 1.00   P
RDWB 1.980 1.00   S
RDWB 1.260 1.00   P
REF 1.920 1.00   S
REF 1.260 1.00   P
#  2009  3 28 15 42 54.16  60.4565 -152.7582    0.520  1.50 0.00 0.00 0.00       1249
NCT 2.640 1.00   P
RDE 2.780 1.00   P
RDN 1.440 1.00   P
RDWB 2.020 1.00   S
RDWB 1.000 1.00   P
REF 1.520 1.00   S
REF 1.300 1.00   P
#  2009  3 22  7 55 36.44  60.4900 -152.7688    1.970  0.20 0.00 0.00 0.00       1250
RDN 1.160 1.00   P
RDWB 1.840 1.00   S
RDWB 1.020 1.00   P
REF 1.920 1.00   S
REF 1.000 1.00   P
RSO 1.420 1.00   P
#  2009  3 22  9 43 41.58  60.4848 -152.7627    2.000 -0.10 0.00 0.00 0.00       1252
RDN 1.580 1.00   P
RDWB 2.080 1.00   S
RDWB 1.560 1.00   P
REF 2.140 1.00   S
REF 1.000 1.00   P
RSO 1.440 1.00   P
#  2009  3 16  2 49 27.52  60.4910 -152.7738    5.530  0.40 0.00 0.00 0.00       1257
RDN 1.000 1.00   P
RDWB 2.060 1.00   S
RDWB 1.040 1.00   P
REF 2.240 1.00   S
REF 1.020 1.00   P
#  2009  3 22  5 37 25.38  60.5128 -152.7162   -0.990  0.20 0.00 0.00 0.00       1258
RDN 1.240 1.00   P
RDWB 3.140 1.00   S
RDWB 2.220 1.00   P
REF 1.900 1.00   S
REF 1.000 1.00   P
RSO 2.560 1.00   P
#  2009  3 22  5 32 49.68  60.4970 -152.7660    0.140  0.40 0.00 0.00 0.00       1267
NCT 2.500 1.00   P
RDJH 4.640 1.00   S
RDJH 2.660 1.00   P
RDN 1.000 1.00   P
RDWB 1.980 1.00   S
RDWB 1.100 1.00   P
REF 1.860 1.00   S
REF 1.080 1.00   P
RSO 1.340 1.00   P
#  2009  3 27  6 36  6.08  60.4905 -152.7680    0.060  1.70 0.00 0.00 0.00       1270
DFR 2.580 1.00   P
NCT 2.560 1.00   P
RDE 2.920 1.00   P
RDN 1.000 1.00   P
RDT 4.100 1.00   P
RDWB 1.800 1.00   S
RDWB 1.040 1.00   P
RED 2.960 1.00   S
RED 1.740 1.00   P
REF 1.800 1.00   S
REF 1.080 1.00   P
#  2009  3 15 19 30 23.18  60.4982 -152.7117    1.820 -0.10 0.00 0.00 0.00       1281
RDN 1.740 1.00   P
RDWB 3.220 1.00   S
RDWB 2.320 1.00   P
REF 2.200 1.00   S
REF 1.000 1.00   P
RSO 2.140 1.00   P
#  2009  3 24  4 44 12.72  60.4928 -152.7505    1.920  0.30 0.00 0.00 0.00       1282
RDE 2.440 1.00   P
RDN 1.000 1.00   P
RED 1.680 1.00   P
REF 1.720 1.00   S
REF 1.040 1.00   P
#  2009  3 22 19 21 27.48  60.4745 -152.7682    0.920 -0.60 0.00 0.00 0.00       1283
RDN 1.920 1.00   P
RDWB 2.020 1.00   S
RDWB 1.240 1.00   P
REF 1.980 1.00   S
REF 1.300 1.00   P
RSO 1.000 1.00   P
#  2009  3 24  4 25  2.86  60.4933 -152.7587    2.430  0.60 0.00 0.00 0.00       1285
RDE 2.440 1.00   P
RDN 1.000 1.00   P
RED 2.980 1.00   S
RED 1.680 1.00   P
REF 1.900 1.00   S
REF 1.080 1.00   P
#  2009  3 22 16 59 40.28  60.5070 -152.7617    5.150  1.00 0.00 0.00 0.00       1286
RDJH 3.320 1.00   P
RDN 1.420 1.00   P
RDWB 2.760 1.00   S
RDWB 1.000 1.00   P
REF 2.700 1.00   S
REF 1.500 1.00   P
RSO 1.900 1.00   P
#  2009  3 28 19  0  9.92  60.4558 -152.7725    3.090  1.50 0.00 0.00 0.00       1301
NCT 2.300 1.00   P
RDN 1.000 1.00   P
RDWB 1.900 1.00   S
RDWB 1.040 1.00   P
REF 2.120 1.00   S
REF 1.020 1.00   P
#  2009  3 31 10 27 44.84  60.4923 -152.7687    0.600  0.50 0.00 0.00 0.00       1302
NCT 3.280 1.00   P
RDN 1.020 1.00   P
RDWB 2.120 1.00   S
RDWB 1.320 1.00   P
REF 2.520 1.00   S
REF 1.000 1.00   P
#  2009  3 15 22 32 29.22  60.4948 -152.6850    3.550  0.20 0.00 0.00 0.00       1303
RDN 1.340 1.00   P
RDWB 3.240 1.00   S
RDWB 1.840 1.00   P
REF 1.800 1.00   S
REF 1.000 1.00   P
RSO 1.560 1.00   P
#  2009  3 22 20 28 55.96  60.4908 -152.7813    0.350  0.10 0.00 0.00 0.00       1304
RDN 1.140 1.00   P
RDWB 1.400 1.00   S
RDWB 1.000 1.00   P
REF 1.980 1.00   S
REF 1.020 1.00   P
RSO 1.340 1.00   P
#  2009  3 22  8 35  5.80  60.4987 -152.7653    2.140  0.50 0.00 0.00 0.00       1331
RDN 1.000 1.00   P
RDWB 1.980 1.00   S
RDWB 1.120 1.00   P
REF 1.920 1.00   S
REF 1.080 1.00   P
RSO 1.240 1.00   P
#  2009  3 23  2  0 27.16  60.4817 -152.7677    2.290 -0.40 0.00 0.00 0.00       1332
RD01 1.000 1.00   P
RD02 4.080 1.00   P
RD03 4.320 1.00   P
REF 3.700 1.00   S
REF 3.000 1.00   P
#  2009  3 22 16  0 52.50  60.4832 -152.7672    0.080  0.10 0.00 0.00 0.00       1333
RDN 1.300 1.00   P
RDWB 1.980 1.00   S
REF 1.980 1.00   S
REF 1.140 1.00   P
RSO 1.000 1.00   P
#  2009  3 27  6 59 45.52  60.4872 -152.7695    0.260  1.50 0.00 0.00 0.00       1342
DFR 2.700 1.00   P
NCT 2.520 1.00   P
RDE 2.960 1.00   P
RDN 1.000 1.00   P
RDT 4.180 1.00   P
RDWB 1.820 1.00   S
RDWB 1.100 1.00   P
RED 3.060 1.00   S
RED 1.720 1.00   P
REF 1.820 1.00   S
REF 1.100 1.00   P
#  2009  3 22 19 51 40.68  60.4672 -152.7725    5.430  1.00 0.00 0.00 0.00       1346
RDN 1.040 1.00   P
RDWB 2.040 1.00   S
RDWB 1.000 1.00   P
REF 2.140 1.00   S
REF 1.080 1.00   P
RSO 1.380 1.00   P
#  2009  3 22 11  5 54.20  60.4888 -152.7712    1.940 -0.70 0.00 0.00 0.00       1348
RDN 1.160 1.00   P
RDWB 1.880 1.00   S
RDWB 1.000 1.00   P
REF 2.000 1.00   S
REF 1.000 1.00   P
RSO 1.240 1.00   P
#  2009  3 27  0 59 41.02  60.4842 -152.7680    0.730  0.70 0.00 0.00 0.00       1381
DFR 2.580 1.00   P
NCT 2.500 1.00   P
RDE 2.860 1.00   P
RDN 1.000 1.00   P
RDWB 1.820 1.00   S
RDWB 1.100 1.00   P
REF 1.860 1.00   S
REF 1.800 1.00   S
REF 1.080 1.00   P
#  2009  3 22 17 58 24.70  60.4955 -152.7808    1.370 -0.60 0.00 0.00 0.00       1399
RDN 1.100 1.00   P
RDWB 1.780 1.00   S
RDWB 1.000 1.00   P
REF 2.280 1.00   S
REF 1.020 1.00   P
#  2009  3 21 16 47 21.90  60.4767 -152.7803    2.640  0.40 0.00 0.00 0.00       1425
RDN 1.020 1.00   P
RDWB 1.720 1.00   S
RDWB 1.840 1.00   S
RDWB 1.000 1.00   P
REF 2.360 1.00   S
REF 1.040 1.00   P
#  2009  3 22 10 56 13.36  60.4905 -152.7653    0.520  0.80 0.00 0.00 0.00       1454
NCT 2.540 1.00   P
RDJH 5.340 1.00   S
RDJH 2.500 1.00   P
RDN 1.000 1.00   P
RDWB 1.960 1.00   S
RDWB 1.120 1.00   P
REF 1.840 1.00   S
REF 1.780 1.00   S
REF 1.040 1.00   P
RSO 1.020 1.00   P
#  2009  3 22  3  7 20.42  60.4993 -152.7663   -2.970  0.60 0.00 0.00 0.00       1456
NCT 2.620 1.00   P
RDJH 3.600 1.00   S
RDJH 2.700 1.00   P
RDN 1.000 1.00   P
RDWB 1.940 1.00   S
RDWB 1.160 1.00   P
RED 3.800 1.00   S
REF 1.920 1.00   S
REF 1.820 1.00   S
REF 1.080 1.00   P
RSO 1.360 1.00   P
#  2009  3 22  2 43 55.68  60.4982 -152.7648    0.250 -0.80 0.00 0.00 0.00       1458
RDN 1.000 1.00   P
RDWB 1.980 1.00   S
RDWB 1.060 1.00   P
REF 1.720 1.00   S
REF 1.140 1.00   P
RSO 1.300 1.00   P
#  2009  3 22 19  6 41.80  60.4743 -152.7727    2.890  1.60 0.00 0.00 0.00       1495
RDN 1.280 1.00   P
RDWB 2.080 1.00   S
RDWB 1.080 1.00   P
REF 2.140 1.00   S
REF 1.340 1.00   P
RSO 1.000 1.00   P
#  2009  3 19 15  4 40.30  60.4700 -152.6835    2.230 -0.90 0.00 0.00 0.00       1496
RDN 1.700 1.00   P
RDWB 3.380 1.00   S
RDWB 2.260 1.00   P
REF 1.900 1.00   S
REF 1.000 1.00   P
#  2009  3 21 13 20 37.76  60.4773 -152.7730    1.160  0.60 0.00 0.00 0.00       1497
RD02 1.000 1.00   P
RDJH 2.560 1.00   P
RDN 1.040 1.00   P
RDWB 1.820 1.00   S
RDWB 1.160 1.00   P
REF 2.060 1.00   S
REF 1.140 1.00   P
#  2009  3 29 17 26 45.88  60.4963 -152.7587    0.760  0.90 0.00 0.00 0.00       1505
RDN 1.040 1.00   P
RDT 4.140 1.00   P
RDWB 2.180 1.00   S
RDWB 1.400 1.00   P
REF 1.960 1.00   S
REF 1.000 1.00   P
#  2009  3 27  5 44 48.48  60.4922 -152.7675   -0.180  1.60 0.00 0.00 0.00       1506
DFR 2.600 1.00   P
NCT 2.560 1.00   P
RDE 2.860 1.00   P
RDN 1.000 1.00   P
RDT 4.100 1.00   P
RDWB 1.820 1.00   S
RDWB 1.100 1.00   P
RED 2.920 1.00   S
RED 1.720 1.00   P
REF 1.840 1.00   S
REF 1.100 1.00   P
#  2009  3 27  4 57 34.66  60.4865 -152.7697    0.480  1.20 0.00 0.00 0.00       1512
DFR 2.640 1.00   P
NCT 2.560 1.00   P
RDE 2.860 1.00   P
RDN 1.000 1.00   P
RDT 4.200 1.00   P
RDWB 1.820 1.00   S
RDWB 1.100 1.00   P
RED 2.980 1.00   S
RED 1.720 1.00   P
REF 1.860 1.00   S
REF 1.100 1.00   P
#  2009  3 22 17 52  6.14  60.4863 -152.7470    2.520  0.00 0.00 0.00 0.00       1520
RDN 1.040 1.00   P
RDWB 2.200 1.00   S
RDWB 1.360 1.00   P
REF 1.800 1.00   S
REF 1.000 1.00   P
RSO 1.580 1.00   P
#  2009  3 22 22  0 46.86  60.4877 -152.7733    2.430  0.60 0.00 0.00 0.00       1521
RDN 1.060 1.00   P
RDWB 1.860 1.00   S
RDWB 1.180 1.00   P
REF 2.040 1.00   S
REF 1.180 1.00   P
RSO 1.000 1.00   P
#  2009  3 28 16 10 31.22  60.4663 -152.7707    0.870  1.20 0.00 0.00 0.00       1532
NCT 2.460 1.00   P
RDN 1.000 1.00   P
RDWB 1.780 1.00   S
RDWB 1.000 1.00   P
REF 1.900 1.00   S
REF 1.020 1.00   P
#  2009  3 22 19 29 12.42  60.4808 -152.7700    0.580  0.00 0.00 0.00 0.00       1533
RDN 1.320 1.00   P
RDWB 1.880 1.00   S
RDWB 1.060 1.00   P
REF 1.960 1.00   S
REF 1.840 1.00   S
REF 1.120 1.00   P
RSO 1.000 1.00   P
#  2009  3 28 17 26 55.24  60.4802 -152.7865    3.350  0.90 0.00 0.00 0.00       1534
NCT 2.260 1.00   P
RDN 1.160 1.00   P
RDWB 1.840 1.00   S
RDWB 1.000 1.00   P
REF 2.320 1.00   S
REF 1.220 1.00   P
#  2009  3 22  5  2 39.24  60.4902 -152.7567    0.610 -0.20 0.00 0.00 0.00       1535
RDN 1.680 1.00   P
RDWB 1.980 1.00   S
RDWB 1.500 1.00   P
REF 1.840 1.00   S
REF 1.000 1.00   P
RSO 1.720 1.00   P
#  2009  3 22 11  7 12.32  60.4310 -152.6990    1.700  0.30 0.00 0.00 0.00       1538
NCT 3.280 1.00   P
RDN 1.180 1.00   P
RDWB 2.440 1.00   S
RDWB 1.280 1.00   P
REF 2.320 1.00   S
REF 1.100 1.00   P
RSO 1.000 1.00   P
#  2009  3 22 22 36 52.90  60.4748 -152.7668    0.340 -0.60 0.00 0.00 0.00       1539
RDN 1.360 1.00   P
RDWB 1.780 1.00   S
RDWB 1.040 1.00   P
REF 1.720 1.00   S
REF 1.000 1.00   P
RSO 1.400 1.00   P
#  2009  3 22 17 16 41.58  60.4860 -152.7672    2.260  0.30 0.00 0.00 0.00       1546
RDN 1.000 1.00   P
RDWB 1.820 1.00   S
RDWB 1.000 1.00   P
REF 1.760 1.00   S
REF 1.000 1.00   P
RSO 1.240 1.00   P
#  2009  3 23 14 43 13.16  60.4890 -152.7738    0.220  0.80 0.00 0.00 0.00       1556
RDE 2.821 1.00   P
RDN 1.000 1.00   P
RED 2.780 1.00   S
RED 1.660 1.00   P
REF 1.740 1.00   S
REF 1.120 1.00   P
#  2009  3 21 11 23 11.90  60.4962 -152.7437    2.250  0.50 0.00 0.00 0.00       1557
RDN 1.500 1.00   P
RDWB 2.460 1.00   S
RDWB 1.000 1.00   P
REF 1.760 1.00   S
REF 1.040 1.00   P
#  2009  3 15 13 36 35.70  60.5062 -152.7918   -1.450  0.40 0.00 0.00 0.00       1567
RDJH 2.780 1.00   P
RDN 1.000 1.00   P
RDWB 1.520 1.00   S
RDWB 1.280 1.00   P
REF 2.540 1.00   S
REF 1.680 1.00   P
RSO 2.040 1.00   P
#  2009  3 17 21 16 35.44  60.5083 -152.7723    1.290  0.40 0.00 0.00 0.00       1568
RDN 1.000 1.00   P
RDWB 2.160 1.00   S
RDWB 1.260 1.00   P
REF 2.320 1.00   S
REF 1.280 1.00   P
RSO 1.669 1.00   P
#  2009  3 23 16 18 48.38  60.4897 -152.7723   -0.240  0.80 0.00 0.00 0.00       1569
RDE 2.981 1.00   P
RDN 1.000 1.00   P
RED 2.900 1.00   S
RED 1.680 1.00   P
REF 1.780 1.00   S
REF 1.060 1.00   P
#  2009  3 22 16 33 35.54  60.4857 -152.7670    0.950  0.20 0.00 0.00 0.00       1570
RDN 1.220 1.00   P
RDWB 1.780 1.00   S
RDWB 1.000 1.00   P
REF 1.700 1.00   S
REF 1.000 1.00   P
RSO 1.220 1.00   P
#  2009  3 24  0 17 57.44  60.4890 -152.7653   -0.250  0.50 0.00 0.00 0.00       1585
RDE 2.840 1.00   P
RDN 1.000 1.00   P
RED 2.860 1.00   S
REF 1.620 1.00   S
REF 1.000 1.00   P
#  2009  3 22 23 53 23.58  60.4868 -152.7687    0.950 -0.20 0.00 0.00 0.00       1586
RDN 1.260 1.00   P
RDWB 1.780 1.00   S
RDWB 1.000 1.00   P
REF 1.800 1.00   S
REF 1.000 1.00   P
RSO 1.240 1.00   P
#  2009  3 22 17  8 29.58  60.4913 -152.7793    0.300  0.50 0.00 0.00 0.00       1587
NCT 2.660 1.00   P
RDJH 2.560 1.00   P
RDN 1.000 1.00   P
RDWB 1.760 1.00   S
RDWB 1.020 1.00   P
REF 2.180 1.00   S
REF 1.120 1.00   P
RSO 1.000 1.00   P
#  2009  3 22  9 57 13.36  60.5020 -152.7780    3.510  0.60 0.00 0.00 0.00       1597
RDN 1.000 1.00   P
RDWB 2.000 1.00   S
RDWB 1.200 1.00   P
REF 2.240 1.00   S
REF 1.180 1.00   P
RSO 1.520 1.00   P
#  2009  3 22 12  7 26.28  60.4895 -152.7710    0.380  0.60 0.00 0.00 0.00       1666
RD02 1.460 1.00   P
RD03 3.960 1.00   P
RDJH 2.520 1.00   P
RDN 1.000 1.00   P
RDW 1.580 1.00   P
RDWB 1.840 1.00   S
RDWB 1.060 1.00   P
REF 2.000 1.00   S
REF 1.140 1.00   P
RSO 1.040 1.00   P
