#  2009  2 27 11  1  2.86  60.5080 -152.7253    3.860  0.90 0.00 0.00 0.00        466
NCT 5.000 1.00   P
RDN 1.600 1.00   P
RDWB 2.760 1.00   S
RDWB 1.560 1.00   P
REF 2.120 1.00   S
REF 1.000 1.00   P
RSO 2.040 1.00   P
#  2009  2 27 11 27 16.78  60.4787 -152.7672   -2.980 -0.00 0.00 0.00 0.00        467
NCT 5.180 1.00   P
RDJH 2.740 1.00   P
RDN 1.000 1.00   P
RDWB 1.980 1.00   S
RDWB 1.180 1.00   P
REF 2.260 1.00   S
REF 1.100 1.00   P
RSO 1.000 1.00   P
#  2009  2 26 16 16 23.64  60.5140 -152.7680    3.990  0.10 0.00 0.00 0.00        468
RDN 1.040 1.00   P
RDWB 2.480 1.00   S
RDWB 1.000 1.00   P
REF 2.120 1.00   S
REF 1.480 1.00   P
RSO 1.401 1.00   P
#  2009  2 28 11 16 19.08  60.5217 -152.7857    0.300 -0.40 0.00 0.00 0.00        469
RDN 1.000 1.00   P
RDWB 2.120 1.00   S
RDWB 1.380 1.00   P
REF 2.900 1.00   S
REF 1.480 1.00   P
#  2009  2 27  1 31  2.16  60.4922 -152.7362    7.330  1.30 0.00 0.00 0.00        470
RDN 1.000 1.00   P
RDWB 2.660 1.00   S
RDWB 1.460 1.00   P
REF 2.320 1.00   S
REF 1.080 1.00   P
RSO 1.320 1.00   P
#  2009  2 27 11 37 25.80  60.4548 -152.7792    6.090  0.10 0.00 0.00 0.00        471
RDN 2.040 1.00   P
RDWB 2.800 1.00   S
RDWB 2.100 1.00   P
REF 3.100 1.00   S
REF 2.080 1.00   P
RSO 1.000 1.00   P
#  2009  2 27  2  6 26.26  60.4627 -152.7030    1.430  0.30 0.00 0.00 0.00        472
RDN 1.980 1.00   P
RDWB 3.200 1.00   S
RDWB 2.520 1.00   P
REF 2.180 1.00   S
REF 1.000 1.00   P
RSO 1.280 1.00   P
#  2009  2 26 23 43 11.88  60.4950 -152.7813    6.980  0.90 0.00 0.00 0.00        473
RDN 1.020 1.00   P
RDWB 2.120 1.00   S
RDWB 1.080 1.00   P
REF 2.500 1.00   S
REF 1.000 1.00   P
RSO 1.301 1.00   P
#  2009  2 27  2  6 35.62  60.4715 -152.7685    2.150  0.60 0.00 0.00 0.00        474
DFR 2.800 1.00   P
NCT 2.760 1.00   P
RDN 1.060 1.00   P
RDWB 2.000 1.00   S
RDWB 1.260 1.00   P
REF 2.340 1.00   S
REF 1.080 1.00   P
RSO 1.000 1.00   P
#  2009  2 27  2 51 40.04  60.4573 -152.7762    2.110  0.80 0.00 0.00 0.00        475
NCT 2.980 1.00   P
RDN 1.180 1.00   P
RDWB 2.120 1.00   S
RDWB 1.180 1.00   P
REF 2.420 1.00   S
REF 1.320 1.00   P
RSO 1.000 1.00   P
#  2009  2 26 14 59 34.82  60.4695 -152.7385    1.770 -0.40 0.00 0.00 0.00        477
RDN 1.159 1.00   P
RDWB 2.499 1.00   S
RDWB 1.759 1.00   P
REF 1.979 1.00   S
REF 1.079 1.00   P
RSO 1.000 1.00   P
#  2009  2 28 17 15 36.08  60.5120 -152.8173    2.200  0.40 0.00 0.00 0.00        480
RDN 1.060 1.00   P
RDWB 1.660 1.00   S
RDWB 1.140 1.00   P
REF 2.880 1.00   S
REF 1.000 1.00   P
#  2009  2 26 10 44  6.20  60.5148 -152.7308    0.380  0.90 0.00 0.00 0.00        486
DFR 2.741 1.00   P
NCT 2.641 1.00   P
RDJH 2.660 1.00   P
RDN 1.000 1.00   P
RDT 4.381 1.00   P
RDWB 3.520 1.00   S
RDWB 2.040 1.00   P
REF 2.200 1.00   S
REF 1.060 1.00   P
RSO 2.161 1.00   P
#  2009  2 26 11  5 26.00  60.4965 -152.7180    3.940  0.10 0.00 0.00 0.00        487
RDN 1.580 1.00   P
RDWB 2.940 1.00   S
REF 2.180 1.00   S
REF 1.000 1.00   P
RSO 1.901 1.00   P
#  2009  2 16  2 23 12.50  60.4857 -152.7433    3.050  0.20 0.00 0.00 0.00        488
DFR 2.540 1.00   P
NCT 2.780 1.00   P
RDN 1.120 1.00   P
REF 2.040 1.00   S
REF 1.000 1.00   P
RSO 1.260 1.00   P
#  2009  2 27  7 53 54.96  60.4803 -152.7648   -2.990  1.20 0.00 0.00 0.00        489
DFR 3.600 1.00   P
NCT 4.000 1.00   P
RDJH 3.540 1.00   P
RDN 2.500 1.00   P
RDT 5.580 1.00   P
RDWB 3.240 1.00   S
RDWB 2.480 1.00   P
REF 3.120 1.00   S
REF 2.480 1.00   P
RSO 1.000 1.00   P
#  2009  2 27 20 44 43.44  60.5113 -152.7937    1.290 -0.20 0.00 0.00 0.00        490
RDN 1.000 1.00   P
RDWB 1.860 1.00   S
RDWB 1.120 1.00   P
REF 2.620 1.00   S
REF 1.260 1.00   P
RSO 1.220 1.00   P
#  2009  2 27  8 21 47.66  60.4995 -152.7677    1.870  0.60 0.00 0.00 0.00        492
RDN 1.480 1.00   P
RDWB 2.480 1.00   S
RDWB 1.000 1.00   P
REF 2.360 1.00   S
REF 1.780 1.00   P
RSO 1.620 1.00   P
#  2009  2 27  3 27 59.30  60.4678 -152.7593    3.230  0.60 0.00 0.00 0.00        493
DFR 3.460 1.00   P
NCT 2.640 1.00   P
RDN 1.000 1.00   P
RDWB 2.020 1.00   S
RDWB 1.080 1.00   P
REF 2.000 1.00   S
REF 1.040 1.00   P
#  2009  2 26  5 50 49.32  60.5125 -152.7320    4.410  0.90 0.00 0.00 0.00        494
RDN 1.100 1.00   P
RDWB 2.620 1.00   S
RDWB 1.640 1.00   P
REF 2.240 1.00   S
REF 1.000 1.00   P
RSO 1.641 1.00   P
#  2009  2 16 16 53 42.66  60.5008 -152.7488    0.970  0.20 0.00 0.00 0.00        495
DFR 2.620 1.00   P
NCT 2.780 1.00   P
RDJH 4.860 1.00   S
RDJH 2.520 1.00   P
RDN 1.000 1.00   P
REF 2.080 1.00   S
REF 1.080 1.00   P
RSO 1.560 1.00   P
#  2009  2 22 10 17 47.38  60.4790 -152.7438    3.180  0.80 0.00 0.00 0.00        496
RDJH 2.640 1.00   P
RDN 1.100 1.00   P
REF 2.000 1.00   S
REF 1.120 1.00   P
RSO 1.000 1.00   P
#  2009  2 25 20 48 52.66  60.4833 -152.7188    5.080  1.30 0.00 0.00 0.00        497
RDJH 4.260 1.00   S
RDJH 2.680 1.00   P
RDN 1.000 1.00   P
REF 2.200 1.00   S
REF 1.160 1.00   P
RSO 1.380 1.00   P
#  2009  2 26  6 12 42.86  60.4885 -152.7552    3.210  0.60 0.00 0.00 0.00        498
RDN 1.079 1.00   P
RDWB 2.179 1.00   S
RDWB 2.059 1.00   S
RDWB 1.179 1.00   P
REF 1.799 1.00   S
REF 1.099 1.00   P
RSO 1.000 1.00   P
#  2009  2 27  1 10  1.94  60.4878 -152.7695    4.530  0.80 0.00 0.00 0.00        502
RDN 1.240 1.00   P
RDWB 2.200 1.00   S
RDWB 1.000 1.00   P
REF 2.200 1.00   S
REF 1.220 1.00   P
RSO 1.240 1.00   P
#  2009  2 26  9 45 12.28  60.5147 -152.7852    1.260 -0.00 0.00 0.00 0.00        503
RDN 1.000 1.00   P
RDWB 2.020 1.00   S
RDWB 1.260 1.00   P
REF 2.560 1.00   S
REF 1.420 1.00   P
RSO 1.541 1.00   P
#  2009  2 24  3 50 25.52  60.4625 -152.6823    4.300  0.20 0.00 0.00 0.00        507
RDJH 5.380 1.00   S
RDJH 2.440 1.00   P
RDN 1.040 1.00   P
REF 1.980 1.00   S
REF 1.000 1.00   P
RSO 1.440 1.00   P
#  2009  2 21  8 40 34.60  60.5030 -152.7340    0.260  0.10 0.00 0.00 0.00        508
DFR 2.508 1.00   P
RDJH 4.320 1.00   S
RDJH 2.440 1.00   P
RDN 1.000 1.00   P
REF 1.560 1.00   S
REF 1.300 1.00   P
#  2009  2 26  3 17 17.36  60.4493 -152.7385    3.790  0.30 0.00 0.00 0.00        509
RDN 1.000 1.00   P
RDWB 2.360 1.00   S
RDWB 1.400 1.00   P
REF 2.060 1.00   S
REF 1.260 1.00   P
RSO 1.481 1.00   P
#  2009  2 25 23 40 40.84  60.5048 -152.7645   -1.780  0.50 0.00 0.00 0.00        510
RDJH 3.940 1.00   P
RDN 1.000 1.00   P
REF 3.180 1.00   S
REF 2.420 1.00   P
RSO 3.040 1.00   P
#  2009  2 27 11 26  2.22  60.4755 -152.7510    0.670 -0.10 0.00 0.00 0.00        511
RDN 1.200 1.00   P
RDWB 2.220 1.00   S
REF 1.900 1.00   S
REF 1.160 1.00   P
RSO 1.000 1.00   P
#  2009  2 26  7 27 55.32  60.4993 -152.7547    2.830  0.90 0.00 0.00 0.00        512
RDN 1.000 1.00   P
RDWB 2.260 1.00   S
RDWB 1.740 1.00   P
REF 2.120 1.00   S
REF 1.160 1.00   P
RSO 1.501 1.00   P
#  2009  2 26 18 44 12.96  60.5008 -152.7855    4.640  0.90 0.00 0.00 0.00        513
RDN 1.000 1.00   P
RDWB 1.880 1.00   S
RDWB 2.100 1.00   S
RDWB 1.160 1.00   P
REF 2.360 1.00   S
REF 1.140 1.00   P
RSO 1.341 1.00   P
#  2009  2 22 10 10  4.46  60.4630 -152.7122    4.460  1.30 0.00 0.00 0.00        514
NCT 3.200 1.00   P
RDJH 5.260 1.00   S
RDJH 3.260 1.00   P
RDN 1.720 1.00   P
REF 2.460 1.00   S
REF 1.500 1.00   P
RSO 1.000 1.00   P
#  2009  2 15 12 39 48.82  60.4927 -152.7495    1.260  0.80 0.00 0.00 0.00        515
DFR 1.301 1.00   P
NCT 2.501 1.00   P
RDN 1.060 1.00   P
REF 1.680 1.00   S
REF 1.000 1.00   P
RSO 1.121 1.00   P
#  2009  2 22 10 26 18.92  60.4713 -152.7288    5.290  1.30 0.00 0.00 0.00        516
RDN 1.000 1.00   P
REF 2.260 1.00   S
REF 1.160 1.00   P
RSO 1.100 1.00   P
#  2009  2 27  8 10 33.80  60.4668 -152.7688    5.490  0.30 0.00 0.00 0.00        517
RDN 1.060 1.00   P
RDWB 2.540 1.00   S
RDWB 1.700 1.00   P
REF 2.720 1.00   S
REF 1.720 1.00   P
RSO 1.000 1.00   P
#  2009  2 28 13 59 37.88  60.5042 -152.7387    1.310 -0.70 0.00 0.00 0.00        518
RDN 1.140 1.00   P
RDWB 2.760 1.00   S
REF 1.980 1.00   S
REF 1.000 1.00   P
#  2009  2 26  5 59 48.54  60.4742 -152.7457    1.220  0.10 0.00 0.00 0.00        523
RDN 1.140 1.00   P
RDWB 2.180 1.00   S
RDWB 1.480 1.00   P
REF 1.560 1.00   S
REF 1.000 1.00   P
RSO 1.181 1.00   P
#  2009  2 18 21 17  8.22  60.4657 -152.7940   -0.380  0.30 0.00 0.00 0.00        524
DFR 2.660 1.00   P
NCT 2.620 1.00   P
RDE 3.020 1.00   P
RDJH 4.940 1.00   S
RDJH 2.580 1.00   P
RDN 1.000 1.00   P
RDT 4.460 1.00   P
REF 2.100 1.00   S
REF 1.160 1.00   P
#  2009  2 28 22 18 38.00  60.5127 -152.7575    2.270 -0.20 0.00 0.00 0.00        525
RDN 1.000 1.00   P
RDWB 2.400 1.00   S
RDWB 1.500 1.00   P
REF 2.100 1.00   S
REF 1.260 1.00   P
#  2009  2 26 12 12 29.06  60.4850 -152.7568    4.880  0.60 0.00 0.00 0.00        528
RDN 1.019 1.00   P
RDWB 2.279 1.00   S
RDWB 1.079 1.00   P
REF 1.979 1.00   S
REF 1.119 1.00   P
RSO 1.000 1.00   P
#  2009  2 18 19 36 59.88  60.4535 -152.7272    3.290  0.70 0.00 0.00 0.00        535
NCT 2.700 1.00   P
RDJH 4.980 1.00   S
RDJH 2.720 1.00   P
RDN 1.760 1.00   P
REF 1.980 1.00   S
REF 1.020 1.00   P
RSO 1.000 1.00   P
#  2009  2 26 10 43  6.80  60.5082 -152.7798    2.150  0.90 0.00 0.00 0.00        536
RDN 1.000 1.00   P
RDWB 1.880 1.00   S
RDWB 1.140 1.00   P
REF 2.220 1.00   S
REF 1.140 1.00   P
RSO 1.541 1.00   P
#  2009  2 15  8 28 45.10  60.4763 -152.7045    5.050  0.10 0.00 0.00 0.00        537
NCT 3.381 1.00   P
RDN 1.120 1.00   P
REF 1.880 1.00   S
REF 1.000 1.00   P
RSO 1.161 1.00   P
#  2009  2 26  5  0 36.16  60.4807 -152.7595    3.030  0.60 0.00 0.00 0.00        538
RDN 1.179 1.00   P
RDWB 2.119 1.00   S
RDWB 1.159 1.00   P
REF 1.919 1.00   S
REF 1.159 1.00   P
RSO 1.000 1.00   P
#  2009  2 19 11  4 39.14  60.4908 -152.7405    2.160  0.30 0.00 0.00 0.00        542
NCT 2.660 1.00   P
RDN 1.270 1.00   P
REF 1.850 1.00   S
REF 1.150 1.00   P
RSO 1.000 1.00   P
#  2009  2 27  4  9 40.96  60.4788 -152.7740    6.020  0.60 0.00 0.00 0.00        543
NCT 2.800 1.00   P
RDN 1.000 1.00   P
RDWB 2.120 1.00   S
RDWB 1.280 1.00   P
REF 2.360 1.00   S
REF 1.120 1.00   P
RSO 1.060 1.00   P
#  2009  2 26 10 16 44.46  60.4760 -152.7260    6.990 -0.10 0.00 0.00 0.00        544
RDN 1.079 1.00   P
RDWB 2.839 1.00   S
RDWB 1.199 1.00   P
REF 2.219 1.00   S
REF 1.159 1.00   P
RSO 1.000 1.00   P
#  2009  2 27  7 39  9.54  60.4597 -152.7892    4.740  0.60 0.00 0.00 0.00        546
NCT 2.960 1.00   P
RDN 1.120 1.00   P
RDWB 1.940 1.00   S
RDWB 1.180 1.00   P
REF 2.600 1.00   S
REF 1.040 1.00   P
RSO 1.000 1.00   P
#  2009  2 27 13 15 56.00  60.4378 -152.7892    1.220  0.20 0.00 0.00 0.00        563
DFR 3.540 1.00   P
NCT 3.520 1.00   P
RDJH 3.560 1.00   P
RDN 2.100 1.00   P
RDWB 2.860 1.00   S
RDWB 2.100 1.00   P
REF 3.640 1.00   S
REF 2.100 1.00   P
RSO 1.000 1.00   P
#  2009  2 28 13 59 57.98  60.5055 -152.7747    1.130  0.00 0.00 0.00 0.00        564
RDN 1.000 1.00   P
RDWB 2.020 1.00   S
RDWB 1.260 1.00   P
REF 2.240 1.00   S
REF 1.340 1.00   P
#  2009  3 11  2 41 47.26  60.5087 -152.7710    0.850  0.30 0.00 0.00 0.00        592
RDN 1.000 1.00   P
RDWB 2.120 1.00   S
RDWB 1.220 1.00   P
REF 2.160 1.00   S
REF 1.320 1.00   P
RSO 1.420 1.00   P
#  2009  3  6  1 38 37.38  60.5232 -152.7917    0.940 -0.50 0.00 0.00 0.00        595
RDN 1.000 1.00   P
RDWB 1.320 1.00   P
REF 2.860 1.00   S
REF 1.660 1.00   P
RSO 2.001 1.00   P
#  2009  3  9 21 49 50.18  60.5158 -152.9072    4.920  0.50 0.00 0.00 0.00        596
DFR 2.420 1.00   P
NCT 1.000 1.00   P
RDE 2.900 1.00   P
RDJH 3.339 1.00   S
RDJH 1.939 1.00   P
RDN 1.599 1.00   P
RDWB 2.159 1.00   S
RDWB 1.019 1.00   P
REF 3.819 1.00   S
REF 2.019 1.00   P
RSO 1.800 1.00   P
#  2009  3 11 17 25 18.76  60.5090 -152.7587    0.630 -0.50 0.00 0.00 0.00        597
RDN 1.000 1.00   P
RDWB 1.540 1.00   P
REF 2.120 1.00   S
REF 1.520 1.00   P
RSO 1.500 1.00   P
#  2009  3  2 14 49 57.94  60.4617 -152.7308    5.320  0.60 0.00 0.00 0.00        598
RDN 1.060 1.00   P
RDWB 2.480 1.00   S
RDWB 1.400 1.00   P
REF 2.040 1.00   S
REF 1.000 1.00   P
RSO 1.700 1.00   P
#  2009  3  6 15 55 35.08  60.4780 -152.7092    1.870  0.30 0.00 0.00 0.00        599
RDN 1.640 1.00   P
RDWB 3.040 1.00   S
RDWB 2.340 1.00   P
REF 1.880 1.00   S
REF 1.000 1.00   P
RSO 1.421 1.00   P
#  2009  3  1  1 31 43.52  60.4800 -152.7475    7.320  0.40 0.00 0.00 0.00        600
RDN 1.000 1.00   P
RDWB 2.640 1.00   S
RDWB 1.260 1.00   P
REF 2.320 1.00   S
REF 1.240 1.00   P
RSO 1.204 1.00   P
#  2009  3 14 10 30 31.66  60.4795 -152.7818    6.160 -0.00 0.00 0.00 0.00        601
RDJH 3.960 1.00   S
RDJH 1.980 1.00   P
RDWB 2.180 1.00   S
RDWB 1.000 1.00   P
RSO 1.081 1.00   P
#  2009  3  5 16 36 12.96  60.4718 -152.7873    2.910  0.00 0.00 0.00 0.00        623
RDN 1.300 1.00   P
RDWB 1.940 1.00   S
RDWB 1.000 1.00   P
REF 2.360 1.00   S
REF 1.800 1.00   P
#  2009  3 12 11 42 28.78  60.4868 -152.7545    0.500 -0.40 0.00 0.00 0.00        624
RDN 1.840 1.00   P
RDWB 2.340 1.00   S
RDWB 1.200 1.00   P
REF 1.800 1.00   S
REF 1.000 1.00   P
#  2009  3  2 17 31 24.32  60.4922 -152.7833    2.050  0.40 0.00 0.00 0.00        625
RDN 1.280 1.00   P
RDWB 1.880 1.00   S
RDWB 1.120 1.00   P
REF 2.260 1.00   S
REF 1.000 1.00   P
RSO 1.300 1.00   P
#  2009  3 12 13 16 16.54  60.4922 -152.7378   -0.770  0.10 0.00 0.00 0.00        626
RDN 1.500 1.00   P
RDWB 2.480 1.00   S
RDWB 2.280 1.00   P
REF 1.880 1.00   S
REF 1.000 1.00   P
#  2009  3  7  6 29 24.48  60.4843 -152.7527    5.670  0.80 0.00 0.00 0.00        627
DFR 2.020 1.00   P
NCT 2.100 1.00   P
RDE 2.120 1.00   P
RDN 1.060 1.00   P
RDT 3.200 1.00   P
RDWB 2.220 1.00   S
RDWB 1.040 1.00   P
RED 2.620 1.00   S
RED 1.280 1.00   P
REF 2.140 1.00   S
REF 1.000 1.00   P
RSO 1.060 1.00   P
#  2009  3 12  4 56 18.36  60.4982 -152.7793    1.800 -0.30 0.00 0.00 0.00        628
RDN 1.220 1.00   P
RDWB 1.900 1.00   S
RDWB 1.000 1.00   P
REF 2.020 1.00   S
REF 1.320 1.00   P
#  2009  3  1 11 41  2.36  60.4870 -152.7703    2.440  0.70 0.00 0.00 0.00        629
RDN 1.000 1.00   P
RDWB 1.820 1.00   S
RDWB 1.100 1.00   P
REF 1.960 1.00   S
REF 1.040 1.00   P
RSO 1.764 1.00   P
#  2009  3 11  2 42 29.22  60.5053 -152.7747    1.370  0.30 0.00 0.00 0.00        632
RDN 1.000 1.00   P
RDWB 2.040 1.00   S
RDWB 1.240 1.00   P
REF 2.240 1.00   S
REF 1.400 1.00   P
RSO 1.200 1.00   P
#  2009  3 12  6 47 51.30  60.4207 -152.7557    3.110  0.20 0.00 0.00 0.00        633
NCT 3.201 1.00   P
RDJH 5.900 1.00   S
RDN 1.300 1.00   P
RDWB 2.140 1.00   S
RDWB 1.000 1.00   P
REF 2.380 1.00   S
REF 1.040 1.00   P
#  2009  3 13 19 34 12.10  60.5352 -152.7507    9.410  0.60 0.00 0.00 0.00        634
RDE 1.340 1.00   P
RDJH 2.520 1.00   S
RDJH 1.000 1.00   P
RDWB 2.680 1.00   S
RDWB 1.480 1.00   P
#  2009  3  9 12 43 17.88  60.4812 -152.8193    5.930  0.70 0.00 0.00 0.00        635
RDN 1.099 1.00   P
RDWB 1.699 1.00   S
RDWB 1.159 1.00   P
REF 2.559 1.00   S
REF 1.079 1.00   P
RSO 1.000 1.00   P
#  2009  3 13 17 48 49.54  60.4968 -152.7545    5.160 -0.10 0.00 0.00 0.00        645
RDE 2.080 1.00   P
RDJH 3.960 1.00   S
RDJH 1.840 1.00   P
RDT 3.140 1.00   P
RDWB 2.200 1.00   S
RDWB 1.000 1.00   P
#  2009  3  2 14 15 46.24  60.4968 -152.7707    0.420 -0.00 0.00 0.00 0.00        646
RDN 1.000 1.00   P
RDWB 1.780 1.00   S
RDWB 1.320 1.00   P
REF 1.980 1.00   S
REF 1.100 1.00   P
RSO 1.180 1.00   P
#  2009  3 13 16 46 21.80  60.4743 -152.7695   -0.500  0.40 0.00 0.00 0.00        649
RDJH 4.900 1.00   S
RDJH 2.460 1.00   P
RDT 4.440 1.00   P
RDWB 1.880 1.00   S
RDWB 1.000 1.00   P
#  2009  3  1 23 43 54.00  60.4938 -152.7980    4.360  0.60 0.00 0.00 0.00        650
RDN 1.016 1.00   P
RDWB 1.756 1.00   S
RDWB 1.076 1.00   P
REF 2.216 1.00   S
REF 1.236 1.00   P
RSO 1.000 1.00   P
#  2009  3  9 15  4 17.54  60.4632 -152.7698   -0.410  0.20 0.00 0.00 0.00        651
RDN 2.099 1.00   P
RDWB 2.099 1.00   S
RDWB 1.739 1.00   P
REF 2.279 1.00   S
REF 1.399 1.00   P
RSO 1.000 1.00   P
#  2009  3  9 23 58 41.06  60.5120 -152.7795    0.930 -0.00 0.00 0.00 0.00        652
RDN 1.000 1.00   P
RDWB 2.080 1.00   S
RDWB 1.300 1.00   P
REF 2.400 1.00   S
REF 1.480 1.00   P
RSO 1.541 1.00   P
#  2009  3 12  3 34 13.84  60.4947 -152.7707    0.620  0.00 0.00 0.00 0.00        655
RDN 1.000 1.00   P
RDWB 1.780 1.00   S
RDWB 1.140 1.00   P
REF 1.900 1.00   S
REF 1.080 1.00   P
#  2009  3 12  9  0 10.74  60.5040 -152.7740    2.890  0.00 0.00 0.00 0.00        656
RDN 1.100 1.00   P
RDWB 1.980 1.00   S
RDWB 1.340 1.00   P
REF 2.240 1.00   S
REF 1.000 1.00   P
#  2009  3  8  1  7 13.78  60.4988 -152.7267    2.490 -0.60 0.00 0.00 0.00        657
RDWB 2.820 1.00   S
RDWB 1.780 1.00   P
REF 2.040 1.00   S
REF 1.000 1.00   P
RSO 1.980 1.00   P
#  2009  3 12  8 33 28.20  60.4997 -152.7683    3.980  0.80 0.00 0.00 0.00        658
RDN 1.120 1.00   P
RDWB 1.980 1.00   S
RDWB 1.540 1.00   P
REF 2.320 1.00   S
REF 1.000 1.00   P
#  2009  3  9  9 57 50.78  60.5303 -152.7057    1.370  0.10 0.00 0.00 0.00        659
RDN 1.000 1.00   P
RDWB 3.280 1.00   S
RDWB 2.640 1.00   P
REF 2.420 1.00   S
REF 1.220 1.00   P
RSO 1.801 1.00   P
#  2009  3  5 20 55 29.06  60.4705 -152.7618    3.080  0.70 0.00 0.00 0.00        660
RDN 1.220 1.00   P
RDWB 1.980 1.00   S
RDWB 1.140 1.00   P
REF 1.820 1.00   S
REF 1.000 1.00   P
#  2009  3 12  5 59  7.78  60.4485 -152.7855    0.690 -0.10 0.00 0.00 0.00        661
RDN 1.860 1.00   P
RDWB 1.940 1.00   S
RDWB 1.060 1.00   P
REF 2.640 1.00   S
REF 1.000 1.00   P
#  2009  3  9  1 36 31.76  60.4822 -152.7598    7.940  0.20 0.00 0.00 0.00        667
NCT 3.901 1.00   P
RDN 1.180 1.00   P
RDWB 2.500 1.00   S
RDWB 1.300 1.00   P
REF 2.560 1.00   S
REF 1.000 1.00   P
RSO 1.101 1.00   P
#  2009  3  9 13 37 13.94  60.4785 -152.7493   -1.810  0.00 0.00 0.00 0.00        668
RDN 1.639 1.00   P
RDWB 2.559 1.00   S
RDWB 1.659 1.00   P
REF 1.779 1.00   S
REF 1.379 1.00   P
RSO 1.000 1.00   P
#  2009  3 14 18 41 35.76  60.5052 -152.7722   -0.860  0.70 0.00 0.00 0.00        669
RDJH 4.280 1.00   S
RDJH 2.140 1.00   P
RDWB 1.920 1.00   S
RDWB 1.000 1.00   P
RSO 1.061 1.00   P
#  2009  3  4  7 24  7.90  60.3195 -152.6657   10.840  0.40 0.00 0.00 0.00        671
NCT 2.920 1.00   P
RDE 3.500 1.00   P
RSO 1.000 1.00   P
#  2009  3  8  4 59 51.84  60.4780 -152.7773    1.260  0.10 0.00 0.00 0.00        672
RDN 1.480 1.00   P
RDWB 1.740 1.00   S
RDWB 1.040 1.00   P
REF 2.040 1.00   S
REF 1.000 1.00   P
RSO 1.080 1.00   P
#  2009  3 11 21 39 27.38  60.5312 -152.7587    5.800 -0.30 0.00 0.00 0.00        673
NCT 1.780 1.00   P
RDJH 2.780 1.00   S
RDN 1.000 1.00   P
RDWB 2.680 1.00   S
RDWB 1.400 1.00   P
REF 2.620 1.00   S
REF 1.340 1.00   P
RSO 1.800 1.00   P
#  2009  3  7 15 32 48.90  60.4557 -152.7733    4.330  0.80 0.00 0.00 0.00        674
RDN 1.440 1.00   P
RDWB 2.080 1.00   S
RDWB 1.040 1.00   P
REF 2.420 1.00   S
REF 1.000 1.00   P
RSO 1.160 1.00   P
#  2009  3  1 20 44 13.76  60.4703 -152.6860    6.250  0.30 0.00 0.00 0.00        675
RDN 1.420 1.00   P
RDWB 3.220 1.00   S
RDWB 1.440 1.00   P
REF 2.080 1.00   S
REF 1.000 1.00   P
RSO 1.244 1.00   P
#  2009  3 11 15 11 12.16  60.4663 -152.6792    0.950  0.30 0.00 0.00 0.00        676
RDN 1.660 1.00   P
RDWB 3.540 1.00   S
RDWB 2.420 1.00   P
REF 1.460 1.00   S
REF 1.000 1.00   P
RSO 1.140 1.00   P
#  2009  3 12 17  3 31.78  60.4880 -152.7637   -1.750 -0.10 0.00 0.00 0.00        677
RDN 1.680 1.00   P
RDWB 1.880 1.00   S
RDWB 1.400 1.00   P
REF 1.800 1.00   S
REF 1.000 1.00   P
#  2009  3  8 16 12 52.06  60.4722 -152.7685    4.770  0.90 0.00 0.00 0.00        678
RDN 1.200 1.00   P
RDWB 2.100 1.00   S
RDWB 1.260 1.00   P
REF 2.260 1.00   S
REF 1.100 1.00   P
RSO 1.000 1.00   P
#  2009  3  8 15 38 31.58  60.5357 -152.7940    0.280  0.30 0.00 0.00 0.00        683
RDN 1.000 1.00   P
RDWB 2.580 1.00   S
RDWB 1.840 1.00   P
REF 3.260 1.00   S
REF 2.320 1.00   P
RSO 1.780 1.00   P
#  2009  3 10 23 45 46.40  60.5143 -152.7800    0.880  0.10 0.00 0.00 0.00        684
RDN 1.000 1.00   P
RDWB 2.120 1.00   S
RDWB 1.420 1.00   P
REF 2.500 1.00   S
REF 1.480 1.00   P
RSO 1.960 1.00   P
