#  2009  3 21 18 50 24.24  60.4852 -152.7642    3.000  0.30 0.00 0.00 0.00       1668
RDN 1.000 1.00   P
RDWB 1.980 1.00   S
RDWB 1.220 1.00   P
REF 1.920 1.00   S
REF 1.180 1.00   P
#  2009  3 22 13 49 29.84  60.5045 -152.7540    6.210  0.80 0.00 0.00 0.00       1685
RDN 1.080 1.00   P
RDWB 2.520 1.00   S
RDWB 1.000 1.00   P
REF 2.320 1.00   S
REF 2.320 1.00   S
REF 1.060 1.00   P
RSO 1.420 1.00   P
#  2009  3 21  6 20  3.76  60.4795 -152.7713    0.850  0.00 0.00 0.00 0.00       1736
RDN 1.520 1.00   P
RDWB 1.780 1.00   S
RDWB 1.000 1.00   P
REF 1.860 1.00   S
REF 1.020 1.00   P
#  2009  3 22  2 56 29.82  60.4983 -152.7333    7.730 -0.20 0.00 0.00 0.00       1763
DFR 1.700 1.00   P
RDE 1.820 1.00   P
RDJH 3.840 1.00   S
RDJH 1.780 1.00   P
RDN 1.000 1.00   P
RDWB 2.620 1.00   S
RDWB 1.200 1.00   P
REF 2.300 1.00   S
REF 1.020 1.00   P
RSO 1.300 1.00   P
#  2009  3 22 18  7 55.62  60.4972 -152.7775    0.560  0.90 0.00 0.00 0.00       1764
RDJH 2.580 1.00   P
RDN 1.000 1.00   P
RDWB 1.700 1.00   S
RDWB 1.080 1.00   P
REF 2.420 1.00   S
REF 2.140 1.00   S
REF 1.180 1.00   P
RSO 1.400 1.00   P
#  2009  3 28 21 39 59.54  60.4667 -152.7267   -2.960  2.30 0.00 0.00 0.00       1765
NCT 4.360 1.00   P
RDN 1.980 1.00   P
RDWB 3.680 1.00   S
RDWB 2.260 1.00   P
REF 2.380 1.00   S
REF 1.000 1.00   P
#  2009  3 23 22 40 28.76  60.4867 -152.7748   -0.140  0.70 0.00 0.00 0.00       1766
RDE 2.821 1.00   P
RDN 1.000 1.00   P
REF 1.760 1.00   S
REF 1.780 1.00   S
REF 1.080 1.00   P
#  2009  3 19  8 25 26.26  60.4980 -152.8110    4.990 -0.60 0.00 0.00 0.00       1767
RDJH 3.940 1.00   P
RDN 1.000 1.00   P
RDWB 1.820 1.00   S
RDWB 1.000 1.00   P
REF 2.560 1.00   S
REF 1.400 1.00   P
#  2009  3 30 22 41 16.12  60.4635 -152.7723    2.920  1.00 0.00 0.00 0.00       1768
DFR 2.640 1.00   P
NCT 2.300 1.00   P
RDN 1.000 1.00   P
RDWB 1.880 1.00   S
RDWB 1.120 1.00   P
REF 2.100 1.00   S
REF 1.020 1.00   P
#  2009  3 21 17 14 41.42  60.4772 -152.7728    0.590  0.50 0.00 0.00 0.00       1769
RDJH 4.480 1.00   S
RDJH 2.440 1.00   P
RDN 1.000 1.00   P
RDWB 1.640 1.00   S
RDWB 1.000 1.00   P
REF 1.920 1.00   S
REF 1.080 1.00   P
#  2009  3 27  4 56 40.06  60.4900 -152.7680    0.180  1.40 0.00 0.00 0.00       1773
DFR 2.580 1.00   P
NCT 2.540 1.00   P
RDE 2.880 1.00   P
RDN 1.000 1.00   P
RDT 4.100 1.00   P
RDWB 1.800 1.00   S
RDWB 1.100 1.00   P
RED 2.940 1.00   S
RED 1.720 1.00   P
REF 1.820 1.00   S
REF 1.100 1.00   P
#  2009  3 22  1 12 39.86  60.4990 -152.7795    4.310  0.00 0.00 0.00 0.00       1786
RDN 1.000 1.00   P
RDWB 1.960 1.00   S
RDWB 1.140 1.00   P
REF 2.260 1.00   S
REF 1.140 1.00   P
RSO 1.120 1.00   P
#  2009  3 22  9 48 57.36  60.4668 -152.7810    4.990  0.50 0.00 0.00 0.00       1787
RDN 1.580 1.00   P
RDWB 2.020 1.00   S
RDWB 1.000 1.00   P
REF 2.360 1.00   S
REF 1.140 1.00   P
RSO 1.540 1.00   P
#  2009  3 22 16 43 42.12  60.4908 -152.7715    0.600 -0.20 0.00 0.00 0.00       1788
RDWB 1.780 1.00   S
RDWB 1.000 1.00   P
REF 1.880 1.00   S
REF 1.020 1.00   P
RSO 1.420 1.00   P
#  2009  3 27  6 41 39.00  60.4905 -152.7670    0.200  1.70 0.00 0.00 0.00       1795
DFR 2.640 1.00   P
NCT 2.600 1.00   P
RDE 2.860 1.00   P
RDN 1.000 1.00   P
RDT 4.120 1.00   P
RDWB 1.880 1.00   S
RDWB 1.120 1.00   P
RED 2.980 1.00   S
RED 1.720 1.00   P
REF 1.860 1.00   S
REF 1.080 1.00   P
#  2009  3 22 10  4  4.96  60.4808 -152.7768    0.530  1.00 0.00 0.00 0.00       1803
NCT 6.840 1.00   P
RD02 1.000 1.00   P
RD03 1.180 1.00   P
RDJH 8.960 1.00   S
RDJH 6.780 1.00   P
RDN 5.520 1.00   P
RDW 1.000 1.00   P
RDWB 5.960 1.00   S
RDWB 5.280 1.00   P
REF 6.500 1.00   S
REF 5.320 1.00   P
RSO 5.320 1.00   P
#  2009  3 30 11 12 22.70  60.5033 -152.7835   -2.980  1.00 0.00 0.00 0.00       1808
DFR 2.720 1.00   P
NCT 2.580 1.00   P
RDE 3.340 1.00   P
RDN 1.280 1.00   P
RDT 4.700 1.00   P
RDWB 2.180 1.00   S
RDWB 1.140 1.00   P
REF 2.680 1.00   S
REF 1.000 1.00   P
#  2009  3 23 15 30 19.90  60.4823 -152.7760   -0.310  0.30 0.00 0.00 0.00       1809
RDE 2.841 1.00   P
RDN 1.000 1.00   P
REF 1.720 1.00   S
REF 1.020 1.00   P
#  2009  3 22 17 36 13.80  60.4635 -152.7685   -1.980 -0.20 0.00 0.00 0.00       1810
RDN 2.220 1.00   P
RDWB 2.780 1.00   S
RDWB 2.000 1.00   P
REF 2.880 1.00   S
REF 2.060 1.00   P
RSO 1.000 1.00   P
#  2009  3 27  6 43 33.58  60.4915 -152.7678   -0.120  1.70 0.00 0.00 0.00       1838
DFR 2.600 1.00   P
NCT 2.580 1.00   P
RDE 2.880 1.00   P
RDN 1.000 1.00   P
RDT 4.120 1.00   P
RDWB 1.820 1.00   S
RDWB 1.100 1.00   P
RED 3.040 1.00   S
RED 1.720 1.00   P
REF 1.840 1.00   S
REF 1.080 1.00   P
#  2009  3 22 16 27 13.00  60.5102 -152.7718   -1.360  0.30 0.00 0.00 0.00       1844
RDN 1.780 1.00   P
RDWB 1.760 1.00   S
RDWB 1.000 1.00   P
REF 1.880 1.00   S
REF 1.040 1.00   P
RSO 1.500 1.00   P
#  2009  3 22 13 41 44.60  60.4487 -152.7443    1.760  0.90 0.00 0.00 0.00       1845
RDN 1.920 1.00   P
RDWB 2.900 1.00   S
RDWB 1.480 1.00   P
REF 2.320 1.00   S
RSO 1.000 1.00   P
#  2009  3 22 17 30 31.98  60.4925 -152.7650    2.740  0.50 0.00 0.00 0.00       1846
RDN 1.000 1.00   P
RDWB 1.960 1.00   S
RDWB 1.100 1.00   P
REF 1.880 1.00   S
REF 1.040 1.00   P
RSO 1.200 1.00   P
#  2009  3 22 14 11  7.00  60.4822 -152.7908    3.710  0.80 0.00 0.00 0.00       1940
RDN 1.660 1.00   P
RDWB 2.040 1.00   S
RDWB 1.000 1.00   P
REF 2.380 1.00   S
REF 1.160 1.00   P
RSO 1.520 1.00   P
#  2009  3 21  4 16 15.68  60.4948 -152.7738   -0.700  0.50 0.00 0.00 0.00       1941
RDJH 2.500 1.00   P
RDN 1.000 1.00   P
RDWB 1.680 1.00   S
RDWB 1.020 1.00   P
REF 1.900 1.00   S
REF 1.120 1.00   P
#  2009  3 22 22 59 56.08  60.4983 -152.7497    6.700  0.30 0.00 0.00 0.00       1946
RDN 1.000 1.00   P
RDWB 2.820 1.00   S
RDWB 1.580 1.00   P
REF 2.520 1.00   S
REF 1.560 1.00   P
RSO 2.340 1.00   P
#  2009  3 21  0 47 11.98  60.4942 -152.7748   -0.300  0.60 0.00 0.00 0.00       1948
RDJH 5.480 1.00   S
RDJH 2.520 1.00   P
RDN 1.000 1.00   P
RDWB 1.740 1.00   S
RDWB 1.060 1.00   P
REF 2.040 1.00   S
REF 1.100 1.00   P
#  2009  3 22  3 38 25.68  60.4857 -152.7645    1.300  0.90 0.00 0.00 0.00       1954
NCT 2.580 1.00   P
RDJH 3.660 1.00   S
RDJH 2.760 1.00   P
RDN 1.060 1.00   P
RDWB 2.040 1.00   S
RDWB 1.180 1.00   P
REF 1.940 1.00   S
REF 1.880 1.00   S
REF 1.140 1.00   P
RSO 1.000 1.00   P
#  2009  3 27  7  9 57.10  60.4843 -152.7688    0.620  1.10 0.00 0.00 0.00       1958
NCT 2.480 1.00   P
RDN 1.020 1.00   P
RDWB 1.740 1.00   S
RDWB 1.000 1.00   P
REF 1.720 1.00   S
REF 1.120 1.00   P
#  2009  3 23  8  0  9.52  60.4893 -152.7703    1.350  0.10 0.00 0.00 0.00       2022
RD01 1.000 1.00   P
RD02 3.700 1.00   P
RD03 4.140 1.00   P
RDN 3.220 1.00   P
REF 4.100 1.00   S
REF 4.020 1.00   S
REF 3.280 1.00   P
#  2009  3 18  3  7 42.32  60.4903 -152.8092    2.520 -0.20 0.00 0.00 0.00       2029
RDN 1.220 1.00   P
RDWB 1.540 1.00   S
RDWB 1.060 1.00   P
REF 2.660 1.00   S
REF 1.000 1.00   P
#  2009  3 22  9 59 35.44  60.4818 -152.7573    3.620 -0.10 0.00 0.00 0.00       2030
RDWB 2.080 1.00   S
RDWB 1.020 1.00   P
REF 1.860 1.00   S
REF 1.000 1.00   P
RSO 1.360 1.00   P
#  2009  3 22 11  0 16.16  60.5078 -152.7532    3.030 -0.20 0.00 0.00 0.00       2090
RDN 1.500 1.00   P
RDWB 2.600 1.00   S
RDWB 1.760 1.00   P
REF 2.200 1.00   S
REF 2.600 1.00   S
REF 1.000 1.00   P
RSO 1.900 1.00   P
#  2009  3 22 15 58 20.32  60.4945 -152.7605    3.850  0.10 0.00 0.00 0.00       2091
RDN 1.100 1.00   P
RDWB 2.220 1.00   S
RDWB 1.820 1.00   P
REF 2.220 1.00   S
REF 1.000 1.00   P
RSO 1.480 1.00   P
#  2009  3 21 12 53 11.78  60.4827 -152.7510    1.530  0.70 0.00 0.00 0.00       2110
RDJH 2.640 1.00   P
RDN 1.080 1.00   P
RDWB 2.280 1.00   S
RDWB 1.000 1.00   P
REF 1.840 1.00   S
REF 1.080 1.00   P
#  2009  3 22 21 13 13.54  60.4732 -152.7203    3.290 -0.60 0.00 0.00 0.00       2120
RDN 1.760 1.00   P
RDWB 2.700 1.00   S
RDWB 1.320 1.00   P
REF 1.820 1.00   S
REF 1.000 1.00   P
RSO 1.680 1.00   P
#  2009  3 16  5 11 34.82  60.4528 -152.7698    1.930  0.60 0.00 0.00 0.00       2121
RDN 1.000 1.00   P
RDWB 1.940 1.00   S
RDWB 1.200 1.00   P
REF 2.120 1.00   S
REF 1.020 1.00   P
#  2009  3 22 20  7 51.76  60.4845 -152.7658    2.410 -0.30 0.00 0.00 0.00       2122
RDWB 1.840 1.00   S
RDWB 1.020 1.00   P
REF 1.860 1.00   S
REF 1.000 1.00   P
RSO 1.260 1.00   P
#  2009  3 22 13 41 10.72  60.4897 -152.7923    2.600 -0.50 0.00 0.00 0.00       2130
RDN 1.340 1.00   P
RDWB 1.680 1.00   S
RDWB 1.000 1.00   P
REF 2.460 1.00   S
REF 1.080 1.00   P
RSO 1.560 1.00   P
#  2009  3 21  8 14  0.04  60.4862 -152.7683    0.560 -0.60 0.00 0.00 0.00       2150
RDN 1.480 1.00   P
RDWB 1.840 1.00   S
RDWB 1.000 1.00   P
REF 1.800 1.00   S
REF 1.020 1.00   P
#  2009  3 23 15 21 38.38  60.4858 -152.7650    0.460  0.40 0.00 0.00 0.00       2168
RDE 2.881 1.00   P
RDN 1.020 1.00   P
RED 3.280 1.00   S
RED 1.780 1.00   P
REF 1.720 1.00   S
REF 1.000 1.00   P
#  2009  3 18  2 15 35.70  60.4880 -152.8095    8.730  0.90 0.00 0.00 0.00       2169
RDN 1.000 1.00   P
RDWB 2.220 1.00   S
RDWB 1.020 1.00   P
REF 2.820 1.00   S
REF 1.140 1.00   P
#  2009  3 27  2 20 15.42  60.4833 -152.7670    0.480  1.20 0.00 0.00 0.00       2170
DFR 2.780 1.00   P
NCT 2.660 1.00   P
RD01 1.060 1.00   P
RD02 1.040 1.00   P
RD03 1.120 1.00   P
RDE 2.980 1.00   P
RDN 1.080 1.00   P
RDW 1.000 1.00   P
RDWB 1.920 1.00   S
RDWB 1.200 1.00   P
REF 1.900 1.00   S
REF 1.180 1.00   P
#  2009  3 29 17 59 43.30  60.4980 -152.7540    1.390  0.70 0.00 0.00 0.00       2279
RDE 2.460 1.00   P
RDN 1.000 1.00   P
RDT 3.680 1.00   P
RDWB 2.160 1.00   S
RDWB 1.280 1.00   P
REF 1.760 1.00   S
REF 1.100 1.00   P
#  2009  3 22 15 31 18.80  60.4963 -152.7633   -0.040  0.30 0.00 0.00 0.00       2280
RDJH 2.580 1.00   P
RDN 1.000 1.00   P
RDWB 1.960 1.00   S
RDWB 1.140 1.00   P
REF 1.820 1.00   S
REF 1.080 1.00   P
RSO 1.360 1.00   P
#  2009  3 28 17  2 56.62  60.4682 -152.7938    4.260  0.50 0.00 0.00 0.00       2281
NCT 3.080 1.00   P
RDN 1.260 1.00   P
RDWB 1.900 1.00   S
RDWB 1.000 1.00   P
REF 2.360 1.00   S
REF 1.300 1.00   P
#  2009  3 31 17 45 55.90  60.4947 -152.7435    0.110  0.70 0.00 0.00 0.00       2282
DFR 3.080 1.00   P
NCT 3.160 1.00   P
RDN 1.000 1.00   P
RDWB 2.800 1.00   S
RDWB 1.560 1.00   P
REF 1.860 1.00   S
REF 1.200 1.00   P
#  2009  3 15  0 34 48.62  60.4965 -152.7698    2.250 -0.20 0.00 0.00 0.00       2283
RDN 1.000 1.00   P
RDWB 2.020 1.00   S
RDWB 1.200 1.00   P
REF 2.020 1.00   S
REF 1.300 1.00   P
RSO 2.440 1.00   P
#  2009  3 22 13 57 32.64  60.4897 -152.7565    0.070  0.10 0.00 0.00 0.00       2284
NCT 2.640 1.00   P
RDJH 2.640 1.00   P
RDN 1.100 1.00   P
RDWB 1.980 1.00   S
RDWB 1.200 1.00   P
REF 1.480 1.00   S
REF 1.120 1.00   P
RSO 1.000 1.00   P
#  2009  3 30 15 35  0.84  60.4888 -152.7642    0.470  0.40 0.00 0.00 0.00       2285
DFR 2.680 1.00   P
NCT 2.700 1.00   P
RDN 1.000 1.00   P
RDWB 2.020 1.00   S
RDWB 1.160 1.00   P
REF 1.920 1.00   S
REF 1.020 1.00   P
#  2009  3 22 19 24 43.10  60.4932 -152.7528    2.450  1.10 0.00 0.00 0.00       2286
RDWB 2.160 1.00   S
RDWB 1.100 1.00   P
REF 1.740 1.00   S
REF 1.000 1.00   P
RSO 1.580 1.00   P
#  2009  3 22 17 13 41.02  60.5033 -152.7733    5.460 -0.50 0.00 0.00 0.00       2287
RDN 1.060 1.00   P
RDWB 1.540 1.00   P
REF 2.640 1.00   S
REF 1.000 1.00   P
RSO 1.640 1.00   P
#  2009  3 22  7 28 28.04  60.4640 -152.7860    3.200  0.60 0.00 0.00 0.00       2294
NCT 2.500 1.00   P
RDJH 4.800 1.00   S
RDJH 2.660 1.00   P
RDN 1.000 1.00   P
RDWB 1.700 1.00   S
RDWB 1.080 1.00   P
REF 2.320 1.00   S
REF 2.320 1.00   S
REF 1.120 1.00   P
RSO 1.040 1.00   P
#  2009  3 22  9 10 40.98  60.4970 -152.7662    0.380  0.10 0.00 0.00 0.00       2295
RDN 1.000 1.00   P
RDWB 1.860 1.00   S
RDWB 1.080 1.00   P
REF 1.760 1.00   S
REF 1.040 1.00   P
RSO 1.320 1.00   P
#  2009  3 22  9 16  3.74  60.4875 -152.7697    1.010  0.30 0.00 0.00 0.00       2310
RDN 1.120 1.00   P
RDWB 1.820 1.00   S
RDWB 1.140 1.00   P
REF 1.960 1.00   S
REF 1.140 1.00   P
RSO 1.000 1.00   P
#  2009  3 23  1 31 10.78  60.4940 -152.7800    1.640 -0.30 0.00 0.00 0.00       2311
RD01 9.820 1.00   P
RD02 1.000 1.00   P
RD03 2.080 1.00   P
RDN 3.800 1.00   P
RDW 8.060 1.00   P
REF 4.600 1.00   S
REF 3.680 1.00   P
#  2009  3 22  9 32 52.38  60.5030 -152.7715    2.790  0.90 0.00 0.00 0.00       2312
RDN 1.000 1.00   P
RDWB 1.960 1.00   S
RDWB 1.120 1.00   P
REF 2.000 1.00   S
REF 1.100 1.00   P
RSO 1.480 1.00   P
#  2009  3 23  6 40 54.22  60.4983 -152.7750   -0.700  1.50 0.00 0.00 0.00       2313
RDE 2.761 1.00   P
RED 3.280 1.00   S
RED 1.780 1.00   P
REF 1.960 1.00   S
REF 1.000 1.00   P
#  2009  3 21 14 55 27.38  60.4693 -152.7778    2.170  0.50 0.00 0.00 0.00       2317
RDJH 4.580 1.00   S
RDJH 2.460 1.00   P
RDN 1.000 1.00   P
RDWB 1.840 1.00   S
RDWB 1.100 1.00   P
REF 2.320 1.00   S
REF 1.100 1.00   P
#  2009  3 22 18  4 38.26  60.4785 -152.7733    3.960  0.10 0.00 0.00 0.00       2318
RDN 1.000 1.00   P
RDWB 1.880 1.00   S
RDWB 1.020 1.00   P
REF 2.040 1.00   S
REF 1.080 1.00   P
RSO 1.760 1.00   P
#  2009  3 22 20 46 38.86  60.4943 -152.7700    2.520 -0.10 0.00 0.00 0.00       2319
RDWB 1.820 1.00   S
RDWB 1.000 1.00   P
REF 1.880 1.00   S
REF 1.020 1.00   P
RSO 1.440 1.00   P
#  2009  3 19  2 14 23.52  60.4873 -152.7713    1.190  0.00 0.00 0.00 0.00       2320
RDN 1.100 1.00   P
RDWB 1.720 1.00   S
RDWB 1.280 1.00   P
REF 1.980 1.00   S
REF 1.000 1.00   P
#  2009  3 15 12  8 52.58  60.4527 -152.7642    3.310  0.60 0.00 0.00 0.00       2321
RDN 1.660 1.00   P
RDWB 2.100 1.00   S
RDWB 1.460 1.00   P
REF 2.180 1.00   S
REF 1.040 1.00   P
RSO 1.000 1.00   P
#  2009  3 23 14 26 53.86  60.4897 -152.7545   -0.030  0.80 0.00 0.00 0.00       2322
RDE 2.821 1.00   P
RDN 1.000 1.00   P
RED 2.940 1.00   S
RED 1.720 1.00   P
REF 1.020 1.00   P
#  2009  3 21  5 10 17.40  60.4812 -152.7797    0.850  0.70 0.00 0.00 0.00       2323
RDN 1.720 1.00   P
RDWB 1.720 1.00   S
RDWB 1.000 1.00   P
REF 2.140 1.00   S
REF 1.080 1.00   P
#  2009  3 19  9 50  9.78  60.4653 -152.7775    3.620  0.40 0.00 0.00 0.00       2331
RDN 1.500 1.00   P
RDWB 1.960 1.00   S
RDWB 1.000 1.00   P
REF 2.160 1.00   S
REF 1.020 1.00   P
#  2009  3 19  2 14 52.12  60.4852 -152.7547    0.750 -0.90 0.00 0.00 0.00       2332
RDN 1.780 1.00   P
RDWB 2.280 1.00   S
RDWB 1.560 1.00   P
REF 1.980 1.00   S
REF 1.000 1.00   P
#  2009  3 22 23 50 46.70  60.4918 -152.7662    4.640  0.50 0.00 0.00 0.00       2333
RDN 1.000 1.00   P
RDWB 2.080 1.00   S
RDWB 1.040 1.00   P
REF 2.060 1.00   S
REF 1.040 1.00   P
RSO 1.040 1.00   P
#  2009  3 27 12 41 46.42  60.4778 -152.7568    1.900  0.40 0.00 0.00 0.00       2375
NCT 2.900 1.00   P
RDN 1.720 1.00   P
RDWB 2.360 1.00   S
RDWB 1.540 1.00   P
REF 2.360 1.00   S
REF 1.000 1.00   P
#  2009  3 22  0 46 28.90  60.4818 -152.7717    0.470 -0.30 0.00 0.00 0.00       2377
RD02 3.440 1.00   P
RD03 3.140 1.00   P
RDN 3.620 1.00   P
RDW 1.000 1.00   P
RDWB 3.740 1.00   S
RDWB 2.980 1.00   P
REF 3.840 1.00   S
REF 3.040 1.00   P
RSO 3.320 1.00   P
#  2009  3 22 21  5 29.98  60.4858 -152.7728    0.320  0.30 0.00 0.00 0.00       2389
RDN 1.100 1.00   P
RDWB 1.620 1.00   S
RDWB 1.000 1.00   P
REF 1.820 1.00   S
REF 1.060 1.00   P
RSO 1.560 1.00   P
#  2009  3 22 18 58 42.20  60.4980 -152.7893   -0.640  0.40 0.00 0.00 0.00       2390
RDN 1.020 1.00   P
RDWB 1.400 1.00   S
RDWB 1.000 1.00   P
REF 2.100 1.00   S
REF 2.220 1.00   S
REF 1.000 1.00   P
RSO 1.480 1.00   P
#  2009  3 27  6  4 35.24  60.4907 -152.7675   -0.050  1.60 0.00 0.00 0.00       2391
DFR 2.620 1.00   P
NCT 2.520 1.00   P
RDE 2.860 1.00   P
RDN 1.000 1.00   P
RDT 4.060 1.00   P
RDWB 1.820 1.00   S
RDWB 1.040 1.00   P
RED 2.900 1.00   S
RED 1.680 1.00   P
REF 1.800 1.00   S
REF 1.060 1.00   P
#  2009  3 22 23 33  7.88  60.4875 -152.7910    1.910  0.30 0.00 0.00 0.00       2399
RDN 1.720 1.00   P
RDWB 1.800 1.00   S
RDWB 1.000 1.00   P
REF 2.280 1.00   S
REF 1.220 1.00   P
RSO 1.640 1.00   P
#  2009  3 22  1 13 49.40  60.4847 -152.7677    2.260  0.40 0.00 0.00 0.00       2406
RDN 1.000 1.00   P
RDWB 1.820 1.00   S
RDWB 1.060 1.00   P
REF 1.840 1.00   S
REF 1.100 1.00   P
RSO 1.220 1.00   P
#  2009  3 15 21 22 38.78  60.4932 -152.7582   -0.640  0.50 0.00 0.00 0.00       2433
RDN 1.300 1.00   P
RDWB 1.960 1.00   S
RDWB 1.860 1.00   P
REF 1.960 1.00   S
REF 1.000 1.00   P
RSO 1.580 1.00   P
#  2009  3 22  9 46 42.10  60.4942 -152.7153    0.720  0.00 0.00 0.00 0.00       2434
RDN 1.560 1.00   P
RDWB 3.220 1.00   S
RDWB 2.300 1.00   P
REF 1.780 1.00   S
REF 1.000 1.00   P
RSO 1.780 1.00   P
#  2009  3 22 15 43 39.16  60.4893 -152.7652    0.110  0.30 0.00 0.00 0.00       2435
RDN 1.580 1.00   P
RDWB 1.860 1.00   S
REF 1.760 1.00   S
REF 1.000 1.00   P
RSO 1.480 1.00   P
#  2009  3 22 23 24 25.96  60.5005 -152.7995    3.710  0.10 0.00 0.00 0.00       2436
RDN 1.040 1.00   P
RDWB 1.680 1.00   S
RDWB 1.000 1.00   P
REF 2.400 1.00   S
REF 1.060 1.00   P
RSO 1.860 1.00   P
#  2009  3 22  7 16  4.62  60.4895 -152.7705    3.840  0.20 0.00 0.00 0.00       2471
RDN 1.000 1.00   P
RDWB 2.000 1.00   S
RDWB 1.120 1.00   P
REF 2.000 1.00   S
REF 2.140 1.00   S
REF 1.160 1.00   P
RSO 1.000 1.00   P
#  2009  3 22 14  5 57.96  60.4855 -152.7712    0.760  0.70 0.00 0.00 0.00       2472
NCT 2.500 1.00   P
RDJH 4.640 1.00   S
RDJH 2.480 1.00   P
RDN 1.100 1.00   P
RDWB 1.840 1.00   S
RDWB 1.040 1.00   P
REF 1.940 1.00   S
REF 1.160 1.00   P
RSO 1.000 1.00   P
#  2009  3 22  7 16 54.26  60.4808 -152.7658    1.260  0.30 0.00 0.00 0.00       2474
RDN 1.200 1.00   P
RDWB 1.860 1.00   S
RDWB 1.000 1.00   P
REF 1.780 1.00   S
REF 1.020 1.00   P
RSO 1.220 1.00   P
#  2009  3 22 17 45 53.00  60.5025 -152.7800    0.900  0.30 0.00 0.00 0.00       2513
RDJH 2.480 1.00   P
RDN 1.000 1.00   P
RDWB 1.960 1.00   S
RDWB 1.120 1.00   P
REF 2.300 1.00   S
REF 1.140 1.00   P
RSO 1.440 1.00   P
#  2009  3 27  4 32 41.68  60.4895 -152.7682    0.190  1.60 0.00 0.00 0.00       2516
DFR 2.580 1.00   P
NCT 2.540 1.00   P
RDE 2.840 1.00   P
RDN 1.000 1.00   P
RDT 4.100 1.00   P
RDWB 1.780 1.00   S
RDWB 1.120 1.00   P
RED 2.920 1.00   S
RED 1.700 1.00   P
REF 1.820 1.00   S
REF 1.080 1.00   P
#  2009  3 19  5 36 38.72  60.5027 -152.7298    2.300  0.40 0.00 0.00 0.00       2532
RDN 1.040 1.00   P
RDWB 2.620 1.00   S
RDWB 1.600 1.00   P
REF 1.780 1.00   S
REF 1.000 1.00   P
#  2009  3 15  1 44  2.82  60.4982 -152.7050    2.580 -0.10 0.00 0.00 0.00       2533
RDJH 5.200 1.00   P
RDN 1.200 1.00   P
RDWB 3.020 1.00   S
RDWB 1.820 1.00   P
REF 1.720 1.00   S
REF 1.000 1.00   P
RSO 1.520 1.00   P
#  2009  3 27  5 38 32.90  60.4902 -152.7675   -0.030  1.70 0.00 0.00 0.00       2534
DFR 2.740 1.00   P
NCT 2.620 1.00   P
RDE 2.920 1.00   P
RDN 1.000 1.00   P
RDT 4.200 1.00   P
RDWB 1.880 1.00   S
RDWB 1.140 1.00   P
RED 3.000 1.00   S
RED 1.780 1.00   P
REF 1.900 1.00   S
REF 1.120 1.00   P
#  2009  3 25  2 31 46.70  60.5538 -152.7477    1.340  0.50 0.00 0.00 0.00       2545
DFR 1.000 1.00   P
NCT 1.800 1.00   P
RDWB 3.140 1.00   S
RDWB 1.560 1.00   P
#  2009  3 16  5 26 32.38  60.4885 -152.7745    2.860 -0.40 0.00 0.00 0.00       2546
RDN 1.100 1.00   P
RDWB 1.720 1.00   S
RDWB 1.420 1.00   P
REF 2.260 1.00   S
REF 1.000 1.00   P
#  2009  3 22 18 16 44.08  60.4858 -152.7837    2.340  0.00 0.00 0.00 0.00       2547
RDN 1.460 1.00   P
RDWB 1.660 1.00   S
RDWB 1.000 1.00   P
REF 2.060 1.00   S
REF 1.080 1.00   P
RSO 1.320 1.00   P
#  2009  3 28 16  2 16.00  60.4443 -152.8012   -2.370  1.00 0.00 0.00 0.00       2551
NCT 2.760 1.00   P
RDN 1.420 1.00   P
RDWB 1.520 1.00   S
RDWB 1.000 1.00   P
REF 2.580 1.00   S
REF 1.080 1.00   P
#  2009  3 22 18 22  8.06  60.5063 -152.7667    4.720  0.10 0.00 0.00 0.00       2552
RDN 1.120 1.00   P
RDWB 2.320 1.00   S
RDWB 1.000 1.00   P
REF 2.120 1.00   S
REF 1.080 1.00   P
RSO 1.500 1.00   P
#  2009  3 22 18 32 16.12  60.4858 -152.7628    2.490  0.40 0.00 0.00 0.00       2553
RDN 1.020 1.00   P
RDWB 1.920 1.00   S
RDWB 1.080 1.00   P
REF 1.860 1.00   S
REF 1.760 1.00   S
REF 1.000 1.00   P
RSO 1.300 1.00   P
