#  2009  3 16  5 42 50.38  60.4892 -152.7427    0.150  0.10 0.00 0.00 0.00       2557
RDN 1.720 1.00   P
RDWB 2.540 1.00   S
RDWB 1.640 1.00   P
REF 1.880 1.00   S
REF 1.000 1.00   P
#  2009  3 22 15  0 15.78  60.4915 -152.7747    0.590  0.60 0.00 0.00 0.00       2558
NCT 2.580 1.00   P
RDJH 4.740 1.00   S
RDJH 2.600 1.00   P
RDN 1.080 1.00   P
RDWB 1.900 1.00   S
RDWB 1.120 1.00   P
REF 2.140 1.00   S
REF 2.100 1.00   S
REF 1.140 1.00   P
RSO 1.000 1.00   P
#  2009  3 22 18 41 12.32  60.4863 -152.7655    1.330 -0.30 0.00 0.00 0.00       2559
RDN 1.480 1.00   P
RDWB 1.820 1.00   S
RDWB 1.000 1.00   P
REF 1.760 1.00   S
REF 1.660 1.00   S
REF 1.000 1.00   P
RSO 1.240 1.00   P
#  2009  3 22 17 11 17.54  60.4760 -152.7667    1.810 -0.20 0.00 0.00 0.00       2632
RDN 1.280 1.00   P
RDWB 1.820 1.00   S
RDWB 1.080 1.00   P
REF 1.840 1.00   S
REF 1.000 1.00   P
RSO 1.160 1.00   P
#  2009  3 22 19 15  3.88  60.4658 -152.7612    3.070  0.40 0.00 0.00 0.00       2633
NCT 2.480 1.00   P
RDJH 4.660 1.00   S
RDJH 2.480 1.00   P
RDN 1.080 1.00   P
RDWB 2.020 1.00   S
RDWB 1.000 1.00   P
REF 1.880 1.00   S
REF 1.040 1.00   P
RSO 1.020 1.00   P
#  2009  3 22 16 20 56.68  60.4992 -152.7750    3.640  0.40 0.00 0.00 0.00       2634
RD01 1.280 1.00   P
RD02 1.000 1.00   P
RD03 2.460 1.00   P
RDN 7.580 1.00   P
RDW 1.000 1.00   P
RDWB 8.540 1.00   S
RDWB 7.620 1.00   P
REF 8.760 1.00   S
REF 7.660 1.00   P
RSO 8.180 1.00   P
#  2009  3 30 23 43  9.70  60.4775 -152.7038    4.520  1.50 0.00 0.00 0.00       2635
DFR 1.800 1.00   P
NCT 3.120 1.00   P
RDN 1.340 1.00   P
RDWB 2.580 1.00   S
RDWB 1.740 1.00   P
REF 1.740 1.00   S
REF 1.000 1.00   P
#  2009  3 22 23 10  2.88  60.4927 -152.7652    1.960 -0.60 0.00 0.00 0.00       2636
RDN 1.000 1.00   P
RDWB 1.860 1.00   S
RDWB 1.040 1.00   P
REF 1.740 1.00   S
REF 1.040 1.00   P
RSO 1.260 1.00   P
#  2009  3 31  1  2 57.32  60.4950 -152.7525    1.960  0.90 0.00 0.00 0.00       2637
DFR 2.400 1.00   P
NCT 2.540 1.00   P
RD01 1.380 1.00   P
RD02 1.000 1.00   P
RD03 1.460 1.00   P
RDE 2.600 1.00   P
RDN 1.240 1.00   P
RDW 1.520 1.00   P
RDWB 2.360 1.00   S
RDWB 1.480 1.00   P
RED 3.220 1.00   S
RED 1.900 1.00   P
REF 2.060 1.00   S
REF 1.900 1.00   S
REF 1.300 1.00   P
#  2009  3 17  2  2 58.12  60.4817 -152.7650    3.690  0.00 0.00 0.00 0.00       2639
RDN 1.000 1.00   P
RDWB 2.040 1.00   S
RDWB 1.240 1.00   P
REF 2.040 1.00   S
REF 1.180 1.00   P
RSO 1.810 1.00   P
#  2009  3 22  8 28  0.34  60.5448 -152.7593    3.670  0.30 0.00 0.00 0.00       2640
RDN 1.000 1.00   P
RDWB 2.880 1.00   S
RDWB 1.880 1.00   P
REF 3.000 1.00   S
REF 1.580 1.00   P
RSO 1.860 1.00   P
#  2009  3 22 23 54  8.42  60.4522 -152.7792    7.920  0.00 0.00 0.00 0.00       2641
RDN 1.720 1.00   P
RDWB 2.540 1.00   S
RDWB 1.740 1.00   P
REF 3.460 1.00   S
REF 1.000 1.00   P
RSO 1.120 1.00   P
#  2009  3 22 17 30 16.80  60.4988 -152.7887    0.880 -0.10 0.00 0.00 0.00       2643
RDN 1.400 1.00   P
RDWB 1.000 1.00   P
REF 2.360 1.00   S
REF 1.380 1.00   P
#  2009  3 22 18 30 40.36  60.4720 -152.7730    0.240  0.00 0.00 0.00 0.00       2711
RDN 1.620 1.00   P
RDWB 2.220 1.00   S
RDWB 1.440 1.00   P
REF 2.260 1.00   S
REF 1.440 1.00   P
RSO 1.000 1.00   P
#  2009  3 27  4  2 56.20  60.4842 -152.7688    0.430  1.40 0.00 0.00 0.00       2712
DFR 2.660 1.00   P
NCT 2.580 1.00   P
RDE 2.880 1.00   P
RDN 1.000 1.00   P
RDT 4.120 1.00   P
RDWB 1.840 1.00   S
RDWB 1.080 1.00   P
REF 1.840 1.00   S
REF 1.080 1.00   P
#  2009  3 22 22 26 23.96  60.4898 -152.7677    3.760  0.60 0.00 0.00 0.00       2733
RDN 1.300 1.00   P
RDWB 2.180 1.00   S
RDWB 1.500 1.00   P
REF 2.360 1.00   S
REF 1.180 1.00   P
RSO 1.000 1.00   P
#  2009  3 21  4  7 52.62  60.4870 -152.7668    0.080  0.70 0.00 0.00 0.00       2734
RDJH 4.740 1.00   S
RDJH 2.680 1.00   P
RDN 1.000 1.00   P
RDWB 1.880 1.00   S
RDWB 1.160 1.00   P
REF 1.880 1.00   S
REF 1.080 1.00   P
#  2009  3 22  8 50 57.04  60.5013 -152.7760    4.580  1.00 0.00 0.00 0.00       2800
RDN 1.000 1.00   P
RDWB 2.080 1.00   S
RDWB 1.080 1.00   P
REF 2.240 1.00   S
REF 1.120 1.00   P
RSO 1.560 1.00   P
#  2009  3 22 18 29  3.04  60.4878 -152.7650    2.600  0.10 0.00 0.00 0.00       2801
RDN 1.380 1.00   P
RDWB 2.220 1.00   S
RDWB 1.000 1.00   P
REF 1.820 1.00   S
REF 1.280 1.00   P
RSO 1.280 1.00   P
#  2009  3 23  2 10  9.64  60.4888 -152.7722    3.180  0.60 0.00 0.00 0.00       2807
RD01 1.860 1.00   P
RD02 1.000 1.00   P
RD03 1.760 1.00   P
RDN 1.100 1.00   P
RDW 1.020 1.00   P
REF 2.100 1.00   S
REF 1.160 1.00   P
#  2009  3 17  2  3 15.42  60.4658 -152.7758    4.270  0.30 0.00 0.00 0.00       2808
RDN 1.580 1.00   P
RDWB 2.080 1.00   S
RDWB 1.300 1.00   P
REF 2.340 1.00   S
REF 1.000 1.00   P
RSO 1.609 1.00   P
#  2009  3 24  6 57 54.82  60.4895 -152.7678    0.570 -0.20 0.00 0.00 0.00       2809
RDE 2.740 1.00   P
RDN 1.000 1.00   P
REF 1.740 1.00   S
REF 1.040 1.00   P
#  2009  3 22 17 42 50.74  60.4945 -152.7670    2.240  0.20 0.00 0.00 0.00       2810
RDN 1.080 1.00   P
RDWB 1.980 1.00   S
RDWB 1.000 1.00   P
REF 1.920 1.00   S
REF 1.820 1.00   S
REF 1.080 1.00   P
RSO 1.260 1.00   P
#  2009  3 22  7 33 30.30  60.5002 -152.7680    1.220  0.40 0.00 0.00 0.00       2811
RDN 1.000 1.00   P
RDWB 1.900 1.00   S
RDWB 1.080 1.00   P
REF 1.900 1.00   S
REF 1.060 1.00   P
RSO 1.360 1.00   P
#  2009  3 23 16 12  4.60  60.4887 -152.7708   -0.090  0.30 0.00 0.00 0.00       2812
RDE 2.821 1.00   P
RDN 1.000 1.00   P
RED 2.820 1.00   S
RED 1.640 1.00   P
REF 1.700 1.00   S
REF 1.080 1.00   P
#  2009  3 21  7 37  9.46  60.4805 -152.7748    0.800  0.10 0.00 0.00 0.00       2813
RDN 1.780 1.00   P
RDWB 1.780 1.00   S
RDWB 1.000 1.00   P
REF 1.880 1.00   S
REF 1.060 1.00   P
#  2009  3 23 14 40 44.66  60.4905 -152.7678   -0.120  0.30 0.00 0.00 0.00       2899
RDE 2.861 1.00   P
RDN 1.000 1.00   P
RED 2.920 1.00   S
RED 1.700 1.00   P
REF 2.060 1.00   S
REF 1.040 1.00   P
#  2009  3 22  8 39 50.44  60.4852 -152.7758    2.080  0.20 0.00 0.00 0.00       2900
RDN 1.060 1.00   P
RDWB 1.800 1.00   S
RDWB 1.120 1.00   P
REF 2.060 1.00   S
REF 1.240 1.00   P
RSO 1.000 1.00   P
#  2009  3 19 14 41 16.92  60.5557 -152.6907    7.020  0.60 0.00 0.00 0.00       2908
DFR 1.000 1.00   P
NCT 2.000 1.00   P
RDE 1.040 1.00   P
RDJH 2.600 1.00   S
RDJH 1.360 1.00   P
RDN 1.120 1.00   P
RDT 2.260 1.00   P
RDWB 3.520 1.00   S
RDWB 1.740 1.00   P
REF 2.860 1.00   S
REF 1.340 1.00   P
#  2009  3 22 14 29 26.30  60.4898 -152.7735    0.450  0.00 0.00 0.00 0.00       2909
RDWB 1.760 1.00   S
RDWB 1.000 1.00   P
REF 1.740 1.00   S
REF 1.220 1.00   P
RSO 1.280 1.00   P
#  2009  3 21 22 22  1.44  60.4833 -152.7678    0.580  0.40 0.00 0.00 0.00       2910
RDJH 5.580 1.00   S
RDJH 2.720 1.00   P
RDN 1.000 1.00   P
RDWB 1.980 1.00   S
RDWB 1.120 1.00   P
REF 1.960 1.00   S
REF 1.120 1.00   P
#  2009  3 18 18 44 53.66  60.4873 -152.7708    3.760  0.50 0.00 0.00 0.00       2914
RDN 1.320 1.00   P
RDWB 1.940 1.00   S
RDWB 1.360 1.00   P
REF 2.240 1.00   S
REF 1.000 1.00   P
#  2009  3 22 19 54  1.60  60.4575 -152.7802   -2.040  0.00 0.00 0.00 0.00       2915
RDN 1.100 1.00   P
RDWB 1.400 1.00   S
RDWB 1.720 1.00   S
RDWB 1.000 1.00   P
REF 1.880 1.00   S
REF 1.080 1.00   P
RSO 1.340 1.00   P
#  2009  3 29  4 12  7.86  60.4993 -152.7533    1.550  0.80 0.00 0.00 0.00       2942
RDE 2.380 1.00   P
RDN 1.000 1.00   P
RDT 3.680 1.00   P
RDWB 2.140 1.00   S
RDWB 1.260 1.00   P
REF 1.760 1.00   S
REF 1.080 1.00   P
#  2009  3 21 23 18 48.36  60.4917 -152.7727    0.040 -0.20 0.00 0.00 0.00       2943
RDN 1.420 1.00   P
RDWB 1.760 1.00   S
RDWB 1.000 1.00   P
REF 1.800 1.00   S
REF 1.060 1.00   P
#  2009  3 28 15 58 55.20  60.4973 -152.7427    1.930  1.00 0.00 0.00 0.00       2961
NCT 2.420 1.00   P
RDWB 2.300 1.00   S
REF 1.800 1.00   S
REF 1.000 1.00   P
#  2009  3 21 23  4 11.52  60.4848 -152.7808    2.380  0.00 0.00 0.00 0.00       2962
RDJH 2.540 1.00   P
RDN 1.000 1.00   P
RDWB 1.760 1.00   S
RDWB 1.060 1.00   P
REF 2.200 1.00   S
REF 1.020 1.00   P
#  2009  3 22 20 50  4.98  60.4875 -152.7675    1.960  0.10 0.00 0.00 0.00       2968
RDWB 1.780 1.00   S
RDWB 1.040 1.00   P
REF 1.800 1.00   S
REF 1.000 1.00   P
RSO 1.620 1.00   P
#  2009  3 15 23 55 58.94  60.4935 -152.7610    4.710  0.30 0.00 0.00 0.00       2984
RDN 1.160 1.00   P
RDWB 2.220 1.00   S
RDWB 1.200 1.00   P
REF 2.160 1.00   S
REF 1.000 1.00   P
RSO 1.240 1.00   P
#  2009  3 17 14 41 15.76  60.4865 -152.7677    7.860  0.90 0.00 0.00 0.00       2985
RDN 1.180 1.00   P
RDWB 2.500 1.00   S
RDWB 1.500 1.00   P
REF 2.640 1.00   S
REF 1.000 1.00   P
RSO 2.070 1.00   P
#  2009  3 22 11 12 28.20  60.4827 -152.7630    0.710  0.60 0.00 0.00 0.00       2986
NCT 2.620 1.00   P
RD01 4.640 1.00   P
RD02 1.000 1.00   P
RD03 1.540 1.00   P
RDJH 2.680 1.00   P
RDN 1.100 1.00   P
RDW 1.020 1.00   P
RDWB 2.060 1.00   S
RDWB 1.180 1.00   P
REF 1.880 1.00   S
REF 1.140 1.00   P
RSO 1.020 1.00   P
#  2009  3 22 17 35 14.56  60.4773 -152.7637    0.770  0.30 0.00 0.00 0.00       2987
RDN 1.260 1.00   P
RDWB 1.960 1.00   S
RDWB 1.360 1.00   P
REF 2.080 1.00   S
REF 1.060 1.00   P
RSO 1.000 1.00   P
#  2009  3 22 20 15 24.70  60.4907 -152.7673    3.840 -0.60 0.00 0.00 0.00       2988
RDN 1.100 1.00   P
RDWB 2.060 1.00   S
RDWB 1.000 1.00   P
REF 2.040 1.00   S
REF 1.040 1.00   P
RSO 1.740 1.00   P
#  2009  3 22 23 18 24.98  60.4753 -152.7797    0.110 -0.10 0.00 0.00 0.00       2989
RDN 1.760 1.00   P
RDWB 2.020 1.00   S
RDWB 1.300 1.00   P
REF 2.420 1.00   S
REF 1.000 1.00   P
RSO 1.000 1.00   P
#  2009  3 22 18 22 19.34  60.4902 -152.7633    1.570 -0.20 0.00 0.00 0.00       3019
RDN 1.120 1.00   P
RDWB 1.860 1.00   S
RDWB 1.000 1.00   P
REF 1.740 1.00   S
REF 1.060 1.00   P
RSO 1.440 1.00   P
#  2009  3 21 21 29 23.36  60.4873 -152.7715    0.220  0.00 0.00 0.00 0.00       3020
RDJH 3.000 1.00   P
RDN 1.000 1.00   P
RDWB 1.600 1.00   S
RDWB 1.000 1.00   P
REF 1.760 1.00   S
REF 1.020 1.00   P
#  2009  3 22 11 31 53.62  60.4635 -152.7198    7.340  1.10 0.00 0.00 0.00       3021
RDJH 4.800 1.00   S
RDJH 2.520 1.00   P
RDN 1.160 1.00   P
RDWB 2.980 1.00   S
RDWB 2.960 1.00   S
RDWB 1.000 1.00   P
REF 2.280 1.00   S
REF 1.040 1.00   P
RSO 1.560 1.00   P
#  2009  3 22 11  9 38.02  60.4767 -152.7705    2.380  0.20 0.00 0.00 0.00       3027
RDJH 2.440 1.00   P
RDN 1.200 1.00   P
RDWB 1.880 1.00   S
REF 2.120 1.00   S
REF 1.000 1.00   P
RSO 1.040 1.00   P
#  2009  3 17  6 48  7.46  60.4773 -152.8007    5.970  0.80 0.00 0.00 0.00       3030
RDN 1.310 1.00   P
RDWB 2.211 1.00   S
RDWB 1.591 1.00   P
REF 3.311 1.00   S
REF 2.510 1.00   S
REF 1.591 1.00   P
RSO 1.000 1.00   P
#  2009  3 24 21 43  4.52  60.4907 -152.7683    0.090  0.50 0.00 0.00 0.00       3033
RDE 2.880 1.00   P
RDN 1.000 1.00   P
REF 1.820 1.00   S
REF 1.100 1.00   P
#  2009  3 22  9 25  6.16  60.4853 -152.7643    2.700  0.40 0.00 0.00 0.00       3034
RDN 1.100 1.00   P
RDWB 2.040 1.00   S
RDWB 1.040 1.00   P
REF 1.880 1.00   S
REF 1.140 1.00   P
RSO 1.000 1.00   P
#  2009  3 22 21 59 48.02  60.4897 -152.7802    1.230  0.20 0.00 0.00 0.00       3058
RDN 1.000 1.00   P
RDWB 1.500 1.00   S
RDWB 1.100 1.00   P
REF 2.060 1.00   S
REF 1.100 1.00   P
RSO 1.040 1.00   P
#  2009  3 28  5 23 32.46  60.4942 -152.7493    1.980  0.30 0.00 0.00 0.00       3059
NCT 2.380 1.00   P
RDN 1.000 1.00   P
RDWB 2.260 1.00   S
RDWB 1.320 1.00   P
REF 1.760 1.00   S
REF 1.040 1.00   P
#  2009  3 22  8 55 35.58  60.4910 -152.7673    0.720  0.20 0.00 0.00 0.00       3060
RDN 1.280 1.00   P
RDWB 1.840 1.00   S
RDWB 1.060 1.00   P
REF 1.820 1.00   S
REF 1.000 1.00   P
RSO 1.300 1.00   P
#  2009  3 31  7 20 23.22  60.4765 -152.8043    5.650  0.20 0.00 0.00 0.00       3086
NCT 2.980 1.00   P
RDN 1.160 1.00   P
RDWB 1.960 1.00   S
RDWB 1.000 1.00   P
REF 2.560 1.00   S
REF 1.340 1.00   P
#  2009  3 17 15 25 27.16  60.4833 -152.7687    3.430 -0.10 0.00 0.00 0.00       3087
RDN 1.111 1.00   P
RDWB 1.950 1.00   S
RDWB 1.310 1.00   P
REF 2.231 1.00   S
REF 1.030 1.00   P
RSO 1.000 1.00   P
#  2009  3 23 22 53 15.82  60.4893 -152.7825   -0.070  0.60 0.00 0.00 0.00       3088
RDE 2.901 1.00   P
RDN 1.000 1.00   P
REF 1.860 1.00   S
REF 1.060 1.00   P
#  2009  3 22  3 46 43.84  60.4878 -152.7650   -1.240  0.40 0.00 0.00 0.00       3089
RDJH 5.400 1.00   S
RDJH 2.920 1.00   P
RDN 1.100 1.00   P
RDWB 2.000 1.00   S
RDWB 1.180 1.00   P
REF 1.940 1.00   S
REF 1.120 1.00   P
RSO 1.000 1.00   P
#  2009  3 22 19  4 12.30  60.4832 -152.7620    2.770 -0.60 0.00 0.00 0.00       3094
RDN 1.120 1.00   P
RDWB 2.040 1.00   S
RDWB 1.220 1.00   P
REF 1.960 1.00   S
REF 1.100 1.00   P
RSO 1.000 1.00   P
#  2009  3 22 19 44 23.24  60.5090 -152.7838    4.070  0.60 0.00 0.00 0.00       3100
RDN 1.000 1.00   P
RDWB 2.000 1.00   S
RDWB 1.020 1.00   P
REF 2.340 1.00   S
REF 1.100 1.00   P
RSO 1.580 1.00   P
#  2009  3 21  8 36 28.42  60.5013 -152.7650   -0.350  0.40 0.00 0.00 0.00       3108
RDJH 2.540 1.00   P
RDN 1.000 1.00   P
RDWB 2.100 1.00   S
RDWB 1.240 1.00   P
REF 1.960 1.00   S
REF 1.280 1.00   P
#  2009  3 22 20 21 20.60  60.4918 -152.7745    0.310  2.00 0.00 0.00 0.00       3149
NCT 2.580 1.00   P
RDE 3.000 1.00   P
RDJH 4.520 1.00   S
RDJH 2.480 1.00   P
RDN 1.000 1.00   P
RDWB 1.720 1.00   S
RDWB 1.800 1.00   S
RDWB 1.120 1.00   P
REF 2.120 1.00   S
REF 1.100 1.00   P
RSO 1.000 1.00   P
#  2009  3 22 23 55 58.68  60.4787 -152.7803    1.060 -0.20 0.00 0.00 0.00       3155
RDWB 1.560 1.00   S
RDWB 1.000 1.00   P
REF 2.060 1.00   S
REF 1.120 1.00   P
RSO 1.640 1.00   P
#  2009  3 27  6 58  8.34  60.4912 -152.7673   -0.110  1.60 0.00 0.00 0.00       3164
DFR 2.580 1.00   P
NCT 2.540 1.00   P
RDE 2.840 1.00   P
RDN 1.000 1.00   P
RDT 4.100 1.00   P
RDWB 1.780 1.00   S
RDWB 1.100 1.00   P
RED 2.940 1.00   S
RED 1.720 1.00   P
REF 1.820 1.00   S
REF 1.060 1.00   P
#  2009  3 22 21 28 50.96  60.4907 -152.7768    3.340 -0.60 0.00 0.00 0.00       3167
RDN 1.360 1.00   P
RDWB 2.080 1.00   S
RDWB 1.120 1.00   P
REF 2.300 1.00   S
REF 2.220 1.00   S
REF 1.200 1.00   P
RSO 1.000 1.00   P
#  2009  3 22 12 18 49.62  60.4780 -152.7142    5.000  0.10 0.00 0.00 0.00       3274
RDN 1.620 1.00   P
RDWB 3.000 1.00   S
RDWB 1.000 1.00   P
REF 2.320 1.00   S
REF 1.040 1.00   P
RSO 1.580 1.00   P
#  2009  3 22 17 30 58.44  60.4998 -152.7353    5.390  0.10 0.00 0.00 0.00       3322
RDN 1.220 1.00   P
RDWB 2.720 1.00   S
RDWB 1.000 1.00   P
REF 1.920 1.00   S
REF 1.020 1.00   P
RSO 1.780 1.00   P
#  2009  3 23 13 27 22.98  60.4892 -152.7613   -0.430  0.90 0.00 0.00 0.00       3331
RDE 2.861 1.00   P
RDN 1.020 1.00   P
RED 2.900 1.00   S
RED 1.700 1.00   P
REF 2.700 1.00   S
REF 1.000 1.00   P
#  2009  3 28 16 10 45.92  60.5070 -152.7788    2.300  1.60 0.00 0.00 0.00       3332
NCT 2.060 1.00   P
RDN 1.000 1.00   P
RDWB 2.060 1.00   S
RDWB 1.080 1.00   P
REF 2.180 1.00   S
REF 1.440 1.00   P
#  2009  3 22  8 22 32.72  60.4955 -152.7667    1.670  0.20 0.00 0.00 0.00       3333
RDN 1.000 1.00   P
RDWB 1.960 1.00   S
RDWB 1.180 1.00   P
REF 1.980 1.00   S
REF 1.120 1.00   P
RSO 1.100 1.00   P
#  2009  3 27  7  0 31.60  60.4793 -152.7602    0.820  1.00 0.00 0.00 0.00       3334
DFR 3.140 1.00   P
NCT 2.980 1.00   P
RDN 1.000 1.00   P
RDWB 2.560 1.00   S
RDWB 1.560 1.00   P
REF 2.300 1.00   S
REF 1.360 1.00   P
#  2009  3 22 18 59 35.94  60.4835 -152.7670    0.720  0.50 0.00 0.00 0.00       3352
RDJH 2.640 1.00   P
RDN 1.080 1.00   P
RDWB 2.040 1.00   S
RDWB 1.200 1.00   P
REF 1.980 1.00   S
REF 1.120 1.00   P
RSO 1.000 1.00   P
#  2009  3 22 21  5 50.00  60.4668 -152.7820    2.920  0.70 0.00 0.00 0.00       3353
DFR 3.180 1.00   P
NCT 2.520 1.00   P
RD02 1.000 1.00   P
RD03 1.720 1.00   P
RDJH 4.680 1.00   S
RDJH 2.540 1.00   P
RDN 1.040 1.00   P
RDW 1.040 1.00   P
RDWB 1.820 1.00   S
RDWB 1.120 1.00   P
REF 2.400 1.00   S
REF 1.160 1.00   P
RSO 1.000 1.00   P
#  2009  3 22 15 12  5.38  60.4862 -152.7672    0.850 -0.20 0.00 0.00 0.00       3356
RDN 1.260 1.00   P
RDWB 1.840 1.00   S
RDWB 1.000 1.00   P
REF 1.820 1.00   S
REF 1.740 1.00   S
REF 1.020 1.00   P
RSO 1.320 1.00   P
#  2009  3 22 20 16 44.08  60.4855 -152.7640    2.670 -0.30 0.00 0.00 0.00       3357
RDN 1.580 1.00   P
RDWB 1.840 1.00   S
RDWB 1.000 1.00   P
REF 1.800 1.00   S
REF 1.000 1.00   P
RSO 1.140 1.00   P
#  2009  3 22 19 22 16.12  60.4930 -152.7752    2.220  0.20 0.00 0.00 0.00       3358
RDN 1.220 1.00   P
RDWB 1.660 1.00   S
RDWB 1.020 1.00   P
REF 1.940 1.00   S
REF 1.000 1.00   P
RSO 1.320 1.00   P
#  2009  3 22 17 25  3.98  60.4688 -152.7467    2.390 -0.90 0.00 0.00 0.00       3413
RDN 1.700 1.00   P
RDWB 2.240 1.00   S
RDWB 1.420 1.00   P
REF 1.680 1.00   S
REF 1.000 1.00   P
RSO 1.280 1.00   P
#  2009  3 31  7 41 19.92  60.4745 -152.7705    1.940  0.70 0.00 0.00 0.00       3414
DFR 3.500 1.00   P
NCT 2.900 1.00   P
RDN 1.240 1.00   P
RDWB 2.300 1.00   S
RDWB 1.340 1.00   P
REF 2.540 1.00   S
REF 1.000 1.00   P
#  2009  3 24 15 32 25.54  60.4883 -152.7677   -0.230  0.30 0.00 0.00 0.00       3415
RD02 1.060 1.00   P
RD03 1.100 1.00   P
RDE 3.000 1.00   P
RDN 1.120 1.00   P
RDW 1.000 1.00   P
REF 1.860 1.00   S
REF 1.100 1.00   P
#  2009  3 29  6  1 13.92  60.4947 -152.7560    1.410  0.30 0.00 0.00 0.00       3417
RDE 2.600 1.00   P
RDN 1.140 1.00   P
RDWB 2.240 1.00   S
RDWB 1.000 1.00   P
REF 1.840 1.00   S
REF 1.180 1.00   P
#  2009  3 21 16 43 16.46  60.4757 -152.7678    0.840  0.20 0.00 0.00 0.00       3418
RDN 1.000 1.00   P
RDWB 1.960 1.00   S
RDWB 1.060 1.00   P
REF 1.980 1.00   S
REF 1.180 1.00   P
#  2009  3 15 20 49 21.78  60.4862 -152.7727    0.250  0.10 0.00 0.00 0.00       3419
DFR 2.720 1.00   P
RDE 3.040 1.00   P
RDJH 4.480 1.00   S
RDJH 2.900 1.00   P
RDN 1.060 1.00   P
RDWB 1.880 1.00   S
RDWB 1.120 1.00   P
REF 2.160 1.00   S
REF 1.100 1.00   P
RSO 1.000 1.00   P
#  2009  3 25  6 47 13.00  60.4975 -152.7672   -2.680  0.40 0.00 0.00 0.00       3420
DFR 2.720 1.00   P
NCT 2.700 1.00   P
RD02 1.100 1.00   P
RD03 1.140 1.00   P
RDE 3.000 1.00   P
RDW 1.000 1.00   P
RDWB 1.940 1.00   S
RDWB 1.240 1.00   P
#  2009  3 22 12 24 46.46  60.4883 -152.7660   -1.050  0.60 0.00 0.00 0.00       3421
NCT 2.940 1.00   P
RDN 1.100 1.00   P
RDWB 1.980 1.00   S
RDWB 1.200 1.00   P
REF 1.980 1.00   S
REF 1.140 1.00   P
RSO 1.000 1.00   P
#  2009  3 22 18 12 11.64  60.4962 -152.7640    3.180  0.60 0.00 0.00 0.00       3425
RDJH 3.600 1.00   S
RDJH 2.660 1.00   P
RDN 1.000 1.00   P
RDWB 2.020 1.00   S
RDWB 1.180 1.00   P
REF 1.960 1.00   S
REF 1.120 1.00   P
RSO 1.420 1.00   P
#  2009  3 27  1 37 54.38  60.4857 -152.7678    0.380  1.10 0.00 0.00 0.00       3434
DFR 2.620 1.00   P
NCT 2.460 1.00   P
RDE 2.780 1.00   P
RDWB 1.720 1.00   S
RDWB 1.020 1.00   P
RED 1.640 1.00   P
REF 1.720 1.00   S
REF 1.000 1.00   P
#  2009  3 22 19 17 31.94  60.4790 -152.7720    2.630  0.80 0.00 0.00 0.00       3473
NCT 2.540 1.00   P
RDJH 4.580 1.00   S
RDJH 2.500 1.00   P
RDN 1.000 1.00   P
RDWB 2.020 1.00   S
RDWB 1.180 1.00   P
REF 2.420 1.00   S
REF 1.220 1.00   P
RSO 1.140 1.00   P
#  2009  3 22 20 25 58.36  60.4847 -152.7722    1.370  0.10 0.00 0.00 0.00       3476
RDN 1.240 1.00   P
RDWB 1.760 1.00   S
RDWB 1.000 1.00   P
REF 1.900 1.00   S
REF 1.020 1.00   P
RSO 1.320 1.00   P
#  2009  3 22  6  1 21.44  60.4820 -152.7688    0.720  0.40 0.00 0.00 0.00       3477
NCT 2.600 1.00   P
RDJH 2.660 1.00   P
RDN 1.160 1.00   P
RDWB 1.900 1.00   S
RDWB 1.120 1.00   P
REF 2.580 1.00   S
REF 1.160 1.00   P
RSO 1.000 1.00   P
#  2009  3 15 20 58 50.72  60.4793 -152.7622    4.550  0.70 0.00 0.00 0.00       3479
RDN 1.040 1.00   P
RDWB 2.120 1.00   S
RDWB 1.140 1.00   P
REF 2.040 1.00   S
REF 1.080 1.00   P
RSO 1.000 1.00   P
#  2009  3 21 11 26 30.74  60.4982 -152.7882    4.380  0.40 0.00 0.00 0.00       3485
RDN 1.000 1.00   P
RDWB 1.880 1.00   S
RDWB 1.080 1.00   P
REF 2.380 1.00   S
REF 1.140 1.00   P
#  2009  3 22 14 57  6.68  60.4887 -152.7682    0.470  0.20 0.00 0.00 0.00       3519
RDN 1.120 1.00   P
RDWB 2.080 1.00   S
RDWB 1.200 1.00   P
REF 2.000 1.00   S
REF 1.880 1.00   S
REF 1.160 1.00   P
RSO 1.000 1.00   P
