#  2009  3 21 19 41 22.92  60.4770 -152.7752    0.940  0.30 0.00 0.00 0.00       3601
RDJH 2.600 1.00   P
RDN 1.000 1.00   P
RDWB 1.740 1.00   S
RDWB 1.100 1.00   P
REF 2.060 1.00   S
REF 1.100 1.00   P
#  2009  3 17 15 17 27.06  60.4972 -152.7667   -0.020  0.10 0.00 0.00 0.00       3631
RDN 1.360 1.00   P
RDWB 1.820 1.00   S
RDWB 1.460 1.00   P
REF 2.060 1.00   S
REF 1.000 1.00   P
RSO 1.690 1.00   P
#  2009  3 22  4  2 54.18  60.4835 -152.7728    0.890  0.40 0.00 0.00 0.00       3632
NCT 4.180 1.00   P
RD01 11.460 1.00   P
RD02 2.540 1.00   P
RD03 1.000 1.00   P
RDJH 4.140 1.00   P
RDN 2.640 1.00   P
RDW 1.200 1.00   P
RDWB 3.420 1.00   S
RDWB 2.680 1.00   P
REF 3.660 1.00   S
REF 2.680 1.00   P
RSO 2.600 1.00   P
#  2009  3 22 23 31  4.74  60.4818 -152.7492    0.260  0.70 0.00 0.00 0.00       3641
NCT 2.820 1.00   P
RDN 1.340 1.00   P
RDWB 2.120 1.00   S
RDWB 1.420 1.00   P
REF 1.540 1.00   S
REF 1.000 1.00   P
RSO 1.040 1.00   P
#  2009  3 22 16 11 38.70  60.4788 -152.7665    1.130 -0.40 0.00 0.00 0.00       3644
RDN 1.980 1.00   P
RDWB 1.980 1.00   S
RDWB 1.180 1.00   P
REF 1.980 1.00   S
REF 1.120 1.00   P
RSO 1.000 1.00   P
#  2009  3 16  2 52 59.66  60.4828 -152.7817    1.320  0.30 0.00 0.00 0.00       3645
RDN 1.660 1.00   P
RDWB 1.720 1.00   S
RDWB 1.000 1.00   P
REF 2.160 1.00   S
REF 1.060 1.00   P
#  2009  3 21  0  9 20.06  60.4792 -152.6815    2.150 -0.90 0.00 0.00 0.00       3646
RDN 1.780 1.00   P
RDWB 3.400 1.00   S
RDWB 2.280 1.00   P
REF 1.840 1.00   S
REF 1.760 1.00   S
REF 1.000 1.00   P
#  2009  3 22 18 36 39.16  60.4982 -152.7242    3.860  1.50 0.00 0.00 0.00       3647
NCT 5.440 1.00   P
RD01 1.000 1.00   P
RD02 1.440 1.00   P
RD03 5.080 1.00   P
RDJH 6.780 1.00   S
RDJH 5.580 1.00   P
RDN 3.920 1.00   P
RDW 4.600 1.00   P
RDWB 5.600 1.00   S
RDWB 4.040 1.00   P
REF 4.820 1.00   S
REF 4.720 1.00   S
REF 3.960 1.00   P
RSO 4.240 1.00   P
#  2009  3 22 21 40  7.24  60.4955 -152.7560    6.950  0.60 0.00 0.00 0.00       3648
RDN 1.000 1.00   P
RDWB 2.580 1.00   S
RDWB 1.720 1.00   P
REF 2.660 1.00   S
REF 1.400 1.00   P
RSO 1.160 1.00   P
#  2009  3 22 23 20 24.66  60.4848 -152.7672    3.260 -0.10 0.00 0.00 0.00       3653
RDN 1.240 1.00   P
RDWB 2.100 1.00   S
RDWB 1.100 1.00   P
REF 2.100 1.00   S
REF 2.640 1.00   S
REF 1.120 1.00   P
RSO 1.000 1.00   P
#  2009  3 15 19 40 25.48  60.4660 -152.7513    7.150  0.80 0.00 0.00 0.00       3654
RDN 1.580 1.00   P
RDWB 2.800 1.00   S
RDWB 1.400 1.00   P
REF 2.720 1.00   S
REF 1.260 1.00   P
RSO 1.000 1.00   P
#  2009  3 22 16 54  0.12  60.4437 -152.7832    3.310  0.40 0.00 0.00 0.00       3656
NCT 2.620 1.00   P
RD02 1.080 1.00   P
RD03 1.380 1.00   P
RDJH 5.160 1.00   S
RDJH 2.540 1.00   P
RDN 1.100 1.00   P
RDW 1.040 1.00   P
RDWB 2.180 1.00   S
RDWB 1.100 1.00   P
REF 2.520 1.00   S
REF 1.180 1.00   P
RSO 1.000 1.00   P
#  2009  3 22 13 55 23.20  60.4885 -152.7672    0.110  0.60 0.00 0.00 0.00       3658
NCT 2.560 1.00   P
RD02 1.360 1.00   P
RD03 2.760 1.00   P
RDE 2.880 1.00   P
RDJH 2.540 1.00   P
RDN 1.000 1.00   P
RDW 1.240 1.00   P
RDWB 1.760 1.00   S
RDWB 1.040 1.00   P
REF 1.760 1.00   S
REF 1.040 1.00   P
RSO 1.020 1.00   P
#  2009  3 21 20 32 13.00  60.5007 -152.7637    1.920  0.20 0.00 0.00 0.00       3662
RDN 1.000 1.00   P
RDWB 2.000 1.00   S
RDWB 1.140 1.00   P
REF 1.940 1.00   S
REF 1.840 1.00   S
REF 1.100 1.00   P
#  2009  3 22  9 59 55.24  60.4782 -152.7668    2.830  0.50 0.00 0.00 0.00       3762
RDN 1.120 1.00   P
RDWB 2.020 1.00   S
RDWB 1.180 1.00   P
REF 2.020 1.00   S
REF 1.200 1.00   P
RSO 1.000 1.00   P
#  2009  3 22 17 23 26.60  60.4872 -152.7632    2.160  0.10 0.00 0.00 0.00       3778
RDN 1.000 1.00   P
RDWB 1.940 1.00   S
RDWB 1.140 1.00   P
REF 1.780 1.00   S
REF 1.100 1.00   P
RSO 1.340 1.00   P
#  2009  3 22 15 59 57.00  60.4898 -152.7645    0.430  0.40 0.00 0.00 0.00       3779
RDJH 2.620 1.00   P
RDN 1.040 1.00   P
RDWB 2.020 1.00   S
RDWB 1.140 1.00   P
REF 1.940 1.00   S
REF 1.080 1.00   P
RSO 1.000 1.00   P
#  2009  3 22 23  5 28.28  60.4890 -152.7603    0.690 -0.10 0.00 0.00 0.00       3780
RDN 1.100 1.00   P
RDWB 2.120 1.00   S
RDWB 1.820 1.00   S
RDWB 1.020 1.00   P
REF 1.480 1.00   S
REF 1.000 1.00   P
RSO 1.280 1.00   P
#  2009  3 22 13 51 39.84  60.4878 -152.7650    0.040  0.50 0.00 0.00 0.00       3781
NCT 2.680 1.00   P
RDJH 4.580 1.00   S
RDJH 2.580 1.00   P
RDN 1.020 1.00   P
RDWB 1.960 1.00   S
RDWB 1.180 1.00   P
REF 1.960 1.00   S
REF 1.120 1.00   P
RSO 1.000 1.00   P
#  2009  3 22  8 15 43.56  60.4948 -152.7462    5.550  0.70 0.00 0.00 0.00       3789
RDN 1.020 1.00   P
RDWB 2.400 1.00   S
RDWB 1.000 1.00   P
REF 1.880 1.00   S
REF 1.020 1.00   P
RSO 1.100 1.00   P
#  2009  3 22 22 50 42.60  60.4865 -152.7635    2.560 -0.40 0.00 0.00 0.00       3790
RDN 1.400 1.00   P
RDWB 1.880 1.00   S
RDWB 1.020 1.00   P
REF 1.720 1.00   S
REF 1.000 1.00   P
RSO 1.140 1.00   P
#  2009  3 22 14 12 22.40  60.4865 -152.7733    0.990  0.10 0.00 0.00 0.00       3791
RD02 1.080 1.00   P
RD03 2.320 1.00   P
RDN 1.260 1.00   P
RDW 1.140 1.00   P
RDWB 1.740 1.00   S
RDWB 1.000 1.00   P
REF 1.860 1.00   S
REF 1.120 1.00   P
RSO 1.000 1.00   P
#  2009  3 27  5 42 23.24  60.4915 -152.7668   -0.070  1.80 0.00 0.00 0.00       3805
DFR 2.560 1.00   P
NCT 2.600 1.00   P
RDE 2.840 1.00   P
RDN 1.000 1.00   P
RDT 4.120 1.00   P
RDWB 1.800 1.00   S
RDWB 1.080 1.00   P
RED 2.920 1.00   S
RED 1.720 1.00   P
REF 1.840 1.00   S
REF 1.080 1.00   P
#  2009  3 23 15  1 52.26  60.4938 -152.7752   -2.760  0.20 0.00 0.00 0.00       3818
RDE 3.321 1.00   P
RDN 1.000 1.00   P
RED 3.460 1.00   S
RED 1.600 1.00   P
REF 1.680 1.00   S
REF 1.000 1.00   P
#  2009  3 21  5 44 44.50  60.4158 -152.7600    4.070  0.30 0.00 0.00 0.00       3819
RDJH 5.280 1.00   S
RDJH 2.520 1.00   P
RDN 1.020 1.00   P
RDWB 2.300 1.00   S
RDWB 1.080 1.00   P
REF 2.500 1.00   S
REF 1.000 1.00   P
#  2009  3 22 19 41 39.36  60.4920 -152.7725    0.500  0.80 0.00 0.00 0.00       3820
NCT 2.500 1.00   P
RDE 3.020 1.00   P
RDJH 4.540 1.00   S
RDJH 2.500 1.00   P
RDN 1.000 1.00   P
RDWB 1.920 1.00   S
RDWB 1.000 1.00   P
REF 2.080 1.00   S
REF 1.080 1.00   P
RSO 1.140 1.00   P
#  2009  3 23 19 37 55.10  60.4925 -152.7825   -1.110  1.30 0.00 0.00 0.00       3821
RDE 2.721 1.00   P
RDN 1.000 1.00   P
REF 1.880 1.00   S
REF 1.060 1.00   P
#  2009  3 23  5 18 13.08  60.4867 -152.7693    0.400  0.30 0.00 0.00 0.00       3822
RD01 4.500 1.00   P
RD02 1.000 1.00   P
RD03 1.000 1.00   P
RDN 5.520 1.00   P
RDW 5.880 1.00   P
REF 6.360 1.00   S
REF 5.640 1.00   P
#  2009  3 22 20 19 35.98  60.4987 -152.7513    4.100  0.20 0.00 0.00 0.00       3823
RDN 1.420 1.00   P
RDWB 2.460 1.00   S
RDWB 1.000 1.00   P
REF 2.080 1.00   S
REF 1.020 1.00   P
RSO 1.620 1.00   P
#  2009  3 21  9 59 55.36  60.4960 -152.7677   -0.750  0.00 0.00 0.00 0.00       3830
RDN 1.000 1.00   P
RDWB 1.740 1.00   S
RDWB 1.060 1.00   P
REF 1.680 1.00   S
REF 1.000 1.00   P
#  2009  3 30 18  4 55.70  60.4938 -152.7552    0.950  0.80 0.00 0.00 0.00       3835
DFR 2.520 1.00   P
NCT 2.680 1.00   P
RDN 1.000 1.00   P
RDT 4.220 1.00   P
RDWB 2.260 1.00   S
RDWB 1.240 1.00   P
REF 1.900 1.00   S
REF 1.080 1.00   P
#  2009  3 22 22 42 56.12  60.4942 -152.7693    0.560  0.30 0.00 0.00 0.00       3836
RDN 1.000 1.00   P
RDWB 1.820 1.00   S
RDWB 1.120 1.00   P
REF 1.860 1.00   S
REF 1.160 1.00   P
RSO 1.600 1.00   P
#  2009  3 23 14 24 41.06  60.4875 -152.7463   -1.340  0.20 0.00 0.00 0.00       3871
RDE 2.901 1.00   P
RDN 1.000 1.00   P
RED 3.040 1.00   S
RED 1.740 1.00   P
REF 2.420 1.00   S
REF 1.060 1.00   P
#  2009  3 22 19  0 33.20  60.4772 -152.7683    0.570  0.70 0.00 0.00 0.00       3872
NCT 2.600 1.00   P
RDE 2.920 1.00   P
RDJH 4.800 1.00   S
RDJH 2.600 1.00   P
RDN 1.160 1.00   P
RDT 5.240 1.00   P
RDWB 1.920 1.00   S
RDWB 1.160 1.00   P
REF 1.980 1.00   S
REF 1.200 1.00   P
RSO 1.000 1.00   P
#  2009  3 28 20 54 18.12  60.4695 -152.7788    3.330  1.00 0.00 0.00 0.00       3874
NCT 2.460 1.00   P
RDN 1.120 1.00   P
RDWB 1.840 1.00   S
RDWB 1.000 1.00   P
REF 2.280 1.00   S
REF 1.020 1.00   P
#  2009  3 22  9 57 47.86  60.4740 -152.7707    2.810  0.60 0.00 0.00 0.00       3875
RDN 1.240 1.00   P
RDWB 2.060 1.00   S
RDWB 1.460 1.00   P
REF 2.040 1.00   S
REF 1.000 1.00   P
RSO 1.560 1.00   P
#  2009  3 22 20 58  5.54  60.5012 -152.7760    5.020  0.20 0.00 0.00 0.00       3877
RDN 1.000 1.00   P
RDWB 2.140 1.00   S
RDWB 1.140 1.00   P
REF 2.100 1.00   S
REF 2.520 1.00   S
REF 1.120 1.00   P
RSO 1.940 1.00   P
#  2009  3 22  7 57 51.30  60.4793 -152.7783    1.570 -0.30 0.00 0.00 0.00       3946
RDN 1.680 1.00   P
RDWB 1.980 1.00   S
RDWB 1.200 1.00   P
REF 2.460 1.00   S
REF 1.200 1.00   P
RSO 1.000 1.00   P
#  2009  3 16  1 52 12.64  60.5068 -152.7585   -1.450  0.30 0.00 0.00 0.00       3947
RDJH 4.580 1.00   S
RDN 1.000 1.00   P
RDWB 2.560 1.00   S
RDWB 1.740 1.00   P
REF 2.580 1.00   S
REF 1.400 1.00   P
#  2009  3 22 15 37  1.14  60.4872 -152.7690   -0.130  0.00 0.00 0.00 0.00       3948
RDN 1.140 1.00   P
RDWB 2.020 1.00   S
RDWB 1.180 1.00   P
REF 2.020 1.00   S
REF 1.900 1.00   S
REF 1.180 1.00   P
RSO 1.000 1.00   P
#  2009  3 22 19 19 32.06  60.4915 -152.7662    2.280  0.30 0.00 0.00 0.00       4015
RDN 1.160 1.00   P
RDWB 2.020 1.00   S
RDWB 1.180 1.00   P
REF 1.980 1.00   S
REF 1.140 1.00   P
RSO 1.000 1.00   P
#  2009  3 16 13 40 52.74  60.5038 -152.7870   -2.570  0.80 0.00 0.00 0.00       4016
NCT 2.261 1.00   P
RDJH 3.300 1.00   S
RDJH 2.460 1.00   P
RDN 1.000 1.00   P
RDT 4.641 1.00   P
REF 2.000 1.00   S
REF 1.040 1.00   P
#  2009  3 31 22 58  4.62  60.5005 -152.7605   -2.990  1.10 0.00 0.00 0.00       4017
DFR 2.720 1.00   P
NCT 2.700 1.00   P
RDE 3.060 1.00   P
RDN 1.000 1.00   P
RDWB 2.320 1.00   S
RDWB 1.300 1.00   P
RED 3.740 1.00   S
RED 1.980 1.00   P
REF 1.280 1.00   P
#  2009  3 21 10 59 38.40  60.4953 -152.7692    0.500  0.70 0.00 0.00 0.00       4018
RDJH 2.460 1.00   P
RDN 1.000 1.00   P
RDWB 1.960 1.00   S
REF 1.960 1.00   S
REF 1.120 1.00   P
#  2009  3 22 14 49 43.88  60.4852 -152.7643    0.510  0.40 0.00 0.00 0.00       4021
NCT 2.400 1.00   P
RDJH 2.560 1.00   P
RDN 1.000 1.00   P
RDWB 1.900 1.00   S
RDWB 1.100 1.00   P
REF 1.780 1.00   S
REF 1.040 1.00   P
RSO 1.000 1.00   P
#  2009  3 18 12  1 25.46  60.4318 -152.7515   -0.590 -0.10 0.00 0.00 0.00       4022
RDN 1.060 1.00   P
RDWB 2.240 1.00   S
RDWB 1.280 1.00   P
REF 2.160 1.00   S
REF 1.000 1.00   P
#  2009  3 22  9 18 17.90  60.4980 -152.7658    2.300  0.40 0.00 0.00 0.00       4023
RDN 1.360 1.00   P
RDWB 2.360 1.00   S
RDWB 1.520 1.00   P
REF 2.320 1.00   S
REF 1.480 1.00   P
RSO 1.000 1.00   P
#  2009  3 22 22 50 54.88  60.4877 -152.7707    0.110  0.10 0.00 0.00 0.00       4031
RD02 1.620 1.00   P
RD03 2.960 1.00   P
RDN 1.320 1.00   P
RDW 1.800 1.00   P
RDWB 1.740 1.00   S
RDWB 1.860 1.00   S
RDWB 1.080 1.00   P
REF 1.960 1.00   S
REF 1.820 1.00   S
REF 1.080 1.00   P
RSO 1.000 1.00   P
#  2009  3 22  6 30 43.24  60.4805 -152.7757    0.870 -0.20 0.00 0.00 0.00       4060
RDN 1.760 1.00   P
RDWB 1.760 1.00   S
RDWB 1.000 1.00   P
REF 2.140 1.00   S
REF 1.000 1.00   P
RSO 1.300 1.00   P
#  2009  3 22  8 41 45.78  60.4855 -152.8063    6.030  0.30 0.00 0.00 0.00       4063
RDN 1.100 1.00   P
RDWB 1.920 1.00   S
RDWB 1.020 1.00   P
REF 2.600 1.00   S
REF 1.220 1.00   P
RSO 1.000 1.00   P
#  2009  3 22  5 19 37.98  60.4872 -152.7632    0.290  0.30 0.00 0.00 0.00       4064
RDJH 2.700 1.00   P
RDN 1.120 1.00   P
RDWB 2.000 1.00   S
RDWB 1.200 1.00   P
REF 1.900 1.00   S
REF 1.060 1.00   P
RSO 1.000 1.00   P
#  2009  3 22 12  7 13.52  60.4888 -152.7642   -0.770  0.20 0.00 0.00 0.00       4073
RDN 1.160 1.00   P
RDWB 2.060 1.00   S
RDWB 1.240 1.00   P
REF 1.920 1.00   S
REF 1.200 1.00   P
RSO 1.000 1.00   P
#  2009  3 22 23 41 43.72  60.4867 -152.7667    1.280 -0.50 0.00 0.00 0.00       4110
RDWB 1.820 1.00   S
RDWB 1.020 1.00   P
REF 1.720 1.00   S
REF 1.000 1.00   P
RSO 1.340 1.00   P
#  2009  3 22 23 40 20.42  60.4835 -152.7772    1.460  0.20 0.00 0.00 0.00       4111
RDN 1.220 1.00   P
RDWB 1.660 1.00   S
RDWB 1.000 1.00   P
REF 2.040 1.00   S
REF 1.080 1.00   P
RSO 1.460 1.00   P
#  2009  3 28 16 14 48.58  60.4682 -152.7443    0.460  1.10 0.00 0.00 0.00       4112
NCT 2.940 1.00   P
RDWB 2.340 1.00   S
RDWB 1.460 1.00   P
REF 1.700 1.00   S
REF 1.000 1.00   P
#  2009  3 22 12 21 35.70  60.4887 -152.7710    0.050  0.50 0.00 0.00 0.00       4113
NCT 2.680 1.00   P
RDJH 2.580 1.00   P
RDN 1.000 1.00   P
RDWB 1.860 1.00   S
RDWB 1.100 1.00   P
REF 2.080 1.00   S
REF 1.220 1.00   P
RSO 1.040 1.00   P
#  2009  3 22 19 29 23.04  60.4812 -152.7675    0.780 -0.20 0.00 0.00 0.00       4114
RDN 1.180 1.00   P
RDWB 1.800 1.00   S
RDWB 1.020 1.00   P
REF 1.800 1.00   S
REF 1.700 1.00   S
REF 1.000 1.00   P
RSO 1.220 1.00   P
#  2009  3 28 21  4 53.64  60.4482 -152.8060    3.170  1.10 0.00 0.00 0.00       4115
NCT 2.400 1.00   P
RDN 1.000 1.00   P
RDWB 1.640 1.00   S
RDWB 1.180 1.00   P
REF 2.640 1.00   S
REF 1.020 1.00   P
#  2009  4  1  3 43  4.22  60.4553 -152.7133   -1.110  0.50 0.00 0.00 0.00       4116
RDN 1.640 1.00   P
RDWB 3.000 1.00   S
RDWB 1.940 1.00   P
REF 1.720 1.00   S
REF 1.000 1.00   P
#  2009  4 11  5 24 42.50  60.5332 -152.7888    4.130 -0.10 0.00 0.00 0.00       4117
DFR 1.540 1.00   P
NCT 1.560 1.00   P
RDN 1.000 1.00   P
RDWB 2.340 1.00   S
RDWB 1.280 1.00   P
#  2009  4 14  3  7 25.54  60.4910 -152.7943    3.820  1.00 0.00 0.00 0.00       4118
RDN 1.000 1.00   P
RDWB 1.740 1.00   S
RDWB 1.120 1.00   P
REF 2.560 1.00   S
REF 1.240 1.00   P
#  2009  4  5  5  6 28.52  60.5310 -152.7283    5.480  0.20 0.00 0.00 0.00       4119
DFR 1.500 1.00   P
NCT 2.180 1.00   P
RDE 1.600 1.00   P
RDN 1.000 1.00   P
RDT 2.680 1.00   P
RDWB 2.900 1.00   S
RDWB 1.500 1.00   P
REF 2.240 1.00   S
REF 1.900 1.00   P
#  2009  4  9  9 25 43.74  60.4565 -152.7702    2.320  0.60 0.00 0.00 0.00       4120
DFR 2.589 1.00   P
NCT 2.649 1.00   P
RDN 1.000 1.00   P
RDWB 2.040 1.00   S
RDWB 1.060 1.00   P
REF 2.160 1.00   S
REF 1.180 1.00   P
#  2009  4  2 13  7 28.12  60.4795 -152.7660    0.290  0.30 0.00 0.00 0.00       4121
RDN 1.000 1.00   P
RDWB 1.880 1.00   S
RDWB 1.120 1.00   P
REF 1.940 1.00   S
REF 1.060 1.00   P
#  2009  4 12  5  9 48.42  60.4912 -152.7757   -0.180  0.70 0.00 0.00 0.00       4129
NCT 2.648 1.00   P
RDN 1.080 1.00   P
RDWB 1.800 1.00   S
RDWB 1.000 1.00   P
REF 2.020 1.00   S
REF 1.160 1.00   P
#  2009  4  9  1 22 48.30  60.4987 -152.6720    6.640  3.50 0.00 0.00 0.00       4130
DFR 1.749 1.00   P
NCT 2.529 1.00   P
RDE 1.609 1.00   P
RDN 1.140 1.00   P
RDT 2.529 1.00   P
RDWB 3.240 1.00   S
RDWB 1.600 1.00   P
RED 3.520 1.00   S
RED 1.700 1.00   P
REF 1.000 1.00   P
#  2009  4  8  4 36  6.04  60.5232 -152.8525    4.110  0.10 0.00 0.00 0.00       4131
RDE 2.641 1.00   P
RDWB 2.000 1.00   S
RDWB 1.000 1.00   P
REF 3.200 1.00   S
REF 1.700 1.00   P
#  2009  4  9 22 19  2.70  60.5272 -152.7697    4.990  0.40 0.00 0.00 0.00       4132
DFR 1.729 1.00   P
NCT 1.789 1.00   P
RD01 1.480 1.00   P
RD02 1.000 1.00   P
RD03 2.620 1.00   P
RDE 2.109 1.00   P
RDN 1.060 1.00   P
RDT 3.529 1.00   P
RDW 2.520 1.00   P
RDWB 2.320 1.00   S
RDWB 1.360 1.00   P
REF 2.620 1.00   S
REF 1.500 1.00   P
#  2009  4  6  1 34 59.14  60.4567 -152.7740    0.720  0.40 0.00 0.00 0.00       4134
RDN 1.200 1.00   P
RDWB 1.660 1.00   S
RDWB 1.020 1.00   P
REF 1.900 1.00   S
REF 1.000 1.00   P
#  2009  4  5 17 48 26.70  60.4987 -152.7563    3.530  0.80 0.00 0.00 0.00       4135
DFR 2.080 1.00   P
NCT 2.200 1.00   P
RD02 1.000 1.00   P
RD03 1.380 1.00   P
RDE 2.260 1.00   P
RDN 1.040 1.00   P
RDT 3.480 1.00   P
RDW 1.460 1.00   P
RDWB 2.200 1.00   S
RDWB 1.200 1.00   P
RED 3.100 1.00   S
RED 1.700 1.00   P
REF 2.000 1.00   S
REF 1.140 1.00   P
#  2009  4  9  0 32 20.54  60.4933 -152.7653    0.210  1.00 0.00 0.00 0.00       4139
DFR 2.529 1.00   P
NCT 2.629 1.00   P
RDN 1.000 1.00   P
RDWB 1.860 1.00   S
RDWB 1.160 1.00   P
REF 1.880 1.00   S
REF 1.020 1.00   P
#  2009  4  3  0 41 40.44  60.4660 -152.7632   -1.800  0.40 0.00 0.00 0.00       4140
RDN 1.040 1.00   P
RDWB 1.900 1.00   S
RDWB 1.000 1.00   P
REF 1.840 1.00   S
REF 1.080 1.00   P
#  2009  4  1 21 10 12.60  60.4422 -152.7897    1.520  0.90 0.00 0.00 0.00       4146
DFR 2.540 1.00   P
RDWB 1.720 1.00   S
RDWB 1.000 1.00   P
REF 2.380 1.00   S
REF 1.060 1.00   P
#  2009  4  6  5 40  8.08  60.4763 -152.7677    0.490  1.10 0.00 0.00 0.00       4147
RDN 1.040 1.00   P
RDWB 2.000 1.00   S
RDWB 1.040 1.00   P
RED 2.280 1.00   S
REF 2.120 1.00   S
REF 1.000 1.00   P
#  2009  4 13  6 34 48.04  60.4792 -152.7682   -2.970  1.40 0.00 0.00 0.00       4148
DFR 2.900 1.00   P
NCT 2.380 1.00   P
RDE 3.180 1.00   P
RDN 1.160 1.00   P
RDT 4.640 1.00   P
RDWB 1.800 1.00   S
RDWB 1.400 1.00   P
RED 2.620 1.00   S
RED 1.280 1.00   P
REF 1.900 1.00   S
REF 1.000 1.00   P
#  2009  4  6 20 26 34.98  60.5150 -152.8378    5.180  1.20 0.00 0.00 0.00       4149
RD01 1.600 1.00   P
RD02 1.140 1.00   P
RD03 1.180 1.00   P
RDE 2.480 1.00   P
RDN 1.240 1.00   P
RDW 1.160 1.00   P
RDWB 2.020 1.00   S
RDWB 1.000 1.00   P
RED 3.580 1.00   S
RED 1.900 1.00   P
REF 3.040 1.00   S
REF 1.640 1.00   P
#  2009  4  6  3 17 57.76  60.4897 -152.7648    0.220  0.90 0.00 0.00 0.00       4151
RDN 1.020 1.00   P
RDWB 1.940 1.00   S
RDWB 1.000 1.00   P
REF 1.760 1.00   S
REF 1.080 1.00   P
#  2009  4 10 18 27 31.98  60.5238 -152.8500    4.590  0.50 0.00 0.00 0.00       4152
DFR 1.924 1.00   P
RD01 1.660 1.00   P
RD02 1.220 1.00   P
RD03 1.240 1.00   P
RDE 2.764 1.00   P
RDN 1.260 1.00   P
RDT 3.944 1.00   P
RDW 1.260 1.00   P
RDWB 2.020 1.00   S
RDWB 1.000 1.00   P
RED 2.000 1.00   P
REF 3.200 1.00   S
REF 3.280 1.00   S
#  2009  4 13 17 30 59.50  60.4870 -152.7682    0.950  0.60 0.00 0.00 0.00       4154
DFR 2.660 1.00   P
RDN 1.000 1.00   P
RDWB 2.060 1.00   S
RDWB 1.080 1.00   P
REF 2.080 1.00   S
REF 1.880 1.00   S
REF 1.060 1.00   P
#  2009  4  9  3 27 42.50  60.5198 -152.7020    6.990  0.40 0.00 0.00 0.00       4155
DFR 1.429 1.00   P
NCT 2.089 1.00   P
RDE 1.449 1.00   P
RDN 1.000 1.00   P
RDT 2.609 1.00   P
RDWB 2.940 1.00   S
RDWB 1.520 1.00   P
REF 2.380 1.00   S
REF 1.080 1.00   P
#  2009  4  8  6 27 28.12  60.5133 -152.7247    5.560 -0.10 0.00 0.00 0.00       4156
RDE 1.841 1.00   P
RDN 1.000 1.00   P
RDWB 2.740 1.00   S
RDWB 2.780 1.00   S
RDWB 1.440 1.00   P
REF 2.220 1.00   S
REF 1.060 1.00   P
#  2009  4  6  6 12 34.74  60.5307 -152.7708    4.360 -0.20 0.00 0.00 0.00       4158
RDE 1.960 1.00   P
RDN 1.000 1.00   P
RDWB 2.360 1.00   S
RDWB 1.260 1.00   P
REF 2.560 1.00   S
REF 1.420 1.00   P
#  2009  4  5 15 56 32.04  60.4873 -152.7692   -1.500  1.00 0.00 0.00 0.00       4159
DFR 3.160 1.00   P
NCT 3.100 1.00   P
RDN 1.000 1.00   P
RDWB 2.100 1.00   S
RDWB 1.540 1.00   P
REF 2.140 1.00   S
REF 1.580 1.00   P
#  2009  4 10 13 22 40.40  60.4905 -152.7673   -1.480  0.50 0.00 0.00 0.00       4160
DFR 3.104 1.00   P
RDN 1.000 1.00   P
RDWB 2.020 1.00   S
RDWB 1.140 1.00   P
REF 1.940 1.00   S
#  2009  4  5 18 47 26.56  60.5040 -152.7618    1.520  0.30 0.00 0.00 0.00       4161
DFR 2.020 1.00   P
NCT 2.340 1.00   P
RDE 2.540 1.00   P
RDN 1.000 1.00   P
RDWB 2.160 1.00   S
RDWB 1.320 1.00   P
REF 2.020 1.00   S
REF 1.240 1.00   P
#  2009  4  6  7 13 56.28  60.4892 -152.7610   -2.970  1.00 0.00 0.00 0.00       4162
RDN 1.340 1.00   P
RDWB 2.400 1.00   S
RDWB 1.620 1.00   P
RED 3.400 1.00   S
REF 2.520 1.00   S
REF 1.000 1.00   P
#  2009  4  1  8 44 53.34  60.4693 -152.7875   -1.620  0.70 0.00 0.00 0.00       4163
DFR 5.500 1.00   P
RD01 1.060 1.00   P
RD02 1.000 1.00   P
RD03 1.060 1.00   P
RDN 3.600 1.00   P
RDW 1.120 1.00   P
RDWB 3.960 1.00   S
RDWB 3.420 1.00   P
REF 4.580 1.00   S
REF 3.920 1.00   P
#  2009  4 11 15 54 12.62  60.5023 -152.7630    4.510  0.50 0.00 0.00 0.00       4164
DFR 1.980 1.00   P
NCT 2.060 1.00   P
RDE 2.140 1.00   P
RDN 1.000 1.00   P
REF 2.160 1.00   S
