#  2012 11  1  3 33 39.32  37.6058 -119.0817   21.330  0.89 0.00 0.00 0.00        302
MCM 5.090 0.50   P
MCV 5.540 0.20   P
MDC 4.340 0.20   P
MINS 4.200 0.50   P
MLC 4.760 0.20   P
MMP 4.160 0.20   P
MRD 4.120 0.50   P
OMMB 7.180 0.50   S
OMMB 4.180 1.00   P
#  2012 11  2  7 16 18.17  37.6277 -119.0172    0.510  0.32 0.00 0.00 0.00        303
MDC 1.950 1.00   P
MDPB 2.080 0.20   S
MDPB 1.270 1.00   P
MDY 2.210 0.20   S
MDY 1.270 0.50   P
MINS 1.200 1.00   P
MMP 0.830 1.00   P
MMS 0.980 1.00   P
MQ1P 0.780 1.00   P
MRD 1.240 1.00   P
OMMB 1.250 -1.00   S
OMMB 0.770 0.50   P
#  2012 11  2 14 55 53.97  37.5860 -119.1168   28.760  1.10 0.00 0.00 0.00        304
MCB 5.990 0.20   P
MCM 6.320 0.20   P
MDC 5.850 1.00   P
MDP1 9.440 1.00   S
MDPB 9.360 1.00   S
MDPB 5.070 1.00   P
MINS 9.810 1.00   S
MINS 5.520 1.00   P
MMLB 6.200 1.00   P
MRD 5.440 1.00   P
OMMB 9.530 -1.00   S
#  2012 11  3  9 44 37.06  37.6575 -119.1595   12.610  0.60 0.00 0.00 0.00        305
MCB 4.880 0.20   P
MCY 6.120 1.00   S
MDC 3.380 1.00   P
MDP1 5.280 1.00   S
MDPB 5.310 1.00   S
MDPB 2.890 0.50   P
MDY 6.650 0.20   S
MDY 3.820 0.20   P
MEM 4.430 1.00   P
MEM 7.200 0.20   S
MINS 5.480 1.00   S
MINS 2.920 1.00   P
MLI 6.410 1.00   S
MLI 3.830 1.00   P
MMLB 6.640 0.20   S
MMP 3.290 1.00   P
MMS 3.730 1.00   P
MQ1P 3.300 0.20   P
MRD 3.160 1.00   P
OMMB 5.600 0.20   S
OMMB 3.390 0.50   P
#  2012 11  3 13 18 18.31  37.6008 -119.0620   19.920  0.82 0.00 0.00 0.00        306
MCM 4.790 1.00   P
MCV 5.160 1.00   P
MDC 4.290 -1.00   P
MDPB 6.650 0.20   S
MDPB 3.800 0.20   P
MGPB 4.710 0.50   P
MINS 3.990 0.20   P
MLC 4.450 1.00   P
MMP 3.930 0.50   P
MQ1P 3.940 0.20   P
MRD 3.870 1.00   P
OMMB 3.920 1.00   P
#  2012 11  3 13 21 44.95  37.6043 -119.0580   19.210  0.74 0.00 0.00 0.00        307
MCM 4.690 1.00   P
MCV 5.050 1.00   P
MDC 4.180 -1.00   P
MDPB 6.490 0.50   S
MDPB 3.710 1.00   P
MGPB 4.590 0.50   P
MINS 6.860 0.20   S
MINS 3.860 0.10   P
MLC 4.330 1.00   P
MMP 3.700 0.50   P
MRD 3.750 1.00   P
OMMB 6.640 0.50   S
OMMB 3.810 1.00   P
#  2012 11  3 15 26 24.92  37.6148 -119.0500   18.720  0.77 0.00 0.00 0.00        308
MCM 4.570 1.00   P
MCV 4.900 0.20   P
MDC 4.060 -1.00   P
MDPB 6.340 0.20   S
MDPB 3.620 1.00   P
MDR 5.100 0.20   P
MGPB 4.440 1.00   P
MINS 3.810 0.20   P
MLC 4.230 1.00   P
MMP 3.720 0.50   P
MQ1P 3.700 0.20   P
MRD 3.640 1.00   P
OMMB 6.450 0.20   S
OMMB 3.680 1.00   P
#  2012 11  3 16 59 12.19  37.6098 -119.0560   18.610  0.64 0.00 0.00 0.00        309
MCM 4.600 0.50   P
MDC 4.030 -1.00   P
MDPB 6.400 -1.00   S
MDPB 3.620 1.00   P
MMP 3.750 0.20   P
MQ1P 3.710 0.20   P
MRD 3.630 1.00   P
OMMB 6.540 0.20   S
OMMB 3.700 1.00   P
#  2012 11  3 21  7 33.23  37.6102 -119.0677   19.460  0.80 0.00 0.00 0.00        310
MCM 4.730 0.20   P
MCV 5.120 0.20   P
MDC 4.200 -0.50   P
MDPB 6.530 -0.50   S
MDPB 3.780 0.50   P
MLC 4.400 0.20   P
MMP 3.890 0.20   P
MQ1P 3.900 0.20   P
MRD 3.790 0.50   P
OMMB 6.680 0.20   S
OMMB 3.810 0.50   P
#  2012 11  4  2 24 54.61  37.6433 -119.0407   11.640  0.52 0.00 0.00 0.00        311
MCM 3.760 -1.00   P
MCV 4.130 0.20   P
MDC 2.980 1.00   P
MDP1 4.480 0.20   S
MDPB 4.470 1.00   S
MDPB 2.460 1.00   P
MINS 4.570 1.00   S
MINS 2.530 1.00   P
MLI 2.730 0.20   P
MQ1P 2.900 0.20   P
MRD 2.500 1.00   P
OMMB 4.500 -1.00   S
OMMB 2.500 1.00   P
#  2012 11  4  2 25 34.70  37.6343 -119.0287   11.520  0.40 0.00 0.00 0.00        312
MCM 3.550 -1.00   P
MCV 4.130 0.20   P
MCY 2.590 0.20   P
MDC 2.930 1.00   P
MDP1 4.520 0.50   S
MDPB 4.560 1.00   S
MDPB 2.620 1.00   P
MDY 2.740 0.20   P
MINS 4.740 1.00   S
MINS 2.650 1.00   P
MMS 2.740 0.20   P
MQ1P 2.600 0.20   P
MRD 2.600 1.00   P
OMMB 4.530 -1.00   S
OMMB 2.450 1.00   P
#  2012 11  4  4 59 24.09  37.6105 -119.0637   19.740  0.66 0.00 0.00 0.00        313
MCM 4.800 0.20   P
MDC 4.190 0.50   P
MDPB 6.670 -1.00   S
MDPB 3.780 0.50   P
MINS 7.130 0.20   S
MINS 4.080 0.50   P
MMP 3.960 0.20   P
MRD 3.870 0.50   P
OMMB 6.790 -1.00   S
OMMB 3.900 1.00   P
#  2012 11  4  5 26 31.63  37.6095 -119.0682   19.820  0.65 0.00 0.00 0.00        314
MCM 4.910 0.50   P
MDC 4.220 -1.00   P
MDPB 6.650 0.50   S
MDPB 3.790 0.50   P
MINS 4.030 0.50   P
MMP 3.970 0.50   P
MQ1P 3.920 0.20   P
MRD 3.820 0.50   P
OMMB 6.790 1.00   S
OMMB 3.900 1.00   P
#  2012 11  4  7 16 50.36  37.6163 -119.0572   19.320  0.82 0.00 0.00 0.00        315
MCM 4.690 -1.00   P
MDC 4.110 -1.00   P
MDPB 6.570 1.00   S
MDPB 3.680 0.20   P
MINS 3.960 0.20   P
MLC 4.360 0.50   P
MMP 3.860 0.20   P
MRD 3.740 1.00   P
OMMB 6.730 -1.00   S
OMMB 3.780 1.00   P
#  2012 11  4  7 20 13.25  37.6325 -119.0503   12.190  0.27 0.00 0.00 0.00        316
MCM 3.980 0.20   P
MDC 3.030 1.00   P
MDP1 4.490 1.00   S
MDPB 4.570 1.00   S
MDPB 2.480 1.00   P
MINS 4.740 1.00   S
MINS 2.870 1.00   P
MQ1P 2.870 0.20   P
MRD 2.570 1.00   P
OMMB 4.660 -1.00   S
OMMB 2.570 0.20   P
#  2012 11  4  7 24 28.84  37.6260 -119.1108   25.660  0.82 0.00 0.00 0.00        317
MCM 5.570 0.20   P
MDC 5.040 1.00   P
MDPB 8.300 1.00   S
MDPB 4.680 1.00   P
MDY 4.840 0.20   P
MINS 8.600 1.00   S
MINS 4.620 1.00   P
MLI 10.010 0.20   S
MLI 5.530 0.20   P
MRD 5.290 1.00   P
OMMB 8.680 -1.00   S
OMMB 5.760 0.20   P
#  2012 11  4  8 26 13.05  37.6200 -119.0625   19.570  0.84 0.00 0.00 0.00        318
MCM 4.760 0.50   P
MCY 3.770 0.20   P
MDC 4.180 0.50   P
MDPB 6.650 -1.00   S
MDPB 3.750 0.50   P
MDY 4.400 0.20   P
MINS 7.020 0.20   S
MINS 3.960 0.20   P
MLC 4.420 0.50   P
MLI 3.860 0.20   P
MMP 3.870 0.50   P
MMS 3.980 0.20   P
MQ1P 3.890 0.20   P
MRD 3.800 -1.00   P
OMMB 6.780 0.50   S
OMMB 3.870 0.50   P
#  2012 11  4  9 28 21.90  37.6120 -119.0582   19.750  0.85 0.00 0.00 0.00        319
MCM 4.760 1.00   P
MCV 5.140 0.20   P
MDC 4.180 -1.00   P
MDPB 6.660 0.20   S
MDPB 3.700 0.20   P
MDY 4.360 0.20   P
MGPB 4.670 0.20   P
MINS 7.020 0.20   S
MINS 3.950 0.50   P
MLC 4.420 0.50   P
MMP 3.870 0.50   P
MQ1P 3.880 0.50   P
MRD 3.800 -1.00   P
OMMB 6.790 -1.00   S
OMMB 3.850 0.50   P
#  2012 11  4 12 55  6.56  37.6213 -119.0362    9.410  0.22 0.00 0.00 0.00        320
MDC 3.000 1.00   P
MDPB 3.890 -1.00   S
MINS 4.200 1.00   S
MINS 2.100 0.20   P
MMP 1.950 1.00   P
OMMB 4.030 -1.00   S
OMMB 1.930 1.00   P
#  2012 11  6  5 18 43.62  37.6185 -119.0673   12.860  0.44 0.00 0.00 0.00        321
MCM 4.000 1.00   P
MCV 4.400 0.20   P
MCY 3.080 0.20   P
MDC 3.180 1.00   P
MDPB 4.810 1.00   S
MDPB 2.790 1.00   P
MDY 3.060 0.20   P
MINS 5.050 1.00   S
MINS 2.900 1.00   P
MLI 3.030 0.20   P
MMP 2.910 1.00   P
MMS 3.160 0.20   P
MQ1P 2.900 1.00   P
MRD 2.760 1.00   P
OMMB 4.970 1.00   S
OMMB 2.740 1.00   P
#  2012 11  6  5 27 12.43  37.6257 -119.0567   14.840  0.63 0.00 0.00 0.00        322
MCM 4.300 0.50   P
MCV 4.600 0.50   P
MDC 3.400 1.00   P
MDPB 5.300 1.00   S
MDPB 3.010 1.00   P
MDY 6.280 0.20   S
MDY 3.800 0.20   P
MINS 5.610 1.00   S
MINS 3.050 1.00   P
MLC 3.820 0.20   P
MMS 3.260 0.20   P
MQ1P 3.180 0.20   P
MRD 3.150 1.00   P
OMMB 5.470 -1.00   S
OMMB 3.020 1.00   P
#  2012 11  6 11 40  9.48  37.5860 -119.0072    0.750 -0.14 0.00 0.00 0.00        323
MCY 1.550 0.20   P
MDC 2.930 0.20   P
MDPB 3.010 0.50   S
MDPB 1.740 -1.00   P
MINS 2.190 0.20   P
MLI 1.680 0.20   P
MMP 1.000 0.50   P
MMS 1.260 0.20   P
MQ1P 1.000 0.50   P
MRD 1.270 -1.00   P
OMMB 1.510 -1.00   S
OMMB 0.880 0.50   P
#  2012 11  6 14  0 43.92  37.6325 -119.0403    1.560 -0.31 0.00 0.00 0.00        324
MCY 1.820 0.20   S
MCY 1.010 0.50   P
MDPB 1.060 -1.00   P
MDY 1.190 0.10   P
MINS 1.100 -1.00   P
MMP 0.990 1.00   P
MMS 1.170 1.00   P
MQ1P 1.000 0.50   P
MRD 1.210 0.20   P
OMMB 1.000 0.50   P
#  2012 11  6 14  0 47.86  37.6370 -119.0305    2.850 -0.23 0.00 0.00 0.00        325
MDPB 1.290 -1.00   P
MINS 1.310 -1.00   P
MMP 1.180 1.00   P
MMS 1.360 1.00   P
MQ1P 1.180 0.50   P
MRD 1.410 0.50   P
OMMB 2.050 -0.50   S
OMMB 1.250 -1.00   P
#  2012 11  6 21 53 43.65  37.5908 -119.0033    1.650  0.66 0.00 0.00 0.00        326
MLAC 3.220 0.20   P
MCB 2.600 0.50   P
MCM 2.440 1.00   P
MCS 2.620 0.10   P
MCV 3.000 1.00   P
MCY 1.660 0.50   P
MDC 2.750 0.50   P
MDH1 3.990 0.50   S
MDPB 3.000 0.50   S
MDPB 1.800 1.00   P
MDR 3.420 0.50   P
MEM 2.420 0.20   P
MGPB 2.260 0.50   P
MINS 3.210 0.50   S
MINS 1.910 1.00   P
MLC 1.850 0.50   P
MLI 1.640 0.20   P
MLK 2.210 1.00   P
MLM 4.220 0.20   P
MMLB 2.100 0.20   P
MMP 1.030 1.00   P
MMS 1.500 1.00   P
MMX1 2.130 0.50   S
MQ1P 1.020 1.00   P
MRD 1.330 1.00   P
OMMB 1.490 0.50   S
OMMB 0.920 1.00   P
#  2012 11  9 17 34 25.53  37.5945 -119.0053    0.490 -0.16 0.00 0.00 0.00        327
MDPB 1.660 -1.00   P
MMP 0.820 0.50   P
MQ1P 0.850 0.20   P
MRD 1.180 -1.00   P
OMMB 1.270 -1.00   S
OMMB 0.740 -1.00   P
#  2012 11  9 21 32 23.45  37.6162 -119.0912   19.920  0.93 0.00 0.00 0.00        328
MCM 4.870 0.20   P
MCV 5.280 0.20   P
MDC 4.330 0.20   P
MDP1 6.600 0.50   S
MDPB 3.880 0.50   P
MINS 4.070 0.20   P
MRD 3.830 0.50   P
OMMB 7.060 0.50   S
OMMB 3.870 0.50   P
#  2012 11 10  0 18 10.29  37.5975 -119.0683   20.180  0.94 0.00 0.00 0.00        329
MCM 4.880 1.00   P
MCV 5.280 1.00   P
MDC 4.310 0.50   P
MDPB 6.910 0.50   S
MDPB 3.900 0.50   P
MGPB 4.930 0.20   P
MINS 6.950 0.20   S
MINS 4.120 0.50   P
MLC 4.560 0.20   P
MMP 3.870 0.20   P
MRD 3.890 0.50   P
OMMB 6.980 0.20   S
OMMB 3.970 0.50   P
#  2012 11 10  9 38 52.64  37.6512 -119.1738    7.980  0.43 0.00 0.00 0.00        330
MDC 3.100 -1.00   P
MDP1 4.410 -1.00   S
MINS 2.010 1.00   P
MLI 5.710 -1.00   S
MQ1P 3.850 1.00   P
MRD 2.010 1.00   P
#  2012 11 10 12 37 34.66  37.6327 -119.0745   13.610  0.45 0.00 0.00 0.00        331
MCM 4.190 -1.00   P
MDC 3.390 1.00   P
MDPB 5.120 1.00   S
MDPB 2.680 0.50   P
MINS 5.050 1.00   S
MINS 2.970 1.00   P
MRD 2.740 1.00   P
#  2012 11 10 16 50 20.52  37.6197 -119.0147    2.770  2.26 0.00 0.00 0.00        332
MLAC 3.340 1.00   P
MCB 2.530 1.00   P
MCM 2.590 1.00   P
MCS 2.410 1.00   P
MCV 3.240 1.00   P
MCY 1.300 1.00   P
MDC 2.190 1.00   P
MDH1 3.460 1.00   S
MDPB 2.530 0.20   S
MDPB 1.540 1.00   P
MDR 3.460 1.00   P
MDY 1.540 1.00   P
MEM 2.090 1.00   P
MGPB 2.350 1.00   P
MINS 2.710 0.20   S
MINS 1.530 1.00   P
MLC 2.010 1.00   P
MLH 3.990 1.00   P
MLI 1.340 1.00   P
MLM 3.240 0.20   P
MMLB 1.680 1.00   P
MMP 1.080 1.00   P
MMS 1.320 1.00   P
MMX1 2.220 0.50   S
MQ1P 1.060 1.00   P
MRD 1.420 1.00   P
OMMB 1.580 0.50   S
OMMB 1.010 1.00   P
#  2012 11 10 16 53 33.17  37.6225 -119.0118    1.840  0.38 0.00 0.00 0.00        333
MCB 2.450 0.20   P
MCM 2.520 0.50   P
MCV 3.160 0.50   P
MCY 1.260 0.20   P
MDC 2.130 1.00   P
MDH1 3.370 1.00   S
MDPB 2.460 0.50   S
MDPB 1.470 1.00   P
MDR 3.380 0.20   P
MDY 1.490 0.50   P
MEM 2.000 0.50   P
MEM 3.470 0.50   S
MGPB 2.270 0.50   P
MINS 2.640 0.20   S
MINS 1.460 1.00   P
MLC 1.930 1.00   P
MMP 1.000 1.00   P
MMS 1.300 0.50   P
MMX1 2.130 0.20   S
MQ1P 0.970 0.50   P
MRD 1.360 1.00   P
OMMB 1.530 0.50   S
OMMB 1.000 0.20   P
#  2012 11 10 18  5 26.65  37.6342 -119.0543    7.740  0.09 0.00 0.00 0.00        334
MBS1 6.810 0.20   S
MCM 3.440 1.00   P
MDC 2.480 -1.00   P
MDP1 3.220 1.00   S
MDPB 3.210 1.00   S
MDPB 1.820 1.00   P
MDY 4.030 0.20   S
MDY 2.340 0.20   P
MEM 3.320 0.20   P
MINS 3.620 0.20   S
MINS 1.970 1.00   P
MLC 2.920 0.20   P
MLI 2.410 0.20   P
MMP 1.990 1.00   P
MQ1P 3.670 0.50   S
MQ1P 1.990 0.50   P
MRD 1.900 1.00   P
OMMB 3.530 -1.00   S
OMMB 2.000 1.00   P
#  2012 11 10 18 33 11.53  37.6302 -119.0195    0.030  0.24 0.00 0.00 0.00        335
MDC 1.790 0.20   P
MDPB 2.130 0.20   S
MDPB 1.270 -1.00   P
MINS 1.090 0.50   P
MLI 0.710 0.50   P
MMP 0.790 0.50   P
MMS 0.830 -1.00   P
MQ1P 0.720 1.00   P
MRD 1.280 0.50   P
OMMB 0.660 0.50   P
#  2012 11 10 21  0 42.46  37.6237 -119.0128    1.450  0.41 0.00 0.00 0.00        336
MCM 2.500 0.50   P
MCV 3.130 0.50   P
MDC 2.110 1.00   P
MDH1 3.360 1.00   S
MDPB 2.440 1.00   S
MDPB 1.450 1.00   P
MDY 1.460 0.20   P
MEM 1.990 1.00   P
MGPB 2.270 0.20   P
MINS 2.620 0.50   S
MINS 1.460 1.00   P
MLC 1.910 0.50   P
MLI 0.870 0.20   P
MMP 0.990 0.20   P
MMS 1.160 0.20   P
MQ1P 1.000 0.20   P
MRD 1.330 1.00   P
OMMB 1.480 -1.00   S
OMMB 0.880 1.00   P
#  2012 11 11  5 30 31.02  37.5968 -119.0055    0.770  0.06 0.00 0.00 0.00        337
MDPB 2.880 -0.50   S
MDPB 1.650 -1.00   P
MINS 1.790 0.20   P
MMP 0.860 1.00   P
MMS 1.330 0.50   P
MQ1P 0.850 1.00   P
MRD 1.160 -1.00   P
OMMB 1.310 -1.00   S
OMMB 0.750 0.50   P
#  2012 11 11 14 11 43.09  37.6400 -119.1017    8.330  0.15 0.00 0.00 0.00        338
MDC 2.580 -1.00   P
MDP1 3.320 0.50   S
MDPB 3.350 -1.00   S
MDPB 1.980 1.00   P
MINS 2.100 1.00   P
MMP 2.170 0.50   P
MRD 2.080 1.00   P
#  2012 11 11 16  5 43.10  37.6185 -119.0867   12.810  0.49 0.00 0.00 0.00        339
MCB 7.460 0.20   S
MCB 4.090 0.20   P
MCM 4.200 1.00   P
MCV 4.520 0.50   P
MDC 3.230 1.00   P
MDPB 4.810 1.00   S
MDPB 2.570 1.00   P
MDY 2.960 0.20   P
MEM 3.960 1.00   P
MINS 5.060 1.00   S
MINS 2.740 1.00   P
MMP 3.000 0.50   P
MQ1P 2.980 1.00   P
MRD 2.700 1.00   P
OMMB 5.100 1.00   S
OMMB 2.930 1.00   P
#  2012 11 11 19 54 36.53  37.5913 -119.0752    9.520  0.19 0.00 0.00 0.00        340
MCM 4.060 0.20   P
MDC 3.510 1.00   P
MDPB 4.200 1.00   S
MDPB 2.120 1.00   P
MINS 4.420 1.00   S
MINS 2.210 1.00   P
MMP 2.330 0.20   P
MQ1P 2.420 0.20   P
MRD 2.280 1.00   P
OMMB 4.290 -1.00   S
OMMB 2.230 0.20   P
#  2012 11 11 19 55 26.62  37.6288 -119.0725   13.370  0.71 0.00 0.00 0.00        341
MCM 4.020 0.20   P
MCV 4.670 0.20   P
MCY 2.780 0.20   P
MDC 3.180 1.00   P
MDPB 4.820 1.00   S
MDPB 2.780 1.00   P
MINS 5.110 1.00   S
MINS 2.880 1.00   P
MMP 3.010 0.50   P
MMS 2.940 0.20   P
MQ1P 3.050 0.20   P
MRD 2.740 1.00   P
OMMB 5.140 -1.00   S
OMMB 2.900 1.00   P
#  2012 11 12 16 49 39.64  37.6493 -119.0663   13.790  0.67 0.00 0.00 0.00        342
MCM 4.830 0.20   P
MCV 4.670 -1.00   P
MDC 3.210 -1.00   P
MDPB 4.900 1.00   S
MDPB 2.810 1.00   P
MDY 6.360 0.20   S
MINS 5.180 1.00   S
MINS 3.010 1.00   P
MMS 3.460 0.20   P
MQ1P 3.300 0.20   P
MRD 2.950 1.00   P
OMMB 4.960 1.00   S
OMMB 2.960 1.00   P
#  2012 11 13  5 42 49.95  37.6117 -119.0602   21.430  0.83 0.00 0.00 0.00        343
MCM 4.860 -1.00   P
MCV 5.360 0.20   P
MDC 4.410 -1.00   P
MDPB 4.080 1.00   P
MGPB 4.850 0.20   P
MINS 4.080 0.20   P
MLC 4.600 0.20   P
MMP 4.540 0.50   P
MMS 4.710 0.20   P
MQ1P 4.270 0.20   P
MRD 4.330 0.20   P
OMMB 4.360 1.00   P
#  2012 11 13  8 17 30.41  37.6290 -119.0597   -2.740  0.10 0.00 0.00 0.00        344
MINS 1.350 0.20   S
MINS 0.560 0.20   P
MLI 0.750 0.20   P
MMP 0.810 1.00   P
MMS 0.620 -1.00   P
MQ1P 1.530 1.00   S
MQ1P 1.090 1.00   P
MRD 0.640 1.00   P
OMMB 1.200 0.20   P
#  2012 11 13  8 31 56.89  37.5910 -119.0067    2.490  0.23 0.00 0.00 0.00        345
MCM 2.510 0.20   P
MCY 1.680 0.20   P
MDC 2.890 0.20   P
MDPB 1.820 1.00   P
MINS 1.990 -1.00   P
MMP 1.140 1.00   P
MMS 1.620 0.50   P
MQ1P 1.140 1.00   P
MRD 1.310 -1.00   P
OMMB 1.790 0.50   S
OMMB 1.080 1.00   P
#  2012 11 13 22 10 50.08  37.6210 -119.0493   18.070  0.61 0.00 0.00 0.00        346
MCM 4.720 0.20   P
MDC 3.920 -1.00   P
MDPB 6.390 -1.00   S
MDPB 3.550 1.00   P
MINS 6.540 1.00   S
MINS 3.670 1.00   P
MLC 4.310 0.20   P
MMS 3.410 0.20   P
MRD 3.610 1.00   P
OMMB 6.380 -1.00   S
OMMB 3.630 1.00   P
#  2012 11 14  1 54 37.35  37.6842 -119.1217   11.070  0.41 0.00 0.00 0.00        347
MCY 5.600 0.20   S
MDC 2.760 -1.00   P
MDP1 4.870 1.00   S
MDPB 4.600 1.00   S
MDPB 2.330 1.00   P
MDY 3.370 0.50   P
MINS 4.890 1.00   S
MINS 2.590 1.00   P
MLI 5.660 0.20   S
MMS 3.000 0.20   P
MQ1P 5.320 -1.00   S
MQ1P 3.370 1.00   P
MRD 3.120 1.00   P
OMMB 4.480 1.00   S
OMMB 2.320 0.20   P
#  2012 11 14  7 25 31.54  37.6263 -119.0123    1.780 -0.03 0.00 0.00 0.00        348
MCM 2.540 0.20   P
MDC 2.140 0.50   P
MDPB 2.460 -1.00   S
MDPB 1.480 1.00   P
MINS 2.640 0.20   S
MINS 1.470 1.00   P
MLC 1.970 0.20   P
MLI 1.070 0.20   P
MMP 1.060 0.20   P
MMS 1.300 0.20   P
MQ1P 0.910 0.20   P
MRD 1.370 1.00   P
OMMB 1.520 -1.00   S
OMMB 0.940 1.00   P
#  2012 11 14 19 26 24.31  37.6132 -119.0628   17.610  0.93 0.00 0.00 0.00        349
MCM 4.510 1.00   P
MCV 4.940 1.00   P
MDC 3.920 -1.00   P
MDPB 3.390 0.50   P
MDR 5.100 0.20   P
MGPB 4.390 1.00   P
MINS 6.250 0.50   S
MINS 3.540 1.00   P
MLC 4.160 1.00   P
MMP 3.570 1.00   P
MQ1P 3.570 0.50   P
MRD 3.490 1.00   P
OMMB 6.130 0.50   S
OMMB 3.570 1.00   P
#  2012 11 14 19 40 21.36  37.6135 -119.0583   16.060  0.72 0.00 0.00 0.00        350
MCM 4.290 0.50   P
MCV 4.730 1.00   P
MDC 3.680 -1.00   P
MDPB 3.170 1.00   P
MDR 4.890 0.50   P
MGPB 4.170 0.50   P
MINS 6.040 -1.00   S
MINS 3.320 0.50   P
MLC 3.940 1.00   P
MMP 3.320 0.50   P
MQ1P 3.350 0.50   P
MRD 3.260 1.00   P
OMMB 5.950 0.50   S
OMMB 3.380 0.50   P
#  2012 11 14 23 11 36.29  37.6108 -119.0628   17.700  0.94 0.00 0.00 0.00        351
MCM 4.520 0.20   P
MCV 4.990 0.20   P
MDC 3.950 -1.00   P
MDPB 3.530 0.50   P
MGPB 4.540 0.50   P
MINS 6.290 0.50   S
MINS 3.620 1.00   P
MLC 4.240 0.20   P
MMP 3.630 0.20   P
MMS 3.810 0.20   P
MQ1P 3.650 0.20   P
MRD 3.570 1.00   P
OMMB 6.230 0.50   S
OMMB 3.640 0.50   P
#  2012 11 15 15 44 21.70  37.6120 -119.0220    0.960 -0.12 0.00 0.00 0.00        352
MDC 2.290 0.20   P
MDPB 2.240 0.20   S
MDPB 1.330 -1.00   P
MINS 1.410 0.50   P
MMP 0.710 0.50   P
MMS 1.080 0.20   P
MQ1P 0.680 -0.50   P
MRD 1.050 -1.00   P
#  2012 11 15 18  1 53.36  37.6500 -119.0583   12.600  0.37 0.00 0.00 0.00        353
MCY 2.780 0.20   P
MDC 2.930 -1.00   P
MDP1 4.590 1.00   S
MDPB 4.690 1.00   S
MDPB 2.730 1.00   P
MEM 3.250 0.20   P
MINS 4.900 1.00   S
MINS 2.650 1.00   P
MMP 2.800 0.20   P
MQ1P 2.940 0.20   P
MRD 2.680 1.00   P
OMMB 4.580 0.20   S
OMMB 2.790 0.50   P
#  2012 11 17  2 26 53.92  37.6145 -119.1122   13.760  0.55 0.00 0.00 0.00        354
MCM 4.380 0.20   P
MCY 3.610 0.20   P
MDC 3.390 1.00   P
MDP1 4.880 1.00   S
MDPB 5.150 1.00   S
MDPB 2.830 1.00   P
MDY 6.600 0.20   S
MDY 3.580 0.20   P
MINS 5.430 1.00   S
MINS 3.210 1.00   P
MMS 3.640 0.20   P
MQ1P 6.460 0.20   S
MQ1P 3.520 0.20   P
MRD 2.950 1.00   P
#  2012 11 17  2 27 19.61  37.6377 -119.1118   12.570  0.60 0.00 0.00 0.00        355
MCM 3.920 0.20   P
MCY 5.540 0.20   S
MDC 2.810 -1.00   P
MDPB 4.560 1.00   S
MDPB 2.450 1.00   P
MINS 5.740 1.00   S
MINS 2.480 1.00   P
MMP 2.890 0.20   P
MMS 3.150 0.20   P
MQ1P 5.740 1.00   S
MQ1P 3.660 1.00   P
MRD 2.530 1.00   P
#  2012 11 18  5  9 29.57  37.6325 -119.0240   16.330  0.86 0.00 0.00 0.00        356
MCM 4.150 0.20   P
MDC 3.670 0.50   P
MDPB 5.930 0.50   S
MDPB 3.340 1.00   P
MGPB 4.070 0.20   P
MINS 6.060 0.50   S
MINS 3.380 1.00   P
MMP 3.610 0.50   P
MQ1P 3.470 0.20   P
MRD 3.390 -1.00   P
#  2012 11 18 11 42  9.23  37.6422 -119.0627   17.840  0.96 0.00 0.00 0.00        357
MCM 4.460 0.20   P
MDC 3.980 0.50   P
MDPB 6.130 1.00   S
MDPB 3.510 1.00   P
MINS 6.240 1.00   S
MINS 3.570 1.00   P
MMP 3.660 0.50   P
MQ1P 3.660 0.20   P
MRD 3.570 1.00   P
#  2012 11 18 13 21 16.77  37.6318 -119.0493   19.530  0.69 0.00 0.00 0.00        358
MCM 4.610 0.20   P
MDC 4.100 0.50   P
MDPB 6.340 0.50   S
MDPB 3.790 1.00   P
MINS 6.540 0.50   S
MINS 3.830 1.00   P
MLC 4.300 -0.50   P
MMP 3.880 0.50   P
MRD 3.820 -1.00   P
#  2012 11 18 14 26 47.87  37.6477 -119.0248   17.270  0.70 0.00 0.00 0.00        359
MCM 4.320 0.20   P
MDC 3.750 0.50   P
MDPB 6.090 1.00   S
MDPB 3.480 -1.00   P
MDY 3.370 0.20   P
MGPB 4.220 0.20   P
MINS 6.220 0.50   S
MINS 3.530 0.50   P
MLC 3.940 0.20   P
MQ1P 3.760 0.20   P
MRD 3.520 0.50   P
#  2012 11 18 14 33 17.08  37.6327 -119.0418   18.220  1.24 0.00 0.00 0.00        360
MCB 4.460 0.20   P
MCM 4.460 1.00   P
MCV 4.880 0.20   P
MCY 3.600 0.20   P
MDC 3.930 0.50   P
MDPB 6.240 1.00   S
MDPB 3.600 1.00   P
MDR 4.980 0.20   P
MGPB 4.370 0.50   P
MINS 6.350 1.00   S
MINS 3.700 1.00   P
MLC 4.130 0.50   P
MMP 3.800 0.50   P
MMS 3.820 0.20   P
MQ1P 3.750 0.20   P
MRD 3.740 0.50   P
