#  2012 10 19  1 15 13.81  37.6355 -119.0385   -0.530  0.27 0.00 0.00 0.00        131
MCY 0.850 0.20   P
MDC 1.900 0.20   P
MDPB 1.730 0.20   S
MDPB 0.950 0.50   P
MINS 0.930 -1.00   P
MMP 0.810 0.50   P
MMS 0.570 0.20   P
MQ1P 0.770 0.50   P
MRD 1.040 0.20   P
#  2012 10 19 16  5 50.73  37.5923 -119.0028    1.870  0.46 0.00 0.00 0.00        132
MCM 2.430 1.00   P
MCV 3.000 1.00   P
MCY 1.680 0.50   P
MDC 2.830 0.50   P
MDH1 4.030 1.00   S
MGPB 2.270 0.50   P
MINS 1.970 0.20   P
MLC 1.840 1.00   P
MMP 1.050 1.00   P
MMS 1.530 1.00   P
MQ1P 1.030 0.50   P
MRD 1.370 -1.00   P
#  2012 10 20  0 45 50.40  37.5868 -119.0012    1.180  0.52 0.00 0.00 0.00        133
MCB 2.600 0.50   P
MCM 2.400 0.50   P
MCS 2.830 0.20   P
MCV 2.980 1.00   P
MCY 1.720 0.20   P
MDC 2.800 -1.00   P
MDH1 4.000 0.20   S
MDR 3.430 0.50   P
MDY 2.580 0.20   P
MEM 2.400 0.50   P
MGPB 2.260 1.00   P
MINS 1.940 0.50   P
MLC 1.820 1.00   P
MLK 2.450 0.20   P
MMP 1.030 1.00   P
MMS 1.520 0.50   P
MMX1 2.080 0.50   S
MQ1P 1.680 0.50   S
MQ1P 1.020 0.50   P
MRD 1.340 -1.00   P
#  2012 10 20  4 42 18.23  37.5923 -119.0017    1.270  0.25 0.00 0.00 0.00        134
MCM 2.380 0.20   P
MDC 2.740 0.50   P
MDPB 3.020 0.50   S
MDPB 1.780 1.00   P
MINS 1.910 0.20   P
MLC 1.780 -1.00   P
MMP 0.990 0.50   P
MQ1P 0.970 0.50   P
MRD 1.290 -1.00   P
#  2012 10 20  4 49 59.06  37.6348 -119.0378    1.580 -0.36 0.00 0.00 0.00        135
MCY 0.900 0.20   P
MDC 1.830 -1.00   P
MDPB 1.110 -1.00   P
MINS 1.080 -1.00   P
MMP 1.000 0.50   P
MMS 1.110 -1.00   P
MQ1P 0.930 -1.00   P
MRD 1.220 0.50   P
#  2012 10 20  4 50  3.84  37.6355 -119.0368    0.420  0.26 0.00 0.00 0.00        136
MCY 0.870 0.20   P
MDC 1.770 -0.50   P
MDPB 1.800 0.20   S
MDPB 1.040 1.00   P
MINS 1.740 0.50   S
MINS 1.010 1.00   P
MMP 0.890 0.50   P
MMS 0.950 0.50   P
MQ1P 0.870 0.50   P
MRD 1.150 -1.00   P
#  2012 10 20  6 59 14.45  37.6023 -119.0150    1.020 -0.01 0.00 0.00 0.00        137
MDPB 2.560 -0.50   S
MDPB 1.490 -1.00   P
MINS 1.780 0.20   P
MLC 1.870 0.20   P
MMP 0.750 1.00   P
MMS 1.160 0.20   P
MQ1P 0.730 1.00   P
MRD 1.100 -1.00   P
#  2012 10 20 10 55 30.10  37.6405 -119.0318    1.440  0.10 0.00 0.00 0.00        138
MCY 0.910 0.20   P
MDC 1.890 0.20   P
MDPB 1.940 0.20   S
MDPB 1.160 1.00   P
MINS 1.130 -1.00   P
MMP 1.030 1.00   P
MMS 1.160 1.00   P
MQ1P 1.020 1.00   P
MRD 1.280 1.00   P
#  2012 10 20 10 55 49.55  37.6363 -119.0338    1.300 -0.36 0.00 0.00 0.00        139
MCY 0.990 0.20   P
MDC 1.820 -1.00   P
MDPB 1.080 1.00   P
MINS 1.070 1.00   P
MMP 0.950 1.00   P
MMS 1.090 1.00   P
MQ1P 0.940 1.00   P
MRD 1.200 1.00   P
#  2012 10 20 10 56 27.82  37.6308 -119.0392    2.310  0.47 0.00 0.00 0.00        140
MCY 2.100 0.50   S
MCY 1.050 0.20   P
MDC 1.940 -1.00   P
MDPB 2.070 -1.00   S
MDPB 1.220 0.50   P
MINS 1.180 1.00   P
MMP 1.090 1.00   P
MMS 1.210 1.00   P
MQ1P 1.070 1.00   P
MRD 1.340 0.50   P
#  2012 10 20 12 55 32.49  37.6273 -119.0047    0.990  0.55 0.00 0.00 0.00        141
MCY 1.070 0.20   P
MDC 2.010 1.00   P
MDPB 1.530 1.00   P
MDY 1.330 0.50   P
MINS 2.290 0.20   S
MINS 1.410 1.00   P
MLC 1.810 0.20   P
MLI 1.090 0.20   P
MLK 1.510 0.50   P
MMLB 1.340 0.20   P
MMP 1.010 0.20   P
MMS 1.150 1.00   P
MQ1P 0.930 0.50   P
MRD 1.450 -1.00   P
#  2012 10 20 14 26 57.79  37.5898 -119.0113    0.780 -0.07 0.00 0.00 0.00        142
MDC 2.810 0.20   P
MDPB 2.890 -0.50   S
MDPB 1.650 -1.00   P
MINS 1.920 0.20   P
MMP 0.830 1.00   P
MMS 1.490 0.20   P
MQ1P 0.810 0.50   P
MRD 1.150 -1.00   P
#  2012 10 20 14 27  9.30  37.6117 -119.0240    1.940 -0.08 0.00 0.00 0.00        143
MCY 1.230 0.20   P
MDC 2.390 -0.20   P
MMP 0.890 -1.00   P
MMS 1.020 0.20   P
MQ1P 0.820 0.50   P
MRD 1.150 -1.00   P
#  2012 10 20 14 35 22.70  37.5948 -119.0013    1.060  0.26 0.00 0.00 0.00        144
MCM 2.330 0.50   P
MCY 2.710 -0.50   S
MCY 1.480 0.20   P
MDC 2.830 0.20   P
MDPB 2.990 0.50   S
MDPB 1.750 1.00   P
MGPB 2.160 0.50   P
MINS 2.180 0.20   P
MLC 1.740 0.20   P
MMP 0.940 1.00   P
MMS 1.460 0.20   P
MQ1P 0.920 0.50   P
MRD 1.270 -1.00   P
#  2012 10 20 18  3 23.80  37.5807 -119.0343   -0.550 -0.25 0.00 0.00 0.00        145
MLAC 3.690 0.20   P
MCY 1.700 1.00   P
MDPB 2.880 1.00   S
MDPB 1.660 1.00   P
MMP 0.860 -1.00   P
MMS 1.220 1.00   P
MRD 0.810 1.00   P
#  2012 10 21  4 37 31.37  37.5868 -119.0025    1.380  0.01 0.00 0.00 0.00        146
MCY 1.860 0.20   P
MDC 2.820 0.20   P
MDPB 3.230 -1.00   S
MDPB 1.850 -1.00   P
MINS 1.990 0.50   P
MMP 1.040 -0.50   P
MMS 1.510 0.20   P
MQ1P 1.070 0.20   P
MRD 1.330 -1.00   P
#  2012 10 21  7 43 34.28  37.6282 -119.1272    3.610  0.70 0.00 0.00 0.00        147
MBS1 7.210 -1.00   S
MCM 4.560 0.20   P
MCV 5.100 0.20   P
MCY 2.210 0.20   P
MDC 2.570 1.00   P
MDPB 2.230 0.20   S
MDPB 1.330 1.00   P
MINS 2.940 0.50   S
MINS 1.740 1.00   P
MMP 2.170 1.00   P
MMS 2.220 1.00   P
MQ1P 2.230 1.00   P
MRD 1.770 1.00   P
#  2012 10 21 17  4 19.85  37.6320 -119.1220    1.540  0.47 0.00 0.00 0.00        148
MCM 4.260 0.20   P
MDC 2.360 -1.00   P
MINS 2.730 -1.00   S
MINS 1.520 1.00   P
MLC 3.620 0.20   P
MMP 1.960 0.20   P
MRD 1.550 -1.00   P
#  2012 10 22  5  5 23.79  37.6190 -119.0198    0.740 -0.10 0.00 0.00 0.00        149
MCY 1.180 0.20   P
MINS 1.420 0.50   P
MMP 0.710 -1.00   P
MMS 0.960 0.20   P
MQ1P 0.680 0.50   P
MRD 1.120 -1.00   P
#  2012 10 22  9 35 43.57  37.6557 -119.0232   -2.400  0.82 0.00 0.00 0.00        150
MCY 0.480 0.20   P
MDC 1.570 -1.00   P
MDPB 1.350 0.20   P
MDY 0.340 -0.20   P
MINS 1.610 0.20   S
MINS 0.980 -0.50   P
MMP 1.270 -1.00   P
MMS 0.860 0.50   P
MRD 1.960 0.20   P
#  2012 10 22  9 36  2.86  37.6387 -119.0463   -2.570  0.37 0.00 0.00 0.00        151
MCY 0.320 0.20   P
MDP1 1.220 -1.00   S
MDPB 0.660 0.20   P
MINS 1.230 0.20   S
MINS 0.540 -0.50   P
MMP 0.860 -1.00   P
MMS 0.460 -1.00   P
MQ1P 0.750 0.20   P
#  2012 10 22  9 36 30.59  37.6405 -119.0442   -2.070  0.26 0.00 0.00 0.00        152
MCY 0.520 0.20   P
MDC 1.960 -0.20   P
MDPB 1.310 0.20   S
MDPB 0.630 0.20   P
MINS 1.230 0.20   S
MINS 0.610 -1.00   P
MMP 0.880 1.00   P
MMS 0.470 0.50   P
MQ1P 0.800 0.20   P
MRD 1.200 0.20   P
#  2012 10 22  9 36 36.16  37.6305 -119.0335    1.380  0.61 0.00 0.00 0.00        153
MCY 0.950 0.50   P
MDC 1.830 0.50   P
MDPB 1.960 -1.00   S
MDPB 1.150 0.50   P
MDY 1.280 0.20   P
MINS 1.870 0.50   S
MINS 1.130 0.50   P
MMP 0.920 0.50   P
MMS 1.070 1.00   P
MQ1P 0.890 0.50   P
MRD 1.200 -1.00   P
#  2012 10 22  9 36 55.10  37.6338 -119.0353    0.990  0.80 0.00 0.00 0.00        154
MCY 1.850 0.20   S
MCY 0.940 0.50   P
MDC 1.810 -1.00   P
MDPB 1.940 0.50   S
MDPB 1.120 0.50   P
MDY 1.270 0.20   P
MINS 1.850 0.50   S
MINS 1.090 1.00   P
MMLB 1.520 0.20   P
MMP 0.930 0.50   P
MMS 1.050 1.00   P
MQ1P 0.940 0.20   P
MRD 1.170 1.00   P
#  2012 10 22 14 39 49.88  37.6273 -119.0273    1.830  0.62 0.00 0.00 0.00        155
MCM 2.790 0.50   P
MCV 3.410 0.20   P
MCY 1.950 0.20   S
MCY 1.100 1.00   P
MDC 1.970 -1.00   P
MDPB 2.150 0.50   S
MDPB 1.270 0.50   P
MDY 2.490 0.20   S
MDY 1.480 0.20   P
MINS 2.080 0.50   S
MINS 1.290 0.50   P
MLC 2.220 0.20   P
MLI 1.200 0.20   P
MMP 1.130 0.50   P
MMS 1.210 0.20   P
MQ1P 0.750 0.20   P
MRD 1.310 0.50   P
#  2012 10 22 14 40 26.49  37.6377 -119.0438   -0.170  0.26 0.00 0.00 0.00        156
MCY 1.350 -1.00   S
MCY 0.610 1.00   P
MDPB 1.590 -1.00   S
MDPB 0.780 1.00   P
MDY 2.040 -1.00   S
MDY 1.080 1.00   P
MINS 1.540 -1.00   S
MINS 0.770 1.00   P
MQ1P 1.050 0.20   P
#  2012 10 22 14 40 33.34  37.6403 -119.0417    0.330  0.79 0.00 0.00 0.00        157
MCY 1.430 -1.00   S
MCY 0.690 1.00   P
MDPB 1.670 -1.00   S
MDPB 0.860 1.00   P
MDY 1.160 -1.00   P
MINS 1.620 -1.00   S
MINS 0.850 1.00   P
MQ1P 0.740 0.20   P
#  2012 10 22 14 42 14.26  37.6243 -119.0303    2.380  0.82 0.00 0.00 0.00        158
MLAC 2.730 0.20   P
MCB 2.790 0.20   P
MCM 2.920 0.20   P
MCV 3.260 0.20   P
MCY 1.890 0.20   S
MCY 1.150 1.00   P
MDC 2.030 1.00   P
MDH1 3.070 1.00   S
MDPB 2.150 0.50   S
MDPB 1.280 1.00   P
MDR 2.720 1.00   P
MDY 2.590 0.20   S
MDY 1.540 1.00   P
MEM 2.230 0.20   P
MGPB 2.670 0.20   P
MINS 2.130 0.20   S
MINS 1.300 0.50   P
MLC 2.280 0.20   P
MLH 3.910 0.20   P
MLI 1.270 0.20   P
MLK 1.970 0.50   P
MMLB 1.820 0.20   P
MMP 1.110 0.50   P
MMS 1.250 1.00   P
MQ1P 1.070 1.00   P
MRD 1.330 1.00   P
#  2012 10 22 14 42 41.87  37.6337 -119.0312    1.150  0.61 0.00 0.00 0.00        159
MCM 2.690 0.50   P
MCV 3.340 0.50   P
MCY 1.020 0.50   P
MDC 1.880 1.00   P
MDPB 2.020 0.50   S
MDPB 1.170 1.00   P
MDY 2.460 0.20   S
MDY 1.340 0.50   P
MGPB 2.480 0.50   P
MINS 1.970 -1.00   S
MINS 1.160 0.50   P
MLC 2.090 0.50   P
MLI 1.190 0.20   P
MMP 1.020 0.50   P
MMS 1.110 1.00   P
MQ1P 1.020 0.50   P
MRD 1.240 0.50   P
#  2012 10 22 15 11 50.65  37.6310 -119.0343    1.080  0.25 0.00 0.00 0.00        160
MCY 1.700 0.20   S
MCY 0.960 1.00   P
MDC 1.830 -1.00   P
MDPB 1.920 -1.00   S
MDPB 1.180 1.00   P
MDY 1.360 0.50   P
MINS 1.890 0.50   S
MINS 1.120 1.00   P
MMP 0.980 0.20   P
MMS 1.040 1.00   P
MRD 1.120 -1.00   P
#  2012 10 22 15 12 59.11  37.6337 -119.0267    1.100  0.10 0.00 0.00 0.00        161
MCM 2.690 -0.50   P
MCY 1.100 0.20   P
MDC 1.890 -1.00   P
MINS 2.000 0.20   S
MINS 1.170 1.00   P
MLC 2.130 0.20   P
MMP 1.060 0.20   P
MMS 1.100 0.20   P
MQ1P 1.060 0.20   P
MRD 1.310 0.50   P
#  2012 10 22 15 32 47.10  37.6000 -119.0043    2.020  0.65 0.00 0.00 0.00        162
MCM 2.410 0.50   P
MCY 2.730 -0.50   S
MLC 1.820 -1.00   P
MMP 1.010 1.00   P
MMS 1.240 0.20   P
MQ1P 1.000 0.50   P
MRD 1.320 0.50   P
#  2012 10 22 15 34 46.04  37.6303 -119.0287    1.800  0.75 0.00 0.00 0.00        163
MCM 2.720 0.20   P
MCY 1.150 0.20   P
MDC 1.900 -1.00   P
MDPB 2.080 0.50   S
MDPB 1.250 0.50   P
MDY 1.360 0.20   P
MINS 2.030 0.20   S
MINS 1.200 0.50   P
MLI 0.990 0.20   P
MMP 1.060 0.50   P
MMS 1.160 1.00   P
MQ1P 1.110 0.20   P
MRD 1.280 -1.00   P
#  2012 10 22 16 25 42.53  37.6325 -119.0305    0.990  0.50 0.00 0.00 0.00        164
MCY 0.850 0.20   P
MDC 1.840 -1.00   P
MDPB 1.200 1.00   P
MDY 1.300 0.20   P
MINS 1.950 0.20   S
MINS 1.130 1.00   P
MLI 1.110 0.20   P
MMP 0.970 0.50   P
MMS 1.050 0.50   P
MQ1P 0.950 0.50   P
MRD 1.180 1.00   P
#  2012 10 23  4 45 18.27  37.5998 -119.0012    1.430  0.30 0.00 0.00 0.00        165
MCM 2.340 0.20   P
MCV 2.900 0.20   P
MINS 1.870 0.50   P
MLC 1.740 0.50   P
MMP 0.980 0.50   P
MQ1P 0.960 0.50   P
MRD 1.290 -1.00   P
#  2012 10 23  9 59 29.92  37.6292 -119.0793   18.360  1.22 0.00 0.00 0.00        166
MCM 4.420 0.20   P
MDC 3.900 0.20   P
MGPB 4.310 0.20   P
MINS 6.590 -1.00   S
MINS 3.660 -1.00   P
MMP 3.660 0.20   P
MRD 3.600 -1.00   P
#  2012 10 23 15 46 39.18  37.6303 -119.0958   20.380  0.85 0.00 0.00 0.00        167
MCM 4.710 0.50   P
MCV 5.260 0.20   P
MDC 4.310 1.00   P
MGPB 4.870 -1.00   P
MINS 7.080 1.00   S
MINS 4.120 1.00   P
MLC 4.600 0.20   P
MRD 4.050 0.50   P
#  2012 10 23 18  4 59.12  37.6148 -119.0512   20.080  0.81 0.00 0.00 0.00        168
MCM 4.710 -1.00   P
MCV 5.090 0.20   P
MDC 4.210 -1.00   P
MINS 6.900 0.50   S
MINS 3.980 0.20   P
MLC 4.390 1.00   P
MMP 3.780 0.20   P
MQ1P 3.990 0.20   P
MRD 3.900 -1.00   P
#  2012 10 23 19  9 43.42  37.6147 -119.0477   18.760  1.49 0.00 0.00 0.00        169
MCB 4.590 0.50   P
MCM 4.540 1.00   P
MCV 4.930 1.00   P
MDC 4.040 1.00   P
MDR 5.090 1.00   P
MGPB 4.450 1.00   P
MINS 6.710 1.00   S
MINS 3.800 1.00   P
MLC 4.220 1.00   P
MMP 3.760 0.50   P
MRD 3.740 1.00   P
#  2012 10 23 19 37 26.36  37.5825 -119.0013    3.150  0.47 0.00 0.00 0.00        170
MCV 3.260 -0.20   P
MCY 1.950 0.20   P
MDC 3.090 0.20   P
MINS 2.160 0.20   P
MMP 1.250 1.00   P
MMS 1.650 0.20   P
MQ1P 1.240 0.50   P
MRD 1.550 -1.00   P
#  2012 10 24  4  2 22.18  37.5540 -119.0913   13.370  0.91 0.00 0.00 0.00        171
MCM 4.560 1.00   P
MCV 4.820 1.00   P
MDC 3.520 1.00   P
MDP1 5.440 1.00   S
MDPB 5.680 1.00   S
MDPB 3.050 1.00   P
MINS 5.970 -1.00   S
MINS 3.520 1.00   P
MLC 4.120 1.00   P
MRD 2.860 -1.00   P
#  2012 10 24  4 52 25.81  37.5993 -119.0032    1.320  0.17 0.00 0.00 0.00        172
MCV 2.910 0.20   P
MCY 1.350 0.20   P
MDPB 2.960 -1.00   S
MDPB 1.720 1.00   P
MINS 1.850 0.20   P
MLC 1.730 -0.50   P
MMP 0.920 1.00   P
MMS 1.470 0.20   P
MQ1P 0.910 0.50   P
MRD 1.260 -1.00   P
#  2012 10 24 10 26 42.23  37.5925 -119.0042    1.150  0.22 0.00 0.00 0.00        173
MCM 2.330 0.20   P
MCY 1.590 0.20   P
MDPB 3.020 -1.00   S
MDPB 1.760 1.00   P
MINS 3.250 0.20   S
MLC 1.740 0.50   P
MMP 0.940 1.00   P
MQ1P 0.930 1.00   P
MRD 1.270 1.00   P
#  2012 10 24 13 51  1.14  37.5882 -119.0178    2.060 -0.20 0.00 0.00 0.00        174
MCY 1.570 0.20   P
MDC 2.840 0.20   P
MDPB 2.920 -1.00   S
MDPB 1.670 -1.00   P
MMP 0.910 0.50   P
MQ1P 0.920 0.20   P
MRD 1.200 -1.00   P
#  2012 10 25  4 24 19.09  37.6367 -119.0352   -1.230  0.12 0.00 0.00 0.00        175
MCY 0.910 -1.00   S
MDC 1.900 0.20   P
MDPB 1.750 0.50   S
MDPB 1.050 1.00   P
MINS 1.480 0.50   S
MINS 0.920 1.00   P
MMP 0.920 0.20   P
MMS 0.610 1.00   P
MQ1P 1.040 0.20   P
MRD 1.250 1.00   P
#  2012 10 26  4 14 59.53  37.6318 -119.1387   12.430  0.58 0.00 0.00 0.00        176
MDC 3.220 1.00   P
MDPB 4.640 1.00   S
MDPB 2.320 1.00   P
MINS 4.610 1.00   S
MQ1P 5.670 1.00   S
MQ1P 4.300 0.20   P
MRD 3.310 1.00   P
OMMB 5.690 -1.00   S
OMMB 4.770 0.20   P
#  2012 10 26  7 33 57.27  37.6477 -119.0173    0.270 -0.07 0.00 0.00 0.00        177
MCY 0.630 0.20   P
MDC 1.680 0.20   P
MDPB 2.250 0.50   S
MDPB 1.330 1.00   P
MDY 1.510 0.20   S
MDY 0.920 0.50   P
MINS 1.630 0.50   S
MINS 1.010 0.50   P
MLI 1.060 0.20   P
MLK 1.220 0.50   P
MMLB 1.160 0.20   P
MMS 1.030 0.20   P
MQ1P 1.140 0.20   P
MRD 1.590 1.00   P
OMMB 1.760 0.50   S
OMMB 1.060 0.20   P
#  2012 10 26 16 57  0.52  37.6482 -119.0415   -0.700 -0.32 0.00 0.00 0.00        178
MCY 0.860 0.20   S
MCY 0.550 0.20   P
MDC 1.560 0.20   P
MDPB 1.760 0.50   S
MDPB 1.080 0.50   P
MDY 0.990 -1.00   P
MINS 1.050 0.20   S
MINS 0.640 -1.00   P
MMS 0.850 0.50   P
MQ1P 1.150 0.50   P
MRD 1.580 0.20   P
OMMB 1.870 0.50   S
OMMB 1.160 -1.00   P
#  2012 10 27  0  1  1.29  37.6307 -119.0198    2.100  0.33 0.00 0.00 0.00        179
MCB 2.550 0.20   P
MCM 2.710 1.00   P
MCV 3.360 0.50   P
MCY 1.100 0.50   P
MDC 1.920 1.00   P
MDH1 3.470 1.00   S
MDPB 1.350 1.00   P
MDY 1.370 1.00   P
MEM 2.050 0.20   P
MGPB 2.410 0.20   P
MINS 1.290 1.00   P
MLC 2.100 0.50   P
MLI 1.220 0.50   P
MLK 1.690 0.20   P
MMP 1.080 1.00   P
MMS 1.230 1.00   P
MQ1P 1.040 1.00   P
MRD 1.390 1.00   P
OMMB 1.660 0.50   S
OMMB 1.060 0.50   P
#  2012 10 27  4 26 48.06  37.6423 -119.0888   13.410  0.47 0.00 0.00 0.00        180
MCV 4.580 0.20   P
MCY 5.730 0.20   S
MCY 3.120 0.20   P
MDC 3.130 1.00   P
MDP1 4.870 1.00   S
MDPB 4.780 1.00   S
MDPB 2.780 1.00   P
MDR 5.000 0.20   P
MDY 3.600 0.20   P
MGPB 4.450 0.20   P
MINS 5.150 1.00   S
MINS 2.860 1.00   P
MLC 3.830 0.20   P
MLI 3.360 0.20   P
MLK 3.460 0.20   P
MMLB 3.720 0.20   P
MMP 3.150 0.20   P
MRD 2.910 1.00   P
OMMB 2.780 0.20   P
#  2012 10 27  6  0 13.97  37.5965 -119.0037    1.050  0.35 0.00 0.00 0.00        181
MCY 2.650 0.20   S
MCY 1.550 0.50   P
MDPB 2.920 0.50   S
MDPB 1.700 1.00   P
MINS 3.090 0.50   S
MINS 1.800 0.50   P
MMP 0.910 1.00   P
MMS 1.390 1.00   P
MQ1P 0.900 1.00   P
MRD 1.210 -1.00   P
OMMB 1.380 -1.00   S
OMMB 0.810 1.00   P
#  2012 10 27  6  2 47.38  37.5987 -119.0045    1.020 -0.02 0.00 0.00 0.00        182
MCY 1.530 0.20   P
MDPB 2.890 -0.50   S
MDPB 1.670 1.00   P
MINS 1.770 0.50   P
MMP 0.880 1.00   P
MMS 1.380 0.20   P
MQ1P 0.870 1.00   P
MRD 1.180 -1.00   P
OMMB 1.340 -1.00   S
OMMB 0.770 0.50   P
#  2012 10 27  9 25 55.60  37.6247 -119.1358    2.220  0.21 0.00 0.00 0.00        183
MCY 2.050 0.20   P
MDC 2.600 -1.00   P
MDPB 2.240 0.20   S
MDPB 1.350 -1.00   P
MINS 2.980 0.20   S
MINS 1.770 1.00   P
MMP 2.220 0.50   P
MQ1P 2.260 0.20   P
MRD 1.780 1.00   P
OMMB 4.140 0.20   S
OMMB 2.470 0.50   P
#  2012 10 27 10 10 31.55  37.5975 -119.0082    0.890 -0.06 0.00 0.00 0.00        184
MDC 2.630 0.20   P
MDPB 2.860 -1.00   S
MDPB 1.620 1.00   P
MGPB 2.400 0.20   P
MINS 1.820 0.50   P
MMP 0.840 1.00   P
MMS 1.290 0.20   P
MQ1P 0.840 1.00   P
MRD 1.160 -1.00   P
OMMB 1.310 0.50   S
OMMB 0.750 0.50   P
#  2012 10 27 19 45 53.31  37.5812 -119.0317    4.140  0.17 0.00 0.00 0.00        185
MCM 2.900 0.50   P
MCV 3.370 0.50   P
MCY 3.570 0.20   S
MCY 2.130 0.20   P
MDC 3.180 0.20   P
MDPB 1.960 0.50   P
MDY 2.640 0.20   P
MGPB 2.820 0.50   P
MINS 3.790 -1.00   S
MINS 2.380 0.20   P
MLC 2.380 1.00   P
MMP 1.490 1.00   P
MMS 1.990 0.20   P
MQ1P 1.550 0.50   P
MRD 1.410 1.00   P
OMMB 2.590 -1.00   S
OMMB 1.530 0.50   P
#  2012 10 27 22 55 19.74  37.6302 -119.0390   18.080  0.52 0.00 0.00 0.00        186
MDC 3.880 -1.00   P
MDPB 6.280 1.00   S
MDPB 3.520 1.00   P
MINS 6.530 1.00   S
MINS 3.600 0.50   P
MQ1P 3.630 0.20   P
MRD 3.550 1.00   P
OMMB 6.310 -1.00   S
OMMB 3.580 0.50   P
#  2012 10 27 23 51 47.52  37.6243 -119.0595   18.810  0.68 0.00 0.00 0.00        187
MCM 4.590 0.50   P
MDC 4.040 1.00   P
MDPB 6.460 1.00   S
MDPB 3.670 1.00   P
MINS 6.690 1.00   S
MINS 3.770 1.00   P
MMP 3.800 0.50   P
MMS 4.090 0.20   P
MRD 3.790 1.00   P
OMMB 6.490 1.00   S
OMMB 3.710 0.50   P
#  2012 10 28  0 31 27.60  37.6452 -119.0593   18.090  0.72 0.00 0.00 0.00        188
MCM 4.450 0.20   P
MDC 3.880 0.50   P
MDPB 6.250 0.50   S
MDPB 3.520 0.50   P
MINS 6.500 -1.00   S
MINS 3.610 1.00   P
MLC 4.110 0.20   P
MMP 3.620 0.20   P
MQ1P 3.630 1.00   P
MRD 3.530 0.50   P
#  2012 10 28  0 43 36.67  37.6353 -119.0218    0.880 -0.06 0.00 0.00 0.00        189
MCM 2.610 0.50   P
MCY 1.070 0.20   P
MDC 1.840 -1.00   P
MDPB 1.270 1.00   P
MINS 1.210 1.00   P
MLI 0.780 0.20   P
MMP 1.000 1.00   P
MMS 1.150 0.50   P
MQ1P 0.980 0.50   P
MRD 1.300 1.00   P
OMMB 1.590 -1.00   S
OMMB 1.000 0.20   P
#  2012 10 29  1  5 12.07  37.6348 -119.0330    9.470  0.39 0.00 0.00 0.00        190
MBS1 6.800 0.20   S
MCM 3.410 1.00   P
MCV 3.880 1.00   P
MDC 2.660 1.00   P
MDP1 3.990 1.00   S
MDPB 3.970 1.00   S
MDPB 2.220 1.00   P
MEM 2.630 0.50   P
MINS 4.140 1.00   S
MINS 2.360 1.00   P
MLC 3.010 0.10   P
MMP 2.460 0.20   P
MMS 2.290 0.20   P
MQ1P 2.320 0.20   P
MRD 2.250 1.00   P
OMMB 4.030 -1.00   S
OMMB 2.240 1.00   P
#  2012 10 29  1 41  2.56  37.6233 -119.0798   21.450  0.89 0.00 0.00 0.00        191
MCM 4.930 0.50   P
MCV 5.310 0.20   P
MDC 4.510 -1.00   P
MDPB 7.410 0.50   S
MDPB 4.190 0.50   P
MINS 7.410 1.00   S
MINS 4.200 1.00   P
MMP 4.250 0.20   P
MMS 4.030 0.20   P
MQ1P 4.220 0.20   P
MRD 4.160 0.50   P
OMMB 4.190 0.20   P
#  2012 10 29  2  3 51.47  37.6127 -119.0498   19.850  1.13 0.00 0.00 0.00        192
MLAC 5.160 0.20   P
MCB 4.750 0.20   P
MCM 4.710 1.00   P
MCV 5.060 1.00   P
MCY 4.160 0.20   P
MDC 4.230 1.00   P
MDPB 6.810 1.00   S
MDPB 3.840 1.00   P
MDR 5.260 0.50   P
MDY 4.360 0.50   P
MGPB 4.620 1.00   P
MINS 7.130 1.00   S
MINS 3.970 1.00   P
MLC 4.450 0.50   P
MLI 3.790 0.20   P
MMP 4.030 0.50   P
MMS 4.230 0.20   P
MMX1 7.200 1.00   S
MQ1P 4.000 0.20   P
MRD 3.890 1.00   P
OMMB 6.910 1.00   S
OMMB 3.910 1.00   P
#  2012 10 29  3 14 21.32  37.6297 -119.0548   20.180  0.66 0.00 0.00 0.00        193
MCM 4.760 -1.00   P
MDC 4.300 0.20   P
MDPB 6.950 0.20   S
MDPB 3.930 0.50   P
MINS 7.160 -1.00   S
MINS 3.990 -1.00   P
MLC 4.450 0.20   P
MMP 3.960 0.20   P
MQ1P 3.980 0.50   P
MRD 3.940 1.00   P
OMMB 7.050 0.20   S
OMMB 3.900 0.20   P
#  2012 10 29  3 16 26.67  37.6202 -119.0523   20.760  0.86 0.00 0.00 0.00        194
MCM 4.800 1.00   P
MCV 5.160 0.50   P
MDC 4.320 1.00   P
MDPB 7.070 1.00   S
MDPB 3.920 1.00   P
MDR 5.340 1.00   P
MGPB 4.720 0.50   P
MINS 7.220 1.00   S
MINS 4.070 1.00   P
MLC 4.510 1.00   P
MMP 4.040 1.00   P
MQ1P 4.040 1.00   P
MRD 4.010 1.00   P
OMMB 7.090 1.00   S
OMMB 4.010 1.00   P
#  2012 10 29  3 57  0.78  37.6258 -119.0227    3.160  0.42 0.00 0.00 0.00        195
MCM 2.840 0.20   P
MDPB 1.460 1.00   P
MINS 1.480 -1.00   P
MLK 1.960 0.50   P
MMLB 1.770 0.20   P
MMP 1.130 1.00   P
MMS 1.360 1.00   P
MQ1P 1.120 1.00   P
MRD 1.430 -1.00   P
OMMB 1.110 1.00   P
