<?xml version='1.0' encoding='utf-8'?>
<q:quakeml xmlns="http://quakeml.org/xmlns/bed/1.2" xmlns:q="http://quakeml.org/xmlns/quakeml/1.2">
  <eventParameters publicID="smi:local/53ee3682-1791-4f48-a0d7-9f2316a562ec">
    <event publicID="smi:local/2021_08_04t12_20_23_20210804T122023.660000">
      <comment id="smi:local/e1ef72b5-cb45-4525-a612-1c3c0c384020">
        <text>Template: 2021_08_04t12_20_23</text>
      </comment>
      <comment id="smi:local/c7574e92-9984-412d-9893-9a443e01fd08">
        <text>threshold=3.5999999046325684</text>
      </comment>
      <comment id="smi:local/b0075902-98f6-4d16-a5c3-19d3ca67f5e8">
        <text>detect_val=5.999999523162842</text>
      </comment>
      <comment id="smi:local/7d79dcdd-5eea-49a2-b4b2-d7934654ffae">
        <text>channels used: ('GSCK', 'BHN') ('GSCK', 'BHZ') ('GSIG', 'BHZ') ('GSMY', 'BHE') ('GSMY', 'BHZ') ('GSTR', 'BHN')</text>
      </comment>
      <creationInfo>
        <author>EQcorrscan</author>
        <creationTime>2021-08-11T21:23:44.510764Z</creationTime>
      </creationInfo>
      <pick publicID="smi:local/09e16578-e396-40eb-ac6a-359526069495">
        <time>
          <value>2021-08-04T12:20:27.300000Z</value>
        </time>
        <waveformID networkCode="AV" stationCode="GSCK" locationCode="" channelCode="BHN"></waveformID>
      </pick>
      <pick publicID="smi:local/684e060e-8e31-42f1-a363-3b76510f7ca5">
        <time>
          <value>2021-08-04T12:20:25.560000Z</value>
        </time>
        <waveformID networkCode="AV" stationCode="GSCK" locationCode="" channelCode="BHZ"></waveformID>
      </pick>
      <pick publicID="smi:local/6482cfa3-6ddf-441e-ad7d-52ea1acc94b8">
        <time>
          <value>2021-08-04T12:20:26.060000Z</value>
        </time>
        <waveformID networkCode="AV" stationCode="GSIG" locationCode="" channelCode="BHZ"></waveformID>
      </pick>
      <pick publicID="smi:local/22ced50b-4bb3-48ac-aaf1-121fe1cc03fe">
        <time>
          <value>2021-08-04T12:20:25.800000Z</value>
        </time>
        <waveformID networkCode="AV" stationCode="GSMY" locationCode="" channelCode="BHE"></waveformID>
      </pick>
      <pick publicID="smi:local/27cd2da6-21cf-4659-9556-13bfedb018b6">
        <time>
          <value>2021-08-04T12:20:24.660000Z</value>
        </time>
        <waveformID networkCode="AV" stationCode="GSMY" locationCode="" channelCode="BHZ"></waveformID>
      </pick>
      <pick publicID="smi:local/c9a8effd-07f6-4d3e-8e28-f12bf45fbccb">
        <time>
          <value>2021-08-04T12:20:26.180000Z</value>
        </time>
        <waveformID networkCode="AV" stationCode="GSTR" locationCode="" channelCode="BHN"></waveformID>
      </pick>
    </event>
    <event publicID="smi:local/2021_07_31t01_07_44_20210731T010744.700000">
      <comment id="smi:local/e05b8dab-8dbd-4238-b6c7-ed2f83f3caa3">
        <text>Template: 2021_07_31t01_07_44</text>
      </comment>
      <comment id="smi:local/1d3226a2-840a-4ce0-828e-05f35d29c24a">
        <text>threshold=5.400000095367432</text>
      </comment>
      <comment id="smi:local/b779ad5b-2212-47db-a3a1-0e34468c2af6">
        <text>detect_val=8.999999046325684</text>
      </comment>
      <comment id="smi:local/acddb04e-1106-475a-a01f-0365c40b046b">
        <text>channels used: ('GSCK', 'BHN') ('GSCK', 'BHZ') ('GSIG', 'BHN') ('GSIG', 'BHZ') ('GSMY', 'BHN') ('GSMY', 'BHZ') ('GSSP', 'BHE') ('GSSP', 'BHZ') ('GSTR', 'BHN')</text>
      </comment>
      <creationInfo>
        <author>EQcorrscan</author>
        <creationTime>2021-08-11T21:10:36.582468Z</creationTime>
      </creationInfo>
      <pick publicID="smi:local/500989ed-0875-4ebd-a8cb-cf3d40fd7852">
        <time>
          <value>2021-07-31T01:07:50.840000Z</value>
        </time>
        <waveformID networkCode="AV" stationCode="GSCK" locationCode="" channelCode="BHN"></waveformID>
      </pick>
      <pick publicID="smi:local/4918e886-7a36-4c5d-af4c-c72679939410">
        <time>
          <value>2021-07-31T01:07:48.440000Z</value>
        </time>
        <waveformID networkCode="AV" stationCode="GSCK" locationCode="" channelCode="BHZ"></waveformID>
      </pick>
      <pick publicID="smi:local/867562a0-41a7-4084-8c12-5a7f21ddc32c">
        <time>
          <value>2021-07-31T01:07:50.260000Z</value>
        </time>
        <waveformID networkCode="AV" stationCode="GSIG" locationCode="" channelCode="BHN"></waveformID>
      </pick>
      <pick publicID="smi:local/5de7a0b1-22ce-4f92-bcae-4c83a0aeb80e">
        <time>
          <value>2021-07-31T01:07:45.700000Z</value>
        </time>
        <waveformID networkCode="AV" stationCode="GSIG" locationCode="" channelCode="BHZ"></waveformID>
      </pick>
      <pick publicID="smi:local/6d8f5ad5-c1a3-4a7b-a325-6110b050492d">
        <time>
          <value>2021-07-31T01:07:48.780000Z</value>
        </time>
        <waveformID networkCode="AV" stationCode="GSMY" locationCode="" channelCode="BHN"></waveformID>
      </pick>
      <pick publicID="smi:local/afaa12c5-97e4-4ded-89e8-d28d026f15b7">
        <time>
          <value>2021-07-31T01:07:47.260000Z</value>
        </time>
        <waveformID networkCode="AV" stationCode="GSMY" locationCode="" channelCode="BHZ"></waveformID>
      </pick>
      <pick publicID="smi:local/1427eec7-0f3e-4054-a805-7c3d9e8806da">
        <time>
          <value>2021-07-31T01:07:50.280000Z</value>
        </time>
        <waveformID networkCode="AV" stationCode="GSSP" locationCode="" channelCode="BHE"></waveformID>
      </pick>
      <pick publicID="smi:local/f502fe55-ff70-4792-9a8f-2fce1849a353">
        <time>
          <value>2021-07-31T01:07:48.760000Z</value>
        </time>
        <waveformID networkCode="AV" stationCode="GSSP" locationCode="" channelCode="BHZ"></waveformID>
      </pick>
      <pick publicID="smi:local/30f05c81-851f-4f21-bd25-fc740e743d80">
        <time>
          <value>2021-07-31T01:07:48.960000Z</value>
        </time>
        <waveformID networkCode="AV" stationCode="GSTR" locationCode="" channelCode="BHN"></waveformID>
      </pick>
    </event>
    <event publicID="smi:local/2021_07_31t03_18_17_20210731T031817.720000">
      <comment id="smi:local/134ca9fd-39e3-4f46-a8e0-cb99d5526d80">
        <text>Template: 2021_07_31t03_18_17</text>
      </comment>
      <comment id="smi:local/3219853f-a871-423a-9830-5c39b2daea6d">
        <text>threshold=6.0</text>
      </comment>
      <comment id="smi:local/6ba9b934-86e8-4544-bc4d-5c19cec28992">
        <text>detect_val=10.0</text>
      </comment>
      <comment id="smi:local/7e8b8625-dbfd-4158-ab78-bed3d63ea7e3">
        <text>channels used: ('GSCK', 'BHE') ('GSCK', 'BHZ') ('GSIG', 'BHE') ('GSIG', 'BHZ') ('GSMY', 'BHE') ('GSMY', 'BHZ') ('GSSP', 'BHN') ('GSSP', 'BHZ') ('GSTR', 'BHN') ('GSTR', 'BHZ')</text>
      </comment>
      <creationInfo>
        <author>EQcorrscan</author>
        <creationTime>2021-08-11T21:10:36.605273Z</creationTime>
      </creationInfo>
      <pick publicID="smi:local/2a16edf5-ff54-4461-9722-fa893917c7f6">
        <time>
          <value>2021-07-31T03:18:20.880000Z</value>
        </time>
        <waveformID networkCode="AV" stationCode="GSCK" locationCode="" channelCode="BHE"></waveformID>
      </pick>
      <pick publicID="smi:local/278bf625-a031-4898-9b12-088a29ceeb78">
        <time>
          <value>2021-07-31T03:18:19.360000Z</value>
        </time>
        <waveformID networkCode="AV" stationCode="GSCK" locationCode="" channelCode="BHZ"></waveformID>
      </pick>
      <pick publicID="smi:local/2a461787-c973-4a1a-9d02-ca231006ecd8">
        <time>
          <value>2021-07-31T03:18:22.920000Z</value>
        </time>
        <waveformID networkCode="AV" stationCode="GSIG" locationCode="" channelCode="BHE"></waveformID>
      </pick>
      <pick publicID="smi:local/a29f1ed0-506b-4cf6-8f75-6fcbac26f6b3">
        <time>
          <value>2021-07-31T03:18:20.360000Z</value>
        </time>
        <waveformID networkCode="AV" stationCode="GSIG" locationCode="" channelCode="BHZ"></waveformID>
      </pick>
      <pick publicID="smi:local/07710c02-be04-4490-92c7-d79080815552">
        <time>
          <value>2021-07-31T03:18:19.800000Z</value>
        </time>
        <waveformID networkCode="AV" stationCode="GSMY" locationCode="" channelCode="BHE"></waveformID>
      </pick>
      <pick publicID="smi:local/40393b86-66ba-4ad3-9942-d2c2ba35f65d">
        <time>
          <value>2021-07-31T03:18:18.780000Z</value>
        </time>
        <waveformID networkCode="AV" stationCode="GSMY" locationCode="" channelCode="BHZ"></waveformID>
      </pick>
      <pick publicID="smi:local/b9a9fe9d-4bad-4087-bcfb-3383068602b5">
        <time>
          <value>2021-07-31T03:18:20.080000Z</value>
        </time>
        <waveformID networkCode="AV" stationCode="GSSP" locationCode="" channelCode="BHN"></waveformID>
      </pick>
      <pick publicID="smi:local/3fbfc464-b886-44f8-ac8b-4ce0c0ba5994">
        <time>
          <value>2021-07-31T03:18:18.840000Z</value>
        </time>
        <waveformID networkCode="AV" stationCode="GSSP" locationCode="" channelCode="BHZ"></waveformID>
      </pick>
      <pick publicID="smi:local/54cc4032-5d3b-4bc1-bb7a-f703a0b58f3e">
        <time>
          <value>2021-07-31T03:18:20.040000Z</value>
        </time>
        <waveformID networkCode="AV" stationCode="GSTR" locationCode="" channelCode="BHN"></waveformID>
      </pick>
      <pick publicID="smi:local/4f45fb80-9280-4ce5-8a33-0d3a92f8ef44">
        <time>
          <value>2021-07-31T03:18:18.720000Z</value>
        </time>
        <waveformID networkCode="AV" stationCode="GSTR" locationCode="" channelCode="BHZ"></waveformID>
      </pick>
    </event>
    <event publicID="smi:local/2021_07_31t03_18_17_20210731T211745.060000">
      <comment id="smi:local/f751713a-8052-4a82-b99e-4bbf168819d2">
        <text>Template: 2021_07_31t03_18_17</text>
      </comment>
      <comment id="smi:local/f2767481-3e48-4066-a7ee-0d82ef1c62ed">
        <text>threshold=6.0</text>
      </comment>
      <comment id="smi:local/af68f1fa-30ba-40a3-92a5-bd0f37956f64">
        <text>detect_val=8.100564956665039</text>
      </comment>
      <comment id="smi:local/5d9c48af-706d-4186-ab6e-434d094103e5">
        <text>channels used: ('GSCK', 'BHE') ('GSCK', 'BHZ') ('GSIG', 'BHE') ('GSIG', 'BHZ') ('GSMY', 'BHE') ('GSMY', 'BHZ') ('GSSP', 'BHN') ('GSSP', 'BHZ') ('GSTR', 'BHN') ('GSTR', 'BHZ')</text>
      </comment>
      <creationInfo>
        <author>EQcorrscan</author>
        <creationTime>2021-08-11T21:10:36.611483Z</creationTime>
      </creationInfo>
      <pick publicID="smi:local/e83cfb09-8e32-4b04-85ec-b04d1cd8012f">
        <time>
          <value>2021-07-31T21:17:48.220000Z</value>
        </time>
        <waveformID networkCode="AV" stationCode="GSCK" locationCode="" channelCode="BHE"></waveformID>
      </pick>
      <pick publicID="smi:local/fec8e431-b110-4816-912c-97b653f02d4e">
        <time>
          <value>2021-07-31T21:17:46.700000Z</value>
        </time>
        <waveformID networkCode="AV" stationCode="GSCK" locationCode="" channelCode="BHZ"></waveformID>
      </pick>
      <pick publicID="smi:local/dd779996-7359-446e-b277-d00d448b2e77">
        <time>
          <value>2021-07-31T21:17:50.260000Z</value>
        </time>
        <waveformID networkCode="AV" stationCode="GSIG" locationCode="" channelCode="BHE"></waveformID>
      </pick>
      <pick publicID="smi:local/40e3f1bd-2fdf-4b84-83f0-3c4ae3bc99b5">
        <time>
          <value>2021-07-31T21:17:47.700000Z</value>
        </time>
        <waveformID networkCode="AV" stationCode="GSIG" locationCode="" channelCode="BHZ"></waveformID>
      </pick>
      <pick publicID="smi:local/3d8bccd6-8792-4c40-bbc9-9fccde44d3d6">
        <time>
          <value>2021-07-31T21:17:47.140000Z</value>
        </time>
        <waveformID networkCode="AV" stationCode="GSMY" locationCode="" channelCode="BHE"></waveformID>
      </pick>
      <pick publicID="smi:local/f07b4f36-5f3f-45e2-8004-e76eefdba4a8">
        <time>
          <value>2021-07-31T21:17:46.120000Z</value>
        </time>
        <waveformID networkCode="AV" stationCode="GSMY" locationCode="" channelCode="BHZ"></waveformID>
      </pick>
      <pick publicID="smi:local/a3c24646-f496-4a7a-a5a5-95793d2e3081">
        <time>
          <value>2021-07-31T21:17:47.420000Z</value>
        </time>
        <waveformID networkCode="AV" stationCode="GSSP" locationCode="" channelCode="BHN"></waveformID>
      </pick>
      <pick publicID="smi:local/9c61d945-7753-47f5-99cb-45769deba43b">
        <time>
          <value>2021-07-31T21:17:46.180000Z</value>
        </time>
        <waveformID networkCode="AV" stationCode="GSSP" locationCode="" channelCode="BHZ"></waveformID>
      </pick>
      <pick publicID="smi:local/991b1200-3244-4228-adec-13fe9af48dbe">
        <time>
          <value>2021-07-31T21:17:47.380000Z</value>
        </time>
        <waveformID networkCode="AV" stationCode="GSTR" locationCode="" channelCode="BHN"></waveformID>
      </pick>
      <pick publicID="smi:local/5a3c0a18-4599-43bd-bfc1-d422bc824f53">
        <time>
          <value>2021-07-31T21:17:46.060000Z</value>
        </time>
        <waveformID networkCode="AV" stationCode="GSTR" locationCode="" channelCode="BHZ"></waveformID>
      </pick>
    </event>
    <event publicID="smi:local/2021_07_31t03_18_17_20210731T031956.380000">
      <comment id="smi:local/be736d13-5d69-47e8-918b-9d7776ef8070">
        <text>Template: 2021_07_31t03_18_17</text>
      </comment>
      <comment id="smi:local/c891228f-f733-47b5-a375-5d831213ac47">
        <text>threshold=6.0</text>
      </comment>
      <comment id="smi:local/3caa85dd-e28c-4a5d-8d16-e9a33292aefb">
        <text>detect_val=7.09926700592041</text>
      </comment>
      <comment id="smi:local/cbbf17b6-ddf9-47d1-92b6-e535b519d740">
        <text>channels used: ('GSCK', 'BHE') ('GSCK', 'BHZ') ('GSIG', 'BHE') ('GSIG', 'BHZ') ('GSMY', 'BHE') ('GSMY', 'BHZ') ('GSSP', 'BHN') ('GSSP', 'BHZ') ('GSTR', 'BHN') ('GSTR', 'BHZ')</text>
      </comment>
      <creationInfo>
        <author>EQcorrscan</author>
        <creationTime>2021-08-11T21:10:36.609436Z</creationTime>
      </creationInfo>
      <pick publicID="smi:local/e50e663a-51c0-4ea5-8f20-efbc2c73a3bd">
        <time>
          <value>2021-07-31T03:19:59.540000Z</value>
        </time>
        <waveformID networkCode="AV" stationCode="GSCK" locationCode="" channelCode="BHE"></waveformID>
      </pick>
      <pick publicID="smi:local/8d94bb17-13b9-4c16-98e3-7a1ed1cbd115">
        <time>
          <value>2021-07-31T03:19:58.020000Z</value>
        </time>
        <waveformID networkCode="AV" stationCode="GSCK" locationCode="" channelCode="BHZ"></waveformID>
      </pick>
      <pick publicID="smi:local/265d24f1-d1bb-4c5f-9501-36adc88ac52f">
        <time>
          <value>2021-07-31T03:20:01.580000Z</value>
        </time>
        <waveformID networkCode="AV" stationCode="GSIG" locationCode="" channelCode="BHE"></waveformID>
      </pick>
      <pick publicID="smi:local/534196ac-06d7-41ca-8c5a-9cc7bd866a53">
        <time>
          <value>2021-07-31T03:19:59.020000Z</value>
        </time>
        <waveformID networkCode="AV" stationCode="GSIG" locationCode="" channelCode="BHZ"></waveformID>
      </pick>
      <pick publicID="smi:local/7773ea61-e52d-4c25-b20f-2f7c671c9689">
        <time>
          <value>2021-07-31T03:19:58.460000Z</value>
        </time>
        <waveformID networkCode="AV" stationCode="GSMY" locationCode="" channelCode="BHE"></waveformID>
      </pick>
      <pick publicID="smi:local/5d54916c-3107-497d-a7a8-4e9121b42c7d">
        <time>
          <value>2021-07-31T03:19:57.440000Z</value>
        </time>
        <waveformID networkCode="AV" stationCode="GSMY" locationCode="" channelCode="BHZ"></waveformID>
      </pick>
      <pick publicID="smi:local/f7c099f2-a5ba-4182-8a78-d97d558f61c1">
        <time>
          <value>2021-07-31T03:19:58.740000Z</value>
        </time>
        <waveformID networkCode="AV" stationCode="GSSP" locationCode="" channelCode="BHN"></waveformID>
      </pick>
      <pick publicID="smi:local/e7445e54-79e9-4b05-96e6-3f1f1d4002fe">
        <time>
          <value>2021-07-31T03:19:57.500000Z</value>
        </time>
        <waveformID networkCode="AV" stationCode="GSSP" locationCode="" channelCode="BHZ"></waveformID>
      </pick>
      <pick publicID="smi:local/9b02e1bf-e78d-400f-b2f2-b9a520ae1602">
        <time>
          <value>2021-07-31T03:19:58.700000Z</value>
        </time>
        <waveformID networkCode="AV" stationCode="GSTR" locationCode="" channelCode="BHN"></waveformID>
      </pick>
      <pick publicID="smi:local/58b43b19-5e7f-463e-904c-2ae9cd96052c">
        <time>
          <value>2021-07-31T03:19:57.380000Z</value>
        </time>
        <waveformID networkCode="AV" stationCode="GSTR" locationCode="" channelCode="BHZ"></waveformID>
      </pick>
    </event>
    <event publicID="smi:local/2021_08_05t22_17_27_20210805T221727.380000">
      <comment id="smi:local/7afd8774-cd6f-4dcc-a2f0-0f90e4977b6f">
        <text>Template: 2021_08_05t22_17_27</text>
      </comment>
      <comment id="smi:local/0b69b4be-77f8-4347-8f9e-cd1e2fe6e722">
        <text>threshold=5.400000095367432</text>
      </comment>
      <comment id="smi:local/95685987-bfcd-4a2d-af49-7081fd522472">
        <text>detect_val=9.0</text>
      </comment>
      <comment id="smi:local/dca3a671-83ff-4fed-a2f2-028bac7033ae">
        <text>channels used: ('GSCK', 'BHN') ('GSCK', 'BHZ') ('GSIG', 'BHE') ('GSIG', 'BHZ') ('GSMY', 'BHE') ('GSMY', 'BHZ') ('GSSP', 'BHZ') ('GSTR', 'BHE') ('GSTR', 'BHZ')</text>
      </comment>
      <creationInfo>
        <author>EQcorrscan</author>
        <creationTime>2021-08-11T21:27:19.434493Z</creationTime>
      </creationInfo>
      <pick publicID="smi:local/fb1c6d14-dafc-4c93-8cd5-cac42cc18952">
        <time>
          <value>2021-08-05T22:17:33.120000Z</value>
        </time>
        <waveformID networkCode="AV" stationCode="GSCK" locationCode="" channelCode="BHN"></waveformID>
      </pick>
      <pick publicID="smi:local/bc8ae33b-7a6e-40b3-9802-eac8ba0e5298">
        <time>
          <value>2021-08-05T22:17:31.240000Z</value>
        </time>
        <waveformID networkCode="AV" stationCode="GSCK" locationCode="" channelCode="BHZ"></waveformID>
      </pick>
      <pick publicID="smi:local/b4d76198-4789-4a05-b61d-77850d550b53">
        <time>
          <value>2021-08-05T22:17:32.680000Z</value>
        </time>
        <waveformID networkCode="AV" stationCode="GSIG" locationCode="" channelCode="BHE"></waveformID>
      </pick>
      <pick publicID="smi:local/68a2a15f-5720-4212-8d2d-81db8160c0fc">
        <time>
          <value>2021-08-05T22:17:28.380000Z</value>
        </time>
        <waveformID networkCode="AV" stationCode="GSIG" locationCode="" channelCode="BHZ"></waveformID>
      </pick>
      <pick publicID="smi:local/f9085223-47c5-4c08-aa68-d753e7355a12">
        <time>
          <value>2021-08-05T22:17:33.520000Z</value>
        </time>
        <waveformID networkCode="AV" stationCode="GSMY" locationCode="" channelCode="BHE"></waveformID>
      </pick>
      <pick publicID="smi:local/bddd88d0-6055-4e10-b28b-ea5a387e9261">
        <time>
          <value>2021-08-05T22:17:30.860000Z</value>
        </time>
        <waveformID networkCode="AV" stationCode="GSMY" locationCode="" channelCode="BHZ"></waveformID>
      </pick>
      <pick publicID="smi:local/8edb250e-551b-46c8-aefc-d3869ca6c098">
        <time>
          <value>2021-08-05T22:17:32.240000Z</value>
        </time>
        <waveformID networkCode="AV" stationCode="GSSP" locationCode="" channelCode="BHZ"></waveformID>
      </pick>
      <pick publicID="smi:local/7ee60a5f-5388-4685-9d19-dbb398a56721">
        <time>
          <value>2021-08-05T22:17:34.980000Z</value>
        </time>
