<?xml version='1.0' encoding='utf-8'?>
<q:quakeml xmlns="http://quakeml.org/xmlns/bed/1.2" xmlns:q="http://quakeml.org/xmlns/quakeml/1.2">
  <eventParameters publicID="smi:local/c2d7b68e-a717-4b3a-87dc-9b29f67388e9">
    <event publicID="smi:local/9467ac45-4392-4a9f-888e-b74b4224ee21">
      <origin publicID="smi:local/790cdc8d-e42a-48dd-9fca-9a4447f9396b">
        <time>
          <value>2009-01-07T23:45:42.700000Z</value>
        </time>
        <latitude/>
        <longitude/>
        <comment id="smi:local/2efe9caa-d928-4b54-88d8-8a3ec8ad56ed">
          <text>CLUSTER 0 CORE EVENT; NOT IN PEC</text>
        </comment>
      </origin>
    </event>
    <event publicID="smi:local/de182300-69c2-425a-9937-dbdf45b9e511">
      <origin publicID="smi:local/091a8386-1354-462d-9b36-c61621bc852f">
        <time>
          <value>2009-02-27T03:40:26.570000Z</value>
        </time>
        <latitude/>
        <longitude/>
        <comment id="smi:local/88e036f5-e952-44fd-bed8-6974a588df0d">
          <text>CLUSTER 1 CORE EVENT; NOT IN PEC</text>
        </comment>
      </origin>
    </event>
    <event publicID="smi:local/58bf863c-c6ad-46f9-87ba-ae07200643b0">
      <origin publicID="smi:local/3b06d2a4-f82e-4684-90c0-38c1040d4ead">
        <time>
          <value>2009-01-12T04:46:02.600000Z</value>
        </time>
        <latitude/>
        <longitude/>
        <comment id="smi:local/02cd1281-2dd7-4574-a9f1-3ea82c7c7790">
          <text>CLUSTER 2 CORE EVENT; NOT IN PEC</text>
        </comment>
      </origin>
    </event>
    <event publicID="smi:local/18a98287-8a96-4c73-9f77-4f874f0f830f">
      <origin publicID="smi:local/d0f8edfc-56bb-475e-a03d-f87fc8ce2cea">
        <time>
          <value>2009-03-05T10:44:10.380000Z</value>
        </time>
        <latitude/>
        <longitude/>
        <comment id="smi:local/e0768f4b-f0b7-4290-b27a-39f0faa96adb">
          <text>CLUSTER 3 CORE EVENT; NOT IN PEC</text>
        </comment>
      </origin>
    </event>
    <event publicID="smi:local/198e4c74-4366-45f4-8664-b5cb89a0d6f9">
      <origin publicID="smi:local/3d6f9306-cc77-4b27-a6c6-090dcd478ff6">
        <time>
          <value>2009-01-09T17:12:06.820000Z</value>
        </time>
        <latitude/>
        <longitude/>
        <comment id="smi:local/1ed96992-80f8-4fdc-b8b5-b4fb949d44de">
          <text>CLUSTER 4 CORE EVENT; NOT IN PEC</text>
        </comment>
      </origin>
    </event>
    <event publicID="smi:local/653a7b0f-4f7d-426a-a524-8b40b4a69c1c">
      <origin publicID="smi:local/efbbf4a3-2654-4353-a82a-effa1241a5c3">
        <time>
          <value>2009-01-01T21:07:08.610000Z</value>
        </time>
        <latitude/>
        <longitude/>
        <comment id="smi:local/cfab9f7f-4a40-49ac-bb90-7c6b527cbf68">
          <text>CLUSTER 5 CORE EVENT; NOT IN PEC</text>
        </comment>
      </origin>
    </event>
    <event publicID="smi:local/dbcb8faa-2e57-400b-ab5c-97873412bb45">
      <origin publicID="smi:local/ff495aa9-3b80-4df9-b189-0d70b8a193e3">
        <time>
          <value>2009-01-07T18:50:05.420000Z</value>
        </time>
        <latitude/>
        <longitude/>
        <comment id="smi:local/1c10c3fd-cb39-474f-8efc-1ca5fe2e82e7">
          <text>CLUSTER 6 CORE EVENT; NOT IN PEC</text>
        </comment>
      </origin>
    </event>
    <event publicID="smi:local/10acdc03-45d1-43ce-931b-f9466b709de1">
      <origin publicID="smi:local/54d8b72a-67c2-4567-beda-e90f6da5dda9">
        <time>
          <value>2009-01-07T08:26:06.880000Z</value>
        </time>
        <latitude/>
        <longitude/>
        <comment id="smi:local/a918864e-a90d-461d-982a-b62e2aeb443d">
          <text>CLUSTER 7 CORE EVENT; NOT IN PEC</text>
        </comment>
      </origin>
    </event>
    <event publicID="smi:local/3d3110fb-372d-4032-a220-fb95ab6f981c">
      <origin publicID="smi:local/6f52bb46-bd31-4acc-bcdd-cc6be312165c">
        <time>
          <value>2009-01-08T13:24:26.660000Z</value>
        </time>
        <latitude/>
        <longitude/>
        <comment id="smi:local/2afbc27b-08d3-48ba-be96-20138644e3c6">
          <text>CLUSTER 8 CORE EVENT; NOT IN PEC</text>
        </comment>
      </origin>
    </event>
    <event publicID="smi:local/1c119e79-919b-4c2a-abd1-c6e7db6b7394">
      <origin publicID="smi:local/ece57d43-b1d1-4181-a342-e04b49b45c3f">
        <time>
          <value>2009-01-01T08:41:15.300000Z</value>
        </time>
        <latitude/>
        <longitude/>
        <comment id="smi:local/ff6bd31c-1d28-460d-acd6-402e0a97a129">
          <text>CLUSTER 9 CORE EVENT; NOT IN PEC</text>
        </comment>
      </origin>
    </event>
    <event publicID="smi:local/e296fe43-f952-46b3-bf86-03973abb41b5">
      <origin publicID="smi:local/c195bc79-1544-4de0-85c0-2593bf8e887d">
        <time>
          <value>2009-01-03T12:27:36.860000Z</value>
        </time>
        <latitude/>
        <longitude/>
        <comment id="smi:local/e5501c0c-fa76-4e2d-9ca7-6ccf835318ba">
          <text>CLUSTER 10 CORE EVENT; NOT IN PEC</text>
        </comment>
      </origin>
    </event>
    <event publicID="smi:local/b75596fb-f966-4adb-99d2-1041fd8bf816">
      <origin publicID="smi:local/400d82ab-8c0e-412e-8a30-c47e9d871d69">
        <time>
          <value>2009-01-02T09:09:02.190000Z</value>
        </time>
        <latitude/>
        <longitude/>
        <comment id="smi:local/af5b0299-b117-48f3-b2fd-ce225ea2ab37">
          <text>CLUSTER 11 CORE EVENT; NOT IN PEC</text>
        </comment>
      </origin>
    </event>
    <event publicID="smi:local/8600b9c9-a2bc-447f-a912-74b04fc02ac2">
      <origin publicID="smi:local/fe0debd5-8e91-4de0-859f-79d6400f3434">
        <time>
          <value>2009-03-04T08:53:22.540000Z</value>
        </time>
        <latitude/>
        <longitude/>
        <comment id="smi:local/5ed9c778-e295-4189-848b-65ce3b162757">
          <text>CLUSTER 12 CORE EVENT; NOT IN PEC</text>
        </comment>
      </origin>
    </event>
    <event publicID="smi:local/8345fbed-4954-4015-8c9c-748d38da5d96">
      <origin publicID="smi:local/28bceec3-60bf-436c-9475-c9308a98dd1e">
        <time>
          <value>2009-01-04T07:55:52.550000Z</value>
        </time>
        <latitude/>
        <longitude/>
        <comment id="smi:local/173b55fe-7a1e-48ce-8cc6-75cc3175f138">
          <text>CLUSTER 13 CORE EVENT; NOT IN PEC</text>
        </comment>
      </origin>
    </event>
    <event publicID="smi:local/2292a465-5729-4c33-a5a0-86b07efcafcc">
      <origin publicID="smi:local/78e3e8b7-4239-482e-b399-1d517fc0e893">
        <time>
          <value>2009-01-04T13:33:26.630000Z</value>
        </time>
        <latitude/>
        <longitude/>
        <comment id="smi:local/8bf352dc-7dd5-48e5-b5ca-e7c227e8fe35">
          <text>CLUSTER 14 CORE EVENT; NOT IN PEC</text>
        </comment>
      </origin>
    </event>
    <event publicID="smi:local/1351a77f-8983-4daf-833b-fe3c02d35a11">
      <origin publicID="smi:local/4fcbfe33-41c0-4208-a861-a81303966037">
        <time>
          <value>2009-01-01T19:14:46.760000Z</value>
        </time>
        <latitude/>
        <longitude/>
        <comment id="smi:local/ac62d94a-f914-4096-8b19-1f0c092c6727">
          <text>CLUSTER 15 CORE EVENT; NOT IN PEC</text>
        </comment>
      </origin>
    </event>
    <event publicID="smi:local/230f8285-a272-4abd-b801-a654bed2a471">
      <origin publicID="smi:local/59f3687e-b7e1-413b-b1e7-5500ad657b43">
        <time>
          <value>2009-01-04T08:29:39.710000Z</value>
        </time>
        <latitude/>
        <longitude/>
        <comment id="smi:local/6deb4ed5-4ebf-4209-9ed4-099e309b923e">
          <text>CLUSTER 16 CORE EVENT; NOT IN PEC</text>
        </comment>
      </origin>
    </event>
    <event publicID="smi:local/f6aee4b5-63d8-417a-8107-46a6b84f72f6">
      <origin publicID="smi:local/5c99dfa4-bc7a-4805-bf01-d4f91411cd13">
        <time>
          <value>2009-01-20T16:20:02.280000Z</value>
        </time>
        <latitude/>
        <longitude/>
        <comment id="smi:local/7e94b886-8db4-4e90-bee3-9687748ddbb1">
          <text>CLUSTER 17 CORE EVENT; NOT IN PEC</text>
        </comment>
      </origin>
    </event>
    <event publicID="smi:local/cd55723b-96c0-49a9-827c-52bcbc6990b8">
      <origin publicID="smi:local/22fa6e78-9af0-4083-ae2b-278fba5845fb">
        <time>
          <value>2009-01-06T06:01:07.530000Z</value>
        </time>
        <latitude/>
        <longitude/>
        <comment id="smi:local/70b8283d-a17c-4cbd-902a-42b876797958">
          <text>CLUSTER 18 CORE EVENT; NOT IN PEC</text>
        </comment>
      </origin>
    </event>
    <event publicID="smi:local/a5cabf62-842a-457b-a3fc-35a13d511f9c">
      <origin publicID="smi:local/210828a0-9f9c-4ebc-95f4-d5bd08a50f9d">
        <time>
          <value>2009-01-08T12:10:50.930000Z</value>
        </time>
        <latitude/>
        <longitude/>
        <comment id="smi:local/9d0c8e8d-b0e2-4661-be2a-0e6b8784b1e2">
          <text>CLUSTER 19 CORE EVENT; NOT IN PEC</text>
        </comment>
      </origin>
    </event>
    <event publicID="smi:local/c225da85-a005-4ed4-bec7-d1c7f97182f6">
      <origin publicID="smi:local/c39f492a-09d5-4c38-bed6-c4efddcf605c">
        <time>
          <value>2009-01-04T00:29:44.150000Z</value>
        </time>
        <latitude/>
        <longitude/>
        <comment id="smi:local/0072a9ae-5cd3-4948-8b6e-b58e243b9ad4">
          <text>CLUSTER 20 CORE EVENT; NOT IN PEC</text>
        </comment>
      </origin>
    </event>
    <event publicID="smi:local/a4eea443-7f06-4411-a0d7-33c335e77cd9">
      <origin publicID="smi:local/0278c835-5193-428e-a8b3-54d6de004412">
        <time>
          <value>2009-01-02T09:48:50.650000Z</value>
        </time>
        <latitude/>
        <longitude/>
        <comment id="smi:local/8595a948-8de1-46f2-8911-99d0facfa9f4">
          <text>CLUSTER 21 CORE EVENT; NOT IN PEC</text>
        </comment>
      </origin>
    </event>
    <event publicID="smi:local/7ae838d3-bb8c-4654-8642-f4d0a75a808a">
      <origin publicID="smi:local/d80c0ccb-5973-4faf-b1b9-eba8be6636bd">
        <time>
          <value>2009-01-03T16:20:54.470000Z</value>
        </time>
        <latitude/>
        <longitude/>
        <comment id="smi:local/a8a944a6-38c7-4976-9f1d-9635ad61c4d8">
          <text>CLUSTER 22 CORE EVENT; NOT IN PEC</text>
        </comment>
      </origin>
    </event>
    <event publicID="smi:local/5a478e6c-182a-43c6-a95d-06f5a20c7c1c">
      <origin publicID="smi:local/09f63179-abb1-459e-8c41-599e9c10ce7d">
        <time>
          <value>2009-01-02T21:52:44.240000Z</value>
        </time>
        <latitude/>
        <longitude/>
        <comment id="smi:local/9e0e379a-5e1c-4f12-bd2c-fd535424b908">
          <text>CLUSTER 23 CORE EVENT; NOT IN PEC</text>
        </comment>
      </origin>
    </event>
    <event publicID="smi:local/0d5edd29-7324-44ee-af84-37a49b424760">
      <origin publicID="smi:local/d89da52e-51e0-4775-a15e-19c42273f248">
        <time>
          <value>2009-01-11T01:39:34.850000Z</value>
        </time>
        <latitude/>
        <longitude/>
        <comment id="smi:local/4f6f8c3d-5df6-4c7b-848b-cd3d0ee15dda">
          <text>CLUSTER 24 CORE EVENT; NOT IN PEC</text>
        </comment>
      </origin>
    </event>
    <event publicID="smi:local/fc0faef3-03ff-4f41-8445-641cd7a33a87">
      <origin publicID="smi:local/704c2241-21a3-4029-a3cb-bd550763531f">
        <time>
          <value>2009-01-02T01:58:17.110000Z</value>
        </time>
        <latitude/>
        <longitude/>
        <comment id="smi:local/eced2dc4-b553-415b-b7ad-65d7acca64d0">
          <text>CLUSTER 25 CORE EVENT; NOT IN PEC</text>
        </comment>
      </origin>
    </event>
    <event publicID="smi:local/2b82c99b-d760-4d58-88d2-6357b803fd1e">
      <origin publicID="smi:local/3674815b-3ffb-4af5-93ae-3f5ef65f343d">
        <time>
          <value>2009-01-18T15:27:23.600000Z</value>
        </time>
        <latitude/>
        <longitude/>
        <comment id="smi:local/6c5739e9-470b-4494-a1ac-068ea7b4ba0f">
          <text>CLUSTER 26 CORE EVENT; NOT IN PEC</text>
        </comment>
      </origin>
    </event>
    <event publicID="smi:local/6551d2dd-9d2f-42d1-b2e4-bb1649a30661">
      <origin publicID="smi:local/a456a5d5-12f1-4ec5-bf09-0dd7f5f879fe">
        <time>
          <value>2009-01-01T22:05:51.030000Z</value>
        </time>
        <latitude/>
        <longitude/>
        <comment id="smi:local/0a1d1eed-c635-42bc-8c17-a50b9a53fbf8">
          <text>CLUSTER 27 CORE EVENT; NOT IN PEC</text>
        </comment>
      </origin>
    </event>
    <event publicID="smi:local/c43b2e52-10ad-429a-a87d-c63fc9cb1bc1">
      <origin publicID="smi:local/9a2a942d-927a-4805-b048-16bdf3abf219">
        <time>
          <value>2009-01-04T14:30:06.990000Z</value>
        </time>
        <latitude/>
        <longitude/>
        <comment id="smi:local/ff7520d0-7c60-4bda-a710-9bfee62ee4bb">
          <text>CLUSTER 28 CORE EVENT; NOT IN PEC</text>
        </comment>
      </origin>
    </event>
    <event publicID="smi:local/9d467b83-7ce9-4983-a351-fa770205dc05">
      <origin publicID="smi:local/5a6cd3f2-2692-4605-a4c9-63c8421b412a">
        <time>
          <value>2009-01-09T12:57:30.090000Z</value>
        </time>
        <latitude/>
        <longitude/>
        <comment id="smi:local/2da8fa1f-ec15-471b-9b71-00d0af788255">
          <text>CLUSTER 29 CORE EVENT; NOT IN PEC</text>
        </comment>
      </origin>
    </event>
    <event publicID="smi:local/555d4140-8619-4319-a753-5278a607415e">
      <origin publicID="smi:local/59e2fc47-6979-4063-81a6-077da4124c0d">
        <time>
          <value>2009-02-07T07:43:59.250000Z</value>
        </time>
        <latitude/>
        <longitude/>
        <comment id="smi:local/c712c1ad-cbd3-421d-82d8-42bb7aefe108">
          <text>CLUSTER 30 CORE EVENT; NOT IN PEC</text>
        </comment>
      </origin>
    </event>
    <event publicID="smi:local/9c9d7210-7b29-49a1-a581-85b24ed65622">
      <origin publicID="smi:local/dfe6b5f1-155a-4348-986b-fd5283572d19">
        <time>
          <value>2009-01-08T14:54:44.090000Z</value>
        </time>
        <latitude/>
        <longitude/>
        <comment id="smi:local/f5ebfdaa-7204-4ba5-ba84-fdada123a01d">
          <text>CLUSTER 31 CORE EVENT; NOT IN PEC</text>
        </comment>
      </origin>
    </event>
    <event publicID="smi:local/0002edae-bfa4-41a6-b3c1-e7f88cebeac8">
      <origin publicID="smi:local/2c5aef01-3b83-4a31-a6c7-e4f3ff3829e7">
        <time>
          <value>2009-01-07T02:17:58.150000Z</value>
        </time>
        <latitude/>
        <longitude/>
        <comment id="smi:local/a813b8bf-5562-42f6-b9b4-16cc07511210">
          <text>CLUSTER 32 CORE EVENT; NOT IN PEC</text>
        </comment>
      </origin>
    </event>
    <event publicID="smi:local/d8030240-f16f-4f50-a3f8-aced027bd0ce">
      <origin publicID="smi:local/f31ee949-b004-4220-84f4-f8e06ec94f87">
        <time>
          <value>2009-01-03T13:14:09.750000Z</value>
        </time>
        <latitude/>
        <longitude/>
        <comment id="smi:local/fb20a157-3565-485c-9acc-fe04e3bcf051">
          <text>CLUSTER 33 CORE EVENT; NOT IN PEC</text>
        </comment>
      </origin>
    </event>
    <event publicID="smi:local/8cdf622e-822e-487e-a360-9212bd3a0ab5">
      <origin publicID="smi:local/5909c5a7-6ffc-46fb-b1a0-98076cd4c34b">
        <time>
          <value>2009-01-24T08:36:44.550000Z</value>
        </time>
        <latitude/>
        <longitude/>
        <comment id="smi:local/895655e2-c240-4842-9564-c9effcc721c6">
          <text>CLUSTER 34 CORE EVENT; NOT IN PEC</text>
        </comment>
      </origin>
    </event>
    <event publicID="smi:local/b8a94bef-3721-4813-bf41-29b8a49b425d">
      <origin publicID="smi:local/2470f1c9-355a-46f7-a021-b1e4cb241485">
        <time>
          <value>2009-01-10T07:24:00.010000Z</value>
        </time>
        <latitude/>
        <longitude/>
        <comment id="smi:local/fd86e939-a20f-432a-9185-d9b0f0d06d15">
          <text>CLUSTER 35 CORE EVENT; NOT IN PEC</text>
        </comment>
      </origin>
    </event>
    <event publicID="smi:local/249ccd67-f057-403e-a90c-b27f2a21bbb1">
      <origin publicID="smi:local/388845d6-3648-4e60-bedd-ed29a68233a2">
        <time>
          <value>2009-01-12T20:00:17.990000Z</value>
        </time>
        <latitude/>
        <longitude/>
        <comment id="smi:local/ef9a2164-68f9-4157-81a2-0cf7700a4467">
          <text>CLUSTER 36 CORE EVENT; NOT IN PEC</text>
        </comment>
      </origin>
    </event>
    <event publicID="smi:local/b47b930a-3d03-4418-8f81-7c1ed2175152">
      <origin publicID="smi:local/ad54c01f-6abf-450e-8589-6d89216f586e">
        <time>
          <value>2009-01-19T16:48:24.700000Z</value>
        </time>
        <latitude/>
        <longitude/>
        <comment id="smi:local/c7af9159-3b9b-4961-9151-f2c09e18165e">
          <text>CLUSTER 37 CORE EVENT; NOT IN PEC</text>
        </comment>
      </origin>
    </event>
    <event publicID="smi:local/7d2fdbdc-bbfd-467e-a833-2b6dbc30be3e">
      <origin publicID="smi:local/3add27bc-7ab3-4767-a03d-c0ca7cec2923">
        <time>
          <value>2009-01-07T12:46:40.680000Z</value>
        </time>
        <latitude/>
        <longitude/>
        <comment id="smi:local/6946aebf-7b7c-47b3-ac8f-57f492ef18c3">
          <text>CLUSTER 38 CORE EVENT; NOT IN PEC</text>
        </comment>
      </origin>
    </event>
    <event publicID="smi:local/5132a14f-eb9b-4bdc-8eb6-5e6de34bfe98">
      <origin publicID="smi:local/c0fc8477-9d30-4cce-a9d4-f40cb45b11e5">
        <time>
          <value>2009-01-09T01:29:14.740000Z</value>
        </time>
        <latitude/>
        <longitude/>
        <comment id="smi:local/6b879b75-6a47-4d22-86d6-5e5aee5ca236">
          <text>CLUSTER 39 CORE EVENT; NOT IN PEC</text>
        </comment>
      </origin>
    </event>
    <event publicID="smi:local/a730865f-28c5-4778-bad0-0906bd246220">
      <origin publicID="smi:local/b0ff558c-b4b9-4895-b39f-bcaecf5993c7">
        <time>
          <value>2009-01-07T04:09:51.520000Z</value>
        </time>
        <latitude/>
        <longitude/>
        <comment id="smi:local/bf17c4c6-02f6-4aa3-8b7f-ec4add3eca91">
          <text>CLUSTER 40 CORE EVENT; NOT IN PEC</text>
        </comment>
      </origin>
    </event>
    <event publicID="smi:local/61fea6fa-b182-4908-931c-071ce1ec755d">
      <origin publicID="smi:local/834be316-330e-4ac3-abf9-56bfa2e87113">
        <time>
          <value>2009-03-06T10:13:08.690000Z</value>
        </time>
        <latitude/>
        <longitude/>
        <comment id="smi:local/fc85648f-bd7f-4966-b3bd-8c9d26a111a1">
          <text>CLUSTER 41 CORE EVENT; NOT IN PEC</text>
        </comment>
      </origin>
    </event>
    <event publicID="smi:local/c14741db-3354-4730-a51b-cf634781c7c3">
      <origin publicID="smi:local/a370fdd6-143b-4a40-8a6d-08c4454a695e">
        <time>
          <value>2009-03-03T02:55:48.130000Z</value>
        </time>
        <latitude/>
        <longitude/>
        <comment id="smi:local/4a6f8c81-25eb-4c77-bb3c-c836df6a1708">
          <text>CLUSTER 42 CORE EVENT; NOT IN PEC</text>
        </comment>
      </origin>
    </event>
    <event publicID="smi:local/99e6d355-7681-4d27-9efc-d89669715a60">
      <origin publicID="smi:local/b4b3d773-3481-4bdf-aa0c-9d11f91ec620">
        <time>
          <value>2009-01-05T00:29:33.620000Z</value>
        </time>
        <latitude/>
        <longitude/>
        <comment id="smi:local/98b17969-4873-4007-a92f-02396ba86f4e">
          <text>CLUSTER 43 CORE EVENT; NOT IN PEC</text>
        </comment>
      </origin>
    </event>
    <event publicID="smi:local/f233f15a-e837-4c9f-aee9-33d050d9d130">
      <origin publicID="smi:local/21cdeca2-1e1e-4398-8661-9fa5acb4203c">
        <time>
          <value>2009-01-06T16:48:17.500000Z</value>
        </time>
        <latitude/>
        <longitude/>
