<?xml version='1.0' encoding='utf-8'?>
<q:quakeml xmlns="http://quakeml.org/xmlns/bed/1.2" xmlns:q="http://quakeml.org/xmlns/quakeml/1.2">
  <eventParameters publicID="smi:local/8cf09df2-7449-478e-b85d-78274ae4ba90">
    <event publicID="smi:local/1c6726cb-b44f-4a78-926a-d6a7857bd738">
      <origin publicID="smi:local/458b8d04-8d69-4360-a6b5-6fed1539cabd">
        <time>
          <value>2021-06-01T14:27:53.200000Z</value>
        </time>
        <latitude/>
        <longitude/>
        <comment id="smi:local/74542303-0188-4d5c-a89b-55ee5467fbc9">
          <text>CLUSTER 0 CORE EVENT; NOT IN PEC</text>
        </comment>
        <arrival publicID="smi:local/a0a66410-7a95-4070-905d-76c1cbcd4c90">
          <pickID>smi:local/6f85cba6-0274-4329-b7c8-6201b0a6ba02</pickID>
          <phase>P</phase>
          <timeWeight>0.1</timeWeight>
        </arrival>
        <arrival publicID="smi:local/b795912e-5cc1-4612-84ae-5627103b2d93">
          <pickID>smi:local/fc343a88-f5c0-49aa-8c59-b00a03ecfda5</pickID>
          <phase>P</phase>
          <timeWeight>0.1</timeWeight>
        </arrival>
        <arrival publicID="smi:local/bf2092ca-0ec0-4aec-9b41-d32f52c0d973">
          <pickID>smi:local/0a182706-474a-4a22-a23b-914004d62119</pickID>
          <phase>P</phase>
          <timeWeight>0.1</timeWeight>
        </arrival>
        <arrival publicID="smi:local/970d7776-d5fc-4111-93ba-1ffe4b554410">
          <pickID>smi:local/251126c4-2af8-4168-aaf0-5a78357a2c72</pickID>
          <phase>P</phase>
          <timeWeight>0.1</timeWeight>
        </arrival>
        <arrival publicID="smi:local/ef72996c-f861-48ba-9b47-b3eb0acf203a">
          <pickID>smi:local/337deaa1-cded-46e6-8a0b-c83b2fdac087</pickID>
          <phase>P</phase>
          <timeWeight>0.1</timeWeight>
        </arrival>
        <arrival publicID="smi:local/d63e25d9-0ba4-430c-93d5-9cae9b86de54">
          <pickID>smi:local/122bfbc2-120c-4025-ad97-656cc95d01bc</pickID>
          <phase>P</phase>
          <timeWeight>0.1</timeWeight>
        </arrival>
        <arrival publicID="smi:local/5228ab50-4040-4140-87ce-6598d09a3bed">
          <pickID>smi:local/89e1fc95-1ca8-4d6f-bf64-151bda530529</pickID>
          <phase>P</phase>
          <timeWeight>0.1</timeWeight>
        </arrival>
        <arrival publicID="smi:local/e08007e6-5ca3-4c00-a2fa-b3630c60cae2">
          <pickID>smi:local/dac82742-95c6-478a-968f-47e3954019f7</pickID>
          <phase>P</phase>
          <timeWeight>0.1</timeWeight>
        </arrival>
        <arrival publicID="smi:local/26021165-2057-447c-aa31-bb284654c57e">
          <pickID>smi:local/a24829a3-05b0-4d72-9b0e-d0b4c901ca16</pickID>
          <phase>P</phase>
          <timeWeight>0.1</timeWeight>
        </arrival>
        <arrival publicID="smi:local/767740d7-f046-4a7c-8077-392b079b522d">
          <pickID>smi:local/d4c64d61-185b-43fc-afb2-71ef3c72499b</pickID>
          <phase>P</phase>
          <timeWeight>0.1</timeWeight>
        </arrival>
      </origin>
      <pick publicID="smi:local/6f85cba6-0274-4329-b7c8-6201b0a6ba02">
        <time>
          <value>2021-06-01T14:27:53.120000Z</value>
        </time>
        <waveformID networkCode="AV" stationCode="GSCK" locationCode="" channelCode="BHZ"></waveformID>
        <phaseHint>P</phaseHint>
      </pick>
      <pick publicID="smi:local/fc343a88-f5c0-49aa-8c59-b00a03ecfda5">
        <time>
          <value>2021-06-01T14:27:54.800000Z</value>
        </time>
        <waveformID networkCode="AV" stationCode="GSIG" locationCode="" channelCode="BHZ"></waveformID>
        <phaseHint>P</phaseHint>
      </pick>
      <pick publicID="smi:local/0a182706-474a-4a22-a23b-914004d62119">
        <time>
          <value>2021-06-01T14:27:54.220000Z</value>
        </time>
        <waveformID networkCode="AV" stationCode="GSMY" locationCode="" channelCode="BHZ"></waveformID>
        <phaseHint>P</phaseHint>
      </pick>
      <pick publicID="smi:local/251126c4-2af8-4168-aaf0-5a78357a2c72">
        <time>
          <value>2021-06-01T14:27:49.180000Z</value>
        </time>
        <waveformID networkCode="AV" stationCode="GSSP" locationCode="" channelCode="BHZ"></waveformID>
        <phaseHint>P</phaseHint>
      </pick>
      <pick publicID="smi:local/337deaa1-cded-46e6-8a0b-c83b2fdac087">
        <time>
          <value>2021-06-01T14:27:58.280000Z</value>
        </time>
        <waveformID networkCode="AV" stationCode="GSTR" locationCode="" channelCode="BHZ"></waveformID>
        <phaseHint>P</phaseHint>
      </pick>
      <pick publicID="smi:local/122bfbc2-120c-4025-ad97-656cc95d01bc">
        <time>
          <value>2021-06-01T14:27:53.120000Z</value>
        </time>
        <waveformID networkCode="AV" stationCode="GSCK" locationCode="" channelCode="BHZ"></waveformID>
        <phaseHint>P</phaseHint>
      </pick>
      <pick publicID="smi:local/89e1fc95-1ca8-4d6f-bf64-151bda530529">
        <time>
          <value>2021-06-01T14:27:54.800000Z</value>
        </time>
        <waveformID networkCode="AV" stationCode="GSIG" locationCode="" channelCode="BHZ"></waveformID>
        <phaseHint>P</phaseHint>
      </pick>
      <pick publicID="smi:local/dac82742-95c6-478a-968f-47e3954019f7">
        <time>
          <value>2021-06-01T14:27:54.220000Z</value>
        </time>
        <waveformID networkCode="AV" stationCode="GSMY" locationCode="" channelCode="BHZ"></waveformID>
        <phaseHint>P</phaseHint>
      </pick>
      <pick publicID="smi:local/a24829a3-05b0-4d72-9b0e-d0b4c901ca16">
        <time>
          <value>2021-06-01T14:27:49.180000Z</value>
        </time>
        <waveformID networkCode="AV" stationCode="GSSP" locationCode="" channelCode="BHZ"></waveformID>
        <phaseHint>P</phaseHint>
      </pick>
      <pick publicID="smi:local/d4c64d61-185b-43fc-afb2-71ef3c72499b">
        <time>
          <value>2021-06-01T14:27:58.280000Z</value>
        </time>
        <waveformID networkCode="AV" stationCode="GSTR" locationCode="" channelCode="BHZ"></waveformID>
        <phaseHint>P</phaseHint>
      </pick>
    </event>
    <event publicID="smi:local/6fb88060-f25c-4e27-ba41-1930f64dbc07">
      <origin publicID="smi:local/bb3fe4ae-e0b8-4bd9-b876-6d97c14fa915">
        <time>
          <value>2021-06-09T15:54:18.550000Z</value>
        </time>
        <latitude>
          <value>52.0818</value>
        </latitude>
        <longitude>
          <value>-176.1095</value>
        </longitude>
        <depth>
          <value>6580.0</value>
        </depth>
        <comment id="smi:local/d622420c-d428-421c-9201-d9e3d57ed9f2">
          <text>CLUSTER 1 CORE EVENT; IN PEC, DT = 1.08</text>
        </comment>
        <arrival publicID="smi:local/bdbf84e3-6013-4388-ba57-51ceac8ce79a">
          <pickID>smi:local/c0c4e107-e78c-42f9-a8e9-03277d986c63</pickID>
          <phase>S</phase>
          <timeWeight>-1.0</timeWeight>
        </arrival>
        <arrival publicID="smi:local/a2f95562-0ef0-46e0-ba5b-02d79cafc89f">
          <pickID>smi:local/0e3c3aca-1f4a-41e1-bb3c-b341924f3568</pickID>
          <phase>P</phase>
          <timeWeight>1.0</timeWeight>
        </arrival>
        <arrival publicID="smi:local/ee745f99-d7f8-4a8d-a48b-f86ca6e2cdd0">
          <pickID>smi:local/b5dae108-67fe-47a7-bd2e-22833e8c0032</pickID>
          <phase>S</phase>
          <timeWeight>0.5</timeWeight>
        </arrival>
        <arrival publicID="smi:local/4e500cdc-8e63-483c-8020-f7ed53370ea7">
          <pickID>smi:local/fb7c42e0-59ef-4360-bc47-5e8787c0199f</pickID>
          <phase>P</phase>
          <timeWeight>1.0</timeWeight>
        </arrival>
        <arrival publicID="smi:local/d3698aa4-0ffe-434a-898b-72147e9b5798">
          <pickID>smi:local/783bf841-61ed-4862-b484-86f27f3a3093</pickID>
          <phase>S</phase>
          <timeWeight>-1.0</timeWeight>
        </arrival>
        <arrival publicID="smi:local/f1db2689-95b0-4b31-9ca0-85888358d79d">
          <pickID>smi:local/4c0c4ac2-e5fd-4c88-aa61-698c11531e91</pickID>
          <phase>P</phase>
          <timeWeight>1.0</timeWeight>
        </arrival>
        <arrival publicID="smi:local/6408a614-90fb-408f-99b7-9d1c5d366578">
          <pickID>smi:local/252d1499-3a9d-429b-b8f9-de0a58f8c991</pickID>
          <phase>S</phase>
          <timeWeight>-1.0</timeWeight>
        </arrival>
        <arrival publicID="smi:local/dcd0ad2f-1625-4151-a169-f08281fd1ed9">
          <pickID>smi:local/787184a5-2c81-4709-9bd3-ecc5883aef57</pickID>
          <phase>P</phase>
          <timeWeight>1.0</timeWeight>
        </arrival>
        <arrival publicID="smi:local/1de8b69d-a86c-4c9f-93a3-51a929976224">
          <pickID>smi:local/71bcc552-66d4-4f97-91c1-31b617680437</pickID>
          <phase>S</phase>
          <timeWeight>-1.0</timeWeight>
        </arrival>
        <arrival publicID="smi:local/ee509d49-fc17-480a-93d6-45b7f3cd9fc4">
          <pickID>smi:local/8e9776f5-15bc-4123-bac6-86d300b6feab</pickID>
          <phase>P</phase>
          <timeWeight>1.0</timeWeight>
        </arrival>
      </origin>
      <magnitude publicID="smi:local/magnitude/91029648">
        <mag>
          <value>0.44</value>
        </mag>
      </magnitude>
      <pick publicID="smi:local/c0c4e107-e78c-42f9-a8e9-03277d986c63">
        <time>
          <value>2021-06-09T15:54:21.000000Z</value>
        </time>
        <waveformID networkCode="AV" stationCode="GSCK" locationCode="" channelCode="BHN"></waveformID>
        <phaseHint>S</phaseHint>
      </pick>
      <pick publicID="smi:local/0e3c3aca-1f4a-41e1-bb3c-b341924f3568">
        <time>
          <value>2021-06-09T15:54:19.340000Z</value>
        </time>
        <waveformID networkCode="AV" stationCode="GSCK" locationCode="" channelCode="BHZ"></waveformID>
        <phaseHint>P</phaseHint>
      </pick>
      <pick publicID="smi:local/b5dae108-67fe-47a7-bd2e-22833e8c0032">
        <time>
          <value>2021-06-09T15:54:23.040000Z</value>
        </time>
        <waveformID networkCode="AV" stationCode="GSIG" locationCode="" channelCode="BHE"></waveformID>
        <phaseHint>S</phaseHint>
      </pick>
      <pick publicID="smi:local/fb7c42e0-59ef-4360-bc47-5e8787c0199f">
        <time>
          <value>2021-06-09T15:54:20.400000Z</value>
        </time>
        <waveformID networkCode="AV" stationCode="GSIG" locationCode="" channelCode="BHZ"></waveformID>
        <phaseHint>P</phaseHint>
      </pick>
      <pick publicID="smi:local/783bf841-61ed-4862-b484-86f27f3a3093">
        <time>
          <value>2021-06-09T15:54:19.860000Z</value>
        </time>
        <waveformID networkCode="AV" stationCode="GSMY" locationCode="" channelCode="BHN"></waveformID>
        <phaseHint>S</phaseHint>
      </pick>
      <pick publicID="smi:local/4c0c4ac2-e5fd-4c88-aa61-698c11531e91">
        <time>
          <value>2021-06-09T15:54:18.800000Z</value>
        </time>
        <waveformID networkCode="AV" stationCode="GSMY" locationCode="" channelCode="BHZ"></waveformID>
        <phaseHint>P</phaseHint>
      </pick>
      <pick publicID="smi:local/252d1499-3a9d-429b-b8f9-de0a58f8c991">
        <time>
          <value>2021-06-09T15:54:19.920000Z</value>
        </time>
        <waveformID networkCode="AV" stationCode="GSSP" locationCode="" channelCode="BHN"></waveformID>
        <phaseHint>S</phaseHint>
      </pick>
      <pick publicID="smi:local/787184a5-2c81-4709-9bd3-ecc5883aef57">
        <time>
          <value>2021-06-09T15:54:18.880000Z</value>
        </time>
        <waveformID networkCode="AV" stationCode="GSSP" locationCode="" channelCode="BHZ"></waveformID>
        <phaseHint>P</phaseHint>
      </pick>
      <pick publicID="smi:local/71bcc552-66d4-4f97-91c1-31b617680437">
        <time>
          <value>2021-06-09T15:54:20.120000Z</value>
        </time>
        <waveformID networkCode="AV" stationCode="GSTR" locationCode="" channelCode="BHN"></waveformID>
        <phaseHint>S</phaseHint>
      </pick>
      <pick publicID="smi:local/8e9776f5-15bc-4123-bac6-86d300b6feab">
        <time>
          <value>2021-06-09T15:54:18.720000Z</value>
        </time>
        <waveformID networkCode="AV" stationCode="GSTR" locationCode="" channelCode="BHZ"></waveformID>
        <phaseHint>P</phaseHint>
      </pick>
    </event>
    <event publicID="smi:local/239e9c7b-f566-46df-b5e9-13bbf1b0ff1a">
      <origin publicID="smi:local/f7bd61ab-2815-41f9-84cc-a549b95b7e5e">
        <time>
          <value>2021-06-12T20:33:19.000000Z</value>
        </time>
        <latitude/>
        <longitude/>
        <comment id="smi:local/94e8a5d1-021b-4933-9748-1514ffb94fd7">
          <text>CLUSTER 2 CORE EVENT; NOT IN PEC</text>
        </comment>
        <arrival publicID="smi:local/969876cb-df9a-483e-9110-ea2fde5d3e9c">
          <pickID>smi:local/eb79fa52-88c0-406f-ad37-f3c2455337bf</pickID>
          <phase>P</phase>
          <timeWeight>0.1</timeWeight>
        </arrival>
        <arrival publicID="smi:local/f6b3e5c1-dadb-48e2-951e-b641b861fc8e">
          <pickID>smi:local/e382da82-1c61-4316-9553-f10177ad5a1e</pickID>
          <phase>P</phase>
          <timeWeight>0.1</timeWeight>
        </arrival>
        <arrival publicID="smi:local/d4f2eae8-4bec-4619-8e21-e4763646ff7f">
          <pickID>smi:local/6c84de20-3348-4d25-a6a4-c5c5983acd92</pickID>
          <phase>P</phase>
          <timeWeight>0.1</timeWeight>
        </arrival>
        <arrival publicID="smi:local/dbb95dc6-675e-4d37-85d3-33cef94a2ac1">
          <pickID>smi:local/109e3878-43f6-4dca-bd0a-316df89ed2af</pickID>
          <phase>P</phase>
          <timeWeight>0.1</timeWeight>
        </arrival>
        <arrival publicID="smi:local/ad2200e2-5a9e-408b-9751-cd2d2bb9245d">
          <pickID>smi:local/9465a9c9-5afe-49dc-8443-9dc739843e71</pickID>
          <phase>P</phase>
          <timeWeight>0.1</timeWeight>
        </arrival>
        <arrival publicID="smi:local/200b3afa-3dc3-43c3-8802-0017644c1199">
          <pickID>smi:local/e93647c1-1c10-4d0b-a516-302c90620dc8</pickID>
          <phase>P</phase>
          <timeWeight>0.1</timeWeight>
        </arrival>
        <arrival publicID="smi:local/0a886383-cf3c-4327-b60e-5d0347f95034">
          <pickID>smi:local/e1e2fdcf-20a1-49f6-aa52-a51eaa4844b2</pickID>
          <phase>P</phase>
          <timeWeight>0.1</timeWeight>
        </arrival>
        <arrival publicID="smi:local/bf03c068-ae72-4928-83d4-fc5dbe93097c">
          <pickID>smi:local/68c28a70-9d00-40e2-97a5-7f110ba6f93b</pickID>
          <phase>P</phase>
          <timeWeight>0.1</timeWeight>
        </arrival>
        <arrival publicID="smi:local/beba5fdf-6b26-4377-851d-5991e76b47f1">
          <pickID>smi:local/254dfd97-ef09-4764-93bf-592697408352</pickID>
          <phase>P</phase>
          <timeWeight>0.1</timeWeight>
        </arrival>
        <arrival publicID="smi:local/681d40ef-3105-49f2-adf7-209427eddec3">
          <pickID>smi:local/bd44f75f-3530-43ad-b31c-26d2dba81c48</pickID>
          <phase>P</phase>
          <timeWeight>0.1</timeWeight>
        </arrival>
      </origin>
      <pick publicID="smi:local/eb79fa52-88c0-406f-ad37-f3c2455337bf">
        <time>
          <value>2021-06-12T20:33:21.880000Z</value>
        </time>
        <waveformID networkCode="AV" stationCode="GSCK" locationCode="" channelCode="BHZ"></waveformID>
        <phaseHint>P</phaseHint>
      </pick>
      <pick publicID="smi:local/e382da82-1c61-4316-9553-f10177ad5a1e">
        <time>
          <value>2021-06-12T20:33:19.240000Z</value>
        </time>
        <waveformID networkCode="AV" stationCode="GSIG" locationCode="" channelCode="BHZ"></waveformID>
        <phaseHint>P</phaseHint>
      </pick>
      <pick publicID="smi:local/6c84de20-3348-4d25-a6a4-c5c5983acd92">
        <time>
          <value>2021-06-12T20:33:20.720000Z</value>
        </time>
        <waveformID networkCode="AV" stationCode="GSMY" locationCode="" channelCode="BHZ"></waveformID>
        <phaseHint>P</phaseHint>
      </pick>
      <pick publicID="smi:local/109e3878-43f6-4dca-bd0a-316df89ed2af">
        <time>
          <value>2021-06-12T20:33:18.540000Z</value>
        </time>
        <waveformID networkCode="AV" stationCode="GSSP" locationCode="" channelCode="BHZ"></waveformID>
        <phaseHint>P</phaseHint>
      </pick>
      <pick publicID="smi:local/9465a9c9-5afe-49dc-8443-9dc739843e71">
        <time>
          <value>2021-06-12T20:33:22.020000Z</value>
        </time>
        <waveformID networkCode="AV" stationCode="GSTR" locationCode="" channelCode="BHZ"></waveformID>
        <phaseHint>P</phaseHint>
      </pick>
      <pick publicID="smi:local/e93647c1-1c10-4d0b-a516-302c90620dc8">
        <time>
          <value>2021-06-12T20:33:21.880000Z</value>
        </time>
        <waveformID networkCode="AV" stationCode="GSCK" locationCode="" channelCode="BHZ"></waveformID>
        <phaseHint>P</phaseHint>
      </pick>
      <pick publicID="smi:local/e1e2fdcf-20a1-49f6-aa52-a51eaa4844b2">
        <time>
          <value>2021-06-12T20:33:19.240000Z</value>
        </time>
        <waveformID networkCode="AV" stationCode="GSIG" locationCode="" channelCode="BHZ"></waveformID>
        <phaseHint>P</phaseHint>
      </pick>
      <pick publicID="smi:local/68c28a70-9d00-40e2-97a5-7f110ba6f93b">
        <time>
          <value>2021-06-12T20:33:20.720000Z</value>
        </time>
        <waveformID networkCode="AV" stationCode="GSMY" locationCode="" channelCode="BHZ"></waveformID>
        <phaseHint>P</phaseHint>
      </pick>
      <pick publicID="smi:local/254dfd97-ef09-4764-93bf-592697408352">
        <time>
          <value>2021-06-12T20:33:18.540000Z</value>
        </time>
        <waveformID networkCode="AV" stationCode="GSSP" locationCode="" channelCode="BHZ"></waveformID>
        <phaseHint>P</phaseHint>
      </pick>
      <pick publicID="smi:local/bd44f75f-3530-43ad-b31c-26d2dba81c48">
        <time>
          <value>2021-06-12T20:33:22.020000Z</value>
        </time>
        <waveformID networkCode="AV" stationCode="GSTR" locationCode="" channelCode="BHZ"></waveformID>
        <phaseHint>P</phaseHint>
      </pick>
    </event>
    <event publicID="smi:local/d8b5e579-39cd-458c-aff3-51686389b3d0">
      <origin publicID="smi:local/c84de78a-9897-4bbf-8196-55f38ef79c6b">
        <time>
          <value>2021-06-12T06:27:41.550000Z</value>
        </time>
        <latitude/>
        <longitude/>
        <comment id="smi:local/e88d2cf9-89a4-4be9-b830-14fa17cfee6a">
          <text>CLUSTER 3 CORE EVENT; NOT IN PEC</text>
        </comment>
        <arrival publicID="smi:local/71a6e7ae-daae-4c85-9acd-32b19b7c35b2">
          <pickID>smi:local/8c6c6bf8-addd-45e1-9f5b-6bba8eadde62</pickID>
          <phase>P</phase>
          <timeWeight>0.1</timeWeight>
        </arrival>
        <arrival publicID="smi:local/5c8e1ed0-348a-4433-907e-fb5c258f725a">
          <pickID>smi:local/e844634f-aad2-47b9-bb1b-64273a51b819</pickID>
          <phase>P</phase>
          <timeWeight>0.1</timeWeight>
        </arrival>
        <arrival publicID="smi:local/e14e454e-df17-4301-a58d-d9e767d3fa59">
          <pickID>smi:local/0424ebc9-5977-4ec7-9bde-b2cfc8ab0bc1</pickID>
          <phase>P</phase>
          <timeWeight>0.1</timeWeight>
        </arrival>
        <arrival publicID="smi:local/e8e7ce40-9dfc-4e01-bfd0-b351fe338281">
          <pickID>smi:local/a3bbe076-c994-4b38-bbd5-c4b5483ed4e1</pickID>
          <phase>P</phase>
          <timeWeight>0.1</timeWeight>
        </arrival>
        <arrival publicID="smi:local/c02fdb81-2127-4e63-8083-71d40f51cac8">
          <pickID>smi:local/32456246-fe4e-4627-92d4-a6a273b580af</pickID>
          <phase>P</phase>
          <timeWeight>0.1</timeWeight>
        </arrival>
        <arrival publicID="smi:local/1c3e3ca8-293b-480b-9ada-78a1e5491551">
          <pickID>smi:local/e4aaf05b-c3fa-4831-9e7a-f9132a6db21c</pickID>
          <phase>P</phase>
          <timeWeight>0.1</timeWeight>
        </arrival>
        <arrival publicID="smi:local/902b5d97-c032-441a-8aec-73221a702f66">
