<?xml version='1.0' encoding='utf-8'?>
<q:quakeml xmlns="http://quakeml.org/xmlns/bed/1.2" xmlns:q="http://quakeml.org/xmlns/quakeml/1.2">
  <eventParameters publicID="smi:local/14055c79-bbd3-41e1-9232-1ba0eca3467c">
    <event publicID="smi:local/1c6726cb-b44f-4a78-926a-d6a7857bd738">
      <origin publicID="smi:local/458b8d04-8d69-4360-a6b5-6fed1539cabd">
        <time>
          <value>2021-06-01T14:27:53.200000Z</value>
        </time>
        <latitude/>
        <longitude/>
        <comment id="smi:local/74542303-0188-4d5c-a89b-55ee5467fbc9">
          <text>CLUSTER 0 CORE EVENT; NOT IN PEC</text>
        </comment>
      </origin>
    </event>
    <event publicID="smi:local/6fb88060-f25c-4e27-ba41-1930f64dbc07">
      <origin publicID="smi:local/bb3fe4ae-e0b8-4bd9-b876-6d97c14fa915">
        <time>
          <value>2021-06-09T15:54:18.550000Z</value>
        </time>
        <latitude>
          <value>52.0818</value>
        </latitude>
        <longitude>
          <value>-176.1095</value>
        </longitude>
        <depth>
          <value>6580.0</value>
        </depth>
        <comment id="smi:local/d622420c-d428-421c-9201-d9e3d57ed9f2">
          <text>CLUSTER 1 CORE EVENT; IN PEC, DT = 1.08</text>
        </comment>
        <arrival publicID="smi:local/bdbf84e3-6013-4388-ba57-51ceac8ce79a">
          <pickID>smi:local/c0c4e107-e78c-42f9-a8e9-03277d986c63</pickID>
          <phase>S</phase>
          <timeWeight>-1.0</timeWeight>
        </arrival>
        <arrival publicID="smi:local/a2f95562-0ef0-46e0-ba5b-02d79cafc89f">
          <pickID>smi:local/0e3c3aca-1f4a-41e1-bb3c-b341924f3568</pickID>
          <phase>P</phase>
          <timeWeight>1.0</timeWeight>
        </arrival>
        <arrival publicID="smi:local/ee745f99-d7f8-4a8d-a48b-f86ca6e2cdd0">
          <pickID>smi:local/b5dae108-67fe-47a7-bd2e-22833e8c0032</pickID>
          <phase>S</phase>
          <timeWeight>0.5</timeWeight>
        </arrival>
        <arrival publicID="smi:local/4e500cdc-8e63-483c-8020-f7ed53370ea7">
          <pickID>smi:local/fb7c42e0-59ef-4360-bc47-5e8787c0199f</pickID>
          <phase>P</phase>
          <timeWeight>1.0</timeWeight>
        </arrival>
        <arrival publicID="smi:local/d3698aa4-0ffe-434a-898b-72147e9b5798">
          <pickID>smi:local/783bf841-61ed-4862-b484-86f27f3a3093</pickID>
          <phase>S</phase>
          <timeWeight>-1.0</timeWeight>
        </arrival>
        <arrival publicID="smi:local/f1db2689-95b0-4b31-9ca0-85888358d79d">
          <pickID>smi:local/4c0c4ac2-e5fd-4c88-aa61-698c11531e91</pickID>
          <phase>P</phase>
          <timeWeight>1.0</timeWeight>
        </arrival>
        <arrival publicID="smi:local/6408a614-90fb-408f-99b7-9d1c5d366578">
          <pickID>smi:local/252d1499-3a9d-429b-b8f9-de0a58f8c991</pickID>
          <phase>S</phase>
          <timeWeight>-1.0</timeWeight>
        </arrival>
        <arrival publicID="smi:local/dcd0ad2f-1625-4151-a169-f08281fd1ed9">
          <pickID>smi:local/787184a5-2c81-4709-9bd3-ecc5883aef57</pickID>
          <phase>P</phase>
          <timeWeight>1.0</timeWeight>
        </arrival>
        <arrival publicID="smi:local/1de8b69d-a86c-4c9f-93a3-51a929976224">
          <pickID>smi:local/71bcc552-66d4-4f97-91c1-31b617680437</pickID>
          <phase>S</phase>
          <timeWeight>-1.0</timeWeight>
        </arrival>
        <arrival publicID="smi:local/ee509d49-fc17-480a-93d6-45b7f3cd9fc4">
          <pickID>smi:local/8e9776f5-15bc-4123-bac6-86d300b6feab</pickID>
          <phase>P</phase>
          <timeWeight>1.0</timeWeight>
        </arrival>
      </origin>
      <magnitude publicID="smi:local/magnitude/91029648">
        <mag>
          <value>0.44</value>
        </mag>
      </magnitude>
      <pick publicID="smi:local/c0c4e107-e78c-42f9-a8e9-03277d986c63">
        <time>
          <value>2021-06-09T15:54:21.000000Z</value>
        </time>
        <waveformID networkCode="AV" stationCode="GSCK" locationCode="" channelCode="BHN"></waveformID>
        <phaseHint>S</phaseHint>
      </pick>
      <pick publicID="smi:local/0e3c3aca-1f4a-41e1-bb3c-b341924f3568">
        <time>
          <value>2021-06-09T15:54:19.340000Z</value>
        </time>
        <waveformID networkCode="AV" stationCode="GSCK" locationCode="" channelCode="BHZ"></waveformID>
        <phaseHint>P</phaseHint>
      </pick>
      <pick publicID="smi:local/b5dae108-67fe-47a7-bd2e-22833e8c0032">
        <time>
          <value>2021-06-09T15:54:23.040000Z</value>
        </time>
        <waveformID networkCode="AV" stationCode="GSIG" locationCode="" channelCode="BHE"></waveformID>
        <phaseHint>S</phaseHint>
      </pick>
      <pick publicID="smi:local/fb7c42e0-59ef-4360-bc47-5e8787c0199f">
        <time>
          <value>2021-06-09T15:54:20.400000Z</value>
        </time>
        <waveformID networkCode="AV" stationCode="GSIG" locationCode="" channelCode="BHZ"></waveformID>
        <phaseHint>P</phaseHint>
      </pick>
      <pick publicID="smi:local/783bf841-61ed-4862-b484-86f27f3a3093">
        <time>
          <value>2021-06-09T15:54:19.860000Z</value>
        </time>
        <waveformID networkCode="AV" stationCode="GSMY" locationCode="" channelCode="BHN"></waveformID>
        <phaseHint>S</phaseHint>
      </pick>
      <pick publicID="smi:local/4c0c4ac2-e5fd-4c88-aa61-698c11531e91">
        <time>
          <value>2021-06-09T15:54:18.800000Z</value>
        </time>
        <waveformID networkCode="AV" stationCode="GSMY" locationCode="" channelCode="BHZ"></waveformID>
        <phaseHint>P</phaseHint>
      </pick>
      <pick publicID="smi:local/252d1499-3a9d-429b-b8f9-de0a58f8c991">
        <time>
          <value>2021-06-09T15:54:19.920000Z</value>
        </time>
        <waveformID networkCode="AV" stationCode="GSSP" locationCode="" channelCode="BHN"></waveformID>
        <phaseHint>S</phaseHint>
      </pick>
      <pick publicID="smi:local/787184a5-2c81-4709-9bd3-ecc5883aef57">
        <time>
          <value>2021-06-09T15:54:18.880000Z</value>
        </time>
        <waveformID networkCode="AV" stationCode="GSSP" locationCode="" channelCode="BHZ"></waveformID>
        <phaseHint>P</phaseHint>
      </pick>
      <pick publicID="smi:local/71bcc552-66d4-4f97-91c1-31b617680437">
        <time>
          <value>2021-06-09T15:54:20.120000Z</value>
        </time>
        <waveformID networkCode="AV" stationCode="GSTR" locationCode="" channelCode="BHN"></waveformID>
        <phaseHint>S</phaseHint>
      </pick>
      <pick publicID="smi:local/8e9776f5-15bc-4123-bac6-86d300b6feab">
        <time>
          <value>2021-06-09T15:54:18.720000Z</value>
        </time>
        <waveformID networkCode="AV" stationCode="GSTR" locationCode="" channelCode="BHZ"></waveformID>
        <phaseHint>P</phaseHint>
      </pick>
    </event>
    <event publicID="smi:local/239e9c7b-f566-46df-b5e9-13bbf1b0ff1a">
      <origin publicID="smi:local/f7bd61ab-2815-41f9-84cc-a549b95b7e5e">
        <time>
          <value>2021-06-12T20:33:19.000000Z</value>
        </time>
        <latitude/>
        <longitude/>
        <comment id="smi:local/94e8a5d1-021b-4933-9748-1514ffb94fd7">
          <text>CLUSTER 2 CORE EVENT; NOT IN PEC</text>
        </comment>
      </origin>
    </event>
    <event publicID="smi:local/d8b5e579-39cd-458c-aff3-51686389b3d0">
      <origin publicID="smi:local/c84de78a-9897-4bbf-8196-55f38ef79c6b">
        <time>
          <value>2021-06-12T06:27:41.550000Z</value>
        </time>
        <latitude/>
        <longitude/>
        <comment id="smi:local/e88d2cf9-89a4-4be9-b830-14fa17cfee6a">
          <text>CLUSTER 3 CORE EVENT; NOT IN PEC</text>
        </comment>
      </origin>
    </event>
    <event publicID="smi:local/cd539abf-4d5b-4635-bb8d-c1a18bed62e4">
      <origin publicID="smi:local/6ccf7df0-9ac3-4ab2-a0ae-08cf7810ac5c">
        <time>
          <value>2021-06-12T11:14:53.970000Z</value>
        </time>
        <latitude>
          <value>52.0308</value>
        </latitude>
        <longitude>
          <value>-176.0703</value>
        </longitude>
        <depth>
          <value>7410.0</value>
        </depth>
        <comment id="smi:local/abcf45ec-3811-4746-8525-92a3ea236d45">
          <text>CLUSTER 4 CORE EVENT; IN PEC, DT = 1.11</text>
        </comment>
        <arrival publicID="smi:local/cfa32ae2-76bb-4952-9e22-970432dfbd9f">
          <pickID>smi:local/1d8dbd88-9448-424d-a54b-1ec9e23418f5</pickID>
          <phase>S</phase>
          <timeWeight>1.0</timeWeight>
        </arrival>
        <arrival publicID="smi:local/83797763-dccb-42a9-adae-0b0f241973e7">
          <pickID>smi:local/09caaaae-fae8-4d08-961a-94310ab4d7df</pickID>
          <phase>P</phase>
          <timeWeight>1.0</timeWeight>
        </arrival>
        <arrival publicID="smi:local/00c73d9a-6000-402d-b20c-4abdde1804ba">
          <pickID>smi:local/a27fe987-b9ec-4070-a467-13a19c3b18a3</pickID>
          <phase>S</phase>
          <timeWeight>-1.0</timeWeight>
        </arrival>
        <arrival publicID="smi:local/71bfb09b-5cb9-4091-ae76-ab743d7ccd67">
          <pickID>smi:local/afb92447-6bcc-4750-a5db-cdd304edfb27</pickID>
          <phase>P</phase>
          <timeWeight>1.0</timeWeight>
        </arrival>
        <arrival publicID="smi:local/64f99860-de85-4256-9294-0839c3e27837">
          <pickID>smi:local/5feac2e1-cf79-40ea-89f6-750471314201</pickID>
          <phase>S</phase>
          <timeWeight>-1.0</timeWeight>
        </arrival>
        <arrival publicID="smi:local/a765e378-80ec-4270-aefc-cc157348034b">
          <pickID>smi:local/0487d691-b484-479b-b1ec-fb8e313665ec</pickID>
          <phase>P</phase>
          <timeWeight>1.0</timeWeight>
        </arrival>
        <arrival publicID="smi:local/1699bb90-4451-4ff4-a081-ab6d7221bb58">
          <pickID>smi:local/f5b874e2-b52c-402a-ac4b-9e67416388a0</pickID>
          <phase>S</phase>
          <timeWeight>-1.0</timeWeight>
        </arrival>
        <arrival publicID="smi:local/ecac4a1b-0c8d-4033-a3a3-4e9e912bbf3b">
          <pickID>smi:local/c4b4b91b-2d71-4ea3-b3b4-2e575dcaa354</pickID>
          <phase>P</phase>
          <timeWeight>1.0</timeWeight>
        </arrival>
        <arrival publicID="smi:local/5147aca3-fc46-41b0-a564-ed8eaa167ff4">
          <pickID>smi:local/c9cd6b5c-5880-4b9d-9ed9-a2293209e48e</pickID>
          <phase>S</phase>
          <timeWeight>1.0</timeWeight>
        </arrival>
        <arrival publicID="smi:local/d741ce82-67ff-43a4-9539-e6e027b545c6">
          <pickID>smi:local/dc118ead-4986-4776-8b17-ec807891cb50</pickID>
          <phase>P</phase>
          <timeWeight>1.0</timeWeight>
        </arrival>
        <arrival publicID="smi:local/ba2f982a-d456-4464-86d1-f3ca427c045c">
          <pickID>smi:local/8972489c-4148-4ec8-9ed9-93a2cdd5b7f8</pickID>
          <phase>S</phase>
          <timeWeight>0.5</timeWeight>
        </arrival>
        <arrival publicID="smi:local/7ef77602-43aa-4e78-a5b9-5abe810fdbf1">
          <pickID>smi:local/8425065d-18fe-4a87-89c4-9e05ae5793f5</pickID>
          <phase>P</phase>
          <timeWeight>1.0</timeWeight>
        </arrival>
      </origin>
      <magnitude publicID="smi:local/magnitude/91029993">
        <mag>
          <value>-0.38</value>
        </mag>
      </magnitude>
      <pick publicID="smi:local/1d8dbd88-9448-424d-a54b-1ec9e23418f5">
        <time>
          <value>2021-06-12T11:15:01.800000Z</value>
        </time>
        <waveformID networkCode="AV" stationCode="ETKA" locationCode="" channelCode="BHE"></waveformID>
        <phaseHint>S</phaseHint>
      </pick>
      <pick publicID="smi:local/09caaaae-fae8-4d08-961a-94310ab4d7df">
        <time>
          <value>2021-06-12T11:14:57.720000Z</value>
        </time>
        <waveformID networkCode="AV" stationCode="ETKA" locationCode="" channelCode="BHZ"></waveformID>
        <phaseHint>P</phaseHint>
      </pick>
      <pick publicID="smi:local/a27fe987-b9ec-4070-a467-13a19c3b18a3">
        <time>
          <value>2021-06-12T11:14:56.040000Z</value>
        </time>
        <waveformID networkCode="AV" stationCode="GSCK" locationCode="" channelCode="BHN"></waveformID>
        <phaseHint>S</phaseHint>
      </pick>
      <pick publicID="smi:local/afb92447-6bcc-4750-a5db-cdd304edfb27">
        <time>
          <value>2021-06-12T11:14:54.440000Z</value>
        </time>
        <waveformID networkCode="AV" stationCode="GSCK" locationCode="" channelCode="BHZ"></waveformID>
        <phaseHint>P</phaseHint>
      </pick>
      <pick publicID="smi:local/5feac2e1-cf79-40ea-89f6-750471314201">
        <time>
          <value>2021-06-12T11:14:57.100000Z</value>
        </time>
        <waveformID networkCode="AV" stationCode="GSIG" locationCode="" channelCode="BHN"></waveformID>
        <phaseHint>S</phaseHint>
      </pick>
      <pick publicID="smi:local/0487d691-b484-479b-b1ec-fb8e313665ec">
        <time>
          <value>2021-06-12T11:14:55.000000Z</value>
        </time>
        <waveformID networkCode="AV" stationCode="GSIG" locationCode="" channelCode="BHZ"></waveformID>
        <phaseHint>P</phaseHint>
      </pick>
      <pick publicID="smi:local/f5b874e2-b52c-402a-ac4b-9e67416388a0">
        <time>
          <value>2021-06-12T11:14:55.100000Z</value>
        </time>
        <waveformID networkCode="AV" stationCode="GSMY" locationCode="" channelCode="BHE"></waveformID>
        <phaseHint>S</phaseHint>
      </pick>
      <pick publicID="smi:local/c4b4b91b-2d71-4ea3-b3b4-2e575dcaa354">
        <time>
          <value>2021-06-12T11:14:53.920000Z</value>
        </time>
        <waveformID networkCode="AV" stationCode="GSMY" locationCode="" channelCode="BHZ"></waveformID>
        <phaseHint>P</phaseHint>
      </pick>
      <pick publicID="smi:local/c9cd6b5c-5880-4b9d-9ed9-a2293209e48e">
        <time>
          <value>2021-06-12T11:14:56.520000Z</value>
        </time>
        <waveformID networkCode="AV" stationCode="GSSP" locationCode="" channelCode="BHN"></waveformID>
        <phaseHint>S</phaseHint>
      </pick>
      <pick publicID="smi:local/dc118ead-4986-4776-8b17-ec807891cb50">
        <time>
          <value>2021-06-12T11:14:55.320000Z</value>
        </time>
        <waveformID networkCode="AV" stationCode="GSSP" locationCode="" channelCode="BHZ"></waveformID>
        <phaseHint>P</phaseHint>
      </pick>
      <pick publicID="smi:local/8972489c-4148-4ec8-9ed9-93a2cdd5b7f8">
        <time>
          <value>2021-06-12T11:14:56.420000Z</value>
        </time>
        <waveformID networkCode="AV" stationCode="GSTR" locationCode="" channelCode="BHN"></waveformID>
        <phaseHint>S</phaseHint>
      </pick>
      <pick publicID="smi:local/8425065d-18fe-4a87-89c4-9e05ae5793f5">
        <time>
          <value>2021-06-12T11:14:54.320000Z</value>
        </time>
        <waveformID networkCode="AV" stationCode="GSTR" locationCode="" channelCode="BHZ"></waveformID>
        <phaseHint>P</phaseHint>
      </pick>
    </event>
    <event publicID="smi:local/def1dc79-33a9-41af-9e3d-10c2686e52c8">
      <origin publicID="smi:local/f34731fd-f150-44c0-b734-a9e0bc82e153">
        <time>
          <value>2021-06-14T01:39:35.690000Z</value>
        </time>
        <latitude/>
        <longitude/>
        <comment id="smi:local/91d02758-842a-42e2-a05d-fabff055e04e">
          <text>CLUSTER 5 CORE EVENT; NOT IN PEC</text>
        </comment>
      </origin>
    </event>
    <event publicID="smi:local/8e2b3ad6-7568-4dc8-98a2-c60c930aad99">
      <origin publicID="smi:local/5e2ac7d3-24ef-4f24-bb8b-f63903a03955">
        <time>
          <value>2021-06-17T11:32:46.110000Z</value>
        </time>
        <latitude/>
        <longitude/>
        <comment id="smi:local/8577213f-9613-4e01-b55a-70f44de83e53">
          <text>CLUSTER 6 CORE EVENT; NOT IN PEC</text>
        </comment>
      </origin>
    </event>
    <event publicID="smi:local/ae08b82b-24bc-42fc-9f86-7a71008caef7">
      <origin publicID="smi:local/20f6a1ea-3c2f-42d3-8f57-6b94aea7b481">
        <time>
          <value>2021-06-21T21:08:36.810000Z</value>
        </time>
        <latitude>
          <value>52.0507</value>
        </latitude>
        <longitude>
          <value>-176.0552</value>
        </longitude>
        <depth>
          <value>8000.0</value>
        </depth>
        <comment id="smi:local/ad124a98-f503-4b5b-bc81-ccb775908681">
          <text>CLUSTER 7 CORE EVENT; IN PEC, DT = 1.99</text>
        </comment>
        <arrival publicID="smi:local/152ceef2-549d-4581-b125-fea886e567fe">
          <pickID>smi:local/578e833c-4002-4cb5-8848-aeacb3b3c7ef</pickID>
          <phase>P</phase>
          <timeWeight>0.5</timeWeight>
        </arrival>
        <arrival publicID="smi:local/5b98722d-ae3f-4383-b3d8-09858c173805">
          <pickID>smi:local/93e162b8-91be-4d1e-bd55-d9b38d05380c</pickID>
          <phase>S</phase>
          <timeWeight>1.0</timeWeight>
        </arrival>
        <arrival publicID="smi:local/5eea935c-d471-4b23-a12a-92f60f90b37a">
          <pickID>smi:local/6f315e1b-a166-4c16-918c-5f88d58732b2</pickID>
          <phase>P</phase>
          <timeWeight>1.0</timeWeight>
        </arrival>
        <arrival publicID="smi:local/1aa6c5fd-b9c1-449b-91f1-8454e93c5fe9">
          <pickID>smi:local/a424b6fb-99c5-43b1-b6ea-c1842f84dc35</pickID>
          <phase>S</phase>
          <timeWeight>1.0</timeWeight>
        </arrival>
        <arrival publicID="smi:local/fc033b79-528e-454d-b19b-c88a17656aa6">
          <pickID>smi:local/3e21f867-e07c-41f3-8c08-93b83ff903f4</pickID>
          <phase>P</phase>
          <timeWeight>1.0</timeWeight>
        </arrival>
        <arrival publicID="smi:local/3fb3713b-4bd2-49de-a4c9-bf0a82525590">
          <pickID>smi:local/aab042cc-be1f-4f2c-b672-a7a3e5399aeb</pickID>
          <phase>S</phase>
          <timeWeight>-1.0</timeWeight>
        </arrival>
        <arrival publicID="smi:local/84051bba-9ff0-4687-a39a-ad05a4ed3c55">
          <pickID>smi:local/15aeaa1b-b16a-48e7-a966-1ec24a708c5e</pickID>
          <phase>P</phase>
          <timeWeight>1.0</timeWeight>
        </arrival>
        <arrival publicID="smi:local/b238b949-5219-4544-9ad8-07e55e9446bd">
          <pickID>smi:local/addbb83c-51ea-4fc1-9703-2a4bfae631da</pickID>
          <phase>S</phase>
          <timeWeight>-1.0</timeWeight>
        </arrival>
        <arrival publicID="smi:local/71273297-6c24-4a4d-a851-b517241af522">
          <pickID>smi:local/32cfa6bb-b96f-4074-94d1-0e25af6f1859</pickID>
          <phase>P</phase>
          <timeWeight>1.0</timeWeight>
        </arrival>
        <arrival publicID="smi:local/5c1f01a3-7f79-4884-8bf7-e76a4424f4fe">
          <pickID>smi:local/c92965bb-4aab-475f-957d-163895fd142b</pickID>
          <phase>S</phase>
          <timeWeight>1.0</timeWeight>
        </arrival>
        <arrival publicID="smi:local/def135de-dd41-463e-9426-fae9aa924d05">
          <pickID>smi:local/ccda74fc-f0ff-4051-a007-4f8b30f6f861</pickID>
          <phase>P</phase>
          <timeWeight>1.0</timeWeight>
        </arrival>
        <arrival publicID="smi:local/e2daee7e-236e-45ab-a280-8cb8491766bf">
          <pickID>smi:local/4725666b-9008-4a7e-ab01-d19ecb459eec</pickID>
          <phase>S</phase>
          <timeWeight>1.0</timeWeight>
        </arrival>
        <arrival publicID="smi:local/89fea50d-1522-4381-8579-5279f2cb5c97">
          <pickID>smi:local/69ae0268-3a49-4d68-8613-6035eae5e6d4</pickID>
          <phase>P</phase>
          <timeWeight>1.0</timeWeight>
        </arrival>
      </origin>
      <magnitude publicID="smi:local/magnitude/91287136">
        <mag>
          <value>1.13</value>
        </mag>
      </magnitude>
      <pick publicID="smi:local/578e833c-4002-4cb5-8848-aeacb3b3c7ef">
        <time>
          <value>2021-06-21T21:08:41.940000Z</value>
        </time>
        <waveformID networkCode="AV" stationCode="ADAG" locationCode="" channelCode="BHZ"></waveformID>
        <phaseHint>P</phaseHint>
      </pick>
