<?xml version='1.0' encoding='utf-8'?>
<q:quakeml xmlns="http://quakeml.org/xmlns/bed/1.2" xmlns:q="http://quakeml.org/xmlns/quakeml/1.2">
  <eventParameters publicID="smi:local/7efbf65d-673f-4f9d-b47a-b9886cc760ce">
    <event publicID="smi:local/event/91259556">
      <preferredOriginID>smi:local/origin/91259556</preferredOriginID>
      <preferredMagnitudeID>smi:local/magnitude/91259556</preferredMagnitudeID>
      <origin publicID="smi:local/origin/91259556">
        <time>
          <value>2021-06-02T05:44:31.250000Z</value>
        </time>
        <latitude>
          <value>52.082</value>
        </latitude>
        <longitude>
          <value>-176.1207</value>
        </longitude>
        <depth>
          <value>2710.0</value>
        </depth>
        <quality>
          <standardError>0.24</standardError>
        </quality>
        <arrival publicID="smi:local/522fca45-d117-4777-8dcc-8100257f7fd2">
          <pickID>smi:local/d36e93fa-1d26-4b54-9b0e-2d047084a087</pickID>
          <phase>P</phase>
          <timeWeight>1.0</timeWeight>
        </arrival>
        <arrival publicID="smi:local/328e926c-2f9b-4e89-bb92-e40d30ae827e">
          <pickID>smi:local/dc01f0ad-78af-409e-b0ba-5ed1e7b13492</pickID>
          <phase>P</phase>
          <timeWeight>1.0</timeWeight>
        </arrival>
        <arrival publicID="smi:local/4c16533e-0208-403c-a70a-32296dc821b9">
          <pickID>smi:local/deb15596-50eb-4730-bf8d-b8e94ffd3e94</pickID>
          <phase>S</phase>
          <timeWeight>-1.0</timeWeight>
        </arrival>
        <arrival publicID="smi:local/76817440-9e6e-4833-b869-4f8fd12c9161">
          <pickID>smi:local/17e369a7-4349-4164-88c8-c55e61f95ac1</pickID>
          <phase>P</phase>
          <timeWeight>1.0</timeWeight>
        </arrival>
        <arrival publicID="smi:local/81895632-43e7-4cb2-8462-853f92c60ea2">
          <pickID>smi:local/994ae62c-d010-4e42-b133-7af760671540</pickID>
          <phase>S</phase>
          <timeWeight>1.0</timeWeight>
        </arrival>
        <arrival publicID="smi:local/fe5d870d-18a3-4128-9f78-98dfd31f7e73">
          <pickID>smi:local/42511048-9a6e-4558-8505-e7e3518e8bff</pickID>
          <phase>P</phase>
          <timeWeight>1.0</timeWeight>
        </arrival>
        <arrival publicID="smi:local/1e42cf11-ee94-4d5a-8095-c895e654b176">
          <pickID>smi:local/f3b3a3e9-7033-499f-a9de-1c876a056d29</pickID>
          <phase>S</phase>
          <timeWeight>1.0</timeWeight>
        </arrival>
        <arrival publicID="smi:local/b01e7016-090e-44e0-9367-65e46fb7272d">
          <pickID>smi:local/82251455-32e6-42b0-b76f-05d51268a998</pickID>
          <phase>P</phase>
          <timeWeight>1.0</timeWeight>
        </arrival>
        <arrival publicID="smi:local/3f525eb9-64fb-4d17-b037-fa6ea4419450">
          <pickID>smi:local/62bf5ae6-db33-467c-a788-5bbee20870d2</pickID>
          <phase>S</phase>
          <timeWeight>-1.0</timeWeight>
        </arrival>
        <arrival publicID="smi:local/355f8318-b258-47e0-b2b1-82195f2472bd">
          <pickID>smi:local/2cd27eb7-72ce-430e-ae29-b7cf7e99ed77</pickID>
          <phase>P</phase>
          <timeWeight>1.0</timeWeight>
        </arrival>
        <arrival publicID="smi:local/8873a589-6214-4820-81d5-f88d0a41f650">
          <pickID>smi:local/299650b9-c05d-4969-990c-989b8b4f3a5a</pickID>
          <phase>S</phase>
          <timeWeight>0.5</timeWeight>
        </arrival>
        <arrival publicID="smi:local/36c7c6f5-6470-4daf-920d-fbe93a95d6ea">
          <pickID>smi:local/365e9f31-596e-4737-a78e-f75d2ec34260</pickID>
          <phase>P</phase>
          <timeWeight>1.0</timeWeight>
        </arrival>
      </origin>
      <magnitude publicID="smi:local/magnitude/91259556">
        <mag>
          <value>1.14</value>
        </mag>
      </magnitude>
      <pick publicID="smi:local/d36e93fa-1d26-4b54-9b0e-2d047084a087">
        <time>
          <value>2021-06-02T05:44:37.640000Z</value>
        </time>
        <waveformID networkCode="AV" stationCode="ADAG" locationCode="" channelCode="BHZ"></waveformID>
        <phaseHint>P</phaseHint>
      </pick>
      <pick publicID="smi:local/dc01f0ad-78af-409e-b0ba-5ed1e7b13492">
        <time>
          <value>2021-06-02T05:44:36.440000Z</value>
        </time>
        <waveformID networkCode="AV" stationCode="ETKA" locationCode="" channelCode="BHZ"></waveformID>
        <phaseHint>P</phaseHint>
      </pick>
      <pick publicID="smi:local/deb15596-50eb-4730-bf8d-b8e94ffd3e94">
        <time>
          <value>2021-06-02T05:44:34.320000Z</value>
        </time>
        <waveformID networkCode="AV" stationCode="GSCK" locationCode="" channelCode="BHN"></waveformID>
        <phaseHint>S</phaseHint>
      </pick>
      <pick publicID="smi:local/17e369a7-4349-4164-88c8-c55e61f95ac1">
        <time>
          <value>2021-06-02T05:44:32.520000Z</value>
        </time>
        <waveformID networkCode="AV" stationCode="GSCK" locationCode="" channelCode="BHZ"></waveformID>
        <phaseHint>P</phaseHint>
      </pick>
      <pick publicID="smi:local/994ae62c-d010-4e42-b133-7af760671540">
        <time>
          <value>2021-06-02T05:44:36.700000Z</value>
        </time>
        <waveformID networkCode="AV" stationCode="GSIG" locationCode="" channelCode="BHN"></waveformID>
        <phaseHint>S</phaseHint>
      </pick>
      <pick publicID="smi:local/42511048-9a6e-4558-8505-e7e3518e8bff">
        <time>
          <value>2021-06-02T05:44:34.060000Z</value>
        </time>
        <waveformID networkCode="AV" stationCode="GSIG" locationCode="" channelCode="BHZ"></waveformID>
        <phaseHint>P</phaseHint>
      </pick>
      <pick publicID="smi:local/f3b3a3e9-7033-499f-a9de-1c876a056d29">
        <time>
          <value>2021-06-02T05:44:33.540000Z</value>
        </time>
        <waveformID networkCode="AV" stationCode="GSMY" locationCode="" channelCode="BHN"></waveformID>
        <phaseHint>S</phaseHint>
      </pick>
      <pick publicID="smi:local/82251455-32e6-42b0-b76f-05d51268a998">
        <time>
          <value>2021-06-02T05:44:32.280000Z</value>
        </time>
        <waveformID networkCode="AV" stationCode="GSMY" locationCode="" channelCode="BHZ"></waveformID>
        <phaseHint>P</phaseHint>
      </pick>
      <pick publicID="smi:local/62bf5ae6-db33-467c-a788-5bbee20870d2">
        <time>
          <value>2021-06-02T05:44:32.880000Z</value>
        </time>
        <waveformID networkCode="AV" stationCode="GSSP" locationCode="" channelCode="BHN"></waveformID>
        <phaseHint>S</phaseHint>
      </pick>
      <pick publicID="smi:local/2cd27eb7-72ce-430e-ae29-b7cf7e99ed77">
        <time>
          <value>2021-06-02T05:44:31.840000Z</value>
        </time>
        <waveformID networkCode="AV" stationCode="GSSP" locationCode="" channelCode="BHZ"></waveformID>
        <phaseHint>P</phaseHint>
      </pick>
      <pick publicID="smi:local/299650b9-c05d-4969-990c-989b8b4f3a5a">
        <time>
          <value>2021-06-02T05:44:33.180000Z</value>
        </time>
        <waveformID networkCode="AV" stationCode="GSTR" locationCode="" channelCode="BHE"></waveformID>
        <phaseHint>S</phaseHint>
      </pick>
      <pick publicID="smi:local/365e9f31-596e-4737-a78e-f75d2ec34260">
        <time>
          <value>2021-06-02T05:44:32.300000Z</value>
        </time>
        <waveformID networkCode="AV" stationCode="GSTR" locationCode="" channelCode="BHZ"></waveformID>
        <phaseHint>P</phaseHint>
      </pick>
    </event>
    <event publicID="smi:local/event/91028943">
      <preferredOriginID>smi:local/origin/91028943</preferredOriginID>
      <preferredMagnitudeID>smi:local/magnitude/91028943</preferredMagnitudeID>
      <origin publicID="smi:local/origin/91028943">
        <time>
          <value>2021-06-02T16:41:18.400000Z</value>
        </time>
        <latitude>
          <value>52.0772</value>
        </latitude>
        <longitude>
          <value>-176.1258</value>
        </longitude>
        <depth>
          <value>6430.0</value>
        </depth>
        <quality>
          <standardError>0.19</standardError>
        </quality>
        <arrival publicID="smi:local/b16236e0-f99d-4314-bdfa-f68591b370a6">
          <pickID>smi:local/b8441dac-6003-489f-bf94-66e9e4b92bcb</pickID>
          <phase>S</phase>
          <timeWeight>-0.5</timeWeight>
        </arrival>
        <arrival publicID="smi:local/9d61e060-a155-450c-9e2e-dcb4b5dd1ed6">
          <pickID>smi:local/6755c18c-b9f7-45b6-89df-33b21492c954</pickID>
          <phase>P</phase>
          <timeWeight>1.0</timeWeight>
        </arrival>
        <arrival publicID="smi:local/56320403-bd3e-4dac-a45b-8ba8a4392473">
          <pickID>smi:local/f4162758-3bee-4436-b9a5-a5712ee66b56</pickID>
          <phase>S</phase>
          <timeWeight>-1.0</timeWeight>
        </arrival>
        <arrival publicID="smi:local/b7653764-5594-4847-81a9-e3d5a08d86a9">
          <pickID>smi:local/3653381a-b23e-4cbf-beb3-3d430954a92b</pickID>
          <phase>P</phase>
          <timeWeight>1.0</timeWeight>
        </arrival>
        <arrival publicID="smi:local/f10fad06-c5e2-4458-b595-38f224a0516f">
          <pickID>smi:local/69b11052-abb3-4506-99ba-9982548b3e04</pickID>
          <phase>S</phase>
          <timeWeight>-1.0</timeWeight>
        </arrival>
        <arrival publicID="smi:local/1dc99f97-4fa3-4cd8-8cc2-dfd11188cff2">
          <pickID>smi:local/aa6ec4d0-58a1-478c-a3cd-3a47503d9812</pickID>
          <phase>P</phase>
          <timeWeight>0.5</timeWeight>
        </arrival>
        <arrival publicID="smi:local/b9bcc89c-3529-4be5-8078-281ec3a6cc99">
          <pickID>smi:local/89a5a228-029a-452f-86c4-d661c7d913f7</pickID>
          <phase>S</phase>
          <timeWeight>-1.0</timeWeight>
        </arrival>
        <arrival publicID="smi:local/1b7316f6-e8b8-422d-97d1-b25db1ed34c3">
          <pickID>smi:local/5fe33312-f39b-4048-b4d7-ebbeb73ed6b6</pickID>
          <phase>P</phase>
          <timeWeight>1.0</timeWeight>
        </arrival>
      </origin>
      <magnitude publicID="smi:local/magnitude/91028943">
        <mag>
          <value>-0.81</value>
        </mag>
      </magnitude>
      <pick publicID="smi:local/b8441dac-6003-489f-bf94-66e9e4b92bcb">
        <time>
          <value>2021-06-02T16:41:21.860000Z</value>
        </time>
        <waveformID networkCode="AV" stationCode="GSCK" locationCode="" channelCode="BHE"></waveformID>
        <phaseHint>S</phaseHint>
      </pick>
      <pick publicID="smi:local/6755c18c-b9f7-45b6-89df-33b21492c954">
        <time>
          <value>2021-06-02T16:41:20.180000Z</value>
        </time>
        <waveformID networkCode="AV" stationCode="GSCK" locationCode="" channelCode="BHZ"></waveformID>
        <phaseHint>P</phaseHint>
      </pick>
      <pick publicID="smi:local/f4162758-3bee-4436-b9a5-a5712ee66b56">
        <time>
          <value>2021-06-02T16:41:20.920000Z</value>
        </time>
        <waveformID networkCode="AV" stationCode="GSMY" locationCode="" channelCode="BHE"></waveformID>
        <phaseHint>S</phaseHint>
      </pick>
      <pick publicID="smi:local/3653381a-b23e-4cbf-beb3-3d430954a92b">
        <time>
          <value>2021-06-02T16:41:19.780000Z</value>
        </time>
        <waveformID networkCode="AV" stationCode="GSMY" locationCode="" channelCode="BHZ"></waveformID>
        <phaseHint>P</phaseHint>
      </pick>
      <pick publicID="smi:local/69b11052-abb3-4506-99ba-9982548b3e04">
        <time>
          <value>2021-06-02T16:41:20.560000Z</value>
        </time>
        <waveformID networkCode="AV" stationCode="GSSP" locationCode="" channelCode="BHN"></waveformID>
        <phaseHint>S</phaseHint>
      </pick>
      <pick publicID="smi:local/aa6ec4d0-58a1-478c-a3cd-3a47503d9812">
        <time>
          <value>2021-06-02T16:41:19.760000Z</value>
        </time>
        <waveformID networkCode="AV" stationCode="GSSP" locationCode="" channelCode="BHZ"></waveformID>
        <phaseHint>P</phaseHint>
      </pick>
      <pick publicID="smi:local/89a5a228-029a-452f-86c4-d661c7d913f7">
        <time>
          <value>2021-06-02T16:41:21.200000Z</value>
        </time>
        <waveformID networkCode="AV" stationCode="GSTR" locationCode="" channelCode="BHN"></waveformID>
        <phaseHint>S</phaseHint>
      </pick>
      <pick publicID="smi:local/5fe33312-f39b-4048-b4d7-ebbeb73ed6b6">
        <time>
          <value>2021-06-02T16:41:19.840000Z</value>
        </time>
        <waveformID networkCode="AV" stationCode="GSTR" locationCode="" channelCode="BHZ"></waveformID>
        <phaseHint>P</phaseHint>
      </pick>
    </event>
    <event publicID="smi:local/event/91028958">
      <preferredOriginID>smi:local/origin/91028958</preferredOriginID>
      <preferredMagnitudeID>smi:local/magnitude/91028958</preferredMagnitudeID>
      <origin publicID="smi:local/origin/91028958">
        <time>
          <value>2021-06-02T17:46:40.820000Z</value>
        </time>
        <latitude>
          <value>52.06</value>
        </latitude>
        <longitude>
          <value>-176.0987</value>
        </longitude>
        <depth>
          <value>5660.0</value>
        </depth>
        <quality>
          <standardError>0.16</standardError>
        </quality>
        <arrival publicID="smi:local/cc79a7a3-3bce-41b7-9d9a-592fa0744d09">
          <pickID>smi:local/f83a4ab8-d60b-4e30-93a5-7840deda047d</pickID>
          <phase>S</phase>
          <timeWeight>-1.0</timeWeight>
        </arrival>
        <arrival publicID="smi:local/b7a6bbcd-b5fa-4df7-9022-741682e3ce18">
          <pickID>smi:local/a54938f6-3e05-4de9-a5be-9f5ecc594bf7</pickID>
          <phase>P</phase>
          <timeWeight>1.0</timeWeight>
        </arrival>
        <arrival publicID="smi:local/6601243a-7e01-4f83-b9d9-0d7e0a28f898">
          <pickID>smi:local/f308a686-979c-46d1-a79a-8f0006e49d7f</pickID>
          <phase>S</phase>
          <timeWeight>-1.0</timeWeight>
        </arrival>
        <arrival publicID="smi:local/580bb9a1-bc76-451d-9b38-70b9d30c76e6">
          <pickID>smi:local/3bc8697d-a2ab-48ec-80e5-f7fa2983a7f1</pickID>
          <phase>P</phase>
          <timeWeight>0.5</timeWeight>
        </arrival>
        <arrival publicID="smi:local/f9e9307e-154a-4d60-88e9-58ee60b76a64">
          <pickID>smi:local/b68284a2-22f0-44a0-9aad-a06f3e6c099d</pickID>
          <phase>S</phase>
          <timeWeight>-1.0</timeWeight>
        </arrival>
        <arrival publicID="smi:local/40214499-da05-4120-8979-dbc9ca6af142">
          <pickID>smi:local/569750e8-e2c7-48ea-ab91-03e8c815f505</pickID>
          <phase>P</phase>
          <timeWeight>1.0</timeWeight>
        </arrival>
        <arrival publicID="smi:local/d5fbb09f-60f3-451a-8246-b9663c678943">
          <pickID>smi:local/b14c1832-a90e-43c0-b020-4a0f5a5a80d7</pickID>
          <phase>P</phase>
          <timeWeight>0.5</timeWeight>
        </arrival>
        <arrival publicID="smi:local/7feba41f-21ab-4878-8e2f-e800a8cfa326">
          <pickID>smi:local/936f549a-b893-46e9-9973-cac8e2d1f55d</pickID>
          <phase>S</phase>
          <timeWeight>-1.0</timeWeight>
        </arrival>
        <arrival publicID="smi:local/f01f8691-0b2d-4770-819e-aefeffb2d16e">
          <pickID>smi:local/ca0b861e-908d-41bf-956f-ad3753109af3</pickID>
          <phase>P</phase>
          <timeWeight>1.0</timeWeight>
        </arrival>
      </origin>
      <magnitude publicID="smi:local/magnitude/91028958">
        <mag>
          <value>-0.88</value>
        </mag>
      </magnitude>
      <pick publicID="smi:local/f83a4ab8-d60b-4e30-93a5-7840deda047d">
        <time>
          <value>2021-06-02T17:46:43.800000Z</value>
        </time>
        <waveformID networkCode="AV" stationCode="GSCK" locationCode="" channelCode="BHN"></waveformID>
        <phaseHint>S</phaseHint>
      </pick>
      <pick publicID="smi:local/a54938f6-3e05-4de9-a5be-9f5ecc594bf7">
        <time>
          <value>2021-06-02T17:46:42.320000Z</value>
        </time>
        <waveformID networkCode="AV" stationCode="GSCK" locationCode="" channelCode="BHZ"></waveformID>
        <phaseHint>P</phaseHint>
      </pick>
      <pick publicID="smi:local/f308a686-979c-46d1-a79a-8f0006e49d7f">
        <time>
          <value>2021-06-02T17:46:45.720000Z</value>
        </time>
        <waveformID networkCode="AV" stationCode="GSIG" locationCode="" channelCode="BHN"></waveformID>
        <phaseHint>S</phaseHint>
      </pick>
      <pick publicID="smi:local/3bc8697d-a2ab-48ec-80e5-f7fa2983a7f1">
        <time>
          <value>2021-06-02T17:46:43.320000Z</value>
        </time>
        <waveformID networkCode="AV" stationCode="GSIG" locationCode="" channelCode="BHZ"></waveformID>
        <phaseHint>P</phaseHint>
      </pick>
      <pick publicID="smi:local/b68284a2-22f0-44a0-9aad-a06f3e6c099d">
        <time>
          <value>2021-06-02T17:46:42.820000Z</value>
        </time>
        <waveformID networkCode="AV" stationCode="GSMY" locationCode="" channelCode="BHE"></waveformID>
        <phaseHint>S</phaseHint>
      </pick>
      <pick publicID="smi:local/569750e8-e2c7-48ea-ab91-03e8c815f505">
        <time>
          <value>2021-06-02T17:46:41.800000Z</value>
        </time>
        <waveformID networkCode="AV" stationCode="GSMY" locationCode="" channelCode="BHZ"></waveformID>
        <phaseHint>P</phaseHint>
      </pick>
      <pick publicID="smi:local/b14c1832-a90e-43c0-b020-4a0f5a5a80d7">
        <time>
          <value>2021-06-02T17:46:42.360000Z</value>
        </time>
        <waveformID networkCode="AV" stationCode="GSSP" locationCode="" channelCode="BHZ"></waveformID>
        <phaseHint>P</phaseHint>
      </pick>
      <pick publicID="smi:local/936f549a-b893-46e9-9973-cac8e2d1f55d">
        <time>
          <value>2021-06-02T17:46:43.360000Z</value>
        </time>
        <waveformID networkCode="AV" stationCode="GSTR" locationCode="" channelCode="BHN"></waveformID>
        <phaseHint>S</phaseHint>
      </pick>
      <pick publicID="smi:local/ca0b861e-908d-41bf-956f-ad3753109af3">
        <time>
          <value>2021-06-02T17:46:42.020000Z</value>
        </time>
        <waveformID networkCode="AV" stationCode="GSTR" locationCode="" channelCode="BHZ"></waveformID>
        <phaseHint>P</phaseHint>
      </pick>
    </event>
    <event publicID="smi:local/event/91029033">
      <preferredOriginID>smi:local/origin/91029033</preferredOriginID>
      <preferredMagnitudeID>smi:local/magnitude/91029033</preferredMagnitudeID>
      <origin publicID="smi:local/origin/91029033">
        <time>
          <value>2021-06-03T10:34:41.960000Z</value>
        </time>
        <latitude>
          <value>52.0577</value>
        </latitude>
        <longitude>
          <value>-176.0965</value>
        </longitude>
        <depth>
          <value>8290.0</value>
        </depth>
        <quality>
          <standardError>0.12</standardError>
        </quality>
        <arrival publicID="smi:local/0da6b832-ac8f-4c79-aae0-e6114fc81ec1">
          <pickID>smi:local/c923a33b-21e8-42dc-901f-c69a0bc465bd</pickID>
          <phase>S</phase>
          <timeWeight>-0.5</timeWeight>
        </arrival>
        <arrival publicID="smi:local/46773096-89c8-4396-9468-fc58410d5a38">
          <pickID>smi:local/cadf655a-ced1-468e-a407-d29d9968b315</pickID>
          <phase>P</phase>
          <timeWeight>1.0</timeWeight>
        </arrival>
        <arrival publicID="smi:local/b1630f55-74bc-4d5b-a75a-04b5b3299e16">
          <pickID>smi:local/d1aac994-0b17-4b19-af37-7fa0045477e1</pickID>
          <phase>S</phase>
          <timeWeight>-1.0</timeWeight>
        </arrival>
        <arrival publicID="smi:local/ec44a205-129a-4780-a594-259f78d2d053">
          <pickID>smi:local/4c5daf38-28c4-484e-af31-50167f90db2c</pickID>
          <phase>P</phase>
          <timeWeight>1.0</timeWeight>
        </arrival>
        <arrival publicID="smi:local/7696e5be-b152-4b2f-bee4-32aefc191146">
