# 2005 11 13 05 45 0.38  59.3610 -153.4310 -1.13 -0.30 0.12 0.17 0.05   61140843
AVAUH    0.420  1.000 P
AVAUL    1.880 -1.000 S
AVAUL    1.300  1.000 P
AVAUP    0.200  1.000 P
AVAUR    0.070  1.000 P
AVAUS    0.130 -1.000 P
AVAUW    0.980  1.000 P
# 2005 11 13 09 52 55.81  59.3595 -153.4292 -0.50 -0.20 0.32 0.10 0.08   61140868
AVAUE    0.920  1.000 P
AVAUH    0.560  1.000 P
AVAUL    1.720  1.000 S
AVAUL    0.940  1.000 P
AVAUP    0.400  1.000 P
AVAUR    0.360  1.000 P
AVAUS    0.390  1.000 P
AVAUW    1.020  1.000 P
# 2005 11 13 10 04 33.18  59.3563 -153.4275 -0.59 -0.60 0.61 0.15 0.11   61140878
AVAUH    0.730  1.000 P
AVAUL    1.830 -1.000 S
AVAUL    1.010 -1.000 P
AVAUP    0.490 -1.000 P
AVAUR    0.510  1.000 P
AVAUS    0.170  1.000 P
# 2005 11 13 10 15 32.57  59.3598 -153.4317 -0.55 -0.60 0.31 0.09 0.08   61140883
AVAUE    1.200  1.000 P
AVAUH    0.520  1.000 P
AVAUL    1.710 -1.000 S
AVAUL    0.860  1.000 P
AVAUP    0.290  1.000 P
AVAUR    0.530  1.000 P
AVAUS    0.220 -1.000 P
AVAUW    0.950  1.000 P
# 2005 11 13 10 16 39.52  59.3485 -153.4182 -1.18 -0.90 1.00 4.47 0.27   61140888
AVAUH    1.310 -1.000 P
AVAUP    0.750 -1.000 P
AVAUR    0.750  0.200 P
AVAUS    0.550 -1.000 P
# 2005 11 13 10 17 14.60  59.3607 -153.4292 -1.19 -0.30 0.19 0.62 0.12   61140893
AVAUH    0.570  1.000 P
AVAUL    1.980 -1.000 S
AVAUL    0.990  1.000 P
AVAUP    0.020  1.000 P
AVAUR   -0.070  1.000 P
AVAUS    0.030  1.000 P
# 2005 11 13 10 31 17.23  59.3602 -153.4295 -0.40 -0.90 0.70 0.35 0.06   61140898
AVAUH    0.500 -1.000 P
AVAUL    1.620 -1.000 S
AVAUL    0.860 -1.000 P
AVAUP    0.440  1.000 P
AVAUS    0.310 -1.000 P
# 2005 11 13 11 11 15.82  59.3587 -153.4280 -0.60 0.20 0.39 0.10 0.08   61140908
AVAUE    1.190  1.000 P
AVAUH    0.690  1.000 P
AVAUL    1.750  1.000 S
AVAUL    0.940  1.000 P
AVAUP    0.340 -1.000 P
AVAUR    0.360  1.000 P
AVAUS    0.290  1.000 P
AVAUW    1.010 -1.000 P
# 2005 11 13 14 47 38.88  59.3552 -153.4215 -0.64 0.10 0.25 0.10 0.07   61140963
AVAUE    0.970 -1.000 P
AVAUH    0.650  1.000 P
AVAUL    2.080 -1.000 S
AVAUL    1.200  1.000 P
AVAUP    0.510  1.000 P
AVAUR    0.480  1.000 P
AVAUS    0.460  1.000 P
AVAUW    1.270  1.000 P
# 2005 11 13 16 30 45.73  59.3578 -153.4270 -0.47 0.00 0.22 0.10 0.07   61140988
AVAUE    1.200  1.000 P
AVAUH    0.500  1.000 P
AVAUI    1.620 -1.000 S
AVAUL    1.770 -1.000 S
AVAUL    0.910  1.000 P
AVAUP    0.360  1.000 P
AVAUS    0.370  1.000 P
AVAUW    1.210  1.000 P
# 2005 11 13 22 23 25.84  59.3607 -153.4310 -0.87 -0.30 0.21 0.16 0.08   61141053
AVAUH    0.610  1.000 P
AVAUL    1.710 -1.000 S
AVAUL    0.910  1.000 P
AVAUP    0.250  1.000 P
AVAUR    0.100  1.000 P
AVAUS    0.100  1.000 P
AVAUW    1.510  1.000 P
# 2005 11 13 22 41 26.09  59.3615 -153.4312 -1.05 -0.40 0.19 0.25 0.04   61141058
AVAUH    0.430  1.000 P
AVAUL    1.730 -1.000 S
AVAUL    0.970  1.000 P
AVAUP    0.230  1.000 P
AVAUR    0.080 -1.000 P
AVAUS    0.100 -1.000 P
AVAUW    1.020  1.000 P
# 2005 11 14 00 21 49.59  59.3598 -153.4300 -1.18 -0.40 0.20 0.32 0.11   61141063
AVAUH    0.610  1.000 P
AVAUL    1.840  1.000 S
AVAUL    0.950  1.000 P
AVAUP    0.270  1.000 P
AVAUR    0.030  1.000 P
AVAUS    0.030 -1.000 P
AVAUW    1.010  0.200 P
# 2005 11 14 02 23 43.56  59.3582 -153.4273 -0.57 -0.40 0.36 0.13 0.07   61141093
AVAUE    1.090 -1.000 P
AVAUH    0.610  1.000 P
AVAUL    1.780 -1.000 S
AVAUL    1.000  1.000 P
AVAUP    0.420  1.000 P
AVAUR    0.260  1.000 P
AVAUS    0.280  1.000 P
# 2005 11 14 13 24 52.37  59.3608 -153.4322 -0.86 0.00 0.33 0.31 0.03   61141213
AVAUH    0.320  1.000 P
AVAUL    1.750  1.000 S
AVAUP    0.230  1.000 P
AVAUR    0.190 -1.000 P
AVAUS    0.220  1.000 P
# 2005 11 14 18 03 34.22  59.3565 -153.4273 -0.77 -0.10 0.36 0.32 0.04   61141238
AVAUH    0.490 -1.000 P
AVAUP    0.380  1.000 P
AVAUR    0.390  1.000 P
AVAUS    0.280 -1.000 P
# 2005 11 15 17 19 40.55  59.3595 -153.4307 -0.61 0.00 0.13 0.07 0.06   61141388
AVAUE    1.230  1.000 P
AVAUH    0.500  1.000 P
AVAUI    1.760 -1.000 S
AVAUL    1.760  1.000 S
AVAUL    1.690  1.000 S
AVAUL    0.950  1.000 P
AVAUP    0.360  1.000 P
AVAUR    0.360  1.000 P
AVAUS    0.350  1.000 P
AVAUW    1.050  1.000 P
# 2005 11 15 17 40 43.02  59.3605 -153.4270 -0.53 0.40 0.18 0.09 0.09   61141393
AVAUE    1.170  1.000 P
AVAUH    0.660  1.000 P
AVAUI    1.860 -1.000 S
AVAUI    0.930  1.000 P
AVAUL    1.530 -1.000 S
AVAUL    0.970  1.000 P
AVAUP    0.260  1.000 P
AVAUR    0.280  1.000 P
AVAUS    0.290  1.000 P
AVAUW    1.050  1.000 P
# 2005 11 15 18 05 18.67  59.3593 -153.4307 -0.65 0.30 0.12 0.08 0.06   61141398
AVAUE    1.160  1.000 P
AVAUH    0.510  1.000 P
AVAUI    1.840  1.000 S
AVAUI    1.030  1.000 P
AVAUL    1.800 -1.000 S
AVAUL    0.940  1.000 P
AVAUP    0.290  1.000 P
AVAUR    0.280  1.000 P
AVAUS    0.300  1.000 P
AVAUW    1.040  1.000 P
# 2005 11 16 00 00 18.68  59.3592 -153.4348 -0.43 -0.20 0.39 0.12 0.07   61141438
AVAUH    0.410  1.000 P
AVAUL    1.640 -1.000 S
AVAUL    0.840  1.000 P
AVAUP    0.440  1.000 P
AVAUR    0.510  1.000 P
AVAUS    0.300  1.000 P
AVAUW    0.910 -1.000 P
# 2005 11 16 00 01 36.55  59.3550 -153.4253 -0.27 -0.10 0.59 0.13 0.05   61141443
AVAUH    0.560 -1.000 P
AVAUL    1.880 -1.000 S
AVAUL    1.030  1.000 P
AVAUP    0.440 -1.000 P
AVAUR    0.650  1.000 P
AVAUS    0.480  1.000 P
AVAUW    1.090  1.000 P
# 2005 11 16 04 21 59.33  59.3605 -153.4307 -0.82 -0.40 0.36 0.21 0.04   61141478
AVAUH    0.420 -1.000 P
AVAUP    0.150  1.000 P
AVAUR    0.150  1.000 P
AVAUS    0.220 -1.000 P
# 2005 11 16 05 28 30.41  59.3572 -153.4290 -0.61 0.50 0.36 0.09 0.06   61141488
AVAUE    1.200  1.000 P
AVAUH    0.520  1.000 P
AVAUL    1.860 -1.000 S
AVAUL    1.000  1.000 P
AVAUP    0.390 -1.000 P
AVAUR    0.440  1.000 P
AVAUS    0.340  1.000 P
AVAUW    1.030  1.000 P
# 2005 11 16 05 29 5.46  59.3590 -153.4327 -0.62 -0.30 0.75 0.28 0.11   61141493
AVAUH    0.560  1.000 P
AVAUL    1.650 -1.000 S
AVAUP    0.280 -1.000 P
AVAUR    0.360  1.000 P
AVAUS    0.180 -1.000 P
# 2005 11 16 07 40 39.78  59.3570 -153.4318 -0.86 -0.40 0.62 0.22 0.06   61141538
AVAUH    0.390 -1.000 P
AVAUP    0.280  1.000 P
AVAUR    0.420  1.000 P
AVAUS    0.210 -1.000 P
# 2005 11 16 11 40 14.38  59.3617 -153.4293 -1.04 -0.40 0.23 0.35 0.02   61141573
AVAUH    0.390  1.000 P
AVAUP    0.200  1.000 P
AVAUR    0.130 -1.000 P
AVAUS    0.140  1.000 P
# 2005 11 16 19 06 36.48  59.3608 -153.4318 -0.95 0.20 0.24 0.24 0.03   61141623
AVAUH    0.370  1.000 P
AVAUL    1.700  1.000 S
AVAUL    1.610  1.000 P
AVAUP    0.250 -1.000 P
AVAUR    0.150 -1.000 P
AVAUS    0.150  1.000 P
AVAUW    1.040  0.200 P
# 2005 11 16 20 47 23.23  59.3542 -153.4448 -1.17 -0.10 1.10 2.95 0.21   61141648
AVAUH    0.650 -1.000 P
AVAUP    0.800 -1.000 P
AVAUR    0.640 -1.000 P
AVAUS   -0.080  1.000 P
# 2005 11 17 02 50 0.75  59.3605 -153.4303 -1.06 -0.10 0.18 0.32 0.01   61141678
AVAUH    0.400 -1.000 P
AVAUP    0.220  1.000 P
AVAUR    0.120  1.000 P
AVAUS    0.110 -1.000 P
# 2005 11 17 05 02 26.80  59.3537 -153.4263 -1.16 -0.40 0.31 1.03 0.06   61141683
AVAUH    0.730 -1.000 P
AVAUP    0.400 -1.000 P
AVAUR    0.370  1.000 P
AVAUS    0.370  1.000 P
# 2005 11 17 18 29 48.91  59.3597 -153.4317 -0.67 0.20 0.34 0.25 0.06   61141713
AVAUH    0.480  1.000 P
AVAUP    0.320  1.000 P
AVAUR    0.170  1.000 P
AVAUS    0.240 -1.000 P
# 2005 11 17 18 41 24.31  59.3518 -153.4198 -1.18 -0.30 0.51 2.18 0.15   61141718
AVAUH    1.110 -1.000 P
AVAUP    0.560  1.000 P
AVAUR    0.680  1.000 P
AVAUS    0.520  1.000 P
# 2005 11 17 18 43 2.47  59.3682 -153.4170 -1.17 -0.10 1.18 1.91 0.48   61141723
AVAUH    0.360  1.000 P
AVAUP   -0.010  1.000 P
AVAUR   -0.050  1.000 P
AVAUS    0.030  1.000 P
AVAUW    1.550 -1.000 P
# 2005 11 17 18 52 16.39  59.3588 -153.4325 -0.56 0.10 0.15 0.08 0.05   61141728
AVAUE    1.210  1.000 P
AVAUH    0.470  1.000 P
AVAUI    1.740 -1.000 S
AVAUL    1.680  1.000 S
AVAUL    0.960  1.000 P
AVAUP    0.360  1.000 P
AVAUR    0.250  1.000 P
AVAUS    0.320  1.000 P
AVAUW    1.030  1.000 P
# 2005 11 17 19 09 49.51  59.3535 -153.4297 -1.18 -0.40 0.38 1.50 0.11   61141733
AVAUH    0.860 -1.000 P
AVAUP    0.510 -1.000 P
AVAUR    0.320  1.000 P
AVAUS    0.230 -1.000 P
# 2005 11 17 21 25 21.85  59.3540 -153.4217 -1.19 -0.40 0.33 0.57 0.12   61141743
AVAUH    0.740  1.000 P
AVAUL    2.580 -1.000 S
AVAUL    1.200  1.000 P
AVAUP    0.500  1.000 P
AVAUR    0.370  1.000 P
AVAUS    0.370  1.000 P
# 2005 11 18 00 07 11.29  59.3580 -153.4298 -0.52 0.10 0.48 0.10 0.04   61141753
AVAUH    0.530  1.000 P
AVAUL    1.760 -1.000 S
AVAUL    0.980  1.000 P
AVAUP    0.370  1.000 P
AVAUR    0.430  1.000 P
AVAUS    0.300  1.000 P
AVAUW    0.650  1.000 P
# 2005 11 18 00 07 45.79  59.3575 -153.4325 -1.19 -0.60 0.32 0.80 0.09   61141758
AVAUH    0.490 -1.000 P
AVAUP    0.240  1.000 P
AVAUR    0.100  1.000 P
AVAUS    0.150 -1.000 P
# 2005 11 18 01 37 15.44  59.3593 -153.4318 -0.80 0.50 0.10 0.08 0.04   61141773
AVAUE    1.230  1.000 P
AVAUH    0.420  1.000 P
AVAUI    1.960  1.000 S
AVAUI    1.080  1.000 P
AVAUL    1.830  1.000 S
AVAUL    1.870  1.000 S
AVAUL    1.000  1.000 P
AVAUP    0.300  1.000 P
AVAUR    0.150  1.000 P
AVAUS    0.190  1.000 P
AVAUW    1.060  1.000 P
# 2005 11 18 01 38 41.45  59.3578 -153.4280 -0.95 0.20 0.26 0.15 0.08   61141778
AVAUH    0.490  1.000 P
AVAUL    1.960  1.000 S
AVAUL    1.060  1.000 P
AVAUP    0.360  1.000 P
AVAUR    0.210  1.000 P
AVAUS    0.230  1.000 P
AVAUW    1.100  1.000 P
# 2005 11 18 01 43 35.69  59.3580 -153.4252 -1.17 -0.20 1.22 4.00 0.42   61141783
AVAUH    0.550 -1.000 P
AVAUP   -0.060 -1.000 P
AVAUR   -0.240  1.000 P
AVAUS   -0.140 -1.000 P
# 2005 11 18 05 56 31.56  59.3525 -153.4328 -1.16 -0.70 0.35 1.07 0.07   61141823
AVAUH    0.670 -1.000 P
AVAUP    0.560 -1.000 P
AVAUR    0.340  1.000 P
AVAUS    0.350  1.000 P
# 2005 11 18 05 58 42.94  59.3597 -153.4283 -0.90 0.70 0.12 0.09 0.07   61141828
AVAUE    1.200  1.000 P
AVAUH    0.520  1.000 P
AVAUI    2.150  1.000 S
AVAUI    1.080  1.000 P
AVAUL    1.840  1.000 S
AVAUL    1.920  1.000 S
AVAUL    0.930  1.000 P
AVAUP    0.220  1.000 P
AVAUR    0.090  1.000 P
AVAUS    0.200  1.000 P
AVAUW    1.050  1.000 P
# 2005 11 18 15 10 39.58  59.3583 -153.4273 -0.61 0.50 0.44 0.09 0.05   61141873
AVAUH    0.600  1.000 P
AVAUL    1.860  1.000 S
AVAUL    1.780 -1.000 S
AVAUP    0.350  1.000 P
AVAUR    0.360  1.000 P
AVAUS    0.260  1.000 P
AVAUW    1.030 -1.000 P
# 2005 11 19 15 41 33.29  59.3613 -153.4293 -1.19 0.10 0.20 0.42 0.12   61142043
AVAUH    0.340  1.000 P
AVAUL    1.610  1.000 S
AVAUL    1.240  1.000 P
AVAUP    0.190  1.000 P
AVAUR    0.040  1.000 P
AVAUS    0.070 -1.000 P
AVAUW    1.000  1.000 P
# 2005 11 19 21 39 15.31  59.3583 -153.4335 -0.55 0.00 0.15 0.08 0.08   61142098
AVAUH    0.540  1.000 P
AVAUI    1.750 -1.000 S
AVAUI    0.960  1.000 P
AVAUL    1.700 -1.000 S
AVAUL    0.960  1.000 P
AVAUP    0.410  1.000 P
AVAUR    0.260  1.000 P
AVAUS    0.310  1.000 P
AVAUW    1.040  1.000 P
# 2005 11 21 15 47 31.70  59.3578 -153.4287 -0.56 0.30 0.29 0.08 0.04   61142548
AVAUH    0.500  1.000 P
AVAUL    1.830 -1.000 S
AVAUL    0.970  1.000 P
AVAUP    0.350  1.000 P
AVAUR    0.420  1.000 P
AVAUS    0.340  1.000 P
# 2005 11 21 21 20 5.59  59.3623 -153.4310 -1.18 -0.30 0.28 0.84 0.16   61142583
AVAUH    0.530 -1.000 P
AVAUP    0.150 -1.000 P
AVAUR   -0.170  1.000 P
AVAUS   -0.060  1.000 P
# 2005 11 21 22 30 18.43  59.3598 -153.4320 -0.86 0.10 0.29 0.19 0.06   61142603
AVAUH    0.440  1.000 P
AVAUL    1.740 -1.000 S
AVAUL    0.940  1.000 P
AVAUP    0.340  1.000 P
AVAUR    0.150  1.000 P
AVAUS    0.110  1.000 P
AVAUW    1.030 -1.000 P
# 2005 11 21 23 55 23.72  59.3615 -153.4298 -0.49 -0.60 0.51 0.83 0.13   61142623
AVAUH    0.300  1.000 P
AVAUL    1.610 -1.000 S
AVAUL    0.850  1.000 P
AVAUP    0.120 -1.000 P
AVAUR    0.580 -1.000 P
AVAUS    0.290  1.000 P
# 2005 11 22 11 08 4.36  59.3600 -153.4307 -0.78 0.20 0.30 0.20 0.07   61142713
AVAUH    0.450 -1.000 P
AVAUP    0.160  1.000 P
AVAUR    0.270  1.000 P
AVAUS    0.130  1.000 P
# 2005 11 22 11 09 17.01  59.3608 -153.4280 -0.60 0.10 0.18 0.08 0.02   61142718
AVAUE    1.090  1.000 P
AVAUH    0.450  1.000 P
AVAUL    1.690  1.000 S
AVAUL    0.940  1.000 P
AVAUP    0.280  1.000 P
AVAUR    0.300  1.000 P
AVAUS    0.330  1.000 P
AVAUW    1.000  1.000 P
# 2005 11 22 11 21 9.45  59.3600 -153.4263 -0.83 0.00 0.27 0.46 0.02   61142723
AVAUH    0.530 -1.000 P
AVAUP    0.150 -1.000 P
AVAUR    0.260  1.000 P
AVAUS    0.230 -1.000 P
# 2005 11 22 11 34 56.69  59.3567 -153.4277 -0.99 0.20 0.25 0.20 0.05   61142733
AVAUH    0.600  1.000 P
AVAUL    2.110 -1.000 S
AVAUP    0.300  1.000 P
AVAUR    0.230  1.000 P
AVAUS    0.270  1.000 P
AVAUW    1.190 -1.000 P
# 2005 11 22 20 51 46.13  59.3543 -153.4300 -1.17 -0.20 0.42 1.23 0.13   61142863
AVAUH    0.670 -1.000 P
AVAUP    0.440 -1.000 P
AVAUR    0.310  1.000 P
AVAUS    0.160  1.000 P
# 2005 11 22 22 17 20.18  59.3603 -153.4310 -1.04 -0.40 0.20 0.15 0.11   61142883
AVAUH    0.570  1.000 P
AVAUL    1.690  1.000 S
AVAUL    0.860  1.000 P
AVAUP    0.220  1.000 P
AVAUR    0.040  1.000 P
AVAUS    0.010 -1.000 P
# 2005 11 23 03 08 6.44  59.3628 -153.4243 -1.17 -0.40 0.43 0.70 0.14   61142953
AVAUH    0.610  1.000 P
AVAUP    0.120 -1.000 P
AVAUR    0.050 -1.000 P
AVAUS    0.190  1.000 P
# 2005 11 23 07 11 27.28  59.3593 -153.4330 -0.57 -0.10 0.33 0.14 0.03   61143068
AVAUH    0.410  1.000 P
AVAUL    1.740 -1.000 S
AVAUP    0.300  1.000 P
AVAUR    0.340  1.000 P
AVAUS    0.250  1.000 P
# 2005 11 23 07 12 36.97  59.3597 -153.4317 -0.72 0.20 0.14 0.08 0.05   61143073
AVAUH    0.440  1.000 P
AVAUI    1.910 -1.000 S
AVAUL    1.790 -1.000 S
AVAUL    0.920  1.000 P
AVAUP    0.370  1.000 P
AVAUR    0.280  1.000 P
AVAUS    0.270  1.000 P
AVAUW    0.980  1.000 P
# 2005 11 23 09 30 23.39  59.3575 -153.4145 -1.18 -0.40 0.44 1.25 0.07   61143113
AVAUH    0.760  1.000 P
AVAUP    0.340  1.000 P
AVAUR    0.310  1.000 P
AVAUS    0.520  1.000 P
# 2005 11 23 12 24 24.19  59.3535 -153.4193 -1.17 0.10 1.01 4.00 0.28   61143153
AVAUH    0.750 -1.000 P
AVAUP    0.380  1.000 P
AVAUR    0.280  1.000 P
AVAUS    0.190  1.000 P
# 2005 11 23 14 32 22.22  59.3592 -153.4295 -0.75 0.00 0.17 0.07 0.05   61143193
AVAUE    1.170  1.000 P
AVAUH    0.470  1.000 P
AVAUI    1.910 -1.000 S
AVAUI    1.030  1.000 P
AVAUL    1.870  1.000 S
AVAUL    1.030  1.000 P
AVAUP    0.280 -1.000 P
AVAUR    0.260  1.000 P
AVAUS    0.280  1.000 P
AVAUW    1.040  1.000 P
# 2005 11 23 14 33 58.92  59.3613 -153.4273 -1.10 -0.20 0.26 0.57 0.01   61143198
AVAUH    0.470 -1.000 P
AVAUP    0.110  1.000 P
AVAUR    0.160  1.000 P
AVAUS    0.180 -1.000 P
# 2005 11 23 19 57 19.47  59.3600 -153.4292 -0.54 0.40 0.16 0.09 0.10   61143318
AVAUH    0.480  1.000 P
AVAUI    1.810 -1.000 S
AVAUI    1.000  1.000 P
AVAUL    1.500 -1.000 S
AVAUL    1.160  1.000 P
AVAUP    0.370  1.000 P
AVAUR    0.300  1.000 P
AVAUS    0.300  1.000 P
AVAUW    1.080  1.000 P
# 2005 11 24 06 17 21.20  59.3547 -153.4293 -1.17 -0.40 0.29 0.84 0.05   61143498
AVAUH    0.650 -1.000 P
AVAUP    0.390 -1.000 P
AVAUR    0.310  1.000 P
AVAUS    0.250  1.000 P
# 2005 11 24 11 26 0.61  59.3580 -153.4245 -0.18 0.20 0.60 0.34 0.04   61143583
AVAUH    0.870  1.000 P
AVAUP    0.440  1.000 P
AVAUR    0.540  1.000 P
AVAUS    0.420  1.000 P
# 2005 11 24 22 43 28.77  59.3580 -153.4323 -0.76 0.20 0.27 0.13 0.06   61143778
AVAUH    0.420  1.000 P
AVAUP    0.370  1.000 P
AVAUR    0.320  1.000 P
AVAUS    0.250  1.000 P
AVAUW    1.030 -1.000 P
# 2005 11 25 08 01 35.90  59.3628 -153.4325 -0.82 -0.10 0.24 0.17 0.05   61143868
AVAUH    0.380  1.000 P
AVAUL    1.530 -1.000 S
AVAUP    0.320  1.000 P
AVAUR    0.120  1.000 P
AVAUS    0.210 -1.000 P
AVAUW    0.950  1.000 P
# 2005 11 25 08 23 28.56  59.3588 -153.4363  0.29 -0.10 0.26 0.28 0.04   61143878
AVAUH    0.450  1.000 P
AVAUL    1.490 -1.000 S
AVAUP    0.590 -1.000 P
AVAUS    0.640  1.000 P
AVAUW    0.790 -1.000 P
# 2005 11 25 09 54 7.05  59.3602 -153.4307 -0.44 0.10 0.14 0.09 0.08   61143898
AVAUH    0.510  1.000 P
AVAUI    1.780 -1.000 S
AVAUI    0.960  1.000 P
AVAUL    1.710  1.000 S
AVAUL    1.520  1.000 S
AVAUL    0.780  1.000 P
AVAUP    0.400  1.000 P
AVAUR    0.380  1.000 P
AVAUS    0.390  1.000 P
AVAUW    1.080  1.000 P
# 2005 11 25 11 20 24.95  59.3602 -153.4330 -0.67 0.00 0.39 0.16 0.06   61143923
AVAUH    0.430 -1.000 P
AVAUP    0.250  1.000 P
AVAUR    0.220  1.000 P
AVAUS    0.260 -1.000 P
AVAUW    0.900 -1.000 P
# 2005 11 25 12 39 21.02  59.3603 -153.4342 -0.73 -0.10 0.34 0.21 0.02   61143958
AVAUH    0.320 -1.000 P
AVAUP    0.290  1.000 P
AVAUR    0.240  1.000 P
AVAUS    0.230 -1.000 P
# 2005 11 25 13 16 37.97  59.3523 -153.4257 -0.20 -0.10 0.30 0.13 0.05   61143968
AVAUH    0.700  1.000 P
AVAUL    2.040 -1.000 S
AVAUL    0.980  1.000 P
AVAUP    0.610  1.000 P
AVAUS    0.640  1.000 P
AVAUW    1.060  1.000 P
# 2005 11 25 13 31 56.92  59.3590 -153.4297 -0.53 0.20 0.15 0.07 0.05   61143988
AVAUE    1.280  1.000 P
AVAUH    0.490  1.000 P
AVAUI    1.750 -1.000 S
AVAUI    0.920  1.000 P
AVAUL    1.710 -1.000 S
AVAUL    0.950  1.000 P
AVAUP    0.360  1.000 P
AVAUR    0.350  1.000 P
AVAUS    0.360  1.000 P
AVAUW    0.990  1.000 P
# 2005 11 25 13 49 8.19  59.3627 -153.4307 -0.72 0.40 0.47 0.51 0.02   61143998
AVAUH    0.380  1.000 P
AVAUL    1.510 -1.000 S
AVAUP    0.260  1.000 P
AVAUR    0.240 -1.000 P
AVAUS    0.250  1.000 P
# 2005 11 25 13 50 47.66  59.3612 -153.4320 -0.63 0.40 0.21 0.10 0.05   61144003
AVAUH    0.470  1.000 P
AVAUL    1.610 -1.000 S
AVAUP    0.280  1.000 P
AVAUR    0.250  1.000 P
AVAUS    0.290  1.000 P
AVAUW    0.910 -1.000 P
# 2005 11 25 14 05 9.19  59.3612 -153.4292 -0.55 0.00 0.59 0.42 0.07   61144028
AVAUH    0.510  1.000 P
AVAUL    1.520 -1.000 S
AVAUP    0.320 -1.000 P
AVAUR    0.390  1.000 P
AVAUS    0.220  1.000 P
# 2005 11 25 14 05 53.16  59.3612 -153.4308 -0.58 0.10 0.23 0.13 0.05   61144033
AVAUH    0.420  1.000 P
AVAUL    1.550 -1.000 S
AVAUP    0.320  1.000 P
AVAUR    0.300  1.000 P
AVAUS    0.190  1.000 P
AVAUW    1.010  1.000 P
# 2005 11 25 14 10 37.27  59.3598 -153.4253 -0.52 -0.10 0.67 0.18 0.04   61144043
AVAUH    0.600  1.000 P
AVAUL    1.670 -1.000 S
AVAUP    0.320 -1.000 P
AVAUR    0.360 -1.000 P
AVAUS    0.300 -1.000 P
AVAUW    1.070  1.000 P
# 2005 11 25 15 01 51.76  59.3610 -153.4318 -0.58 -0.10 0.35 0.24 0.08   61144073
AVAUH    0.480  1.000 P
AVAUL    1.580 -1.000 S
AVAUL    0.790  1.000 P
AVAUP    0.340  1.000 P
AVAUR    0.310  1.000 P
AVAUS    0.270  1.000 P
AVAUW    0.930 -1.000 P
# 2005 11 25 15 04 20.95  59.3615 -153.4345 -0.62 0.50 0.24 0.15 0.06   61144083
AVAUE    1.270  1.000 P
AVAUH    0.410  1.000 P
AVAUL    1.630 -1.000 S
AVAUL    0.800  1.000 P
AVAUP    0.260  1.000 P
AVAUR    0.260  1.000 P
AVAUS    0.220  1.000 P
AVAUW    0.880 -1.000 P
# 2005 11 25 15 32 48.34  59.3597 -153.4270 -0.71 0.30 0.18 0.09 0.05   61144123
AVAUE    1.180  1.000 P
AVAUH    0.560  1.000 P
AVAUI    1.910 -1.000 S
AVAUL    1.390  1.000 S
AVAUL    0.970  1.000 P
AVAUP    0.190  1.000 P
AVAUR    0.210  1.000 P
AVAUS    0.300  1.000 P
AVAUW    1.070  1.000 P
# 2005 11 25 15 56 26.54  59.3602 -153.4293 -0.58 0.10 0.41 0.17 0.09   61144138
AVAUH    0.470  1.000 P
AVAUL    1.610 -1.000 S
AVAUP    0.320  1.000 P
AVAUR    0.480  1.000 P
AVAUS    0.300  1.000 P
AVAUW    0.970 -1.000 P
# 2005 11 25 16 03 31.00  59.3588 -153.4293 -0.54 0.10 0.13 0.07 0.05   61144143
AVAUE    1.250  1.000 P
AVAUH    0.490  1.000 P
AVAUI    1.740 -1.000 S
AVAUI    0.970  1.000 P
AVAUL    1.700 -1.000 S
AVAUL    0.910  1.000 P
AVAUP    0.350  1.000 P
AVAUR    0.330  1.000 P
AVAUS    0.360  1.000 P
AVAUW    1.040  1.000 P
# 2005 11 25 16 16 34.50  59.3585 -153.4283 -0.63 -0.50 0.38 0.11 0.06   61144158
AVAUH    0.550  1.000 P
AVAUP    0.320  1.000 P
AVAUR    0.410  1.000 P
AVAUS    0.320  1.000 P
AVAUW    0.950 -1.000 P
# 2005 11 25 16 27 59.44  59.3612 -153.4298 -1.14 -0.30 0.18 0.49 0.02   61144178
AVAUH    0.400 -1.000 P
AVAUP    0.170  1.000 P
AVAUR    0.100 -1.000 P
AVAUS    0.120  1.000 P
