<?xml version='1.0' encoding='utf-8'?>
<q:quakeml xmlns="http://quakeml.org/xmlns/bed/1.2" xmlns:q="http://quakeml.org/xmlns/quakeml/1.2">
  <eventParameters publicID="smi:local/d9e5d8fa-62ec-4ade-82d7-5700820f2db0">
    <event publicID="smi:local/event/61005348">
      <preferredOriginID>smi:local/origin/61005348</preferredOriginID>
      <preferredMagnitudeID>smi:local/magnitude/61005348</preferredMagnitudeID>
      <origin publicID="smi:local/origin/61005348">
        <time>
          <value>2005-04-14T16:56:45.390000Z</value>
        </time>
        <latitude>
          <value>59.488</value>
        </latitude>
        <longitude>
          <value>-153.1658</value>
        </longitude>
        <depth>
          <value>16190.000000000002</value>
        </depth>
        <quality>
          <standardError>0.12</standardError>
        </quality>
        <arrival publicID="smi:local/16ab7a64-7e5c-4684-9108-4d1d1eac4bee">
          <pickID>smi:local/e09f38bb-d2c8-4d8e-80c6-d41bb8fd92b0</pickID>
          <phase>P</phase>
          <timeWeight>1.0</timeWeight>
        </arrival>
        <arrival publicID="smi:local/24eb37d4-21e1-40e3-b071-796fbb9cbda3">
          <pickID>smi:local/efe92b28-e83a-445a-afcc-dfe2116cf3ed</pickID>
          <phase>P</phase>
          <timeWeight>1.0</timeWeight>
        </arrival>
        <arrival publicID="smi:local/678011db-b18a-4fea-b468-a686812c666a">
          <pickID>smi:local/fceec076-f575-4d36-8087-69af785f7e57</pickID>
          <phase>P</phase>
          <timeWeight>1.0</timeWeight>
        </arrival>
        <arrival publicID="smi:local/3df18236-75c3-4fa6-8277-6b08ca6ec365">
          <pickID>smi:local/fecd8c15-0e55-42b8-a0bb-04fdba317414</pickID>
          <phase>S</phase>
          <timeWeight>1.0</timeWeight>
        </arrival>
        <arrival publicID="smi:local/eb15ca9a-1445-4f42-ba20-6fcd712bcdea">
          <pickID>smi:local/a291f1ba-360f-4db1-a223-b91bb72b6a0e</pickID>
          <phase>P</phase>
          <timeWeight>1.0</timeWeight>
        </arrival>
        <arrival publicID="smi:local/516a0201-a9f9-474b-9839-8a9a20d21515">
          <pickID>smi:local/4a5265f7-70c9-4f4a-b866-5b1ba9d4e6c4</pickID>
          <phase>S</phase>
          <timeWeight>-1.0</timeWeight>
        </arrival>
        <arrival publicID="smi:local/287c3bdf-a23e-400f-871e-ba40f390b9ae">
          <pickID>smi:local/c5405bea-836e-4b2b-b421-84661b2e4377</pickID>
          <phase>P</phase>
          <timeWeight>1.0</timeWeight>
        </arrival>
        <arrival publicID="smi:local/a6d2d00b-2921-4bd9-bdca-9f28f37fc68c">
          <pickID>smi:local/9378cab3-39c5-4962-8a33-b591f0c0fc4d</pickID>
          <phase>P</phase>
          <timeWeight>1.0</timeWeight>
        </arrival>
        <arrival publicID="smi:local/a2576c21-6886-47e6-8a9b-06d51ee84ac7">
          <pickID>smi:local/60b54ff4-8d6f-4814-ae38-bf16ae10737f</pickID>
          <phase>P</phase>
          <timeWeight>1.0</timeWeight>
        </arrival>
        <arrival publicID="smi:local/e46dd688-11b1-44df-96c7-b8c14ec88615">
          <pickID>smi:local/1ca3278d-ee21-47f2-8562-dcc24a84a6f6</pickID>
          <phase>P</phase>
          <timeWeight>1.0</timeWeight>
        </arrival>
        <arrival publicID="smi:local/558acfe1-f393-4696-91af-8caf5fd4fd92">
          <pickID>smi:local/87d7643c-03c1-4ac2-a2c3-607deec208ba</pickID>
          <phase>P</phase>
          <timeWeight>1.0</timeWeight>
        </arrival>
        <arrival publicID="smi:local/ae12d039-16e1-4b94-9226-1b0411a47385">
          <pickID>smi:local/e4ed0875-1987-4e92-b231-fec78c1c7f34</pickID>
          <phase>P</phase>
          <timeWeight>1.0</timeWeight>
        </arrival>
        <arrival publicID="smi:local/dcc6f3fe-143a-495e-b1a8-568be30d0ebb">
          <pickID>smi:local/0c277bdb-aec0-4ce3-a342-7b082cdc545b</pickID>
          <phase>P</phase>
          <timeWeight>1.0</timeWeight>
        </arrival>
        <arrival publicID="smi:local/911db368-46e6-4d29-9261-c00a58be9e7d">
          <pickID>smi:local/e1d6cceb-59f2-4157-96f3-931cc0b54d85</pickID>
          <phase>P</phase>
          <timeWeight>1.0</timeWeight>
        </arrival>
        <arrival publicID="smi:local/01945407-0c2c-4926-8335-b2fe181d4b5f">
          <pickID>smi:local/51e7d811-e06c-44a5-8276-64f1d0468233</pickID>
          <phase>P</phase>
          <timeWeight>1.0</timeWeight>
        </arrival>
        <arrival publicID="smi:local/c3049f78-8395-48bc-968a-a28a42d35bbc">
          <pickID>smi:local/032886e6-3a9a-448c-bd18-cfdbf95bb757</pickID>
          <phase>P</phase>
          <timeWeight>0.2</timeWeight>
        </arrival>
        <arrival publicID="smi:local/cd61bb8c-dcba-4800-88cf-70aa69f8799c">
          <pickID>smi:local/a4d560ff-6eea-4357-a2e7-180044879cfc</pickID>
          <phase>P</phase>
          <timeWeight>1.0</timeWeight>
        </arrival>
        <arrival publicID="smi:local/45dda138-2d3b-43bb-a135-1facdd6e41f4">
          <pickID>smi:local/ae0eb855-7ec7-4dbf-b4ae-988da58fcfb2</pickID>
          <phase>P</phase>
          <timeWeight>1.0</timeWeight>
        </arrival>
      </origin>
      <magnitude publicID="smi:local/magnitude/61005348">
        <mag>
          <value>1.0</value>
        </mag>
      </magnitude>
      <pick publicID="smi:local/e09f38bb-d2c8-4d8e-80c6-d41bb8fd92b0">
        <time>
          <value>2005-04-14T16:57:02.830000Z</value>
        </time>
        <waveformID networkCode="AK" stationCode="CNP" locationCode="" channelCode="EHZ"></waveformID>
        <phaseHint>P</phaseHint>
      </pick>
      <pick publicID="smi:local/efe92b28-e83a-445a-afcc-dfe2116cf3ed">
        <time>
          <value>2005-04-14T16:56:49.140000Z</value>
        </time>
        <waveformID networkCode="AV" stationCode="AUE" locationCode="" channelCode="EHZ"></waveformID>
        <phaseHint>P</phaseHint>
      </pick>
      <pick publicID="smi:local/fceec076-f575-4d36-8087-69af785f7e57">
        <time>
          <value>2005-04-14T16:56:49.810000Z</value>
        </time>
        <waveformID networkCode="AV" stationCode="AUH" locationCode="" channelCode="EHZ"></waveformID>
        <phaseHint>P</phaseHint>
      </pick>
      <pick publicID="smi:local/fecd8c15-0e55-42b8-a0bb-04fdba317414">
        <time>
          <value>2005-04-14T16:56:53.360000Z</value>
        </time>
        <waveformID networkCode="AV" stationCode="AUI" locationCode="" channelCode="EHN"></waveformID>
        <phaseHint>S</phaseHint>
      </pick>
      <pick publicID="smi:local/a291f1ba-360f-4db1-a223-b91bb72b6a0e">
        <time>
          <value>2005-04-14T16:56:49.840000Z</value>
        </time>
        <waveformID networkCode="AV" stationCode="AUI" locationCode="" channelCode="EHZ"></waveformID>
        <phaseHint>P</phaseHint>
      </pick>
      <pick publicID="smi:local/4a5265f7-70c9-4f4a-b866-5b1ba9d4e6c4">
        <time>
          <value>2005-04-14T16:56:52.790000Z</value>
        </time>
        <waveformID networkCode="AV" stationCode="AUL" locationCode="" channelCode="BHE"></waveformID>
        <phaseHint>S</phaseHint>
      </pick>
      <pick publicID="smi:local/c5405bea-836e-4b2b-b421-84661b2e4377">
        <time>
          <value>2005-04-14T16:56:49.450000Z</value>
        </time>
        <waveformID networkCode="AV" stationCode="AUL" locationCode="" channelCode="BHZ"></waveformID>
        <phaseHint>P</phaseHint>
      </pick>
      <pick publicID="smi:local/9378cab3-39c5-4962-8a33-b591f0c0fc4d">
        <time>
          <value>2005-04-14T16:56:49.770000Z</value>
        </time>
        <waveformID networkCode="AV" stationCode="AUS" locationCode="" channelCode="EHZ"></waveformID>
        <phaseHint>P</phaseHint>
      </pick>
      <pick publicID="smi:local/60b54ff4-8d6f-4814-ae38-bf16ae10737f">
        <time>
          <value>2005-04-14T16:56:49.850000Z</value>
        </time>
        <waveformID networkCode="AV" stationCode="AUW" locationCode="" channelCode="EHZ"></waveformID>
        <phaseHint>P</phaseHint>
      </pick>
      <pick publicID="smi:local/1ca3278d-ee21-47f2-8562-dcc24a84a6f6">
        <time>
          <value>2005-04-14T16:56:56.500000Z</value>
        </time>
        <waveformID networkCode="AV" stationCode="ILI" locationCode="" channelCode="EHZ"></waveformID>
        <phaseHint>P</phaseHint>
      </pick>
      <pick publicID="smi:local/87d7643c-03c1-4ac2-a2c3-607deec208ba">
        <time>
          <value>2005-04-14T16:56:54.380000Z</value>
        </time>
        <waveformID networkCode="AV" stationCode="ILS" locationCode="" channelCode="EHZ"></waveformID>
        <phaseHint>P</phaseHint>
      </pick>
      <pick publicID="smi:local/e4ed0875-1987-4e92-b231-fec78c1c7f34">
        <time>
          <value>2005-04-14T16:56:55.920000Z</value>
        </time>
        <waveformID networkCode="AV" stationCode="ILW" locationCode="" channelCode="EHZ"></waveformID>
        <phaseHint>P</phaseHint>
      </pick>
      <pick publicID="smi:local/0c277bdb-aec0-4ce3-a342-7b082cdc545b">
        <time>
          <value>2005-04-14T16:56:56.010000Z</value>
        </time>
        <waveformID networkCode="AV" stationCode="INE" locationCode="" channelCode="EHZ"></waveformID>
        <phaseHint>P</phaseHint>
      </pick>
      <pick publicID="smi:local/e1d6cceb-59f2-4157-96f3-931cc0b54d85">
        <time>
          <value>2005-04-14T16:56:55.480000Z</value>
        </time>
        <waveformID networkCode="AV" stationCode="IVE" locationCode="" channelCode="EHZ"></waveformID>
        <phaseHint>P</phaseHint>
      </pick>
      <pick publicID="smi:local/51e7d811-e06c-44a5-8276-64f1d0468233">
        <time>
          <value>2005-04-14T16:56:55.310000Z</value>
        </time>
        <waveformID networkCode="AV" stationCode="IVS" locationCode="" channelCode="EHZ"></waveformID>
        <phaseHint>P</phaseHint>
      </pick>
      <pick publicID="smi:local/032886e6-3a9a-448c-bd18-cfdbf95bb757">
        <time>
          <value>2005-04-14T16:57:04.610000Z</value>
        </time>
        <waveformID networkCode="AV" stationCode="NCT" locationCode="" channelCode="EHZ"></waveformID>
        <phaseHint>P</phaseHint>
      </pick>
      <pick publicID="smi:local/a4d560ff-6eea-4357-a2e7-180044879cfc">
        <time>
          <value>2005-04-14T16:56:49.210000Z</value>
        </time>
        <waveformID networkCode="AV" stationCode="OPT" locationCode="" channelCode="EHZ"></waveformID>
        <phaseHint>P</phaseHint>
      </pick>
      <pick publicID="smi:local/ae0eb855-7ec7-4dbf-b4ae-988da58fcfb2">
        <time>
          <value>2005-04-14T16:57:01.750000Z</value>
        </time>
        <waveformID networkCode="AV" stationCode="RSO" locationCode="" channelCode="EHZ"></waveformID>
        <phaseHint>P</phaseHint>
      </pick>
    </event>
    <event publicID="smi:local/event/61026233">
      <preferredOriginID>smi:local/origin/61026233</preferredOriginID>
      <preferredMagnitudeID>smi:local/magnitude/61026233</preferredMagnitudeID>
      <origin publicID="smi:local/origin/61026233">
        <time>
          <value>2005-05-04T04:58:40.190000Z</value>
        </time>
        <latitude>
          <value>59.4223</value>
        </latitude>
        <longitude>
          <value>-153.2093</value>
        </longitude>
        <depth>
          <value>11420.0</value>
        </depth>
        <quality>
          <standardError>0.26</standardError>
        </quality>
        <arrival publicID="smi:local/7b5c06a7-d830-46dd-b13d-f66a7c62dc73">
          <pickID>smi:local/416d6ee8-0abd-4c77-a49f-01ba2e3ce5a0</pickID>
          <phase>P</phase>
          <timeWeight>1.0</timeWeight>
        </arrival>
        <arrival publicID="smi:local/a76e5759-0001-4478-8206-f32a2dcf773d">
          <pickID>smi:local/9176b18d-462a-440d-b3c7-bb32f4b9b76c</pickID>
          <phase>P</phase>
          <timeWeight>-1.0</timeWeight>
        </arrival>
        <arrival publicID="smi:local/26a88f2c-6e5d-4080-83b1-f13937382777">
          <pickID>smi:local/7eceaa0e-4d57-403f-a271-7911825abff8</pickID>
          <phase>P</phase>
          <timeWeight>1.0</timeWeight>
        </arrival>
        <arrival publicID="smi:local/db87a176-5fe6-4a32-a499-c06c06b19e41">
          <pickID>smi:local/f7c2b84c-6a1a-4c36-bac0-f0ae983742b6</pickID>
          <phase>S</phase>
          <timeWeight>1.0</timeWeight>
        </arrival>
        <arrival publicID="smi:local/ca57a422-1728-4f90-ae1c-681085db4a9c">
          <pickID>smi:local/a6ddf73b-4854-495f-8c6c-eb13d56c941d</pickID>
          <phase>S</phase>
          <timeWeight>1.0</timeWeight>
        </arrival>
        <arrival publicID="smi:local/86f6d16e-2998-4baf-912d-6e948c20434f">
          <pickID>smi:local/58c6c5ee-0204-437f-97f5-cab02e1f9b7c</pickID>
          <phase>P</phase>
          <timeWeight>1.0</timeWeight>
        </arrival>
        <arrival publicID="smi:local/7c4af142-41c5-4615-b69e-769437ff232e">
          <pickID>smi:local/bf4f4783-a7ba-4680-a030-ed4826f5127b</pickID>
          <phase>S</phase>
          <timeWeight>1.0</timeWeight>
        </arrival>
        <arrival publicID="smi:local/4f5c0439-4f1d-4aad-887e-5878e60e9e3e">
          <pickID>smi:local/59d92c46-39d1-45d2-abb8-ee3e46bbb079</pickID>
          <phase>S</phase>
          <timeWeight>1.0</timeWeight>
        </arrival>
        <arrival publicID="smi:local/e494b3b6-6484-43d0-92a9-df804fb43d25">
          <pickID>smi:local/63202127-bd11-4ea4-9aa3-c3819472cbca</pickID>
          <phase>P</phase>
          <timeWeight>1.0</timeWeight>
        </arrival>
        <arrival publicID="smi:local/740341a1-48dd-477b-8432-f25dd3e513bb">
          <pickID>smi:local/3ccefe94-d3fd-499c-92b3-5020bb35f8a5</pickID>
          <phase>P</phase>
          <timeWeight>1.0</timeWeight>
        </arrival>
        <arrival publicID="smi:local/609d7253-ff4e-423b-80fb-7223623c01d9">
          <pickID>smi:local/12711d29-72df-4045-9e8a-138d58055dfe</pickID>
          <phase>P</phase>
          <timeWeight>1.0</timeWeight>
        </arrival>
        <arrival publicID="smi:local/d2cbef7d-a980-4e04-ab92-927090377f62">
          <pickID>smi:local/6782605d-6f89-4486-83de-be86d8a52bad</pickID>
          <phase>P</phase>
          <timeWeight>1.0</timeWeight>
        </arrival>
        <arrival publicID="smi:local/61fc512e-bd39-4509-bcc7-1cc169ce2a03">
          <pickID>smi:local/beb53787-fbd1-4789-89c5-0f3d986e11c1</pickID>
          <phase>P</phase>
          <timeWeight>1.0</timeWeight>
        </arrival>
        <arrival publicID="smi:local/d4dcf455-c104-401e-8565-15bc0d72f0ca">
          <pickID>smi:local/c94ef4f2-1a95-4ef2-b951-67c62d62008d</pickID>
          <phase>P</phase>
          <timeWeight>1.0</timeWeight>
        </arrival>
        <arrival publicID="smi:local/af03212b-93d2-45a4-81fe-72909a6c4343">
          <pickID>smi:local/482abe31-9d46-4c2c-af55-ba0ef79d2138</pickID>
          <phase>P</phase>
          <timeWeight>1.0</timeWeight>
        </arrival>
        <arrival publicID="smi:local/3b6f10f8-2c19-4256-8947-4664b13d8afe">
          <pickID>smi:local/17930b4d-2119-4841-8653-c7a51fd30520</pickID>
          <phase>P</phase>
          <timeWeight>1.0</timeWeight>
        </arrival>
        <arrival publicID="smi:local/59e0b1af-1456-4e49-9467-be8ede33fc08">
          <pickID>smi:local/5f64327f-6ee1-4428-b7a8-836672785ddd</pickID>
          <phase>P</phase>
          <timeWeight>1.0</timeWeight>
        </arrival>
        <arrival publicID="smi:local/1337cc77-b59f-40c8-a1f2-c8543dc7ebf7">
          <pickID>smi:local/ee5a2f57-2f62-4ee0-b922-ca21c4828e3f</pickID>
          <phase>P</phase>
          <timeWeight>1.0</timeWeight>
        </arrival>
        <arrival publicID="smi:local/f2722dc9-17aa-451c-8ae8-8509fb311162">
          <pickID>smi:local/798a1cc6-d78c-428f-8983-8d05a2a17c68</pickID>
          <phase>P</phase>
          <timeWeight>1.0</timeWeight>
        </arrival>
        <arrival publicID="smi:local/bb22c927-82ca-4692-bff6-44d8cf2ea899">
          <pickID>smi:local/bdae809f-0206-4b04-8270-ce1acb877fdb</pickID>
          <phase>P</phase>
          <timeWeight>1.0</timeWeight>
        </arrival>
        <arrival publicID="smi:local/d94ca361-650e-474f-8bc9-5bd95f4a45f8">
          <pickID>smi:local/559f7941-cc25-4d7f-bb22-3d7fd5886dab</pickID>
          <phase>P</phase>
          <timeWeight>1.0</timeWeight>
        </arrival>
        <arrival publicID="smi:local/3042573a-fea5-467d-9347-ce7dbb235e44">
          <pickID>smi:local/7c79e540-1c2c-4010-9e1d-5efbac439015</pickID>
          <phase>P</phase>
          <timeWeight>1.0</timeWeight>
        </arrival>
      </origin>
      <magnitude publicID="smi:local/magnitude/61026233">
        <mag>
          <value>1.5</value>
        </mag>
      </magnitude>
      <pick publicID="smi:local/416d6ee8-0abd-4c77-a49f-01ba2e3ce5a0">
        <time>
          <value>2005-05-04T04:58:58.750000Z</value>
        </time>
        <waveformID networkCode="AK" stationCode="CNP" locationCode="" channelCode="EHZ"></waveformID>
        <phaseHint>P</phaseHint>
      </pick>
      <pick publicID="smi:local/9176b18d-462a-440d-b3c7-bb32f4b9b76c">
        <time>
          <value>2005-05-04T04:58:43.540000Z</value>
        </time>
        <waveformID networkCode="AV" stationCode="AUE" locationCode="" channelCode="EHZ"></waveformID>
        <phaseHint>P</phaseHint>
      </pick>
      <pick publicID="smi:local/7eceaa0e-4d57-403f-a271-7911825abff8">
        <time>
          <value>2005-05-04T04:58:44.210000Z</value>
        </time>
        <waveformID networkCode="AV" stationCode="AUH" locationCode="" channelCode="EHZ"></waveformID>
        <phaseHint>P</phaseHint>
      </pick>
      <pick publicID="smi:local/f7c2b84c-6a1a-4c36-bac0-f0ae983742b6">
        <time>
          <value>2005-05-04T04:58:46.780000Z</value>
        </time>
        <waveformID networkCode="AV" stationCode="AUI" locationCode="" channelCode="EHE"></waveformID>
        <phaseHint>S</phaseHint>
      </pick>
      <pick publicID="smi:local/a6ddf73b-4854-495f-8c6c-eb13d56c941d">
        <time>
          <value>2005-05-04T04:58:46.630000Z</value>
        </time>
        <waveformID networkCode="AV" stationCode="AUI" locationCode="" channelCode="EHN"></waveformID>
        <phaseHint>S</phaseHint>
      </pick>
      <pick publicID="smi:local/58c6c5ee-0204-437f-97f5-cab02e1f9b7c">
        <time>
          <value>2005-05-04T04:58:44.100000Z</value>
        </time>
        <waveformID networkCode="AV" stationCode="AUI" locationCode="" channelCode="EHZ"></waveformID>
        <phaseHint>P</phaseHint>
      </pick>
      <pick publicID="smi:local/bf4f4783-a7ba-4680-a030-ed4826f5127b">
        <time>
          <value>2005-05-04T04:58:46.570000Z</value>
        </time>
        <waveformID networkCode="AV" stationCode="AUL" locationCode="" channelCode="BHE"></waveformID>
        <phaseHint>S</phaseHint>
      </pick>
      <pick publicID="smi:local/59d92c46-39d1-45d2-abb8-ee3e46bbb079">
        <time>
          <value>2005-05-04T04:58:46.630000Z</value>
        </time>
        <waveformID networkCode="AV" stationCode="AUL" locationCode="" channelCode="BHN"></waveformID>
        <phaseHint>S</phaseHint>
      </pick>
      <pick publicID="smi:local/63202127-bd11-4ea4-9aa3-c3819472cbca">
        <time>
          <value>2005-05-04T04:58:43.980000Z</value>
        </time>
        <waveformID networkCode="AV" stationCode="AUL" locationCode="" channelCode="BHZ"></waveformID>
        <phaseHint>P</phaseHint>
      </pick>
      <pick publicID="smi:local/3ccefe94-d3fd-499c-92b3-5020bb35f8a5">
        <time>
          <value>2005-05-04T04:58:44.000000Z</value>
        </time>
        <waveformID networkCode="AV" stationCode="AUL" locationCode="" channelCode="EHZ"></waveformID>
        <phaseHint>P</phaseHint>
      </pick>
      <pick publicID="smi:local/12711d29-72df-4045-9e8a-138d58055dfe">
        <time>
          <value>2005-05-04T04:58:44.040000Z</value>
        </time>
