# 2005 10 18 01 28 53.90  59.3580 -153.4278 -0.18 -0.50 0.22 0.11 0.07   61134898
AVAUE    1.040 -1.000 P
AVAUH    0.600  1.000 P
AVAUI    1.050  1.000 S
AVAUI    0.840 -1.000 P
AVAUL    1.600 -1.000 S
AVAUP    0.540  1.000 P
AVAUS    0.570  1.000 P
AVAUW    0.910  1.000 P
# 2005 10 18 04 04 32.31  59.3527 -153.4193 -0.09 0.20 0.74 1.31 0.11   61134928
AVAUH    0.610 -1.000 P
AVAUP    0.790 -1.000 P
AVAUR    0.720  1.000 P
AVAUS    0.630 -1.000 P
# 2005 10 18 09 47 13.78  59.3577 -153.4270 -0.72 0.50 0.63 0.16 0.05   61134983
AVAUH    0.770  1.000 P
AVAUP    0.300 -1.000 P
AVAUR    0.320  1.000 P
AVAUS    0.300 -1.000 P
AVAUW    1.020 -1.000 P
# 2005 10 18 11 08 30.75  59.3592 -153.4338 -0.21 -0.30 0.26 0.13 0.09   61134993
AVAUH    0.430  1.000 P
AVAUI    1.560 -1.000 S
AVAUI    0.870  1.000 P
AVAUP    0.530  1.000 P
AVAUR    0.860  1.000 P
AVAUS    0.610  1.000 P
AVAUW    0.920 -1.000 P
# 2005 10 18 21 59 50.32  59.3600 -153.4308 -0.44 0.30 0.44 0.20 0.07   61135083
AVAUH    0.480  1.000 P
AVAUP    0.410  1.000 P
AVAUR    0.300  1.000 P
AVAUS    0.280 -1.000 P
AVAUW    0.960 -1.000 P
# 2005 10 19 03 23 21.28  59.3560 -153.4255 -0.73 -0.20 0.25 0.11 0.08   61135138
AVAUE    1.240 -1.000 P
AVAUH    0.700  1.000 P
AVAUL    1.970 -1.000 S
AVAUL    1.430  1.000 P
AVAUP    0.330  1.000 P
AVAUR    0.300  1.000 P
AVAUS    0.360  1.000 P
AVAUW    1.060  1.000 P
# 2005 10 19 07 01 56.74  59.3637 -153.4345 -0.64 -0.90 0.34 0.41 0.06   61135203
AVAUH    0.260 -1.000 P
AVAUL    1.340 -1.000 S
AVAUL    0.880  1.000 P
AVAUP    0.260  1.000 P
AVAUS    0.370  1.000 P
AVAUW    0.880 -1.000 P
# 2005 10 21 17 11 52.59  59.3595 -153.4300 -0.91 0.00 0.16 0.13 0.07   61135638
AVAUH    0.460  1.000 P
AVAUI    1.130 -1.000 P
AVAUL    1.910 -1.000 S
AVAUL    0.960  1.000 P
AVAUP    0.280  1.000 P
AVAUR    0.180  1.000 P
AVAUS    0.200  1.000 P
AVAUW    1.020  1.000 P
# 2005 10 22 12 02 30.16  59.3608 -153.4327 -0.83 0.30 0.18 0.11 0.08   61135753
AVAUI    1.360 -1.000 P
AVAUL    1.790 -1.000 S
AVAUP    0.250  1.000 P
AVAUR    0.200  1.000 P
AVAUS    0.210  1.000 P
AVAUW    0.880 -1.000 P
# 2005 10 23 11 07 31.41  59.3640 -153.4338 -1.18 0.30 0.24 0.64 0.14   61135908
AVAUI    1.680 -1.000 P
AVAUL    1.640  1.000 S
AVAUL    1.120  1.000 P
AVAUP    0.160  1.000 P
AVAUR    0.110  1.000 P
AVAUS    0.130  1.000 P
AVAUW    0.840  1.000 P
# 2005 10 23 12 50 3.88  59.3518 -153.4120 -1.18 -0.10 0.63 0.79 0.19   61135948
AVAUP    0.550  1.000 P
AVAUR    0.590  1.000 P
AVAUS    0.520  1.000 P
AVAUW    1.840 -1.000 P
# 2005 10 24 09 24 48.70  59.3553 -153.4280 -1.02 0.20 0.28 0.18 0.15   61136123
AVAUE    1.280  1.000 P
AVAUL    2.540  1.000 S
AVAUL    2.010  1.000 S
AVAUL    1.310  1.000 P
AVAUP    0.330  1.000 P
AVAUR    0.320  1.000 P
AVAUS    0.370  1.000 P
AVAUW    1.150 -1.000 P
# 2005 10 24 12 27 34.61  59.3593 -153.4297 -0.62 0.10 0.29 0.08 0.04   61136173
AVAUL    1.850  1.000 S
AVAUL    0.930  1.000 P
AVAUP    0.290  1.000 P
AVAUR    0.300  1.000 P
AVAUS    0.300  1.000 P
AVAUW    1.020  1.000 P
# 2005 10 25 04 49 28.80  59.3598 -153.4298 -0.58 0.30 0.74 0.14 0.03   61136293
AVAUP    0.330  1.000 P
AVAUR    0.350 -1.000 P
AVAUS    0.290 -1.000 P
AVAUW    0.980 -1.000 P
# 2005 10 25 23 22 18.48  59.3538 -153.4303 -1.17 0.20 0.26 0.49 0.05   61136468
AVAUP    0.500 -1.000 P
AVAUR    0.300  1.000 P
AVAUS    0.290  1.000 P
AVAUW    1.290 -1.000 P
# 2005 10 26 05 45 37.81  59.3600 -153.4303 -0.72 0.40 0.15 0.08 0.04   61136523
AVAUE    1.250  1.000 P
AVAUI    1.810  0.200 S
AVAUL    1.720  1.000 S
AVAUL    0.980  1.000 P
AVAUP    0.270  1.000 P
AVAUR    0.260  1.000 P
AVAUS    0.270  1.000 P
AVAUW    1.020  1.000 P
# 2005 10 27 11 56 24.47  59.3608 -153.4285 -0.81 0.00 0.21 0.14 0.02   61136918
AVAUL    1.710 -1.000 S
AVAUL    0.920  1.000 P
AVAUP    0.220  1.000 P
AVAUR    0.250  1.000 P
AVAUS    0.220  1.000 P
# 2005 10 27 12 29 9.66  59.3607 -153.4312 -0.63 0.20 0.23 0.09 0.04   61136933
AVAUE    1.120  1.000 P
AVAUL    1.740 -1.000 S
AVAUL    0.890  1.000 P
AVAUP    0.310  1.000 P
AVAUR    0.290  1.000 P
AVAUS    0.300 -1.000 P
# 2005 10 27 16 52 11.89  59.3598 -153.4343 -0.61 0.00 0.21 0.10 0.02   61136973
AVAUL    1.690 -1.000 S
AVAUL    0.940  1.000 P
AVAUP    0.380  1.000 P
AVAUR    0.300  1.000 P
AVAUS    0.230  1.000 P
AVAUW    0.970 -1.000 P
# 2005 10 27 21 21 36.70  59.3560 -153.4277 -1.05 0.30 0.29 0.19 0.07   61137018
AVAUL    2.270 -1.000 S
AVAUP    0.380  1.000 P
AVAUR    0.260  1.000 P
AVAUS    0.310  1.000 P
AVAUW    1.160 -1.000 P
# 2005 10 28 02 06 51.79  59.3593 -153.4303 -0.76 0.00 0.22 0.07 0.07   61137118
AVAUE    1.210  1.000 P
AVAUI    1.960  1.000 S
AVAUI    1.000  1.000 P
AVAUL    1.680  1.000 S
AVAUL    1.940  1.000 S
AVAUL    0.970  1.000 P
AVAUP    0.260 -1.000 P
AVAUR    0.340  1.000 P
AVAUS    0.210  1.000 P
AVAUW    1.040  1.000 P
# 2005 10 28 07 39 26.68  59.3578 -153.4268 -0.64 -0.40 0.52 0.12 0.07   61137198
AVAUL    1.840 -1.000 S
AVAUL    1.150  1.000 P
AVAUP    0.270 -1.000 P
AVAUR    0.500  1.000 P
AVAUS    0.270  1.000 P
AVAUW    0.980  1.000 P
# 2005 10 28 10 34 0.20  59.3585 -153.4258 -0.54 0.30 0.19 0.08 0.08   61137218
AVAUE    0.900  1.000 P
AVAUI    1.790  1.000 S
AVAUI    1.080  1.000 P
AVAUL    1.800 -1.000 S
AVAUL    1.020  1.000 P
AVAUP    0.350  1.000 P
AVAUR    0.460  1.000 P
AVAUS    0.370  1.000 P
AVAUW    1.090  1.000 P
# 2005 10 28 20 13 28.16  59.3572 -153.4315 -0.63 0.40 0.26 0.09 0.04   61137343
AVAUE    1.220  1.000 P
AVAUL    1.870 -1.000 S
AVAUL    1.030  1.000 P
AVAUP    0.420  1.000 P
AVAUR    0.260  1.000 P
AVAUS    0.280  1.000 P
AVAUW    1.080  1.000 P
# 2005 10 29 04 35 12.88  59.3610 -153.4307 -0.56 -0.70 0.27 0.16 0.07   61137493
AVAUH    0.420  1.000 P
AVAUL    1.710  1.000 S
AVAUL    0.850  1.000 P
AVAUP    0.300  1.000 P
AVAUR    0.500  1.000 P
AVAUS    0.330  1.000 P
AVAUW    0.930 -1.000 P
# 2005 10 29 05 08 37.31  59.3573 -153.4345 -0.54 0.00 0.27 0.09 0.08   61137503
AVAUE    1.190  1.000 P
AVAUH    0.460  1.000 P
AVAUL    1.770 -1.000 S
AVAUL    0.960  1.000 P
AVAUP    0.380  1.000 P
AVAUR    0.230  1.000 P
AVAUS    0.250  1.000 P
AVAUW    1.080  1.000 P
# 2005 10 29 05 21 30.60  59.3553 -153.4303 -1.16 -0.90 0.47 0.91 0.12   61137508
AVAUH    0.790 -1.000 P
AVAUP    0.380 -1.000 P
AVAUR    0.260  1.000 P
AVAUS    0.180 -1.000 P
# 2005 10 29 11 10 21.71  59.3605 -153.4270 -1.18 0.20 0.41 0.78 0.16   61137598
AVAUH    0.580  1.000 P
AVAUP    0.020  1.000 P
AVAUR   -0.100  1.000 P
AVAUS    0.060 -1.000 P
# 2005 10 29 21 25 12.37  59.3610 -153.4332 -0.91 -0.50 0.29 0.28 0.01   61137733
AVAUH    0.320  1.000 P
AVAUP    0.270  1.000 P
AVAUR    0.140 -1.000 P
AVAUS    0.160 -1.000 P
# 2005 10 29 23 57 16.91  59.3545 -153.4367  0.62 -0.40 7.93 2.61 0.72   61137758
AVAUH    0.850 -1.000 P
AVAUP    0.340 -1.000 P
AVAUR    0.520  1.000 P
AVAUS    0.010 -1.000 P
# 2005 10 30 00 53 26.08  59.3532 -153.4240 -0.39 -0.90 0.27 0.34 0.05   61137788
AVAUH    0.680  1.000 P
AVAUP    0.600  1.000 P
AVAUR    0.530  1.000 P
AVAUS    0.480  1.000 P
# 2005 10 30 02 16 39.52  59.3467 -153.4347  0.79 -0.10 0.48 0.19 0.08   61137813
AVAUE    1.090 -1.000 P
AVAUH    1.290  1.000 P
AVAUI    1.030 -1.000 S
AVAUI    0.470  1.000 P
AVAUL    2.200  1.000 S
AVAUL    1.670  1.000 P
AVAUP    0.900  1.000 P
AVAUS    0.900 -1.000 P
AVAUW    1.050  1.000 P
# 2005 10 30 10 09 40.39  59.3560 -153.4177 -1.19 0.10 0.31 0.45 0.09   61137898
AVAUH    0.730  1.000 P
AVAUL    2.260 -1.000 S
AVAUP    0.410  1.000 P
AVAUR    0.300  1.000 P
AVAUS    0.420  1.000 P
AVAUW    1.590 -1.000 P
# 2005 10 30 12 44 31.91  59.3583 -153.4322 -0.59 0.30 0.16 0.07 0.05   61137933
AVAUE    1.240  1.000 P
AVAUH    0.490  1.000 P
AVAUI    1.750 -1.000 S
AVAUI    0.980  1.000 P
AVAUL    1.780 -1.000 S
AVAUL    0.940  1.000 P
AVAUP    0.360  1.000 P
AVAUR    0.340  1.000 P
AVAUS    0.350  1.000 P
AVAUW    1.040  1.000 P
# 2005 10 30 19 39 0.58  59.3585 -153.4277 -0.53 0.90 0.26 0.10 0.05   61138023
AVAUE    1.210  1.000 P
AVAUH    0.490  1.000 P
AVAUL    1.770 -1.000 S
AVAUL    0.930  1.000 P
AVAUP    0.340  1.000 P
AVAUR    0.420  1.000 P
AVAUS    0.280  1.000 P
AVAUW    0.980  1.000 P
# 2005 10 30 19 39 14.84  59.3585 -153.4313 -0.53 0.40 0.14 0.08 0.04   61138028
AVAUE    1.180  1.000 P
AVAUH    0.540  1.000 P
AVAUI    1.750 -1.000 S
AVAUI    1.010  1.000 P
AVAUL    1.750  1.000 S
AVAUL    0.930  1.000 P
AVAUP    0.330  1.000 P
AVAUR    0.330  1.000 P
AVAUS    0.260  1.000 P
AVAUW    0.990  1.000 P
# 2005 10 30 20 42 28.23  59.3565 -153.4182 -0.55 -0.10 0.60 0.13 0.05   61138048
AVAUH    0.770  1.000 P
AVAUL    1.980 -1.000 S
AVAUL    1.070 -1.000 P
AVAUP    0.400 -1.000 P
AVAUR    0.670  1.000 P
AVAUS    0.410 -1.000 P
# 2005 10 30 22 12 26.33  59.3553 -153.4265 -1.17 -0.60 0.34 1.24 0.08   61138113
AVAUH    0.680 -1.000 P
AVAUP    0.280 -1.000 P
AVAUR    0.300  1.000 P
AVAUS    0.250  1.000 P
# 2005 10 31 05 27 25.49  59.3610 -153.4308 -1.18 -0.30 0.17 0.47 0.04   61138183
AVAUH    0.450 -1.000 P
AVAUP    0.250  1.000 P
AVAUR    0.040  1.000 P
AVAUS    0.110 -1.000 P
# 2005 10 31 08 08 44.63  59.3543 -153.4200 -1.18 -0.30 0.57 2.23 0.14   61138193
AVAUH    1.020 -1.000 P
AVAUP    0.480  1.000 P
AVAUR    0.690  1.000 P
AVAUS    0.340  1.000 P
# 2005 10 31 08 23 50.76  59.3517 -153.4153 -0.62 -0.90 0.35 0.34 0.02   61138198
AVAUH    0.920 -1.000 P
AVAUP    0.610 -1.000 P
AVAUR    0.710  1.000 P
AVAUS    0.600 -1.000 P
# 2005 10 31 14 07 47.55  59.3603 -153.4302 -1.08 -0.30 0.27 0.34 0.03   61138233
AVAUH    0.430 -1.000 P
AVAUP    0.190  1.000 P
AVAUR    0.100 -1.000 P
AVAUS    0.090  1.000 P
# 2005 10 31 16 21 39.73  59.3570 -153.4245 -1.16 0.00 0.40 1.44 0.11   61138278
AVAUH    0.680 -1.000 P
AVAUP    0.180  1.000 P
AVAUR    0.190  1.000 P
AVAUS    0.230  1.000 P
# 2005 10 31 22 13 57.11  59.3607 -153.4297 -1.10 0.50 0.14 0.25 0.07   61138353
AVAUH    0.490  1.000 P
AVAUP    0.110  1.000 P
AVAUR    0.030  1.000 P
AVAUS    0.010  1.000 P
# 2005 10 31 23 18 0.47  59.3528 -153.4333 -1.18 -0.30 0.63 1.95 0.19   61138363
AVAUH    0.950 -1.000 P
AVAUP    0.840 -1.000 P
AVAUR    0.320  1.000 P
AVAUS    0.340  1.000 P
# 2005 10 31 23 18 3.76  59.3583 -153.4318 -0.90 0.50 0.12 0.10 0.08   61138368
AVAUE    1.260  1.000 P
AVAUH    0.520  1.000 P
AVAUI    1.900  1.000 S
AVAUI    1.930  1.000 S
AVAUI    1.120  1.000 P
AVAUL    1.850  1.000 S
AVAUL    1.870  1.000 S
AVAUL    1.050  1.000 P
AVAUP    0.420  1.000 P
AVAUR    0.100  1.000 P
AVAUS    0.130  1.000 P
AVAUW    1.100  1.000 P
# 2005 11 01 04 09 1.22  59.3430 -153.4153 -1.18 0.10 1.53 1.11 0.41   61138408
AVAUH    1.110  1.000 P
AVAUP    0.760  1.000 P
AVAUR    0.820  1.000 P
AVAUS    0.770  1.000 P
AVAUW    2.180 -1.000 P
# 2005 11 01 12 18 42.20  59.3597 -153.4315 -0.65 0.00 0.23 0.11 0.04   61138448
AVAUH    0.490  1.000 P
AVAUL    1.770 -1.000 S
AVAUL    0.930  1.000 P
AVAUP    0.290  1.000 P
AVAUR    0.230  1.000 P
AVAUS    0.270  1.000 P
AVAUW    0.980 -1.000 P
# 2005 11 03 18 25 34.81  59.3573 -153.4270 -0.85 -0.20 0.66 0.21 0.08   61138863
AVAUH    0.580  1.000 P
AVAUP    0.230 -1.000 P
AVAUR    0.470  1.000 P
AVAUS    0.240 -1.000 P
AVAUW    1.080 -1.000 P
# 2005 11 04 04 39 9.00  59.3620 -153.4290 -1.19 -0.20 0.30 0.45 0.03   61138998
AVAUH    0.360  1.000 P
AVAUP    0.160  1.000 P
AVAUR    0.080 -1.000 P
AVAUS    0.140 -1.000 P
AVAUW    1.560  1.000 P
# 2005 11 04 05 02 52.25  59.3630 -153.4310 -0.94 -0.10 0.10 0.12 0.04   61139008
AVAUH    0.370  1.000 P
AVAUI    2.290 -1.000 S
AVAUL    1.620 -1.000 S
AVAUL    0.900  1.000 P
AVAUP    0.200  1.000 P
AVAUR    0.170  1.000 P
AVAUS    0.140  1.000 P
AVAUW    0.960  1.000 P
# 2005 11 04 07 18 29.04  59.3592 -153.4235 -0.72 0.00 0.27 0.17 0.03   61139058
AVAUH    0.560  1.000 P
AVAUI    1.950 -1.000 S
AVAUI    1.050  1.000 P
AVAUL    1.900 -1.000 S
AVAUL    1.050  1.000 P
AVAUS    0.360 -1.000 P
AVAUW    1.100  1.000 P
# 2005 11 04 07 19 45.99  59.3583 -153.4337 -0.79 0.10 0.15 0.08 0.05   61139063
AVAUE    1.230  1.000 P
AVAUH    0.380  1.000 P
AVAUI    1.910 -1.000 S
AVAUL    1.970  1.000 S
AVAUL    1.020  1.000 P
AVAUP    0.300  1.000 P
AVAUR    0.510  1.000 P
AVAUS    0.220  1.000 P
AVAUW    1.080  1.000 P
# 2005 11 04 07 22 5.66  59.3585 -153.4280 -0.94 0.10 0.33 0.14 0.04   61139068
AVAUH    0.540  1.000 P
AVAUL    1.930 -1.000 S
AVAUP    0.240  1.000 P
AVAUR    0.310  1.000 P
AVAUS    0.170  1.000 P
AVAUW    1.110 -1.000 P
# 2005 11 04 07 23 29.04  59.3658 -153.4295 -0.44 -0.30 0.66 0.57 0.07   61139078
AVAUH    0.500  1.000 P
AVAUP    0.340  1.000 P
AVAUR    0.460  1.000 P
AVAUS    0.380  1.000 P
AVAUW    0.950 -1.000 P
# 2005 11 04 12 10 0.09  59.3577 -153.4210 -0.77 0.00 0.43 0.14 0.07   61139203
AVAUH    0.750  1.000 P
AVAUL    2.010 -1.000 S
AVAUP    0.330 -1.000 P
AVAUR    0.290  1.000 P
AVAUS    0.360  1.000 P
AVAUW    1.170  1.000 P
# 2005 11 04 13 24 0.41  59.3580 -153.4288 -0.62 0.20 0.14 0.09 0.05   61139228
AVAUE    1.260  1.000 P
AVAUH    0.520  1.000 P
AVAUI    1.710 -1.000 S
AVAUL    1.880 -1.000 S
AVAUL    0.980  1.000 P
AVAUP    0.380  1.000 P
AVAUR    0.330  1.000 P
AVAUS    0.340  1.000 P
AVAUW    1.050  1.000 P
# 2005 11 05 13 21 15.25  59.3548 -153.4298 -1.18 -0.50 0.45 1.30 0.14   61139578
AVAUH    0.720 -1.000 P
AVAUP    0.390 -1.000 P
AVAUR    0.170  1.000 P
AVAUS    0.220  1.000 P
# 2005 11 05 18 45 33.48  59.3582 -153.4263 -0.65 -0.20 0.30 0.21 0.03   61139688
AVAUH    0.520  1.000 P
AVAUP    0.260  1.000 P
AVAUR    0.440  1.000 P
AVAUS    0.270  1.000 P
# 2005 11 05 22 00 14.77  59.3618 -153.4292 -1.18 -0.10 0.18 0.58 0.08   61139708
AVAUH    0.570  1.000 P
AVAUP    0.180  1.000 P
AVAUR    0.060  1.000 P
AVAUS    0.130  1.000 P
AVAUW    0.950  1.000 P
# 2005 11 05 22 00 24.84  59.3622 -153.4310 -1.17 0.10 0.17 0.61 0.03   61139713
AVAUH    0.390 -1.000 P
AVAUP    0.160  1.000 P
AVAUR    0.040 -1.000 P
AVAUS    0.110  1.000 P
# 2005 11 05 23 29 6.89  59.3530 -153.4338 -1.17 -0.20 0.47 1.16 0.11   61139733
AVAUH    0.730 -1.000 P
AVAUP    0.490 -1.000 P
AVAUR    0.360  1.000 P
AVAUS    0.240  1.000 P
# 2005 11 06 00 06 47.51  59.3543 -153.4347 -1.16 -0.20 0.53 1.19 0.14   61139738
AVAUH    0.730 -1.000 P
AVAUP    0.710 -1.000 P
AVAUR    0.240  1.000 P
AVAUS    0.310 -1.000 P
# 2005 11 06 09 50 19.22  59.3620 -153.4325 -0.76 -0.20 0.30 0.27 0.03   61139803
AVAUH    0.370  1.000 P
AVAUP    0.270  1.000 P
AVAUR    0.200  1.000 P
AVAUS    0.190  1.000 P
AVAUW    0.990 -1.000 P
# 2005 11 06 12 07 58.70  59.3580 -153.4285 -0.71 -0.30 0.65 0.16 0.05   61139813
AVAUH    0.460  1.000 P
AVAUP    0.280 -1.000 P
AVAUR    0.400  1.000 P
AVAUS    0.240  1.000 P
AVAUW    1.050 -1.000 P
# 2005 11 07 17 39 44.15  59.3533 -153.4187 -1.17 -0.20 0.65 2.53 0.15   61140063
AVAUH    0.940 -1.000 P
AVAUP    0.410  1.000 P
AVAUR    0.310  1.000 P
AVAUS    0.430  1.000 P
# 2005 11 07 19 35 7.26  59.3540 -153.4390 -0.20 0.20 0.70 0.32 0.01   61140078
AVAUH    0.530 -1.000 P
AVAUP    0.640 -1.000 P
AVAUR    0.570  1.000 P
AVAUS    0.510 -1.000 P
# 2005 11 08 01 24 20.34  59.3605 -153.4302 -0.62 0.10 0.22 0.10 0.04   61140138
AVAUE    1.150  1.000 P
AVAUH    0.480  1.000 P
AVAUL    1.700 -1.000 S
AVAUP    0.310  1.000 P
AVAUR    0.300  1.000 P
AVAUS    0.260  1.000 P
AVAUW    0.960 -1.000 P
# 2005 11 08 10 51 50.33  59.3505 -153.4248 -1.16 0.50 0.53 1.90 0.15   61140198
AVAUH    1.050 -1.000 P
AVAUP    0.640 -1.000 P
AVAUR    0.580  1.000 P
AVAUS    0.480  1.000 P
# 2005 11 08 13 02 22.66  59.3598 -153.4300 -0.79 1.00 0.19 0.10 0.04   61140208
AVAUE    1.210 -1.000 P
AVAUH    0.380  1.000 P
AVAUL    1.740 -1.000 S
AVAUL   -0.120  1.000 P
AVAUP    0.260  1.000 P
AVAUR    0.180  1.000 P
AVAUS    0.190  1.000 P
AVAUW    1.120  1.000 P
# 2005 11 09 11 54 31.92  59.5313 -153.5167  9.38 1.20 1.70 11.53 0.13   61140323
AVAUE    4.180  1.000 P
AVAUH    4.490  1.000 P
AVAUI    8.370 -1.000 S
AVAUI    5.030  1.000 P
AVAUL    7.340 -1.000 S
AVAUL    4.150  1.000 P
AVAUP    4.540  1.000 P
AVAUW    4.190  1.000 P
AVOPT    4.630  1.000 P
# 2005 11 09 14 14 35.26  59.3595 -153.4265 -0.98 -0.10 0.56 0.39 0.04   61140333
AVAUH    0.500 -1.000 P
AVAUP    0.150 -1.000 P
AVAUR    0.260  1.000 P
AVAUS    0.210 -1.000 P
# 2005 11 09 15 12 17.93  59.3563 -153.4275 -0.51 -0.30 0.69 0.11 0.07   61140338
AVAUH    0.670  1.000 P
AVAUL    1.850 -1.000 S
AVAUL    0.960  1.000 P
AVAUP    0.480 -1.000 P
AVAUR    0.340  1.000 P
AVAUS    0.320  1.000 P
AVAUW    1.070  1.000 P
# 2005 11 09 20 38 23.30  59.3582 -153.4283 -0.55 -0.10 0.65 0.26 0.05   61140353
AVAUH    0.430 -1.000 P
AVAUP    0.320 -1.000 P
AVAUR    0.460  1.000 P
AVAUS    0.280 -1.000 P
# 2005 11 09 20 55 24.64  59.3592 -153.4240 -0.63 -0.30 0.36 0.13 0.06   61140358
AVAUH    0.680  1.000 P
AVAUL    0.990 -1.000 P
AVAUP    0.300  1.000 P
AVAUR    0.290  1.000 P
AVAUS    0.320 -1.000 P
AVAUW    1.080  1.000 P
# 2005 11 10 05 49 33.21  59.3503 -153.4243 -1.17 -0.40 1.43 5.29 0.47   61140368
AVAUH    0.970 -1.000 P
AVAUP    0.260 -1.000 P
AVAUR    0.180  1.000 P
AVAUS    0.040  1.000 P
# 2005 11 10 08 01 51.31  59.3565 -153.4247 -0.67 0.10 0.60 0.34 0.04   61140378
AVAUH    0.570 -1.000 P
AVAUP    0.360 -1.000 P
AVAUR    0.470  1.000 P
AVAUS    0.270 -1.000 P
# 2005 11 10 09 29 32.58  59.3612 -153.4287 -1.18 -0.30 0.23 0.65 0.04   61140393
AVAUH    0.450 -1.000 P
AVAUP    0.110  1.000 P
AVAUR    0.060  1.000 P
AVAUS    0.150 -1.000 P
# 2005 11 10 10 44 54.50  59.3580 -153.4258 -0.75 -0.20 0.80 0.55 0.08   61140398
AVAUH    0.490 -1.000 P
AVAUP    0.310 -1.000 P
AVAUR    0.490  1.000 P
AVAUS    0.200 -1.000 P
# 2005 11 10 17 02 25.74  59.3578 -153.4265 -1.18 0.00 0.36 1.02 0.07   61140438
AVAUH    0.660 -1.000 P
AVAUP    0.200 -1.000 P
AVAUR    0.220  1.000 P
AVAUS    0.170 -1.000 P
# 2005 11 10 19 07 45.97  59.3633 -153.4302 -1.17 -0.20 0.38 1.03 0.12   61140448
AVAUH    0.510 -1.000 P
AVAUP    0.040  1.000 P
AVAUR   -0.140  1.000 P
AVAUS    0.100  1.000 P
# 2005 11 10 20 09 59.72  59.3630 -153.4323 -0.92 0.20 0.25 0.25 0.02   61140468
AVAUE    1.280 -1.000 P
AVAUH    0.270  1.000 P
AVAUP    0.230  1.000 P
AVAUR    0.150 -1.000 P
AVAUS    0.200  1.000 P
AVAUW    0.550  1.000 P
# 2005 11 11 03 36 5.62  59.3598 -153.4167 -1.18 -0.20 1.47 2.95 0.21   61140493
AVAUH    0.730 -1.000 P
AVAUP    0.280  1.000 P
AVAUR    0.320 -1.000 P
AVAUS    0.210  1.000 P
# 2005 11 11 04 11 20.68  59.3653 -153.4222 -1.20 -0.20 0.53 0.71 0.08   61140513
AVAUH    0.700 -1.000 P
AVAUP    0.140 -1.000 P
AVAUR    0.160  1.000 P
AVAUS    0.360  1.000 P
# 2005 11 11 05 27 31.22  59.3633 -153.4288 -1.18 -0.30 0.54 1.08 0.06   61140518
AVAUH    0.460 -1.000 P
AVAUP    0.080 -1.000 P
AVAUR    0.040 -1.000 P
AVAUS    0.200 -1.000 P
# 2005 11 11 07 38 47.19  59.3603 -153.4310 -0.83 -0.10 0.20 0.11 0.03   61140538
AVAUE    1.290  1.000 P
AVAUH    0.380  1.000 P
AVAUP    0.230  1.000 P
AVAUR    0.170  1.000 P
AVAUS    0.170  1.000 P
# 2005 11 11 08 56 5.14  59.3570 -153.4267 -1.18 -0.30 0.39 1.06 0.07   61140543
AVAUH    0.590 -1.000 P
AVAUP    0.350  1.000 P
AVAUR    0.200  1.000 P
AVAUS    0.180  1.000 P
# 2005 11 11 13 57 19.90  59.3577 -153.4275 -1.06 -0.20 0.28 0.31 0.04   61140563
AVAUH    0.540  1.000 P
AVAUP    0.270  1.000 P
AVAUR    0.190  1.000 P
AVAUS    0.210 -1.000 P
AVAUW    1.210 -1.000 P
# 2005 11 11 16 28 7.43  59.3620 -153.4263 -1.19 -0.60 0.75 1.49 0.14   61140588
AVAUH    0.480 -1.000 P
AVAUP   -0.080 -1.000 P
AVAUR    0.020 -1.000 P
AVAUS    0.160 -1.000 P
# 2005 11 11 16 28 47.75  59.3622 -153.4283 -0.91 -0.20 0.34 0.45 0.03   61140593
AVAUH    0.410 -1.000 P
AVAUP    0.110  1.000 P
AVAUR    0.180 -1.000 P
AVAUS    0.250  1.000 P
# 2005 11 11 18 39 26.10  59.3565 -153.4268 -1.18 -0.20 0.26 0.89 0.05   61140608
AVAUH    0.570 -1.000 P
AVAUP    0.290 -1.000 P
AVAUR    0.200  1.000 P
AVAUS    0.230  1.000 P
# 2005 11 11 21 31 16.97  59.3482 -153.4162 -1.16 -0.30 0.97 4.31 0.29   61140623
AVAUH    1.450 -1.000 P
AVAUP    0.660 -1.000 P
AVAUR    0.920  1.000 P
AVAUS    0.320  1.000 P
