# 2005 09 07 11 01 15.97  59.3497 -153.4280 -1.18 -0.50 0.82 3.51 0.28   61116898
AVAUH    1.170 -1.000 P
AVAUP    0.610 -1.000 P
AVAUR    0.480  1.000 P
AVAUS    0.450  1.000 P
# 2005 09 08 13 20 34.37  59.3580 -153.4240 -0.85 -0.10 0.31 0.20 0.06   61117173
AVAUH    0.680  1.000 P
AVAUP    0.280  1.000 P
AVAUR    0.250  1.000 P
AVAUS    0.300  1.000 P
AVAUW    1.110 -1.000 P
# 2005 09 09 01 43 42.00  59.3463 -153.4148 -1.18 -0.30 0.97 0.54 0.24   61117293
AVAUH    1.190  1.000 P
AVAUL    3.410 -1.000 S
AVAUP    0.830  1.000 P
AVAUR    0.870  1.000 P
AVAUS    0.880  1.000 P
# 2005 09 12 22 29 38.21  59.3523 -153.4210 -1.16 -0.40 0.77 2.57 0.15   61118073
AVAUH    1.040 -1.000 P
AVAUP    0.450 -1.000 P
AVAUR    0.510  1.000 P
AVAUS    0.440 -1.000 P
# 2005 09 14 12 52 3.16  59.3592 -153.4262 -0.50 0.20 0.16 0.10 0.10   61118503
AVAUE    1.280  1.000 P
AVAUH    0.690  1.000 P
AVAUI    1.710 -1.000 S
AVAUI    1.010  1.000 P
AVAUL    1.740  1.000 S
AVAUL    1.330  1.000 P
AVAUP    0.260  1.000 P
AVAUR    0.310  1.000 P
AVAUS    0.370  1.000 P
AVAUW    1.010  1.000 P
# 2005 09 14 17 29 47.10  59.3550 -153.4240 -1.16 -0.30 0.52 0.67 0.12   61118578
AVAUH    0.860  1.000 P
AVAUL    2.320 -1.000 S
AVAUP    0.270 -1.000 P
AVAUR    0.270  1.000 P
AVAUS    0.300  1.000 P
AVAUW    1.750  1.000 P
# 2005 09 14 17 33 44.58  59.3585 -153.4285 -0.14 -0.80 0.39 0.10 0.04   61118583
AVAUH    0.500  1.000 P
AVAUL    1.640 -1.000 S
AVAUP    0.440  1.000 P
AVAUR    0.570  1.000 P
AVAUS    0.440  1.000 P
AVAUW    0.890 -1.000 P
# 2005 09 14 21 41 37.31  59.3570 -153.4242 -0.72 0.10 0.27 0.10 0.09   61118673
AVAUE    1.190 -1.000 P
AVAUH    0.840  1.000 P
AVAUL    1.850 -1.000 S
AVAUL    1.080  1.000 P
AVAUP    0.280  1.000 P
AVAUR    0.490  1.000 P
AVAUS    0.290  1.000 P
# 2005 09 14 23 48 39.17  59.3587 -153.4288 -0.55 -0.10 0.34 0.11 0.04   61118698
AVAUE    1.160 -1.000 P
AVAUH    0.500  1.000 P
AVAUP    0.380  1.000 P
AVAUR    0.330  1.000 P
AVAUS    0.330  1.000 P
AVAUW    0.960  1.000 P
# 2005 09 15 20 17 36.25  59.3582 -153.4265 -1.10 -0.10 0.32 0.87 0.08   61118808
AVAUH    0.740 -1.000 P
AVAUP    0.150  1.000 P
AVAUR    0.310  1.000 P
AVAUS    0.200 -1.000 P
# 2005 09 16 04 07 26.13  59.3603 -153.4210  0.02 -0.40 0.29 0.18 0.04   61118828
AVAUH    0.620  1.000 P
AVAUI    1.620 -1.000 S
AVAUI    0.900  1.000 P
AVAUP    0.530  1.000 P
AVAUS    0.550  1.000 P
AVAUW    0.950  1.000 P
# 2005 09 16 04 31 46.48  59.3568 -153.4275 -1.18 -0.10 0.26 0.95 0.04   61118833
AVAUH    0.660 -1.000 P
AVAUP    0.310  1.000 P
AVAUR    0.310  1.000 P
AVAUS    0.210  1.000 P
# 2005 09 16 09 02 58.90  59.3593 -153.4302 -0.71 -0.20 0.30 0.25 0.05   61118878
AVAUH    0.520  1.000 P
AVAUP    0.200  1.000 P
AVAUR    0.310  1.000 P
AVAUS    0.210 -1.000 P
# 2005 09 17 04 33 12.56  59.4427 -153.3355  4.14 0.70 2.21 3.46 0.20   61118978
AVAUE    2.290  1.000 P
AVAUH    2.860  1.000 P
AVAUI    5.200  1.000 S
AVAUI    2.690  1.000 P
AVAUW    2.880  1.000 P
AVOPT    5.040  1.000 P
# 2005 09 17 09 57 22.21  59.3607 -153.4303 -0.87 -0.40 0.26 0.14 0.11   61119018
AVAUH    0.580  1.000 P
AVAUL    1.840 -1.000 S
AVAUL    0.820  1.000 P
AVAUP    0.160  1.000 P
AVAUR    0.140  1.000 P
AVAUS    0.190 -1.000 P
AVAUW    0.910  1.000 P
# 2005 09 17 10 44 40.69  59.3600 -153.4233 -1.17 -0.60 0.32 0.66 0.12   61119033
AVAUH    0.700  1.000 P
AVAUL    1.830  1.000 S
AVAUP    0.080  1.000 P
AVAUR    0.180  1.000 P
AVAUS    0.190  1.000 P
# 2005 09 17 11 18 13.68  59.3618 -153.4273 -1.17 -0.40 0.18 0.43 0.07   61119038
AVAUH    0.600  1.000 P
AVAUL    1.760  1.000 S
AVAUL    0.900  1.000 P
AVAUP    0.110  1.000 P
AVAUR    0.140  1.000 P
AVAUS    0.150  1.000 P
AVAUW    0.580  1.000 P
# 2005 09 18 02 18 13.59  59.3575 -153.4398 -0.92 -0.30 0.55 0.49 0.02   61119223
AVAUH    0.970  1.000 P
AVAUL    2.000 -1.000 S
AVAUP    0.470 -1.000 P
AVAUR    0.280 -1.000 P
AVAUS    0.270 -1.000 P
# 2005 09 18 07 38 42.04  59.3555 -153.4295 -0.68 -0.20 0.30 0.23 0.08   61119328
AVAUH    0.530  1.000 P
AVAUP    0.410  1.000 P
AVAUR    0.340  1.000 P
AVAUS    0.360 -1.000 P
AVAUW    1.110 -1.000 P
# 2005 09 18 12 13 31.66  59.3558 -153.4258 -1.18 -0.20 0.44 1.63 0.13   61119378
AVAUH    0.630 -1.000 P
AVAUP    0.210  1.000 P
AVAUR    0.180  1.000 P
AVAUS    0.220  1.000 P
# 2005 09 19 20 46 58.42  59.3590 -153.4343 -0.86 0.50 0.15 0.08 0.06   61119918
AVAUE    1.230  1.000 P
AVAUH    0.260  1.000 P
AVAUI    2.020 -1.000 S
AVAUI    1.150  1.000 P
AVAUL    2.000  1.000 S
AVAUL    1.030  1.000 P
AVAUP    0.240  1.000 P
AVAUR    0.160  1.000 P
AVAUS    0.210  1.000 P
# 2005 09 19 20 51 51.32  59.3570 -153.4385 -1.17 0.90 0.33 0.40 0.17   61119928
AVAUE    1.300  1.000 P
AVAUI    2.160  1.000 S
AVAUI    1.040  1.000 P
AVAUL    1.930  1.000 S
AVAUL    2.170  1.000 S
AVAUL    1.040  1.000 P
AVAUP    0.290  1.000 P
AVAUR    0.100  1.000 P
AVAUS    0.180  1.000 P
# 2005 09 20 03 07 35.69  59.3610 -153.4278 -0.82 0.10 0.16 0.10 0.09   61119968
AVAUE    1.210  1.000 P
AVAUH    0.570  1.000 P
AVAUI    1.950 -1.000 S
AVAUI    1.230  1.000 P
AVAUL    1.560 -1.000 S
AVAUL    1.120  1.000 P
AVAUP    0.240  1.000 P
AVAUR    0.120  1.000 P
AVAUS    0.190  1.000 P
AVAUW    1.100  1.000 P
# 2005 09 21 01 31 15.98  59.3583 -153.4190 -0.58 -0.70 0.69 0.44 0.05   61120158
AVAUH    0.720 -1.000 P
AVAUP    0.370 -1.000 P
AVAUR    0.430  1.000 P
AVAUS    0.390  1.000 P
# 2005 09 21 16 37 57.71  59.3555 -153.4278 -1.18 -0.80 0.42 1.36 0.12   61120308
AVAUH    0.750 -1.000 P
AVAUP    0.300 -1.000 P
AVAUR    0.350  1.000 P
AVAUS    0.180  1.000 P
# 2005 09 21 22 43 36.22  59.3570 -153.4255 -0.75 -0.10 0.31 0.12 0.08   61120403
AVAUH    0.710  1.000 P
AVAUL    1.960  1.000 S
AVAUL    1.020  1.000 P
AVAUP    0.350  1.000 P
AVAUR    0.360  1.000 P
AVAUS    0.310  1.000 P
AVAUW    1.210  1.000 P
# 2005 09 22 00 47 9.27  59.3587 -153.4287 -0.61 0.40 0.28 0.09 0.06   61120448
AVAUE    1.200  1.000 P
AVAUH    0.480  1.000 P
AVAUL    1.840  1.000 S
AVAUL    0.910  1.000 P
AVAUP    0.260  1.000 P
AVAUR    0.480  1.000 P
AVAUS    0.280  1.000 P
AVAUW    1.070  1.000 P
# 2005 09 22 05 10 3.59  59.3618 -153.4290 -0.66 0.10 0.20 0.10 0.06   61120508
AVAUE    1.180  1.000 P
AVAUH    0.400  1.000 P
AVAUL    1.720  1.000 S
AVAUL    0.870  1.000 P
AVAUP    0.220  1.000 P
AVAUR    0.260  1.000 P
AVAUS    0.250  1.000 P
AVAUW    0.950  1.000 P
# 2005 09 22 06 47 10.54  59.3617 -153.4298 -0.75 -0.60 0.24 0.17 0.08   61120523
AVAUE    1.290 -1.000 P
AVAUH    0.360  1.000 P
AVAUL    1.680  1.000 S
AVAUL    0.830  1.000 P
AVAUP    0.210 -1.000 P
AVAUR    0.190  1.000 P
AVAUS    0.210  1.000 P
AVAUW    0.870  1.000 P
# 2005 09 22 10 32 44.14  59.3592 -153.4328 -0.91 0.10 0.43 0.22 0.07   61120563
AVAUH    0.540  1.000 P
AVAUL    1.840 -1.000 S
AVAUL    0.950  1.000 P
AVAUP    0.300  1.000 P
AVAUR    0.210  1.000 P
AVAUS    0.120  1.000 P
# 2005 09 22 17 30 49.79  59.3613 -153.4295 -1.17 -0.30 0.26 0.93 0.11   61120618
AVAUH    0.440 -1.000 P
AVAUP    0.080  1.000 P
AVAUR   -0.020  1.000 P
AVAUS    0.030  1.000 P
# 2005 09 23 03 39 47.54  59.3528 -153.4233 -0.72 0.10 0.33 0.12 0.08   61120688
AVAUH    0.910  1.000 P
AVAUL    2.150 -1.000 S
AVAUL    1.290  1.000 P
AVAUP    0.430  1.000 P
AVAUR    0.530  1.000 P
AVAUS    0.330  1.000 P
AVAUW    1.350  1.000 P
# 2005 09 23 04 57 15.15  59.3567 -153.4298 -1.20 -0.40 0.24 0.29 0.06   61120703
AVAUH    0.510  1.000 P
AVAUL    2.200 -1.000 S
AVAUL    1.270  1.000 P
AVAUP    0.340  1.000 P
AVAUR    0.140  1.000 P
AVAUS    0.190  1.000 P
# 2005 09 23 08 46 7.75  59.3597 -153.4280 -0.63 0.40 0.11 0.08 0.05   61120748
AVAUE    1.160  1.000 P
AVAUH    0.450  1.000 P
AVAUI    1.970 -1.000 S
AVAUI    0.990  1.000 P
AVAUL    1.750 -1.000 S
AVAUL    0.950  1.000 P
AVAUP    0.300  1.000 P
AVAUR    0.230  1.000 P
AVAUS    0.270  1.000 P
AVAUW    1.000  1.000 P
# 2005 09 23 08 47 6.71  59.3593 -153.4327 -0.69 0.50 0.14 0.07 0.06   61120753
AVAUE    1.190  1.000 P
AVAUH    0.440  1.000 P
AVAUI    1.820  1.000 S
AVAUI    1.990  1.000 S
AVAUI    1.000  1.000 P
AVAUL    1.780  1.000 S
AVAUL    0.960  1.000 P
AVAUP    0.360  1.000 P
AVAUR    0.270  1.000 P
AVAUS    0.300  1.000 P
AVAUW    1.020  1.000 P
# 2005 09 23 10 34 24.23  59.3597 -153.4280 -0.81 0.10 0.14 0.07 0.07   61120768
AVAUE    1.160  0.200 P
AVAUH    0.500  1.000 P
AVAUI    1.920 -1.000 S
AVAUL    1.910  1.000 S
AVAUL    1.250  1.000 P
AVAUP    0.230  1.000 P
AVAUR    0.250  1.000 P
AVAUS    0.250  1.000 P
AVAUW    1.070  1.000 P
# 2005 09 23 20 07 26.23  59.3518 -153.4178 -1.18 -0.70 0.77 3.06 0.19   61120843
AVAUH    1.250 -1.000 P
AVAUP    0.490  1.000 P
AVAUR    0.570  1.000 P
AVAUS    0.470  1.000 P
# 2005 09 23 21 57 41.34  59.3592 -153.4285 -0.49 0.30 1.24 0.49 0.10   61120853
AVAUH    0.820  0.200 P
AVAUP    0.300 -1.000 P
AVAUR    0.180 -1.000 P
AVAUS    0.310 -1.000 P
# 2005 09 24 02 49 10.13  59.3543 -153.4188 -1.17 -0.10 1.12 3.63 0.27   61120888
AVAUH    0.860 -1.000 P
AVAUP    0.440 -1.000 P
AVAUR    0.350  1.000 P
AVAUS    0.330 -1.000 P
# 2005 09 25 03 34 37.23  59.3542 -153.4175 -1.09 -0.20 0.22 0.39 0.05   61121108
AVAUH    1.100  1.000 P
AVAUL    3.170  1.000 S
AVAUP    0.460  1.000 P
AVAUR    0.460  1.000 P
AVAUS    0.510  1.000 P
AVAUW    1.420 -1.000 P
# 2005 09 25 10 49 49.79  59.3580 -153.4263 -1.19 -0.30 0.27 0.95 0.04   61121193
AVAUH    0.560 -1.000 P
AVAUP    0.210  1.000 P
AVAUR    0.200  1.000 P
AVAUS    0.220  1.000 P
# 2005 09 25 11 03 56.38  59.3573 -153.4298 -1.05 -0.60 0.47 0.39 0.07   61121203
AVAUH    0.540  1.000 P
AVAUP    0.290 -1.000 P
AVAUR    0.140  1.000 P
AVAUS    0.220 -1.000 P
# 2005 09 25 16 23 32.87  59.3642 -153.4285 -0.28 -0.30 0.84 0.69 0.06   61121293
AVAUH    0.420 -1.000 P
AVAUP    0.390 -1.000 P
AVAUR    0.510  1.000 P
AVAUS    0.420 -1.000 P
# 2005 09 25 22 15 38.24  59.3615 -153.4062 -1.18 -0.10 5.43 8.39 0.41   61121393
AVAUH    1.180  1.000 P
AVAUP    0.440  1.000 P
AVAUR    0.300 -1.000 P
AVAUS    0.320 -1.000 P
# 2005 09 25 22 48 12.87  59.3575 -153.4287 -0.75 0.00 0.26 0.10 0.07   61121413
AVAUE    1.160 -1.000 P
AVAUH    0.490  1.000 P
AVAUL    2.110 -1.000 S
AVAUP    0.300  1.000 P
AVAUR    0.300  1.000 P
AVAUS    0.320  1.000 P
AVAUW    1.050  1.000 P
# 2005 09 26 01 02 16.97  59.3635 -153.4290 -1.19 -0.50 0.34 1.06 0.09   61121458
AVAUH    0.490 -1.000 P
AVAUP    0.080  1.000 P
AVAUR    0.000  1.000 P
AVAUS    0.130  1.000 P
# 2005 09 26 04 40 22.37  59.3542 -153.4210 -1.18 -0.30 0.58 2.24 0.16   61121538
AVAUH    0.910 -1.000 P
AVAUP    0.170 -1.000 P
AVAUR    0.450  1.000 P
AVAUS    0.440  1.000 P
# 2005 09 26 07 05 53.06  59.3613 -153.4295 -1.16 0.00 0.17 0.44 0.07   61121578
AVAUE    1.240  1.000 P
AVAUH    0.530  1.000 P
AVAUL    1.750 -1.000 S
AVAUP    0.120  1.000 P
AVAUR    0.060 -1.000 P
AVAUS    0.070  1.000 P
# 2005 09 26 12 58 36.76  59.3590 -153.4300 -0.64 -0.20 0.18 0.08 0.06   61121658
AVAUE    1.220  1.000 P
AVAUH    0.510  1.000 P
AVAUI    1.800 -1.000 S
AVAUL    1.680  1.000 S
AVAUL    1.000  1.000 P
AVAUP    0.350  1.000 P
AVAUR    0.340  1.000 P
AVAUS    0.300  1.000 P
AVAUW    1.000  1.000 P
# 2005 09 28 20 10 46.48  59.3675 -153.4293 -1.18 -0.20 0.49 1.68 0.19   61122253
AVAUH    0.780 -1.000 P
AVAUP    0.230 -1.000 P
AVAUR    0.120  1.000 P
AVAUS    0.160  1.000 P
# 2005 09 29 01 23 29.26  59.3608 -153.4327 -0.79 -0.40 0.19 0.13 0.03   61122378
AVAUL    1.750  0.200 S
AVAUL    0.930  1.000 P
AVAUP    0.240  1.000 P
AVAUR    0.170  1.000 P
AVAUS    0.230  1.000 P
# 2005 09 29 04 10 52.26  59.3595 -153.4298 -0.64 -0.30 0.21 0.09 0.06   61122423
AVAUH    0.570  1.000 P
AVAUL    1.790 -1.000 S
AVAUL    1.720  1.000 S
AVAUP    0.280  1.000 P
AVAUR    0.220  1.000 P
AVAUS    0.250  1.000 P
AVAUW    0.970  1.000 P
# 2005 09 29 21 51 13.74  59.3570 -153.4253 -0.93 -0.10 0.48 0.64 0.08   61122663
AVAUE    1.090 -1.000 P
AVAUH    0.830  1.000 P
AVAUP    0.360  1.000 P
AVAUR    0.350  1.000 P
AVAUS    0.260  1.000 P
# 2005 09 30 01 04 37.97  59.3490 -153.4185 -1.17 -0.30 0.74 3.29 0.19   61122713
AVAUH    1.110 -1.000 P
AVAUP    0.520 -1.000 P
AVAUR    0.530  1.000 P
AVAUS    0.540  1.000 P
# 2005 09 30 05 31 47.88  59.3568 -153.4395 -1.16 -0.10 0.68 0.47 0.14   61122768
AVAUE    1.790 -1.000 P
AVAUH    0.400  1.000 P
AVAUP    0.330  1.000 P
AVAUR    0.360  1.000 P
AVAUS    0.090 -1.000 P
AVAUW    0.830  1.000 P
# 2005 09 30 05 52 34.18  59.3600 -153.4305 -0.48 0.20 0.24 0.15 0.08   61122773
AVAUH    0.500  1.000 P
AVAUI    1.730 -0.200 S
AVAUP    0.410  1.000 P
AVAUR    0.470  1.000 P
AVAUS    0.290  1.000 P
AVAUW    0.970  1.000 P
# 2005 09 30 16 35 23.50  59.3605 -153.4313 -1.00 -0.20 0.15 0.19 0.04   61122863
AVAUH    0.390 -1.000 P
AVAUP    0.150  1.000 P
AVAUR    0.140  1.000 P
AVAUS    0.140  1.000 P
# 2005 09 30 17 51 48.55  59.3605 -153.4327 -0.62 0.20 0.32 0.09 0.04   61122893
AVAUH    0.390  1.000 P
AVAUP    0.390 -1.000 P
AVAUR    0.210  1.000 P
AVAUS    0.230  1.000 P
AVAUW    0.950 -1.000 P
# 2005 10 01 00 40 12.89  59.3582 -153.4298 -0.64 0.30 0.15 0.08 0.03   61123008
AVAUE    1.220  1.000 P
AVAUH    0.470  1.000 P
AVAUI    0.980 -1.000 P
AVAUL    1.840  1.000 S
AVAUL    1.020  1.000 P
AVAUP    0.360  1.000 P
AVAUR    0.290  1.000 P
AVAUS    0.340  1.000 P
AVAUW    1.040  1.000 P
# 2005 10 01 02 22 36.41  59.3595 -153.4308 -0.62 -0.30 0.51 0.11 0.02   61123033
AVAUH    0.450 -1.000 P
AVAUP    0.290  1.000 P
AVAUR    0.270  1.000 P
AVAUS    0.290 -1.000 P
AVAUW    1.000 -1.000 P
# 2005 10 01 07 28 50.84  59.3573 -153.4332 -0.72 0.00 0.16 0.08 0.07   61123143
AVAUE    1.240  1.000 P
AVAUH    0.520  1.000 P
AVAUI    1.800 -1.000 S
AVAUL    1.870  1.000 S
AVAUL    1.300  1.000 P
AVAUP    0.310  1.000 P
AVAUR    0.370  1.000 P
AVAUS    0.290  1.000 P
AVAUW    0.990  1.000 P
# 2005 10 01 12 31 58.79  59.3622 -153.4272 -1.17 -0.50 0.28 0.87 0.04   61123253
AVAUH    0.510 -1.000 P
AVAUP    0.100  1.000 P
AVAUR    0.110  1.000 P
AVAUS    0.110  1.000 P
# 2005 10 01 23 22 19.12  59.3542 -153.4237 -1.18 -0.10 0.35 1.40 0.07   61123648
AVAUH    0.770 -1.000 P
AVAUP    0.440 -1.000 P
AVAUR    0.360  1.000 P
AVAUS    0.300  1.000 P
# 2005 10 02 00 29 20.15  59.2550 -153.5092 14.90 1.00 4.59 3.08 0.08   61123728
AVAUH    3.930  1.000 P
AVAUI    6.080 -1.000 S
AVAUI    3.550 -1.000 P
AVAUP    4.210  1.000 P
AVAUR    4.150  1.000 P
AVAUS    3.980  1.000 P
AVAUW    3.730  1.000 P
# 2005 10 02 07 07 14.00  59.3583 -153.4265 -1.18 -0.10 0.51 0.67 0.05   61124178
AVAUH    0.590  1.000 P
AVAUP    0.190 -1.000 P
AVAUR    0.170 -1.000 P
AVAUS    0.230 -1.000 P
# 2005 10 02 07 43 32.53  59.3508 -153.4283 -1.17 -0.10 0.34 0.53 0.08   61124233
AVAUH    0.670  1.000 P
AVAUP    0.540 -1.000 P
AVAUR    0.550  1.000 P
AVAUS    0.380  1.000 P
AVAUW    1.470 -1.000 P
# 2005 10 03 00 23 26.26  59.3603 -153.4325 -0.77 -0.20 0.22 0.12 0.05   61124888
AVAUH    0.410  1.000 P
AVAUP    0.300  1.000 P
AVAUR    0.270  1.000 P
AVAUS    0.230  1.000 P
AVAUW    0.950  1.000 P
# 2005 10 03 00 23 43.81  59.3610 -153.4303 -0.72 0.30 0.43 0.17 0.07   61124893
AVAUH    0.510  1.000 P
AVAUP    0.290  1.000 P
AVAUR    0.230  1.000 P
AVAUS    0.230 -1.000 P
AVAUW    0.870 -1.000 P
# 2005 10 03 03 51 41.83  59.3592 -153.4302 -0.94 -0.30 0.47 0.25 0.07   61124933
AVAUH    0.520  1.000 P
AVAUP    0.140 -1.000 P
AVAUR    0.300  1.000 P
AVAUS    0.150 -1.000 P
# 2005 10 03 06 51 28.12  59.3502 -153.4308 -1.15 -0.50 0.43 1.45 0.09   61125008
AVAUH    0.870 -1.000 P
AVAUP    0.640 -1.000 P
AVAUR    0.530  1.000 P
AVAUS    0.460  1.000 P
# 2005 10 03 06 51 40.74  59.3548 -153.4270 -1.16 -0.50 0.48 1.63 0.14   61125013
AVAUH    0.700 -1.000 P
AVAUP    0.510 -1.000 P
AVAUR    0.370  1.000 P
AVAUS    0.280  1.000 P
# 2005 10 03 08 22 5.39  59.3582 -153.4255 -0.51 0.00 0.36 0.09 0.05   61125068
AVAUH    0.630  1.000 P
AVAUL    1.800 -1.000 S
AVAUL    1.010  1.000 P
AVAUP    0.280  1.000 P
AVAUR    0.490  1.000 P
AVAUS    0.300  1.000 P
AVAUW    1.020  1.000 P
# 2005 10 03 10 34 5.29  59.3592 -153.4312 -0.59 0.00 0.28 0.09 0.08   61125128
AVAUE    1.160  1.000 P
AVAUH    0.510  1.000 P
AVAUL    1.810  1.000 S
AVAUL    0.930  1.000 P
AVAUP    0.290  1.000 P
AVAUR    0.500  1.000 P
AVAUS    0.310  1.000 P
AVAUW    0.960  1.000 P
# 2005 10 03 11 55 52.11  59.3593 -153.4262 -0.52 -0.10 0.80 0.11 0.06   61125193
AVAUH    0.440  1.000 P
AVAUL    1.310  1.000 S
AVAUL    1.050 -1.000 P
AVAUP    0.310 -1.000 P
AVAUR    0.390  1.000 P
AVAUS    0.300  1.000 P
AVAUW    0.980  1.000 P
# 2005 10 03 12 57 32.06  59.3587 -153.4310 -0.55 0.00 0.30 0.14 0.04   61125233
AVAUH    0.460  1.000 P
AVAUL    0.980 -1.000 P
AVAUP    0.320  1.000 P
AVAUR    0.410  1.000 P
AVAUS    0.250 -1.000 P
AVAUW    0.980  1.000 P
# 2005 10 03 14 56 41.28  59.3578 -153.4318 -0.54 -0.10 0.25 0.08 0.05   61125308
AVAUE    0.630  1.000 P
AVAUH    0.460  1.000 P
AVAUI    2.010  0.200 S
AVAUL    1.850 -1.000 S
AVAUL    0.940  1.000 P
AVAUP    0.370  1.000 P
AVAUR    0.450  1.000 P
AVAUS    0.290  1.000 P
AVAUW    0.990  1.000 P
# 2005 10 04 01 24 15.14  59.3583 -153.4288 -0.67 0.30 0.22 0.11 0.05   61125498
AVAUE    1.220  1.000 P
AVAUH    0.470 -1.000 P
AVAUI    1.790  1.000 S
AVAUI    1.000  1.000 P
AVAUP    0.360  1.000 P
AVAUR    0.310  1.000 P
AVAUS    0.350  1.000 P
AVAUW    1.030  1.000 P
# 2005 10 04 04 06 32.37  59.3603 -153.4318 -0.76 0.00 0.28 0.15 0.03   61125588
AVAUH    0.380  1.000 P
AVAUP    0.290  1.000 P
AVAUR    0.240  1.000 P
AVAUS    0.250  1.000 P
AVAUW    0.970 -1.000 P
# 2005 10 04 08 05 1.48  59.3607 -153.4332 -1.07 0.00 0.18 0.24 0.01   61125623
AVAUH    0.350  1.000 P
AVAUP    0.250  1.000 P
AVAUR    0.090 -1.000 P
AVAUS    0.100  1.000 P
# 2005 10 04 21 59 15.18  59.3635 -153.4305 -0.43 0.60 0.74 0.25 0.03   61125723
AVAUH    0.370 -1.000 P
AVAUP    0.360  1.000 P
AVAUR    0.370  1.000 P
AVAUS    0.390 -1.000 P
# 2005 10 05 13 29 53.93  59.3587 -153.4297 -0.98 0.70 0.24 0.11 0.07   61125838
AVAUH    0.600  1.000 P
AVAUI    1.970 -1.000 S
AVAUI    1.070  1.000 P
AVAUL    1.990 -1.000 S
AVAUP    0.310 -1.000 P
AVAUR    0.200  1.000 P
AVAUS    0.200  1.000 P
AVAUW    1.100  1.000 P
# 2005 10 06 10 25 25.39  59.3587 -153.4308 -0.66 0.10 0.12 0.07 0.03   61126303
AVAUE    1.210  1.000 P
AVAUH    0.420  1.000 P
AVAUI    1.820 -1.000 S
AVAUI    1.040  1.000 P
AVAUL    1.870  1.000 S
AVAUL    0.990  1.000 P
AVAUP    0.340  1.000 P
AVAUR    0.280  1.000 P
AVAUS    0.310  1.000 P
AVAUW    1.020  1.000 P
# 2005 10 07 18 36 31.57  59.3567 -153.4205 -0.79 -0.10 0.18 0.23 0.09   61127913
AVAUE    1.180  1.000 P
AVAUH    0.680  1.000 P
AVAUI    1.810 -1.000 S
AVAUI    1.110  1.000 P
AVAUP    0.360  1.000 P
AVAUR    0.340  1.000 P
AVAUS    0.370  1.000 P
AVAUW    1.080 -1.000 P
# 2005 10 08 05 21 56.26  59.3622 -153.4240  0.14 -0.50 0.29 0.44 0.18   61129053
AVAUE    1.100  1.000 P
AVAUH    0.610  1.000 P
AVAUI    1.610 -1.000 S
AVAUI    0.910  1.000 P
AVAUL    1.010  1.000 S
AVAUL    0.900  1.000 P
AVAUP    0.700  1.000 P
AVAUR    0.590  1.000 P
AVAUS    0.640  1.000 P
AVAUW    0.980  1.000 P
# 2005 10 08 09 30 33.54  59.3585 -153.4282 -0.94 0.30 0.11 0.13 0.06   61129423
AVAUE    1.280  1.000 P
AVAUH    0.490  1.000 P
AVAUI    2.010 -1.000 S
AVAUI    1.080  1.000 P
AVAUL    2.070 -1.000 S
AVAUL    1.010  1.000 P
AVAUP    0.290  1.000 P
AVAUR    0.200  1.000 P
AVAUS    0.240  1.000 P
AVAUW    1.080  1.000 P
# 2005 10 08 15 51 14.18  59.3593 -153.4270 -0.12 -0.70 0.24 0.10 0.08   61129773
AVAUH    0.580  1.000 P
AVAUI    1.570 -1.000 S
AVAUL    1.550 -1.000 S
AVAUL    1.280  1.000 P
AVAUP    0.500  1.000 P
AVAUR    0.450  1.000 P
AVAUS    0.500  0.200 P
AVAUW    0.910  1.000 P
# 2005 10 08 19 38 38.07  59.3580 -153.4292 -0.32 -0.30 0.17 0.07 0.04   61129878
AVAUE    1.040  1.000 P
AVAUH    0.540  1.000 P
AVAUI    1.610  1.000 S
AVAUI    0.890  1.000 P
AVAUL    0.870  1.000 P
AVAUP    0.440  1.000 P
AVAUR    0.440  1.000 P
AVAUS    0.440  1.000 P
AVAUW    0.950  1.000 P
