# 2005 11 25 16 53 0.44  59.3587 -153.4268 -0.56 -0.40 0.32 0.11 0.05   61144193
AVAUH    0.520  1.000 P
AVAUL    1.700 -1.000 S
AVAUP    0.340  1.000 P
AVAUR    0.390  1.000 P
AVAUS    0.350  1.000 P
# 2005 11 25 17 11 47.73  59.3615 -153.4302 -0.74 -0.10 0.31 0.43 0.03   61144203
AVAUH    0.400 -1.000 P
AVAUP    0.250 -1.000 P
AVAUR    0.260 -1.000 P
AVAUS    0.220 -1.000 P
# 2005 11 25 17 12 2.09  59.3602 -153.4328 -0.67 -0.10 0.58 0.36 0.06   61144208
AVAUH    0.370 -1.000 P
AVAUP    0.390 -1.000 P
AVAUR    0.210  1.000 P
AVAUS    0.160 -1.000 P
# 2005 11 25 17 16 24.25  59.3610 -153.4317 -0.76 0.10 0.34 0.33 0.02   61144218
AVAUH    0.390  1.000 P
AVAUL    1.650 -1.000 S
AVAUP    0.260  1.000 P
AVAUR    0.190 -1.000 P
AVAUS    0.200 -1.000 P
AVAUW    1.760  0.200 P
# 2005 11 25 17 46 26.16  59.3582 -153.4317 -0.73 -0.10 0.73 0.15 0.04   61144238
AVAUH    0.750  1.000 P
AVAUP    0.310 -1.000 P
AVAUR    0.320 -1.000 P
AVAUS    0.280 -1.000 P
AVAUW    1.000 -1.000 P
# 2005 11 25 18 44 23.30  59.3592 -153.4290 -0.59 0.20 0.47 0.14 0.03   61144278
AVAUH    0.500 -1.000 P
AVAUL    1.770 -1.000 S
AVAUP    0.290  1.000 P
AVAUR    0.270  1.000 P
AVAUS    0.320 -1.000 P
AVAUW    1.020 -1.000 P
# 2005 11 25 19 11 20.36  59.3600 -153.4220 -0.13 -0.10 0.39 0.11 0.07   61144288
AVAUH    0.630  1.000 P
AVAUI    0.930 -1.000 P
AVAUL    1.500 -1.000 S
AVAUL    0.930  1.000 P
AVAUP    0.300 -1.000 P
AVAUR    0.730  1.000 P
AVAUS    0.560  1.000 P
AVAUW    1.000  1.000 P
# 2005 11 25 19 30 22.66  59.3528 -153.4198  0.01 -0.20 0.55 0.94 0.09   61144303
AVAUH    0.800  1.000 P
AVAUL    1.830  1.000 S
AVAUL    1.140  1.000 P
AVAUP    0.750  1.000 P
AVAUS    0.650 -1.000 P
AVAUW    1.150  1.000 P
# 2005 11 25 19 41 13.74  59.3613 -153.4298 -0.77 0.20 0.18 0.11 0.03   61144313
AVAUH    0.350  1.000 P
AVAUL    1.700  1.000 S
AVAUL    0.930  1.000 P
AVAUP    0.180 -1.000 P
AVAUR    0.250  1.000 P
AVAUS    0.230  1.000 P
AVAUW    1.070  1.000 P
# 2005 11 25 19 55 30.71  59.3583 -153.4277 -0.82 -0.10 0.35 0.16 0.06   61144323
AVAUH    0.650  1.000 P
AVAUP    0.270  1.000 P
AVAUR    0.210  1.000 P
AVAUS    0.200  1.000 P
AVAUW    1.080 -1.000 P
# 2005 11 25 20 33 15.95  59.3548 -153.4250 -0.85 0.00 0.28 0.10 0.03   61144333
AVAUH    0.590  1.000 P
AVAUL    2.180 -1.000 S
AVAUP    0.420  1.000 P
AVAUR    0.480  1.000 P
AVAUS    0.270  1.000 P
AVAUW    1.240 -1.000 P
# 2005 11 25 21 04 27.63  59.3590 -153.4302 -0.83 0.10 0.23 0.11 0.04   61144343
AVAUH    0.460  1.000 P
AVAUL    1.870 -1.000 S
AVAUP    0.320  1.000 P
AVAUR    0.180  1.000 P
AVAUS    0.180 -1.000 P
AVAUW    1.070 -1.000 P
# 2005 11 25 23 21 9.78  59.3608 -153.4300 -0.99 0.40 0.20 0.16 0.02   61144373
AVAUH    0.380 -1.000 P
AVAUP    0.220  1.000 P
AVAUR    0.130  1.000 P
AVAUS    0.140 -1.000 P
AVAUW    1.140  0.200 P
# 2005 11 25 23 21 27.35  59.3608 -153.4318 -1.04 0.10 0.14 0.14 0.03   61144378
AVAUH    0.420  1.000 P
AVAUP    0.220  1.000 P
AVAUR    0.080  1.000 P
AVAUS    0.110 -1.000 P
AVAUW    1.030 -1.000 P
# 2005 11 26 00 59 12.23  59.3557 -153.4333 -1.18 -0.10 0.39 0.97 0.11   61144398
AVAUH    0.650 -1.000 P
AVAUP    0.440 -1.000 P
AVAUR    0.270  1.000 P
AVAUS    0.240  1.000 P
# 2005 11 26 02 25 28.46  59.3565 -153.4210 -0.20 -0.40 0.39 0.11 0.04   61144423
AVAUH    0.670  1.000 P
AVAUL    1.800 -1.000 S
AVAUL    1.000  1.000 P
AVAUP    0.500 -1.000 P
AVAUS    0.500  1.000 P
AVAUW    1.040  1.000 P
# 2005 11 26 02 26 17.11  59.3582 -153.4335 -0.15 -0.20 0.18 0.09 0.07   61144428
AVAUH    0.530  1.000 P
AVAUI    1.520  1.000 S
AVAUI    0.850  1.000 P
AVAUL    1.600 -1.000 S
AVAUL    0.870  1.000 P
AVAUP    0.490  1.000 P
AVAUR    0.700  1.000 P
AVAUS    0.510  1.000 P
AVAUW    0.910  1.000 P
# 2005 11 26 09 00 27.47  59.3605 -153.4243 -0.44 -0.40 0.38 0.11 0.06   61144473
AVAUH    0.640  1.000 P
AVAUL    1.660 -1.000 S
AVAUL    0.880  1.000 P
AVAUP    0.330  1.000 P
AVAUR    0.480  1.000 P
AVAUS    0.350  1.000 P
AVAUW    0.950  1.000 P
# 2005 11 26 10 07 51.21  59.3592 -153.4258 -0.53 0.10 0.33 0.09 0.03   61144488
AVAUH    0.590  1.000 P
AVAUL    1.770 -1.000 S
AVAUP    0.310  1.000 P
AVAUR    0.340  1.000 P
AVAUS    0.360  1.000 P
AVAUW    0.990 -1.000 P
# 2005 11 26 11 30 3.90  59.3585 -153.4393  0.03 -0.10 0.21 0.19 0.12   61144518
AVAUE    1.040  1.000 P
AVAUH    0.250  1.000 P
AVAUI    1.500 -1.000 S
AVAUI    0.870  1.000 P
AVAUL    1.570  1.000 S
AVAUL    0.860  1.000 P
AVAUP    0.050  1.000 P
AVAUS    0.620  1.000 P
AVAUW    0.930  1.000 P
# 2005 11 26 11 59 45.00  59.3582 -153.4195  0.33 -0.20 0.25 0.20 0.10   61144533
AVAUE    0.700 -1.000 P
AVAUH    0.640  1.000 P
AVAUI    0.920  1.000 P
AVAUL    1.690 -1.000 S
AVAUL    0.940  1.000 P
AVAUP    0.670  1.000 P
AVAUS    0.720  1.000 P
AVAUW    1.000  1.000 P
# 2005 11 26 12 05 54.99  59.3593 -153.4248 -0.22 -0.30 0.31 0.10 0.05   61144538
AVAUH    0.520 -1.000 P
AVAUI    1.650 -1.000 S
AVAUL    1.620 -1.000 S
AVAUL    0.580  1.000 P
AVAUP    0.380  1.000 P
AVAUS    0.600  1.000 P
AVAUW    0.990  1.000 P
# 2005 11 26 12 12 53.57  59.3578 -153.4288 -0.02 -0.20 0.19 0.08 0.02   61144543
AVAUE    1.020  1.000 P
AVAUH    0.560  1.000 P
AVAUI    1.500 -1.000 S
AVAUI    0.820  1.000 P
AVAUL    1.590 -1.000 S
AVAUL    0.830  1.000 P
AVAUP    0.490  1.000 P
AVAUS    0.510  1.000 P
AVAUW    0.920  1.000 P
# 2005 11 26 12 39 33.18  59.3587 -153.4290 -0.14 -0.70 0.21 0.10 0.04   61144558
AVAUH    0.570  1.000 P
AVAUI    1.560 -1.000 S
AVAUI    0.920  1.000 P
AVAUL    1.600 -1.000 S
AVAUL    0.850  1.000 P
AVAUP    0.390 -1.000 P
AVAUS    0.520  1.000 P
AVAUW    0.920  1.000 P
# 2005 11 26 12 40 0.92  59.3592 -153.4308 -0.50 0.10 0.13 0.09 0.05   61144563
AVAUE    1.270  1.000 P
AVAUH    0.460  1.000 P
AVAUI    1.770 -1.000 S
AVAUI    0.910  1.000 P
AVAUL    1.740  1.000 S
AVAUL    0.900  1.000 P
AVAUP    0.340  1.000 P
AVAUR    0.400  1.000 P
AVAUS    0.340  1.000 P
AVAUW    0.980  1.000 P
# 2005 11 26 12 54 26.45  59.3582 -153.4300 -0.91 -0.30 0.30 0.19 0.06   61144573
AVAUH    0.500 -1.000 P
AVAUP    0.290  1.000 P
AVAUR    0.120  1.000 P
AVAUS    0.210  1.000 P
# 2005 11 26 13 07 48.80  59.3625 -153.4288 -0.54 0.20 0.34 0.10 0.06   61144578
AVAUH    0.470  1.000 P
AVAUP    0.290  1.000 P
AVAUR    0.450  1.000 P
AVAUS    0.340  1.000 P
AVAUW    0.940 -1.000 P
# 2005 11 26 13 30 48.67  59.3530 -153.4285 -0.81 -0.10 0.49 0.53 0.04   61144583
AVAUH    0.640 -1.000 P
AVAUP    0.430 -1.000 P
AVAUR    0.490  1.000 P
AVAUS    0.430  1.000 P
# 2005 11 26 13 50 58.43  59.3593 -153.4287 -0.54 0.10 0.24 0.09 0.03   61144608
AVAUE    1.140  1.000 P
AVAUH    0.540  1.000 P
AVAUL    1.740 -1.000 S
AVAUL    0.940  1.000 P
AVAUP    0.320  1.000 P
AVAUR    0.360  1.000 P
AVAUS    0.280  1.000 P
AVAUW    0.970  1.000 P
# 2005 11 26 16 15 22.25  59.3603 -153.4342 -0.66 0.00 0.55 0.35 0.01   61144648
AVAUH    0.830  1.000 P
AVAUP    0.330 -1.000 P
AVAUR    0.260  1.000 P
AVAUS    0.240 -1.000 P
# 2005 11 26 17 53 41.09  59.3590 -153.4268 -0.10 -0.30 0.19 0.09 0.04   61144678
AVAUH    0.580  1.000 P
AVAUI    0.860 -1.000 P
AVAUL    1.570 -1.000 S
AVAUL    0.830  1.000 P
AVAUP    0.480  1.000 P
AVAUS    0.510  1.000 P
AVAUW    0.910  1.000 P
# 2005 11 26 19 50 47.44  59.3577 -153.4260  0.20 -0.10 0.38 0.32 0.02   61144693
AVAUH    0.620 -1.000 P
AVAUI    1.450 -1.000 S
AVAUI    0.870  1.000 P
AVAUL    1.600  1.000 S
AVAUL    0.880 -1.000 P
AVAUP    0.530  1.000 P
AVAUS    0.920  1.000 P
AVAUW    0.940  1.000 P
# 2005 11 26 21 02 36.97  59.3573 -153.4155 -1.17 -0.10 1.46 4.22 0.26   61144718
AVAUH    0.730 -1.000 P
AVAUP    0.270  1.000 P
AVAUR    0.330 -1.000 P
AVAUS    0.180  1.000 P
# 2005 11 27 00 29 38.28  59.3577 -153.4315  0.03 0.40 0.25 0.38 0.04   61144748
AVAUH    0.550 -1.000 P
AVAUI    1.490 -1.000 S
AVAUI    0.820  1.000 P
AVAUL    1.560 -1.000 S
AVAUL    0.830  1.000 P
AVAUP    0.480  1.000 P
AVAUS    0.460  1.000 P
AVAUW    0.860  1.000 P
# 2005 11 27 01 49 21.45  59.3587 -153.4283  0.31 -0.10 0.26 0.21 0.04   61144763
AVAUE    1.040 -1.000 P
AVAUH    0.580  1.000 P
AVAUI    1.510  1.000 S
AVAUI    0.830  1.000 P
AVAUL    1.550  1.000 S
AVAUL    0.840  1.000 P
AVAUP    0.500  1.000 P
AVAUS    0.550  1.000 P
AVAUW    0.900  1.000 P
# 2005 11 27 04 31 34.80  59.3587 -153.4290 -0.03 0.20 0.18 0.07 0.02   61144793
AVAUE    1.020  1.000 P
AVAUH    0.530  1.000 P
AVAUI    1.550 -1.000 S
AVAUI    0.800  0.200 P
AVAUL    1.550 -1.000 S
AVAUL    0.830  1.000 P
AVAUP    0.470  1.000 P
AVAUS    0.500  1.000 P
AVAUW    0.890  1.000 P
# 2005 11 27 04 36 42.35  59.3545 -153.4282 -0.49 0.00 0.62 0.17 0.05   61144798
AVAUH    0.620  1.000 P
AVAUP    0.410 -1.000 P
AVAUR    0.560  1.000 P
AVAUS    0.450  1.000 P
AVAUW    1.050 -1.000 P
# 2005 11 27 05 00 54.33  59.3568 -153.4213 -0.70 0.20 0.58 0.50 0.03   61144803
AVAUH    0.650 -1.000 P
AVAUP    0.330 -1.000 P
AVAUR    0.490  1.000 P
AVAUS    0.320  1.000 P
# 2005 11 27 06 00 31.56  59.3548 -153.4213 -1.17 -0.60 0.34 1.23 0.06   61144818
AVAUH    0.770 -1.000 P
AVAUP    0.380  1.000 P
AVAUR    0.350  1.000 P
AVAUS    0.320  1.000 P
# 2005 11 27 06 00 35.63  59.3553 -153.4250 -1.17 0.00 0.36 1.31 0.08   61144823
AVAUH    0.670 -1.000 P
AVAUP    0.350 -1.000 P
AVAUR    0.270  1.000 P
AVAUS    0.230  1.000 P
# 2005 11 27 07 01 2.03  59.3565 -153.4362 -0.52 0.00 0.18 0.10 0.10   61144843
AVAUE    1.390  1.000 P
AVAUH    0.360  1.000 P
AVAUI    1.730 -1.000 S
AVAUI    0.910  1.000 P
AVAUL    1.940 -1.000 S
AVAUL    0.850  1.000 P
AVAUP    0.410  1.000 P
AVAUS    0.380  1.000 P
AVAUW    0.950  1.000 P
# 2005 11 27 07 11 19.09  59.3533 -153.4260 -0.43 -0.50 0.56 0.37 0.03   61144848
AVAUH    0.650 -1.000 P
AVAUP    0.470 -1.000 P
AVAUR    0.610  1.000 P
AVAUS    0.480 -1.000 P
# 2005 11 27 07 21 46.12  59.3602 -153.4292 -0.73 0.00 0.23 0.28 0.01   61144853
AVAUH    0.770  1.000 P
AVAUP    0.240  1.000 P
AVAUR    0.240  1.000 P
AVAUS    0.230  1.000 P
# 2005 11 27 12 59 34.00  59.3580 -153.4272 -0.17 -0.10 0.20 0.09 0.06   61144928
AVAUE    1.100  1.000 P
AVAUH    0.630  1.000 P
AVAUI    1.530  1.000 S
AVAUI    0.850  1.000 P
AVAUL    1.630 -1.000 S
AVAUL    0.900  1.000 P
AVAUP    0.490  1.000 P
AVAUS    0.510  1.000 P
AVAUW    0.910  1.000 P
# 2005 11 27 15 29 25.82  59.3582 -153.4277 -0.58 0.20 0.28 0.10 0.05   61144963
AVAUH    0.670  1.000 P
AVAUL    1.790  1.000 S
AVAUL    0.970  1.000 P
AVAUP    0.340  1.000 P
AVAUR    0.330  1.000 P
AVAUS    0.330  1.000 P
AVAUW    1.050  1.000 P
# 2005 11 27 16 41 18.67  59.3590 -153.4293 -0.62 0.10 0.15 0.08 0.05   61144978
AVAUE    1.180  1.000 P
AVAUH    0.530  1.000 P
AVAUI    1.820 -1.000 S
AVAUL    1.750  1.000 S
AVAUL    0.960  1.000 P
AVAUP    0.340  1.000 P
AVAUR    0.380  1.000 P
AVAUS    0.310  1.000 P
AVAUW    1.020  1.000 P
# 2005 11 27 17 01 47.59  59.3577 -153.4287 -0.51 0.20 0.70 0.14 0.08   61144983
AVAUH    0.650 -1.000 P
AVAUL    1.790 -1.000 S
AVAUL    0.970  1.000 P
AVAUP    0.460 -1.000 P
AVAUR    0.270  1.000 P
AVAUS    0.300  1.000 P
# 2005 11 27 17 17 52.89  59.3582 -153.4238 -0.47 0.20 0.46 0.11 0.05   61144988
AVAUH    0.570  1.000 P
AVAUL    1.840 -1.000 S
AVAUL    0.970  1.000 P
AVAUP    0.360  1.000 P
AVAUR    0.540  1.000 P
AVAUS    0.420  1.000 P
AVAUW    1.030  1.000 P
# 2005 11 27 18 21 54.84  59.3575 -153.4340 -0.57 0.40 0.28 0.10 0.07   61145003
AVAUE    1.300  1.000 P
AVAUH    0.500  1.000 P
AVAUL    1.770 -1.000 S
AVAUL    0.970  1.000 P
AVAUL    0.510  1.000 P
AVAUP    0.360  1.000 P
AVAUR    0.250  1.000 P
AVAUS    0.260  1.000 P
AVAUW    1.050  1.000 P
# 2005 11 27 20 38 17.41  59.3657 -153.4217 -0.25 -0.20 0.31 0.10 0.09   61145018
AVAUE    0.790 -1.000 P
AVAUH    0.660  1.000 P
AVAUI    2.050 -1.000 S
AVAUI    1.310  1.000 P
AVAUL    1.330 -1.000 S
AVAUL    0.760  1.000 P
AVAUP    0.290  1.000 P
AVAUS    0.420  1.000 P
AVAUW    0.630  1.000 P
# 2005 11 27 21 29 28.34  59.3573 -153.4260 -0.56 -0.20 0.50 0.11 0.08   61145033
AVAUH    0.670  1.000 P
AVAUL    1.860 -1.000 S
AVAUL    1.000  1.000 P
AVAUP    0.390  1.000 P
AVAUR    0.550  1.000 P
AVAUS    0.260  1.000 P
AVAUW    1.040  1.000 P
# 2005 11 27 21 43 44.24  59.3542 -153.4268 -1.17 -0.50 0.38 1.41 0.10   61145038
AVAUH    0.720 -1.000 P
AVAUP    0.470 -1.000 P
AVAUR    0.490  1.000 P
AVAUS    0.150  1.000 P
# 2005 11 27 21 46 12.29  59.3605 -153.4317 -1.17 -0.30 0.20 0.49 0.10   61145043
AVAUH    0.530  1.000 P
AVAUL    1.820 -1.000 S
AVAUP    0.260  1.000 P
AVAUR   -0.020 -1.000 P
AVAUS   -0.080  1.000 P
# 2005 11 27 22 09 13.75  59.3558 -153.4252 -0.61 0.20 0.28 0.10 0.07   61145053
AVAUE    1.130 -1.000 P
AVAUH    0.740  1.000 P
AVAUL    1.960 -1.000 S
AVAUL    1.070  1.000 P
AVAUP    0.490  1.000 P
AVAUR    0.340  1.000 P
AVAUS    0.300  1.000 P
AVAUW    1.150  1.000 P
# 2005 11 27 22 41 56.03  59.3568 -153.4093 -0.23 -0.30 0.86 0.24 0.07   61145068
AVAUH    1.120  1.000 P
AVAUL    1.900 -1.000 S
AVAUL    1.090 -1.000 P
AVAUP    0.570 -1.000 P
AVAUR    0.690  1.000 P
AVAUS    0.620  1.000 P
# 2005 11 27 23 00 48.68  59.3587 -153.4240 -0.53 -0.10 0.53 0.10 0.06   61145078
AVAUH    0.710  1.000 P
AVAUL    1.800 -1.000 S
AVAUL    0.920  1.000 P
AVAUP    0.340  1.000 P
AVAUR    0.460  1.000 P
AVAUS    0.370  1.000 P
# 2005 11 28 00 05 51.89  59.3587 -153.4237 -0.49 -0.10 0.33 0.12 0.08   61145083
AVAUE    1.010 -1.000 P
AVAUH    0.650  1.000 P
AVAUL    1.770 -1.000 S
AVAUL    0.930  1.000 P
AVAUP    0.340  1.000 P
AVAUR    0.580  1.000 P
AVAUS    0.380  1.000 P
AVAUW    0.990  1.000 P
# 2005 11 28 00 35 56.72  59.3620 -153.4330 -0.44 -0.30 1.24 0.98 0.03   61145098
AVAUL    1.510 -1.000 S
AVAUL    0.790  1.000 P
AVAUP    0.380  1.000 P
AVAUS    0.340 -1.000 P
AVAUW    0.900 -1.000 P
# 2005 11 28 00 49 3.12  59.3580 -153.4312  0.16 0.00 0.21 0.16 0.02   61145103
AVAUE    1.020 -1.000 P
AVAUH    0.510  1.000 P
AVAUI    1.480  1.000 S
AVAUI    0.820  1.000 P
AVAUL    1.560 -1.000 S
AVAUL    0.860  1.000 P
AVAUP    0.550  1.000 P
AVAUR    0.840  1.000 P
AVAUS    0.590  1.000 P
AVAUW    0.850  1.000 P
# 2005 11 28 05 07 46.83  59.3587 -153.4310 -0.39 -0.20 0.35 0.10 0.05   61145153
AVAUE    1.180  1.000 P
AVAUH    0.450  1.000 P
AVAUL    1.740 -1.000 S
AVAUL    0.870  1.000 P
AVAUP    0.310  1.000 P
AVAUR    0.450  1.000 P
AVAUS    0.300  1.000 P
AVAUW    0.930 -1.000 P
# 2005 11 28 09 57 57.17  59.3585 -153.4262 -0.39 -0.80 0.50 0.11 0.06   61145208
AVAUH    0.680  1.000 P
AVAUL    1.720 -1.000 S
AVAUL    0.930  1.000 P
AVAUP    0.400  1.000 P
AVAUS    0.400  1.000 P
AVAUW    0.970  1.000 P
# 2005 11 28 10 27 22.88  59.3578 -153.4302 -0.18 -0.60 0.24 0.09 0.05   61145218
AVAUE    1.030  1.000 P
AVAUH    0.560  1.000 P
AVAUI    1.580 -1.000 S
AVAUI    0.860  1.000 P
AVAUL    1.650 -1.000 S
AVAUL    0.860  1.000 P
AVAUP    0.550  1.000 P
AVAUS    0.470  1.000 P
AVAUW    0.900  1.000 P
# 2005 11 28 12 05 37.88  59.3590 -153.4278 -0.38 0.20 0.63 0.15 0.09   61145243
AVAUH    0.610  1.000 P
AVAUL    1.660 -1.000 S
AVAUL    0.880  1.000 P
AVAUP    0.350  1.000 P
AVAUR    0.620  1.000 P
AVAUS    0.350  1.000 P
AVAUW    0.940  1.000 P
# 2005 11 28 12 21 35.69  59.3583 -153.4267 -0.16 -0.70 0.15 0.09 0.06   61145248
AVAUE    1.080  1.000 P
AVAUH    0.600  1.000 P
AVAUI    1.520 -1.000 S
AVAUI    0.880  1.000 P
AVAUL    1.580  1.000 S
AVAUL    0.860  1.000 P
AVAUP    0.480  1.000 P
AVAUS    0.510  1.000 P
AVAUW    0.910  1.000 P
# 2005 11 28 13 06 58.84  59.3588 -153.4262 -0.34 -0.90 0.42 0.16 0.11   61145258
AVAUE    1.120 -1.000 P
AVAUH    0.610  1.000 P
AVAUL    1.730 -1.000 S
AVAUL    0.750  1.000 P
AVAUP    0.280  1.000 P
AVAUR    0.600  1.000 P
AVAUS    0.220  1.000 P
AVAUW    1.020  1.000 P
# 2005 11 28 14 38 33.68  59.3602 -153.4302 -0.38 -0.40 0.33 0.13 0.04   61145273
AVAUE    1.160 -1.000 P
AVAUH    0.480 -1.000 P
AVAUL    1.620 -1.000 S
AVAUL    0.830  1.000 P
AVAUP    0.330  1.000 P
AVAUS    0.340  1.000 P
AVAUW    0.930  1.000 P
# 2005 11 28 17 34 32.35  59.3595 -153.4202 -1.13 -0.40 0.46 1.28 0.04   61145363
AVAUH    0.670 -1.000 P
AVAUP    0.170 -1.000 P
AVAUR    0.250 -1.000 P
AVAUS    0.330  1.000 P
# 2005 11 28 19 45 3.90  59.3585 -153.4252 -0.53 -0.20 0.31 0.08 0.04   61145413
AVAUH    0.640  1.000 P
AVAUL    1.800 -1.000 S
AVAUL    0.960  1.000 P
AVAUP    0.350  1.000 P
AVAUR    0.430  1.000 P
AVAUS    0.350  1.000 P
AVAUW    1.000  1.000 P
# 2005 11 28 23 41 28.31  59.3610 -153.4312 -0.40 -0.50 0.40 0.22 0.04   61145443
AVAUH    0.440  1.000 P
AVAUL    0.870 -1.000 P
AVAUP    0.310  1.000 P
AVAUR    0.430  1.000 P
AVAUS    0.330  1.000 P
AVAUW    1.650  1.000 P
# 2005 11 28 23 56 17.85  59.3565 -153.4272 -0.41 -0.30 0.32 0.10 0.04   61145453
AVAUH    0.540  1.000 P
AVAUL    1.850 -1.000 S
AVAUL    0.980  1.000 P
AVAUP    0.390 -1.000 P
AVAUR    0.540  1.000 P
AVAUS    0.400  1.000 P
AVAUW    1.040 -1.000 P
# 2005 11 29 01 47 4.02  59.3542 -153.4217 -0.31 -0.60 0.42 0.13 0.04   61145528
AVAUH    0.670  1.000 P
AVAUL    1.920 -1.000 S
AVAUL    1.100  1.000 P
AVAUP    0.530 -1.000 P
AVAUR    0.610  1.000 P
AVAUS    0.540  1.000 P
AVAUW    1.160  1.000 P
# 2005 11 29 02 03 41.04  59.3565 -153.4248 -0.56 0.10 0.30 0.11 0.11   61145543
AVAUE    1.280  1.000 P
AVAUH    0.670  1.000 P
AVAUL    1.840  1.000 S
AVAUL    1.830  1.000 S
AVAUL    1.020  1.000 P
AVAUP    0.410  1.000 P
AVAUR    0.430  1.000 P
AVAUS    0.360  1.000 P
AVAUW    1.100  1.000 P
# 2005 11 29 03 21 12.14  59.3575 -153.4102 -1.16 -0.40 0.69 1.03 0.10   61145563
AVAUH    1.110  1.000 P
AVAUL    2.310 -1.000 S
AVAUL    1.440  1.000 P
AVAUP    0.400  1.000 P
AVAUR    0.450  1.000 P
AVAUS    0.490  1.000 P
# 2005 11 29 03 29 55.37  59.3650 -153.4332 -0.90 0.00 0.15 0.23 0.05   61145568
AVAUE    1.270  1.000 P
AVAUH    0.360  1.000 P
AVAUI    2.940  1.000 S
AVAUI    1.310 -1.000 P
AVAUL    1.330 -1.000 S
AVAUL    0.870  1.000 P
AVAUP    0.320  1.000 P
AVAUR    0.210  1.000 P
AVAUS    0.210  1.000 P
AVAUW    0.930  1.000 P
# 2005 11 29 04 15 42.09  59.3530 -153.4193 -0.38 0.00 0.32 0.18 0.07   61145578
AVAUH    0.720  1.000 P
AVAUL    2.000 -1.000 S
AVAUL    1.200  1.000 P
AVAUP    0.610  1.000 P
AVAUR    0.530  1.000 P
AVAUS    0.550  1.000 P
AVAUW    1.280  1.000 P
# 2005 11 29 07 18 1.75  59.3565 -153.4278 -0.66 -0.10 0.23 0.11 0.04   61145633
AVAUE    1.130  1.000 P
AVAUH    0.560  1.000 P
AVAUL    1.950 -1.000 S
AVAUL    1.090  1.000 P
AVAUP    0.410  1.000 P
AVAUR    0.300  1.000 P
AVAUS    0.320  1.000 P
AVAUW    1.140  1.000 P
# 2005 11 29 07 24 51.07  59.3613 -153.4292 -1.17 -0.40 0.23 0.52 0.10   61145643
AVAUH    0.360  1.000 P
AVAUP    0.120  1.000 P
AVAUR    0.020 -1.000 P
AVAUS    0.020  1.000 P
AVAUW    1.300  1.000 P
# 2005 11 29 08 08 26.10  59.3585 -153.4248 -0.54 -0.10 0.55 0.11 0.07   61145673
AVAUH    0.680  1.000 P
AVAUL    1.730 -1.000 S
AVAUL    1.000  1.000 P
AVAUP    0.350 -1.000 P
AVAUR    0.470  1.000 P
AVAUS    0.290  1.000 P
# 2005 11 29 13 30 27.92  59.3592 -153.4247 -0.50 -0.40 0.38 0.08 0.04   61145723
AVAUH    0.600  1.000 P
AVAUL    1.760 -1.000 S
AVAUL    0.950  1.000 P
AVAUP    0.310  1.000 P
AVAUR    0.440  1.000 P
AVAUW    0.980  1.000 P
# 2005 11 29 16 13 53.51  59.3545 -153.4245 -0.19 -0.20 0.27 0.10 0.05   61145743
AVAUE    0.990  1.000 P
AVAUH    0.620  1.000 P
AVAUL    1.880 -1.000 S
AVAUL    1.060  1.000 P
AVAUP    0.470  1.000 P
AVAUR    0.590  1.000 P
AVAUS    0.520  1.000 P
AVAUW    1.120  1.000 P
# 2005 11 29 16 41 56.40  59.3612 -153.4303 -0.56 0.30 0.22 0.11 0.06   61145758
AVAUE    0.460  1.000 P
AVAUH    0.440  1.000 P
AVAUL    1.710 -1.000 S
AVAUL    0.870  1.000 P
AVAUP    0.260  1.000 P
AVAUR    0.320  1.000 P
AVAUS    0.330  1.000 P
AVAUW    0.940 -1.000 P
# 2005 11 29 19 13 13.42  59.3553 -153.4257 -0.95 -0.30 0.41 0.63 0.01   61145833
AVAUH    0.610 -1.000 P
AVAUP    0.370 -1.000 P
AVAUR    0.400  1.000 P
AVAUS    0.270 -1.000 P
# 2005 11 30 03 22 38.30  59.3588 -153.4267 -0.52 0.10 0.51 0.09 0.03   61145928
AVAUH    0.500  1.000 P
AVAUL    1.780 -1.000 S
AVAUL    1.400  1.000 P
AVAUP    0.320 -1.000 P
AVAUR    0.380  1.000 P
AVAUS    0.360  1.000 P
AVAUW    0.990  1.000 P
