# 2005 10 08 19 39 52.46  59.3578 -153.4310 -0.34 -0.40 0.19 0.09 0.06   61129883
AVAUH    0.510  1.000 P
AVAUI    1.630 -1.000 S
AVAUI    0.890  1.000 P
AVAUL    2.250  1.000 S
AVAUL    0.870  1.000 P
AVAUP    0.450  1.000 P
AVAUR    0.430  1.000 P
AVAUS    0.470  1.000 P
AVAUW    0.930  1.000 P
# 2005 10 08 20 27 58.28  59.3592 -153.4315 -0.56 0.00 0.12 0.06 0.04   61129933
AVAUE    1.190  1.000 P
AVAUH    0.470  1.000 P
AVAUI    1.760 -1.000 S
AVAUI    1.060  1.000 P
AVAUL    1.800 -1.000 S
AVAUL    0.930  1.000 P
AVAUP    0.360  1.000 P
AVAUR    0.290  1.000 P
AVAUS    0.320  1.000 P
AVAUW    0.990  1.000 P
# 2005 10 08 22 22 59.41  59.3625 -153.4302 -0.81 -0.20 0.24 0.12 0.03   61129988
AVAUH    0.430  1.000 P
AVAUP    0.240  1.000 P
AVAUR    0.150  1.000 P
AVAUS    0.200  1.000 P
AVAUW    1.010 -1.000 P
# 2005 10 09 00 07 8.69  59.3603 -153.4268 -0.63 -0.40 0.53 0.14 0.09   61130033
AVAUH    0.670  1.000 P
AVAUP    0.250  1.000 P
AVAUR    0.250  1.000 P
AVAUS    0.310 -1.000 P
AVAUW    0.970 -1.000 P
# 2005 10 09 06 46 28.68  59.3587 -153.4295 -0.26 -0.30 0.18 0.08 0.06   61130243
AVAUE    1.080  1.000 P
AVAUH    0.560  1.000 P
AVAUI    1.650  1.000 S
AVAUI    0.870  1.000 P
AVAUL    1.630  1.000 S
AVAUL    1.640  1.000 S
AVAUL    0.900  1.000 P
AVAUP    0.450  1.000 P
AVAUR    0.440  1.000 P
AVAUS    0.480  1.000 P
AVAUW    0.920  1.000 P
# 2005 10 09 07 15 11.90  59.3583 -153.4287  0.00 -0.70 0.25 0.08 0.03   61130263
AVAUH    0.590  1.000 P
AVAUI    1.560 -0.200 S
AVAUL    1.550 -1.000 S
AVAUL    0.850  1.000 P
AVAUP    0.440  1.000 P
AVAUR    0.460  0.200 P
AVAUS    0.520  1.000 P
AVAUW    0.910  1.000 P
# 2005 10 09 08 58 4.73  59.3590 -153.4283 -0.42 0.20 0.15 0.09 0.06   61130393
AVAUE    1.100  1.000 P
AVAUH    0.570  1.000 P
AVAUI    1.670  1.000 S
AVAUI    0.930  1.000 P
AVAUL    1.370  1.000 S
AVAUL    0.920  1.000 P
AVAUP    0.430  1.000 P
AVAUR    0.410  1.000 P
AVAUS    0.450  1.000 P
AVAUW    0.990  1.000 P
# 2005 10 09 20 38 37.65  59.3585 -153.4302  0.02 0.00 0.18 0.14 0.04   61130913
AVAUE    1.000  1.000 P
AVAUH    0.600  1.000 P
AVAUI    0.860 -1.000 P
AVAUL    0.830  1.000 P
AVAUP    0.490  1.000 P
AVAUR    0.450  1.000 P
AVAUS    0.500  1.000 P
AVAUW    0.880  1.000 P
# 2005 10 09 21 40 54.77  59.3582 -153.4343 -0.15 -0.10 0.17 0.09 0.08   61130953
AVAUE    1.030  1.000 P
AVAUH    0.590  1.000 P
AVAUI    1.510  1.000 S
AVAUI    0.880  1.000 P
AVAUL    1.630  1.000 S
AVAUL    0.860  1.000 P
AVAUP    0.630  1.000 P
AVAUR    0.470  1.000 P
AVAUS    0.530  1.000 P
AVAUW    0.900  1.000 P
# 2005 10 09 23 11 10.61  59.3590 -153.4313 -0.71 -0.10 0.13 0.07 0.06   61130988
AVAUE    1.220  1.000 P
AVAUH    0.460  1.000 P
AVAUI    1.800 -1.000 S
AVAUI    1.050  1.000 P
AVAUL    1.850 -1.000 S
AVAUL    0.970  1.000 P
AVAUP    0.350  1.000 P
AVAUR    0.270  1.000 P
AVAUS    0.320  1.000 P
AVAUW    1.020  1.000 P
# 2005 10 10 00 38 20.46  59.3608 -153.4290 -0.21 0.10 0.21 0.10 0.09   61131053
AVAUE    1.070  1.000 P
AVAUH    0.590  1.000 P
AVAUI    1.650  1.000 S
AVAUI    0.920  1.000 P
AVAUL    1.360 -1.000 S
AVAUL    0.900  1.000 P
AVAUP    0.510  1.000 P
AVAUR    0.440  1.000 P
AVAUS    0.510  1.000 P
AVAUW    0.960  1.000 P
# 2005 10 10 00 45 33.26  59.3618 -153.4285 -0.27 0.20 0.19 0.10 0.09   61131058
AVAUE    1.150  1.000 P
AVAUH    0.550  1.000 P
AVAUI    1.740 -1.000 S
AVAUI    0.920  1.000 P
AVAUL    1.290 -1.000 S
AVAUL    0.900  1.000 P
AVAUP    0.390  1.000 P
AVAUR    0.380  1.000 P
AVAUS    0.430  1.000 P
AVAUW    0.950  1.000 P
# 2005 10 10 00 47 9.06  59.3585 -153.4250 -0.55 -0.40 0.24 0.10 0.08   61131073
AVAUH    0.620  1.000 P
AVAUI    1.000 -1.000 P
AVAUL    1.810  1.000 S
AVAUL    1.000  1.000 P
AVAUP    0.240 -1.000 P
AVAUR    0.580  1.000 P
AVAUS    0.200  1.000 P
AVAUW    1.070  1.000 P
# 2005 10 10 00 47 16.33  59.3612 -153.4330 -0.45 -0.30 0.26 0.12 0.12   61131078
AVAUH    0.890  1.000 P
AVAUI    1.870 -1.000 S
AVAUI    1.060  1.000 P
AVAUL    1.490 -1.000 S
AVAUL    0.750  1.000 P
AVAUP    0.420  1.000 P
AVAUR    0.140  1.000 P
AVAUS    0.200  1.000 P
AVAUW    1.130  1.000 P
# 2005 10 10 01 16 6.09  59.3623 -153.4313 -0.55 -0.30 0.22 0.13 0.05   61131088
AVAUH    0.450  1.000 P
AVAUL    1.590 -1.000 S
AVAUL    0.800  1.000 P
AVAUP    0.340  1.000 P
AVAUR    0.270  1.000 P
AVAUS    0.340  1.000 P
AVAUW    0.880 -1.000 P
# 2005 10 10 02 38 58.20  59.3543 -153.4318  0.55 -0.40 0.27 0.20 0.09   61131123
AVAUE    1.090 -1.000 P
AVAUH    0.770  1.000 P
AVAUI    1.100 -1.000 S
AVAUI    0.890  1.000 P
AVAUL    0.880  1.000 P
AVAUP    0.730  1.000 P
AVAUR    0.870  1.000 P
AVAUS    0.760  1.000 P
AVAUW    0.960  1.000 P
# 2005 10 10 02 49 46.90  59.3592 -153.4355 -0.43 -0.10 0.42 0.14 0.09   61131128
AVAUE    1.330 -1.000 P
AVAUH    0.490 -1.000 P
AVAUL    1.600 -1.000 S
AVAUL    0.800  1.000 P
AVAUP    0.320  1.000 P
AVAUR    0.280  1.000 P
AVAUS    0.340  1.000 P
AVAUW    0.880  1.000 P
# 2005 10 10 03 38 13.15  59.3625 -153.4295 -1.08 0.00 0.14 0.26 0.02   61131168
AVAUH    0.440  1.000 P
AVAUP    0.180  1.000 P
AVAUR    0.110  1.000 P
AVAUS    0.150  1.000 P
AVAUW    1.070 -1.000 P
# 2005 10 10 04 37 9.00  59.3555 -153.4325 -0.33 -0.50 0.36 0.11 0.09   61131193
AVAUH    0.570  1.000 P
AVAUL    1.890 -1.000 S
AVAUL    1.140  1.000 P
AVAUP    0.480 -1.000 P
AVAUR    0.440  1.000 P
AVAUS    0.490  1.000 P
AVAUW    0.900  1.000 P
# 2005 10 10 05 25 21.08  59.3568 -153.4342 -0.40 0.40 0.18 0.09 0.08   61131203
AVAUE    1.120  1.000 P
AVAUH    0.520  1.000 P
AVAUI    1.690 -1.000 S
AVAUI    0.910  1.000 P
AVAUL    1.850  1.000 S
AVAUL    0.870  1.000 P
AVAUP    0.380  1.000 P
AVAUR    0.330  1.000 P
AVAUS    0.390  1.000 P
AVAUW    0.950  1.000 P
# 2005 10 10 05 50 25.66  59.3618 -153.4345 -0.98 -0.80 0.20 0.27 0.02   61131213
AVAUH    0.250  1.000 P
AVAUP    0.260  1.000 P
AVAUR    0.090 -1.000 P
AVAUS    0.150  1.000 P
# 2005 10 10 06 30 45.51  59.3578 -153.4263 -1.18 -0.90 0.34 1.10 0.06   61131238
AVAUH    0.550 -1.000 P
AVAUP    0.340 -1.000 P
AVAUR    0.170  1.000 P
AVAUS    0.140 -1.000 P
# 2005 10 10 08 34 2.49  59.3588 -153.4160 -0.16 0.10 0.32 0.17 0.06   61131283
AVAUH    0.780  1.000 P
AVAUI    1.670 -1.000 S
AVAUP    0.540  1.000 P
AVAUR    0.530  1.000 P
AVAUS    0.540  1.000 P
AVAUW    1.170 -1.000 P
# 2005 10 10 10 00 51.77  59.3583 -153.4325 -0.26 0.40 0.18 0.10 0.09   61131343
AVAUE    1.210  1.000 P
AVAUH    0.540  1.000 P
AVAUI    0.850  1.000 P
AVAUL    1.440  1.000 S
AVAUL    0.870  0.200 P
AVAUP    0.340  1.000 P
AVAUR    0.380  1.000 P
AVAUS    0.360  1.000 P
AVAUW    0.940  1.000 P
# 2005 10 10 10 01 48.50  59.3510 -153.4202 -1.12 -0.60 1.26 3.93 0.24   61131348
AVAUH    1.210 -1.000 P
AVAUP    0.540 -1.000 P
AVAUR    0.430  1.000 P
AVAUS    0.480 -1.000 P
# 2005 10 10 10 53 39.78  59.3580 -153.4288 -0.42 -0.70 0.34 0.17 0.10   61131358
AVAUE    1.170 -1.000 P
AVAUH    0.440  1.000 P
AVAUI    1.010 -1.000 P
AVAUP    0.310 -1.000 P
AVAUR    0.290  1.000 P
AVAUS    0.290  1.000 P
AVAUW    0.990 -1.000 P
# 2005 10 10 11 48 49.81  59.3567 -153.4265 -0.22 -0.30 0.23 0.10 0.08   61131383
AVAUE    1.000  1.000 P
AVAUH    0.550  1.000 P
AVAUI    1.530 -1.000 S
AVAUI    1.000  0.200 P
AVAUL    1.920 -1.000 S
AVAUP    0.460  1.000 P
AVAUS    0.470  1.000 P
AVAUW    0.870  1.000 P
# 2005 10 10 12 42 30.97  59.3623 -153.4218  0.16 0.00 0.57 0.32 0.17   61131403
AVAUH    0.490  1.000 P
AVAUI    1.430  1.000 S
AVAUI    1.280  1.000 P
AVAUL    1.420 -1.000 S
AVAUP    0.470  1.000 P
AVAUR    0.780  1.000 P
AVAUS    0.530  1.000 P
AVAUW    0.800  1.000 P
# 2005 10 10 14 33 50.71  59.3568 -153.4275 -1.19 -0.30 0.34 0.66 0.11   61131448
AVAUH    0.620  1.000 P
AVAUP    0.240  1.000 P
AVAUR    0.080  1.000 P
AVAUS    0.210  1.000 P
# 2005 10 10 16 14 12.53  59.3602 -153.4283 -0.27 0.20 0.21 0.10 0.08   61131523
AVAUE    1.090  1.000 P
AVAUH    0.570  1.000 P
AVAUI    1.260  1.000 S
AVAUI    0.890  1.000 P
AVAUL    1.430 -1.000 S
AVAUP    0.430  1.000 P
AVAUS    0.390  1.000 P
AVAUW    0.940  1.000 P
# 2005 10 10 16 37 4.14  59.3580 -153.4362 -0.43 0.10 0.24 0.11 0.13   61131558
AVAUE    1.380  1.000 P
AVAUH    0.370  1.000 P
AVAUI    1.620 -1.000 S
AVAUI    1.290  1.000 P
AVAUL    1.870  1.000 S
AVAUL    0.980  1.000 P
AVAUP    0.310  1.000 P
AVAUR    0.360  1.000 P
AVAUS    0.260  1.000 P
AVAUW    0.660  1.000 P
# 2005 10 10 17 39 42.11  59.3583 -153.4303 -0.05 -0.50 0.24 0.09 0.04   61131583
AVAUH    0.550  1.000 P
AVAUI    1.530 -1.000 S
AVAUL    1.520 -1.000 S
AVAUL    0.790  1.000 P
AVAUP    0.470  1.000 P
AVAUS    0.490  1.000 P
AVAUW    0.960  1.000 P
# 2005 10 10 20 59 35.37  59.3547 -153.4345  0.63 -0.30 0.64 0.78 0.09   61131653
AVAUH    0.620  1.000 P
AVAUL    1.720 -1.000 S
AVAUL    1.050 -1.000 P
AVAUP    0.630 -1.000 P
AVAUS    0.650  1.000 P
AVAUW    1.040 -1.000 P
# 2005 10 10 23 27 56.38  59.3602 -153.4282 -0.88 -0.20 0.21 0.13 0.07   61131718
AVAUE    1.080  1.000 P
AVAUH    0.490  1.000 P
AVAUL    1.790 -1.000 S
AVAUL    1.220  1.000 P
AVAUP    0.180  1.000 P
AVAUR    0.170  1.000 P
AVAUS    0.220 -1.000 P
AVAUW    1.150  1.000 P
# 2005 10 11 06 24 47.40  59.3565 -153.4233 -1.18 -0.50 0.33 1.21 0.06   61131868
AVAUH    0.650 -1.000 P
AVAUP    0.240  1.000 P
AVAUR    0.290  1.000 P
AVAUS    0.330  1.000 P
# 2005 10 11 07 11 22.14  59.3592 -153.4232  0.10 0.00 1.05 0.22 0.08   61131893
AVAUH    0.600  1.000 P
AVAUP    0.480 -1.000 P
AVAUR    0.720  1.000 P
AVAUS    0.490  1.000 P
AVAUW    0.900 -1.000 P
# 2005 10 11 08 10 59.16  59.3567 -153.4328 -0.67 -0.40 0.21 0.11 0.12   61131933
AVAUH    0.430  1.000 P
AVAUI    1.980  1.000 S
AVAUI    0.860  1.000 P
AVAUL    2.090 -1.000 S
AVAUL    0.800  0.200 P
AVAUP    0.350  1.000 P
AVAUS    0.160  1.000 P
AVAUW    0.930  1.000 P
# 2005 10 11 09 59 11.27  59.3495 -153.4193 -1.17 -0.20 0.87 3.82 0.24   61131973
AVAUH    1.090 -1.000 P
AVAUP    0.640 -1.000 P
AVAUR    0.630  1.000 P
AVAUS    0.360  1.000 P
# 2005 10 11 14 11 50.38  59.3627 -153.4283 -0.09 -0.50 0.25 0.11 0.04   61132038
AVAUH    0.530 -1.000 P
AVAUL    1.260 -1.000 S
AVAUL    0.820  1.000 P
AVAUP    0.460  1.000 P
AVAUS    0.450  1.000 P
AVAUW    0.860  1.000 P
# 2005 10 11 14 11 57.06  59.3588 -153.4392  0.36 0.00 0.22 0.39 0.13   61132043
AVAUH    0.620  1.000 P
AVAUI    1.580 -1.000 S
AVAUI    0.880  1.000 P
AVAUL    1.620  1.000 S
AVAUL    0.870  1.000 P
AVAUP    0.540  1.000 P
AVAUR    0.810  1.000 P
AVAUS    0.580  1.000 P
AVAUW    0.930  1.000 P
# 2005 10 11 14 21 43.23  59.3585 -153.4293 -0.70 0.30 0.13 0.08 0.05   61132048
AVAUE    1.190  1.000 P
AVAUH    0.440  1.000 P
AVAUI    1.960 -1.000 S
AVAUI    0.970  1.000 P
AVAUL    1.840  1.000 S
AVAUL    1.000  1.000 P
AVAUP    0.320  1.000 P
AVAUR    0.270  1.000 P
AVAUS    0.290  1.000 P
AVAUW    1.020  1.000 P
# 2005 10 11 15 28 38.44  59.3635 -153.4258  0.16 -0.40 0.40 0.24 0.07   61132088
AVAUH    0.660  1.000 P
AVAUI    1.770 -1.000 S
AVAUP    0.600  1.000 P
AVAUR    0.910  1.000 P
AVAUS    0.580  1.000 P
AVAUW    0.780 -1.000 P
# 2005 10 11 16 44 59.64  59.3558 -153.4318 -0.32 0.00 0.21 0.09 0.06   61132143
AVAUH    0.520 -1.000 P
AVAUI    1.540 -1.000 S
AVAUI    0.830  1.000 P
AVAUL    1.920 -1.000 S
AVAUL    0.840  1.000 P
AVAUP    0.500  1.000 P
AVAUR    0.500  1.000 P
AVAUS    0.420  1.000 P
AVAUW    0.940  1.000 P
# 2005 10 11 17 29 5.64  59.3648 -153.4335 -0.44 -0.70 0.17 0.29 0.07   61132153
AVAUH    0.460  1.000 P
AVAUL    1.290 -1.000 S
AVAUL    0.740  1.000 P
AVAUP    0.450  1.000 P
AVAUS    0.400  1.000 P
AVAUW    0.810 -1.000 P
# 2005 10 11 22 35 6.39  59.3597 -153.4312  0.13 -0.60 0.26 0.31 0.10   61132283
AVAUH    0.570  1.000 P
AVAUI    1.520 -1.000 S
AVAUP    0.480  1.000 P
AVAUR    0.580  1.000 P
AVAUS    0.660  1.000 P
AVAUW    0.940 -1.000 P
# 2005 10 11 23 00 31.07  59.3583 -153.4377  0.03 -0.20 0.17 0.24 0.10   61132308
AVAUH    0.520  1.000 P
AVAUI    0.790 -1.000 P
AVAUL    1.320  1.000 S
AVAUL    0.820  1.000 P
AVAUP    0.540  1.000 P
AVAUR    0.430  1.000 P
AVAUS    0.510  1.000 P
AVAUW    0.890  1.000 P
# 2005 10 12 23 27 32.53  59.3618 -153.4257 -1.18 -0.30 0.29 0.67 0.09   61132843
AVAUH    0.670  0.200 P
AVAUP    0.110 -1.000 P
AVAUR    0.040 -1.000 P
AVAUS    0.150  1.000 P
# 2005 10 13 09 41 50.91  59.3610 -153.4265 -1.19 -0.30 0.28 0.68 0.12   61133063
AVAUH    0.520  1.000 P
AVAUP    0.350  1.000 P
AVAUR    0.180  1.000 P
AVAUS    0.210  1.000 P
# 2005 10 13 12 16 7.56  59.3588 -153.4237 -0.04 0.10 0.32 0.09 0.05   61133158
AVAUH    0.580 -1.000 P
AVAUI    1.580  1.000 S
AVAUI    0.850  1.000 P
AVAUL    1.570 -1.000 S
AVAUL    0.850  1.000 P
AVAUP    0.480  1.000 P
AVAUR    0.650  1.000 P
AVAUS    0.510  1.000 P
AVAUW    0.940  1.000 P
# 2005 10 13 12 16 15.76  59.3610 -153.4283  0.44 -0.20 0.59 0.29 0.08   61133163
AVAUH    0.920  1.000 P
AVAUI    0.880 -1.000 P
AVAUL    1.290 -1.000 S
AVAUL    0.880  1.000 P
AVAUP    0.660  1.000 P
AVAUS    0.630  1.000 P
AVAUW    0.950 -1.000 P
# 2005 10 13 12 37 53.78  59.3677 -153.4243 -1.18 -0.40 0.72 2.71 0.22   61133173
AVAUH    1.020 -1.000 P
AVAUP    0.350 -1.000 P
AVAUR    0.290 -1.000 P
AVAUS    0.580  1.000 P
# 2005 10 13 14 17 3.21  59.3668 -153.4292 -0.09 -0.50 0.44 0.37 0.08   61133193
AVAUE    0.970 -1.000 P
AVAUH    0.500  1.000 P
AVAUL    0.980 -1.000 S
AVAUL    0.740  1.000 P
AVAUP    0.810  0.200 P
AVAUR    0.580  1.000 P
AVAUS    0.470  1.000 P
AVAUW    0.810 -1.000 P
# 2005 10 13 16 24 0.10  59.3575 -153.4270 -0.23 0.00 0.17 0.08 0.04   61133253
AVAUE    1.120  1.000 P
AVAUH    0.570  1.000 P
AVAUI    1.560 -1.000 S
AVAUI    0.910  1.000 P
AVAUL    1.670  1.000 S
AVAUL    0.870  1.000 P
AVAUP    0.410  1.000 P
AVAUS    0.440  1.000 P
AVAUW    0.930  1.000 P
# 2005 10 14 02 01 32.64  59.3542 -153.4272 -1.18 0.00 0.30 0.48 0.15   61133448
AVAUH    0.700  1.000 P
AVAUL    2.590 -1.000 S
AVAUP    0.380  1.000 P
AVAUR    0.300  1.000 P
AVAUS    0.410  1.000 P
AVAUW    1.290 -1.000 P
# 2005 10 14 03 57 30.50  59.3597 -153.4247 -1.17 -0.70 0.49 0.70 0.04   61133523
AVAUH    0.560  1.000 P
AVAUP    0.100 -1.000 P
AVAUR    0.230 -1.000 P
AVAUS    0.210 -1.000 P
# 2005 10 14 05 48 3.14  59.3605 -153.4260 -0.14 -0.60 0.27 0.09 0.05   61133573
AVAUH    0.550  1.000 P
AVAUI    1.740 -1.000 S
AVAUL    1.570 -1.000 S
AVAUL    0.820  1.000 P
AVAUP    0.410  1.000 P
AVAUR    0.890  1.000 P
AVAUS    0.440  1.000 P
AVAUW    0.850  1.000 P
# 2005 10 14 06 30 24.66  59.3565 -153.4290 -0.16 -0.80 0.30 0.10 0.05   61133613
AVAUE    1.060 -1.000 P
AVAUH    0.610  1.000 P
AVAUL    1.750 -1.000 S
AVAUL    0.870  1.000 P
AVAUP    0.540  1.000 P
AVAUS    0.530  1.000 P
AVAUW    0.920  1.000 P
# 2005 10 14 11 05 38.54  59.3583 -153.4232  0.01 -0.60 0.18 0.23 0.06   61133748
AVAUE    1.010  1.000 P
AVAUH    0.910  1.000 P
AVAUI    1.550 -1.000 S
AVAUL    1.570  1.000 S
AVAUL    0.870  1.000 P
AVAUP    0.470  1.000 P
AVAUS    0.470  1.000 P
AVAUW    0.920  1.000 P
# 2005 10 14 13 52 27.65  59.3570 -153.4260  0.25 -0.20 0.25 0.37 0.15   61133793
AVAUE    1.110  1.000 P
AVAUH    0.710  1.000 P
AVAUI    1.220 -1.000 S
AVAUI    0.930  1.000 P
AVAUL    1.390  1.000 S
AVAUL    0.910  1.000 P
AVAUP    0.630  1.000 P
AVAUR    0.880  1.000 P
AVAUS    0.650  1.000 P
AVAUW    0.990  1.000 P
# 2005 10 14 16 02 11.45  59.3587 -153.4338 -0.21 -0.70 0.16 0.10 0.07   61133823
AVAUE    1.080  1.000 P
AVAUH    0.460  1.000 P
AVAUI    1.570 -1.000 S
AVAUL    1.610 -1.000 S
AVAUL    0.820  1.000 P
AVAUP    0.510  1.000 P
AVAUS    0.580  1.000 P
AVAUW    0.960  1.000 P
# 2005 10 14 16 22 26.26  59.3560 -153.4263 -0.11 -0.90 0.33 0.13 0.08   61133838
AVAUE    1.190  1.000 P
AVAUH    0.590  1.000 P
AVAUL    1.750 -1.000 S
AVAUL    0.890  1.000 P
AVAUP    0.480  1.000 P
AVAUS    0.510  1.000 P
AVAUW    0.930  1.000 P
# 2005 10 14 16 22 41.78  59.3588 -153.4293 -0.11 -0.60 0.16 0.09 0.06   61133843
AVAUE    1.000  1.000 P
AVAUH    0.600  1.000 P
AVAUI    1.520 -1.000 S
AVAUI    0.910  1.000 P
AVAUL    1.580 -1.000 S
AVAUL    0.840  1.000 P
AVAUP    0.530  1.000 P
AVAUS    0.520  1.000 P
AVAUW    0.900  1.000 P
# 2005 10 14 20 39 51.50  59.3587 -153.4335  0.79 -0.90 0.37 0.18 0.07   61133928
AVAUE    1.090 -0.200 P
AVAUH    0.560  1.000 P
AVAUL    1.610 -1.000 S
AVAUL    0.850  1.000 P
AVAUP    0.600  1.000 P
AVAUS    0.810  1.000 P
AVAUW    0.890 -1.000 P
# 2005 10 14 21 18 27.56  59.3580 -153.4267 -0.03 -0.50 0.22 0.09 0.07   61133938
AVAUE    0.990 -1.000 P
AVAUH    0.580  1.000 P
AVAUI    0.800 -1.000 P
AVAUL    1.620 -1.000 S
AVAUL    0.870  1.000 P
AVAUP    0.540  1.000 P
AVAUR    0.770  1.000 P
AVAUS    0.550  1.000 P
AVAUW    0.870  1.000 P
# 2005 10 15 00 50 12.22  59.3537 -153.4295 -1.18 -0.60 0.40 1.37 0.11   61133988
AVAUH    0.720 -1.000 P
AVAUP    0.510 -1.000 P
AVAUR    0.380  1.000 P
AVAUS    0.190  1.000 P
# 2005 10 15 04 12 10.92  59.3605 -153.4282  0.03 -0.70 0.55 0.45 0.12   61134038
AVAUH    0.570  1.000 P
AVAUL    1.610 -1.000 S
AVAUP    0.490  1.000 P
AVAUS    0.080  1.000 P
AVAUW    0.820  1.000 P
# 2005 10 15 08 36 12.26  59.5292 -153.1972 16.54 1.70 0.54 0.36 0.15   61134078
AKCNP   16.410  1.000 P
AKHOM   14.090  1.000 P
AVAUE    4.090  1.000 P
AVAUH    4.700  1.000 P
AVAUI    8.690  1.000 S
AVAUI    4.740  1.000 P
AVAUL    8.630  1.000 S
AVAUP    4.600  1.000 P
AVAUS    4.740  1.000 P
AVAUW    4.750  1.000 P
AVILS    8.090  1.000 P
AVILW    9.640  1.000 P
AVINE    9.720  1.000 P
AVIVE    9.100  1.000 P
AVIVS    9.020  1.000 P
AVOPT    3.450  1.000 P
AVPDB   10.370  1.000 P
AVRSO   17.050  1.000 P
# 2005 10 15 08 45 15.63  59.3615 -153.4297 -0.56 0.20 0.44 0.13 0.05   61134083
AVAUH    0.490  1.000 P
AVAUL    1.950  1.000 S
AVAUL    0.350  1.000 P
AVAUP    0.340  1.000 P
AVAUR    0.270  1.000 P
AVAUS    0.300 -1.000 P
AVAUW    0.920 -1.000 P
# 2005 10 16 01 13 7.32  59.3565 -153.4272  0.43 -0.20 0.22 0.20 0.05   61134283
AVAUE    1.020 -1.000 P
AVAUH    0.770  1.000 P
AVAUI    1.450 -1.000 S
AVAUI    0.760  1.000 P
AVAUP    0.640  1.000 P
AVAUS    0.640  1.000 P
AVAUW    0.870 -1.000 P
# 2005 10 16 04 00 26.61  59.3618 -153.4305  0.11 -0.70 0.18 0.26 0.08   61134333
AVAUE    0.990  1.000 P
AVAUH    0.540  1.000 P
AVAUI    0.790 -1.000 P
AVAUL    1.260 -1.000 S
AVAUL    0.800  1.000 P
AVAUP    0.490  1.000 P
AVAUR    0.750  1.000 P
AVAUS    0.660  1.000 P
AVAUW    0.860  1.000 P
# 2005 10 16 08 32 0.87  59.3628 -153.4290 -0.11 -0.30 0.60 0.31 0.07   61134438
AVAUH    0.550 -1.000 P
AVAUL    1.200 -1.000 S
AVAUL    0.830  1.000 P
AVAUP    0.350  1.000 P
AVAUS    0.520  1.000 P
AVAUW    0.830 -1.000 P
# 2005 10 16 08 32 7.14  59.3530 -153.4187 -1.06 -0.10 0.25 0.48 0.07   61134443
AVAUH    0.660  1.000 P
AVAUI    1.650 -1.000 S
AVAUI    0.930 -1.000 P
AVAUP    0.560  1.000 P
AVAUS    0.540  1.000 P
AVAUW    1.510 -1.000 P
# 2005 10 16 08 42 46.01  59.3537 -153.4420 -0.19 -0.90 0.90 0.52 0.07   61134453
AVAUH    0.480  1.000 P
AVAUP    0.720 -1.000 P
AVAUS    0.650 -1.000 P
AVAUW    0.790 -1.000 P
# 2005 10 16 11 41 24.13  59.3598 -153.4253 -0.61 0.40 0.44 0.13 0.05   61134508
AVAUH    0.610  1.000 P
AVAUP    0.260  1.000 P
AVAUR    0.420  1.000 P
AVAUS    0.280 -1.000 P
AVAUW    1.000 -1.000 P
# 2005 10 16 15 47 52.49  59.3578 -153.4312 -0.83 -0.30 0.36 0.17 0.06   61134553
AVAUH    0.500 -1.000 P
AVAUP    0.360 -1.000 P
AVAUR    0.150  1.000 P
AVAUS    0.170  1.000 P
# 2005 10 17 04 50 55.33  59.3495 -153.4320 -0.22 -0.60 0.55 0.31 0.04   61134693
AVAUE    1.210 -1.000 P
AVAUH    0.740  1.000 P
AVAUP    0.750  1.000 P
AVAUS    0.680  1.000 P
AVAUW    1.070 -1.000 P
# 2005 10 17 06 36 31.82  59.3635 -153.4407 -0.01 0.20 0.71 0.29 0.05   61134708
AVAUL    0.800  1.000 P
AVAUP    0.610 -1.000 P
AVAUR    0.540  1.000 P
AVAUS    0.540 -1.000 P
# 2005 10 17 08 27 8.46  59.3578 -153.4162 -0.63 -0.50 0.63 0.15 0.07   61134728
AVAUH    0.860 -1.000 P
AVAUL    1.980 -1.000 S
AVAUL    1.050 -1.000 P
AVAUP    0.410 -1.000 P
AVAUR    0.440  1.000 P
AVAUS    0.460  1.000 P
