# 2005 04 03 04 01 3.80  59.3615 -153.4305 -0.63 0.00 0.28 0.07 0.05   60999943
AVAUE    1.100 -1.000 P
AVAUI    1.250  1.000 P
AVAUL    1.680  1.000 S
AVAUL    0.870  1.000 P
AVAUR    0.250  1.000 P
AVAUS    0.270  1.000 P
AVAUW    0.920 -1.000 P
# 2005 04 07 22 50 15.14  59.3605 -153.4317 -0.58 0.30 0.16 0.07 0.05   61001878
AVAUE    1.110  1.000 P
AVAUH    0.420  1.000 P
AVAUI    1.830 -1.000 S
AVAUI    1.190  1.000 P
AVAUL    1.690  1.000 S
AVAUL    0.880  1.000 P
AVAUR    0.280  1.000 P
AVAUS    0.290  1.000 P
AVAUW    0.930  1.000 P
# 2005 04 10 21 45 18.68  59.3592 -153.4323 -0.54 0.40 0.17 0.06 0.04   61002788
AVAUE    1.140  1.000 P
AVAUH    0.450  1.000 P
AVAUI    1.850 -1.000 S
AVAUI    0.970  1.000 P
AVAUL    1.800  1.000 S
AVAUL    1.730  1.000 S
AVAUL    0.920  1.000 P
AVAUL    0.950  1.000 P
AVAUR    0.290  1.000 P
AVAUS    0.310  1.000 P
AVAUW    0.970  1.000 P
# 2005 04 10 21 46 19.18  59.3648 -153.4227 -1.17 -0.50 0.33 0.75 0.11   61002793
AVAUE    1.220 -1.000 P
AVAUH    0.590  1.000 P
AVAUL    1.680 -1.000 S
AVAUL    0.820 -1.000 P
AVAUR    0.230  1.000 P
AVAUS    0.220  1.000 P
# 2005 04 14 16 56 45.39  59.4880 -153.1658 16.19 1.00 2.30 0.56 0.12   61005348
AKCNP   17.440  1.000 P
AVAUE    3.750  1.000 P
AVAUH    4.420  1.000 P
AVAUI    7.970  1.000 S
AVAUI    4.450  1.000 P
AVAUL    7.400 -1.000 S
AVAUL    4.060  1.000 P
AVAUS    4.380  1.000 P
AVAUW    4.460  1.000 P
AVILI   11.110  1.000 P
AVILS    8.990  1.000 P
AVILW   10.530  1.000 P
AVINE   10.620  1.000 P
AVIVE   10.090  1.000 P
AVIVS    9.920  1.000 P
AVNCT   19.220  0.200 P
AVOPT    3.820  1.000 P
AVRSO   16.360  1.000 P
# 2005 04 15 14 29 42.74  59.3592 -153.4318 -0.57 0.10 0.18 0.06 0.05   61007003
AVAUE    1.170  1.000 P
AVAUH    0.500  1.000 P
AVAUI    1.780 -1.000 S
AVAUI    0.990  1.000 P
AVAUL    1.800  1.000 S
AVAUL    0.920  1.000 P
AVAUL    0.950  1.000 P
AVAUR    0.320  1.000 P
AVAUS    0.330  1.000 P
AVAUW    1.000  1.000 P
# 2005 04 18 07 51 5.88  59.3590 -153.4297 -0.55 0.10 0.37 0.08 0.05   61011238
AVAUE    1.140 -1.000 P
AVAUL    1.740 -1.000 S
AVAUL    0.940  1.000 P
AVAUR    0.360  1.000 P
AVAUS    0.360  1.000 P
AVAUW    1.030 -1.000 P
# 2005 04 19 05 08 42.78  59.3580 -153.4252 -0.96 0.40 0.27 0.24 0.06   61011838
AVAUE    1.240 -1.000 P
AVAUI    1.960 -1.000 S
AVAUI    1.070  1.000 P
AVAUL    2.140 -1.000 S
AVAUL    1.040  1.000 P
AVAUR    0.270  1.000 P
AVAUS    0.310  1.000 P
AVAUW    1.160  0.200 P
# 2005 04 19 14 32 33.53  59.3585 -153.4317 -0.21 0.10 0.42 0.10 0.06   61012043
AVAUE    1.070 -1.000 P
AVAUI    1.590 -1.000 S
AVAUI    0.860  1.000 P
AVAUL    1.570  1.000 S
AVAUL    0.870  1.000 P
AVAUR    0.500  1.000 P
AVAUS    0.520  1.000 P
# 2005 04 24 17 17 59.73  59.3590 -153.4312 -0.61 0.90 0.29 0.07 0.05   61014883
AVAUE    1.200 -1.000 P
AVAUI    1.820  1.000 S
AVAUI    0.980  1.000 P
AVAUL    1.800  1.000 S
AVAUL    0.950  1.000 P
AVAUL    1.000  1.000 P
AVAUR    0.330  1.000 P
AVAUS    0.370  1.000 P
AVAUW    1.030 -1.000 P
# 2005 04 24 17 18 27.97  59.3587 -153.4295 -1.16 0.00 0.31 0.31 0.07   61014888
AVAUE    1.410 -1.000 P
AVAUI    2.090 -1.000 S
AVAUI    1.160  1.000 P
AVAUL    1.990 -1.000 S
AVAUL    1.170  1.000 P
AVAUL    1.230  1.000 P
AVAUR    0.140  1.000 P
AVAUS    0.000  1.000 P
AVAUW    1.300  1.000 P
# 2005 04 24 19 16 50.22  59.3597 -153.4295 -0.50 0.00 0.49 0.07 0.04   61014918
AVAUE    1.670  1.000 P
AVAUI    1.810 -1.000 S
AVAUI    0.990  1.000 P
AVAUL    1.730  1.000 S
AVAUL    0.910  1.000 P
AVAUR    0.370  1.000 P
AVAUS    0.340  1.000 P
AVAUW    0.980 -1.000 P
# 2005 04 27 04 49 5.90  59.3598 -153.4292 -0.82 -0.10 0.39 0.15 0.07   61016203
AVAUE    1.170 -1.000 P
AVAUL    1.840 -1.000 S
AVAUL    0.890  1.000 P
AVAUL    1.120  1.000 P
AVAUR    0.260  1.000 P
AVAUS    0.220  1.000 P
AVAUW    1.050 -1.000 P
# 2005 04 27 22 33 46.12  59.3603 -153.4317 -0.59 -0.20 0.21 0.08 0.04   61016548
AVAUE    1.140 -1.000 P
AVAUL    1.690 -1.000 S
AVAUL    0.890  1.000 P
AVAUP    0.270  1.000 P
AVAUR    0.350  1.000 P
AVAUS    0.280  1.000 P
# 2005 04 30 05 09 36.49  59.3628 -153.4287 -0.73 -0.20 0.22 0.22 0.02   61018978
AVAUL    1.560 -1.000 S
AVAUL    0.830  0.200 P
AVAUP    0.200  1.000 P
AVAUR    0.240  1.000 P
AVAUS    0.240  1.000 P
# 2005 04 30 06 12 41.79  59.3605 -153.4177  0.03 -0.60 0.24 0.26 0.10   61019058
AVAUE    0.590 -1.000 P
AVAUH    0.650  1.000 P
AVAUI    1.770 -1.000 S
AVAUL    1.610  1.000 S
AVAUL    0.910  1.000 P
AVAUP    0.520  1.000 P
AVAUR    0.790  1.000 P
AVAUS    0.550  1.000 P
AVAUW    0.980  1.000 P
# 2005 04 30 07 03 46.92  59.3580 -153.4235 -0.55 -0.40 0.36 0.14 0.10   61019093
AVAUL    1.700 -1.000 S
AVAUL    1.100  1.000 P
AVAUP    0.290  1.000 P
AVAUR    0.620  1.000 P
AVAUS    0.330  1.000 P
# 2005 04 30 09 02 6.98  59.3603 -153.4315 -0.63 -0.40 0.16 0.08 0.08   61019168
AVAUE    1.140  1.000 P
AVAUH    0.430  0.200 P
AVAUI    2.020  0.200 S
AVAUL    1.810 -1.000 S
AVAUL    0.860  1.000 P
AVAUP    0.230  1.000 P
AVAUR    0.310  1.000 P
AVAUS    0.250  1.000 P
AVAUW    0.900  1.000 P
# 2005 04 30 15 44 11.89  59.3607 -153.4287 -0.70 -0.10 0.23 0.13 0.03   61019428
AVAUL    1.740 -1.000 S
AVAUL    0.890  1.000 P
AVAUP    0.240  1.000 P
AVAUR    0.250  1.000 P
AVAUS    0.280  1.000 P
# 2005 05 02 09 21 37.79  59.3592 -153.4288 -0.62 0.30 0.30 0.08 0.08   61023843
AVAUE    1.100  0.200 P
AVAUH    0.630  1.000 P
AVAUL    1.750  1.000 S
AVAUL    1.840  1.000 S
AVAUL    0.890  1.000 P
AVAUP    0.260  1.000 P
AVAUR    0.280  1.000 P
AVAUS    0.290  1.000 P
# 2005 05 03 06 54 7.80  59.3547 -153.4208 -0.64 0.20 0.26 0.11 0.05   61025338
AVAUE    1.090 -1.000 P
AVAUL    2.170 -1.000 S
AVAUL    1.090  1.000 P
AVAUP    0.480  1.000 P
AVAUR    0.520  1.000 P
AVAUS    0.500  1.000 P
# 2005 05 03 22 24 31.38  59.3615 -153.4298 -0.87 -0.10 0.41 0.43 0.07   61026058
AVAUH    0.590  1.000 P
AVAUL    1.630 -1.000 S
AVAUL    1.300  1.000 P
AVAUP    0.180  1.000 P
AVAUR    0.200 -1.000 P
AVAUS    0.170  1.000 P
# 2005 05 04 03 17 31.26  59.3607 -153.4287 -0.49 -0.10 0.12 0.08 0.05   61026178
AVAUE    1.140  1.000 P
AVAUH    0.450  1.000 P
AVAUI    1.870 -1.000 S
AVAUI    0.990  1.000 P
AVAUL    1.740  1.000 S
AVAUL    1.520  1.000 S
AVAUL    0.900  1.000 P
AVAUL    0.900  1.000 P
AVAUP    0.300  1.000 P
AVAUR    0.330  1.000 P
AVAUS    0.300  1.000 P
AVAUW    0.970  1.000 P
# 2005 05 04 04 58 40.19  59.4223 -153.2093 11.42 1.50 3.56 5.89 0.26   61026233
AKCNP   18.560  1.000 P
AVAUE    3.350 -1.000 P
AVAUH    4.020  1.000 P
AVAUI    6.590  1.000 S
AVAUI    6.440  1.000 S
AVAUI    3.910  1.000 P
AVAUL    6.380  1.000 S
AVAUL    6.440  1.000 S
AVAUL    3.790  1.000 P
AVAUL    3.810  1.000 P
AVAUP    3.850  1.000 P
AVAUR    3.940  1.000 P
AVAUS    3.930  1.000 P
AVAUW    4.110  1.000 P
AVILI   13.130  1.000 P
AVILS   10.970  1.000 P
AVILW   12.480  1.000 P
AVINE   12.650  1.000 P
AVIVE   12.080  1.000 P
AVIVS   11.930  1.000 P
AVNCT   21.730  1.000 P
AVOPT    5.790  1.000 P
# 2005 05 08 03 35 40.67  59.3597 -153.4303 -0.61 0.40 0.16 0.06 0.04   61028138
AVAUE    1.160  1.000 P
AVAUH    0.470  1.000 P
AVAUI    1.870  1.000 S
AVAUI    0.960  1.000 P
AVAUL    1.750  1.000 S
AVAUL    0.940  1.000 P
AVAUR    0.300  1.000 P
AVAUS    0.290  1.000 P
AVAUW    0.990  1.000 P
# 2005 05 08 05 19 59.87  59.3538 -153.4267 -0.39 -0.30 0.43 0.14 0.01   61028208
AVAUL    1.980 -1.000 S
AVAUP    0.490 -1.000 P
AVAUR    0.540  1.000 P
AVAUS    0.490  1.000 P
# 2005 05 08 06 22 37.80  59.3577 -153.4225 -0.63 0.00 0.30 0.11 0.07   61028243
AVAUH    0.780  1.000 P
AVAUL    1.900  1.000 S
AVAUL    1.040  1.000 P
AVAUP    0.390  1.000 P
AVAUR    0.330  1.000 P
AVAUS    0.410  1.000 P
AVAUW    1.120  1.000 P
# 2005 05 09 01 39 43.41  59.3552 -153.4300  0.27 -0.80 0.29 0.31 0.09   61028723
AVAUL    1.660  1.000 S
AVAUL    1.620  1.000 S
AVAUL    0.670  1.000 P
AVAUP    0.600  1.000 P
AVAUR    0.520  1.000 P
AVAUS    0.640  1.000 P
AVAUW    1.040  1.000 P
# 2005 05 10 02 41 45.36  59.3585 -153.4275 -0.12 -0.60 0.25 0.08 0.04   61029178
AVAUE    1.070 -1.000 P
AVAUI    1.530 -1.000 S
AVAUI    0.870  1.000 P
AVAUL    1.580  1.000 S
AVAUL    0.870  1.000 P
AVAUP    0.490  1.000 P
AVAUR    0.530  1.000 P
AVAUS    0.510  1.000 P
AVAUW    0.930  1.000 P
# 2005 05 10 04 19 10.58  59.3618 -153.4273 -0.87 0.00 0.19 0.16 0.06   61029223
AVAUE    1.090  0.200 P
AVAUH    0.660  1.000 P
AVAUL    1.650 -1.000 S
AVAUL    0.910  1.000 P
AVAUP    0.150  1.000 P
AVAUR    0.200  1.000 P
AVAUS    0.190  1.000 P
# 2005 05 10 09 01 14.10  59.3595 -153.4323 -0.59 -0.20 0.16 0.07 0.04   61029358
AVAUE    1.190  1.000 P
AVAUH    0.690  1.000 P
AVAUI    0.980 -1.000 P
AVAUL    1.750 -1.000 S
AVAUL    0.920  1.000 P
AVAUP    0.310  1.000 P
AVAUR    0.340  1.000 P
AVAUS    0.330  1.000 P
AVAUW    1.010  1.000 P
# 2005 05 10 10 22 26.22  59.3582 -153.4228 -0.40 0.10 0.44 0.11 0.03   61029388
AVAUH    1.070  0.200 P
AVAUL    1.800 -1.000 S
AVAUL    0.950  1.000 P
AVAUP    0.360 -1.000 P
AVAUR    0.430  1.000 P
AVAUS    0.460  1.000 P
AVAUW    1.100  0.200 P
# 2005 05 12 19 12 32.90  59.2818 -153.1800  2.88 1.20 1.67 31.61 0.16   61031733
AKCNP   19.110  1.000 P
AVAUE    3.580  1.000 P
AVAUH    4.850  1.000 P
AVAUI    5.790 -1.000 S
AVAUI    3.280  1.000 P
AVAUL    7.210 -1.000 S
AVAUP    3.920  1.000 P
AVAUW    4.110  1.000 P
AVILW   15.010  1.000 P
AVINE   15.140  0.200 P
AVIVE   14.500  1.000 P
AVOPT    8.320 -1.000 P
# 2005 05 14 03 12 56.56  59.3625 -153.4297 -1.20 -0.10 0.40 0.98 0.04   61032228
AVAUH    0.420 -1.000 P
AVAUP    0.140 -1.000 P
AVAUR    0.030 -1.000 P
AVAUS    0.160 -1.000 P
# 2005 05 14 22 47 12.88  59.3597 -153.4373 -1.09 -0.20 0.32 0.42 0.01   61032623
AVAUH    0.720  0.200 P
AVAUP    0.390 -1.000 P
AVAUR    0.140 -1.000 P
AVAUS    0.120 -1.000 P
# 2005 05 15 10 14 16.53  59.3588 -153.4218 -1.20 -0.70 0.45 1.02 0.14   61033038
AVAUL    2.160 -1.000 S
AVAUL    1.400  1.000 P
AVAUP    0.120  1.000 P
AVAUR    0.210  1.000 P
AVAUS    0.160  1.000 P
# 2005 05 15 13 45 40.79  59.3590 -153.4327 -0.79 0.20 0.39 0.19 0.02   61033118
AVAUL    1.840 -1.000 S
AVAUL    1.040  1.000 P
AVAUP    0.290 -1.000 P
AVAUR    0.240  1.000 P
AVAUS    0.220 -1.000 P
# 2005 05 17 09 30 14.96  59.3527 -153.4262 -0.58 -0.10 0.41 0.23 0.08   61034063
AVAUE    1.080 -1.000 P
AVAUH    0.760  1.000 P
AVAUL    1.160 -1.000 P
AVAUP    0.550  1.000 P
AVAUR    0.550  1.000 P
AVAUS    0.490  1.000 P
AVAUW    1.250  1.000 P
# 2005 05 17 10 32 51.37  59.3583 -153.4318 -0.69 0.00 0.14 0.07 0.06   61034083
AVAUE    1.150  1.000 P
AVAUH    0.480  1.000 P
AVAUI    1.840 -1.000 S
AVAUL    1.890  1.000 S
AVAUL    0.950  1.000 P
AVAUP    0.310  1.000 P
AVAUR    0.300  1.000 P
AVAUS    0.310  1.000 P
AVAUW    1.030  1.000 P
# 2005 05 17 17 48 50.24  59.3555 -153.4135 -0.65 -0.20 0.41 0.12 0.07   61034343
AVAUL    2.130 -1.000 S
AVAUL    2.180  1.000 S
AVAUP    0.550 -1.000 P
AVAUR    0.520  1.000 P
AVAUS    0.560  1.000 P
# 2005 05 17 18 53 39.63  59.3535 -153.4278 -0.34 -0.10 0.29 0.11 0.06   61034383
AVAUE    1.350  1.000 P
AVAUH    0.700  1.000 P
AVAUL    1.980  1.000 S
AVAUL    1.890  1.000 S
AVAUL    1.100  1.000 P
AVAUP    0.480  1.000 P
AVAUR    0.490  1.000 P
AVAUS    0.470  1.000 P
AVAUW    1.150  1.000 P
# 2005 05 18 05 31 47.82  59.3577 -153.4333 -0.97 -0.50 0.35 0.13 0.02   61034673
AVAUL    1.980 -1.000 S
AVAUP    0.340 -1.000 P
AVAUR    0.270  1.000 P
AVAUS    0.130  1.000 P
# 2005 05 18 05 57 8.96  59.4655 -153.0912 15.00 0.70 3.45 3.61 0.07   61034708
AVAUE    3.980  1.000 P
AVAUI    8.030  1.000 S
AVAUL    7.590  1.000 S
AVAUL    7.570  1.000 S
AVAUL    4.220  1.000 P
AVAUP    4.450  1.000 P
AVAUW    4.590  1.000 P
AVOPT    4.220  1.000 P
# 2005 05 18 09 40 25.67  59.3545 -153.4178 -1.03 0.40 0.29 0.16 0.12   61034893
AVAUE    0.980 -1.000 P
AVAUH    0.810  1.000 P
AVAUL    2.280  1.000 S
AVAUL    2.450  1.000 S
AVAUL    1.280  1.000 P
AVAUP    0.600  1.000 P
AVAUR    0.450  1.000 P
AVAUS    0.500  1.000 P
AVAUW    1.610  1.000 P
# 2005 05 19 15 45 47.35  59.2443 -153.2837  8.74 0.80 1.98 0.32 0.08   61035908
AVAUE    3.680 -1.000 P
AVAUI    5.870 -1.000 S
AVAUI    3.340  1.000 P
AVAUL    7.280 -1.000 S
AVAUL    4.140  1.000 P
AVAUP    3.940  1.000 P
AVAUS    3.970  1.000 P
AVAUW    4.170  1.000 P
# 2005 05 19 23 01 55.26  59.3545 -153.4225 -0.34 -0.10 0.42 0.13 0.04   61036113
AVAUH    0.650  1.000 P
AVAUL    1.960 -1.000 S
AVAUL    1.120  1.000 P
AVAUP    0.490  1.000 P
AVAUR    0.500  1.000 P
AVAUS    0.540  1.000 P
# 2005 05 20 08 01 5.14  59.3595 -153.4312 -0.62 0.50 0.14 0.05 0.05   61036503
AVAUE    1.150  1.000 P
AVAUH    0.450  1.000 P
AVAUI    1.810  1.000 S
AVAUI    1.890  1.000 S
AVAUI    0.920  1.000 P
AVAUL    1.810  1.000 S
AVAUL    1.740  1.000 S
AVAUL    0.920  1.000 P
AVAUP    0.310  1.000 P
AVAUR    0.290  1.000 P
AVAUS    0.310  1.000 P
AVAUW    0.970  1.000 P
# 2005 05 20 08 03 1.44  59.3587 -153.4313 -0.59 0.30 0.15 0.06 0.04   61036508
AVAUE    1.250  1.000 P
AVAUH    0.490  1.000 P
AVAUI    1.780 -1.000 S
AVAUI    1.030  1.000 P
AVAUL    1.750  1.000 S
AVAUL    1.840  1.000 S
AVAUL    0.970  1.000 P
AVAUL    0.910  1.000 P
AVAUP    0.360  1.000 P
AVAUR    0.320  1.000 P
AVAUS    0.360  1.000 P
AVAUW    1.020  1.000 P
# 2005 05 21 09 24 44.95  59.3585 -153.4265 -0.88 -0.10 0.14 0.10 0.09   61037768
AVAUE    1.290  1.000 P
AVAUH    0.510  1.000 P
AVAUI    1.940  1.000 S
AVAUI    1.130  1.000 P
AVAUL    1.890 -1.000 S
AVAUL    0.990  1.000 P
AVAUP    0.300  1.000 P
AVAUR    0.190  1.000 P
AVAUS    0.230  1.000 P
AVAUW    1.040  1.000 P
# 2005 05 21 12 44 36.00  59.3543 -153.4263 -1.18 -0.60 0.34 1.02 0.10   61037853
AVAUL    1.530 -1.000 P
AVAUP    0.450  1.000 P
AVAUR    0.380  1.000 P
AVAUS    0.360  1.000 P
# 2005 05 23 07 16 2.01  59.3553 -153.4218 -1.20 -0.10 0.39 0.96 0.15   61038788
AVAUH    0.650  1.000 P
AVAUL    1.760  1.000 P
AVAUP    0.260  1.000 P
AVAUR    0.300  1.000 P
AVAUS    0.310  1.000 P
# 2005 05 24 05 26 21.86  59.3578 -153.4330 -0.54 0.20 0.14 0.08 0.07   61039573
AVAUE    1.160  1.000 P
AVAUH    0.480  1.000 P
AVAUI    1.850  1.000 S
AVAUI    0.940  1.000 P
AVAUL    1.910  1.000 S
AVAUL    0.930  1.000 P
AVAUL    0.950  1.000 P
AVAUP    0.300  1.000 P
AVAUR    0.290  1.000 P
AVAUS    0.310  1.000 P
AVAUW    1.000  1.000 P
# 2005 05 24 22 13 39.58  59.3572 -153.4315 -0.23 0.10 0.22 0.10 0.09   61040053
AVAUE    1.040  1.000 P
AVAUH    0.590  1.000 P
AVAUI    1.530 -1.000 S
AVAUL    1.530  1.000 S
AVAUL    1.120  1.000 P
AVAUL    1.200  1.000 P
AVAUP    0.430  1.000 P
AVAUS    0.430  1.000 P
AVAUW    0.860  1.000 P
# 2005 05 25 14 14 53.86  59.3562 -153.4237 -1.16 -0.20 0.33 1.15 0.05   61040423
AVAUH    0.650 -1.000 P
AVAUP    0.280 -1.000 P
AVAUR    0.310  1.000 P
AVAUS    0.270  1.000 P
# 2005 05 26 09 15 24.65  59.3600 -153.4308 -0.75 0.10 0.10 0.07 0.07   61040753
AVAUE    1.120  1.000 P
AVAUH    0.430  1.000 P
AVAUI    1.930  1.000 S
AVAUI    2.040  1.000 S
AVAUI    0.940  1.000 P
AVAUL    1.850  1.000 S
AVAUL    0.990  1.000 P
AVAUL    1.030  1.000 P
AVAUP    0.250  1.000 P
AVAUR    0.160  1.000 P
AVAUS    0.210  1.000 P
AVAUW    1.030  1.000 P
# 2005 05 26 11 40 46.68  59.3610 -153.4312 -0.80 -0.20 0.25 0.17 0.06   61040828
AVAUE    1.260 -1.000 P
AVAUH    0.420  1.000 P
AVAUL    1.670 -1.000 S
AVAUP    0.160  1.000 P
AVAUR    0.160  1.000 P
AVAUS    0.130  1.000 P
# 2005 05 26 12 06 14.23  59.3567 -153.4273 -0.54 0.30 0.48 0.10 0.03   61040838
AVAUH    0.650  1.000 P
AVAUL    1.860 -1.000 S
AVAUP    0.380 -1.000 P
AVAUR    0.380  1.000 P
AVAUS    0.350  1.000 P
# 2005 05 27 03 01 48.35  59.3525 -153.4113 -1.16 -0.20 0.94 3.70 0.21   61041043
AVAUH    1.460 -1.000 P
AVAUP    0.590 -1.000 P
AVAUR    0.640  1.000 P
AVAUS    0.660  1.000 P
# 2005 05 27 13 10 28.09  59.3592 -153.4303 -0.97 0.20 0.13 0.16 0.08   61041208
AVAUE    1.180  1.000 P
AVAUH    0.520  1.000 P
AVAUI    2.140 -1.000 S
AVAUI    1.080  1.000 P
AVAUL    2.010  1.000 S
AVAUL    1.420  1.000 P
AVAUL    1.040  1.000 P
AVAUP    0.210  1.000 P
AVAUR    0.080  1.000 P
AVAUS    0.190 -1.000 P
AVAUW    1.060  1.000 P
# 2005 05 29 08 31 21.02  59.3687 -153.4310 -1.17 -0.60 0.32 1.00 0.09   61041758
AVAUH    0.440 -1.000 P
AVAUP    0.270 -1.000 P
AVAUR    0.230  1.000 P
AVAUS    0.430  1.000 P
# 2005 05 29 09 58 54.53  59.3585 -153.4310 -0.49 0.20 0.12 0.08 0.04   61041783
AVAUE    1.150  1.000 P
AVAUH    0.460  1.000 P
AVAUI    1.740 -1.000 S
AVAUI    0.960  1.000 P
AVAUL    1.700 -1.000 S
AVAUL    0.990  1.000 P
AVAUP    0.320  1.000 P
AVAUR    0.290  1.000 P
AVAUS    0.370  1.000 P
AVAUW    0.980  1.000 P
# 2005 05 30 07 49 3.16  59.3580 -153.4327 -0.59 0.10 0.41 0.11 0.05   61042078
AVAUE    1.210 -1.000 P
AVAUH    0.470  1.000 P
AVAUP    0.320  1.000 P
AVAUR    0.280  1.000 P
AVAUS    0.340 -1.000 P
AVAUW    1.000 -1.000 P
# 2005 05 30 11 23 52.30  59.2547 -153.3343 10.91 0.90 3.28 3.22 0.13   61042113
AVAUE    3.340  1.000 P
AVAUH    3.720  1.000 P
AVAUI    5.630 -1.000 S
AVAUI    3.040  1.000 P
AVAUP    3.650  1.000 P
AVAUR    3.630  1.000 P
AVAUW    3.850 -1.000 P
AVOPT    8.710 -1.000 P
# 2005 05 30 21 53 39.67  59.3555 -153.4225 -1.17 -0.60 0.40 1.49 0.10   61042268
AVAUH    0.710 -1.000 P
AVAUP    0.330 -1.000 P
AVAUR    0.350  1.000 P
AVAUS    0.130  1.000 P
# 2005 05 31 10 30 13.58  59.3577 -153.4308 -0.68 0.60 0.15 0.05 0.05   61042423
AVAUE    1.180  1.000 P
AVAUH    0.460  1.000 P
AVAUI    1.770  1.000 S
AVAUI    1.880  1.000 S
AVAUI    0.990  1.000 P
AVAUL    1.850  1.000 S
AVAUL    0.970  1.000 P
AVAUL    0.480  1.000 P
AVAUP    0.340  1.000 P
AVAUR    0.260  1.000 P
AVAUS    0.290  1.000 P
AVAUW    1.020  1.000 P
# 2005 06 01 19 31 5.72  59.3612 -153.4273 -1.17 -0.50 0.57 1.83 0.02   61049773
AVAUH    0.820  1.000 P
AVAUP    0.110  1.000 P
AVAUR    0.160  1.000 P
AVAUS    0.170  1.000 P
# 2005 06 03 06 25 14.79  59.3588 -153.4260 -0.01 -0.70 0.25 0.09 0.06   61051548
AVAUE    1.050  1.000 P
AVAUH    1.080  1.000 P
AVAUI    1.520 -1.000 S
AVAUL    1.580 -1.000 S
AVAUL    0.820  1.000 P
AVAUP    0.500  1.000 P
AVAUR    0.670  1.000 P
AVAUS    0.500  1.000 P
AVAUW    0.890  1.000 P
# 2005 06 03 08 46 46.19  59.3583 -153.4292 -0.10 -0.70 0.22 0.09 0.08   61051673
AVAUE    1.020  1.000 P
AVAUH    0.530  1.000 P
AVAUI    1.660  1.000 S
AVAUI    0.820  1.000 P
AVAUL    1.550  1.000 S
AVAUL    0.810  1.000 P
AVAUP    0.460  1.000 P
AVAUR    0.710  1.000 P
AVAUS    0.480  1.000 P
AVAUW    0.870  1.000 P
# 2005 06 03 09 57 39.84  59.3590 -153.4355 -0.28 -0.30 0.29 0.13 0.08   61051748
AVAUE    1.140 -1.000 P
AVAUH    0.750  0.200 P
AVAUI    1.800 -1.000 S
AVAUI    0.800  1.000 P
AVAUL    1.710 -1.000 S
AVAUL    0.790  1.000 P
AVAUP    0.450  1.000 P
AVAUR    0.840  1.000 P
AVAUS    0.470 -1.000 P
AVAUW    0.820 -1.000 P
# 2005 06 03 10 45 42.67  59.3588 -153.4272 -0.05 -0.60 0.20 0.09 0.05   61051798
AVAUE    1.020 -1.000 P
AVAUH    0.570  1.000 P
AVAUI    1.560 -1.000 S
AVAUI    0.870  1.000 P
AVAUL    1.580  1.000 S
AVAUL    0.820  1.000 P
AVAUL    0.850  1.000 P
AVAUP    0.470  1.000 P
AVAUR    0.710  1.000 P
AVAUS    0.490  1.000 P
AVAUW    0.890  1.000 P
# 2005 06 03 11 26 41.32  59.3583 -153.4342 -0.23 -0.90 0.23 0.09 0.07   61051818
AVAUE    1.110  1.000 P
AVAUI    1.590 -1.000 S
AVAUI    0.880  1.000 P
AVAUL    1.570 -1.000 S
AVAUL    0.870  1.000 P
AVAUP    0.540  1.000 P
AVAUS    0.560  1.000 P
AVAUW    0.950  1.000 P
# 2005 06 03 12 54 40.68  59.3517 -153.4245  0.09 -0.60 0.52 0.67 0.19   61051883
AVAUE    0.780 -1.000 P
AVAUL    1.740 -1.000 S
AVAUL    1.430  1.000 P
AVAUP    0.640  1.000 P
AVAUR    0.970  1.000 P
AVAUS    0.650  1.000 P
AVAUW    1.050  1.000 P
# 2005 06 03 13 33 1.18  59.3578 -153.4283 -0.18 -0.50 0.20 0.08 0.03   61051913
AVAUE    1.050  1.000 P
AVAUH    0.590  1.000 P
AVAUI    1.570 -1.000 S
AVAUI    0.880  1.000 P
AVAUL    1.650 -1.000 S
AVAUL    0.900  1.000 P
AVAUP    0.370  1.000 P
AVAUR    0.950  1.000 P
AVAUS    0.410  1.000 P
AVAUW    0.950  1.000 P
