# 2005 06 03 14 43 39.34  59.3590 -153.4218  0.01 0.30 0.47 0.20 0.06   61051968
AVAUE    0.200  0.200 P
AVAUH    0.630  1.000 P
AVAUI    1.600 -1.000 S
AVAUI    0.820  1.000 P
AVAUL    1.550  1.000 S
AVAUL    0.890  1.000 P
AVAUP    0.500  1.000 P
AVAUR    0.750  1.000 P
AVAUS    0.540  1.000 P
AVAUW    0.930  1.000 P
# 2005 06 03 15 58 36.15  59.3588 -153.4273 -0.05 -0.20 0.22 0.08 0.05   61052018
AVAUE    1.050 -1.000 P
AVAUI    1.560 -1.000 S
AVAUI    0.850  1.000 P
AVAUL    1.540 -1.000 S
AVAUL    0.860  1.000 P
AVAUP    0.500  1.000 P
AVAUR    0.540  1.000 P
AVAUS    0.500  1.000 P
AVAUW    0.910  1.000 P
# 2005 06 03 16 07 55.85  59.3585 -153.4260 -0.07 -0.50 0.27 0.11 0.08   61052023
AVAUE    1.050 -1.000 P
AVAUI    1.520 -1.000 S
AVAUI    0.820  1.000 P
AVAUL    1.580 -1.000 S
AVAUL    0.840  1.000 P
AVAUP    0.440  1.000 P
AVAUR    0.730  1.000 P
AVAUS    0.490  1.000 P
AVAUW    0.900  1.000 P
# 2005 06 03 17 19 40.46  59.3583 -153.4288 -0.11 -0.80 0.26 0.11 0.05   61052093
AVAUE    1.060 -1.000 P
AVAUI    0.850 -1.000 P
AVAUL    1.610 -1.000 S
AVAUL    0.830  1.000 P
AVAUP    0.510  1.000 P
AVAUR    0.850  1.000 P
AVAUS    0.510  1.000 P
AVAUW    0.920  1.000 P
# 2005 06 03 19 52 34.98  59.3573 -153.4293  0.16 -0.60 0.39 0.21 0.06   61052178
AVAUE    1.040 -1.000 P
AVAUL    1.610 -1.000 S
AVAUL    0.840  1.000 P
AVAUR    0.770  1.000 P
AVAUS    0.500  1.000 P
AVAUW    0.900 -1.000 P
# 2005 06 03 20 53 34.66  59.3588 -153.4285 -0.21 -0.10 0.28 0.10 0.07   61052208
AVAUE    1.080 -1.000 P
AVAUH    0.620  1.000 P
AVAUI    1.590 -1.000 S
AVAUI    0.910  1.000 P
AVAUL    1.580  1.000 S
AVAUL    0.870  1.000 P
AVAUR    0.480  1.000 P
AVAUS    0.540  1.000 P
AVAUW    0.930  1.000 P
# 2005 06 03 22 57 39.50  59.3597 -153.4268 -0.07 -0.70 0.27 0.09 0.05   61052248
AVAUE    1.000 -1.000 P
AVAUH    0.540  1.000 P
AVAUL    1.570  1.000 S
AVAUL    1.500  1.000 S
AVAUL    0.800  1.000 P
AVAUP    0.460  1.000 P
AVAUR    0.860  0.200 P
AVAUS    0.460  1.000 P
AVAUW    0.860  1.000 P
# 2005 06 03 23 22 47.13  59.3592 -153.4238 -0.51 -0.20 0.64 0.11 0.08   61052273
AVAUL    1.790 -1.000 S
AVAUL    0.910 -1.000 P
AVAUP    0.270 -1.000 P
AVAUR    0.570  1.000 P
AVAUS    0.350  1.000 P
# 2005 06 04 17 01 0.75  59.3592 -153.4287 -0.61 0.30 0.53 0.13 0.03   61052658
AVAUL    1.790 -1.000 S
AVAUP    0.270 -1.000 P
AVAUR    0.340  1.000 P
AVAUS    0.320  1.000 P
AVAUW    1.010 -1.000 P
# 2005 06 05 03 17 32.85  59.3585 -153.4205 -0.01 -0.70 0.53 0.12 0.04   61052923
AVAUL    1.630 -1.000 S
AVAUP    0.510 -1.000 P
AVAUR    0.940  1.000 P
AVAUS    0.550  1.000 P
AVAUW    0.960  1.000 P
# 2005 06 05 13 56 54.79  59.3607 -153.4245 -0.23 -0.60 0.37 0.15 0.06   61053173
AVAUE    0.940 -0.200 P
AVAUL    1.450  1.000 S
AVAUL    0.950  1.000 P
AVAUP    0.370  1.000 P
AVAUS    0.390  1.000 P
AVAUW    1.380  1.000 P
# 2005 06 07 03 27 39.61  59.3587 -153.4397 -0.05 0.10 0.19 0.12 0.06   61054863
AVAUE    1.080  1.000 P
AVAUH    0.390  1.000 P
AVAUI    1.590 -1.000 S
AVAUI    0.890  1.000 P
AVAUL    1.650 -1.000 S
AVAUP    0.600  1.000 P
AVAUS    0.640  1.000 P
AVAUW    0.730  1.000 P
# 2005 06 08 03 49 38.04  59.3620 -153.4327 -0.98 -0.50 0.24 0.53 0.01   61055853
AVAUH    0.710  1.000 P
AVAUP    0.230 -1.000 P
AVAUR    0.090 -1.000 P
AVAUS    0.170 -1.000 P
# 2005 06 09 16 59 20.18  59.3545 -153.4308 -0.32 0.20 0.28 0.12 0.10   61056858
AVAUE    1.330  1.000 P
AVAUH    0.660  1.000 P
AVAUI    0.630 -1.000 P
AVAUL    1.870 -1.000 S
AVAUL    0.970  1.000 P
AVAUP    0.560  1.000 P
AVAUR    0.510  1.000 P
AVAUS    0.600  1.000 P
AVAUW    0.980  1.000 P
# 2005 06 10 02 01 47.07  59.3700 -153.1050  4.90 0.80 7.79 31.61 0.56   61057103
AVAUH    4.440  1.000 P
AVAUI    8.340 -1.000 S
AVAUL    8.310  1.000 S
AVAUL    4.450  1.000 P
AVAUP    4.000  1.000 P
AVAUR    3.550  0.200 P
AVAUS    3.840  1.000 P
AVAUW    5.120  1.000 P
# 2005 06 11 07 37 53.56  59.3335 -153.3848 -1.18 -0.20 13.47 2.51 1.56   61057958
AVAUL    5.350 -1.000 S
AVAUL    1.340  1.000 P
AVAUP    0.680  1.000 P
AVAUR    0.650  1.000 P
AVAUS    0.690  1.000 P
# 2005 06 11 14 34 28.12  59.3623 -153.4288 -0.28 -0.90 0.39 0.19 0.06   61058213
AVAUH    0.550  1.000 P
AVAUL    1.490 -1.000 S
AVAUL    0.760  1.000 P
AVAUP    0.420  1.000 P
AVAUR    0.750  1.000 P
AVAUS    0.450  1.000 P
AVAUW    0.840 -1.000 P
# 2005 06 12 03 20 8.64  59.3527 -153.4202 -0.59 0.20 0.70 0.15 0.05   61058598
AVAUL    2.240 -1.000 S
AVAUL    1.180 -1.000 P
AVAUP    0.570 -1.000 P
AVAUR    0.570  1.000 P
AVAUS    0.560 -1.000 P
# 2005 06 12 12 08 46.11  59.3547 -153.4352 -0.94 -0.40 0.36 0.62 0.05   61058828
AVAUH    0.540 -1.000 P
AVAUP    0.440 -1.000 P
AVAUR    0.310  1.000 P
AVAUS    0.310 -1.000 P
# 2005 06 12 22 03 26.75  59.3530 -153.4210 -1.18 -0.50 0.30 1.24 0.07   61058958
AVAUH    0.800 -1.000 P
AVAUP    0.450  1.000 P
AVAUR    0.400  1.000 P
AVAUS    0.430  1.000 P
AVAUW    1.690  1.000 P
# 2005 06 13 05 28 48.35  59.3582 -153.4207 -0.54 0.00 0.19 0.08 0.06   61059128
AVAUE    1.460  1.000 P
AVAUH    0.770  1.000 P
AVAUI    1.790 -1.000 S
AVAUL    1.920 -1.000 S
AVAUL    0.980  1.000 P
AVAUP    0.360  1.000 P
AVAUR    0.370  1.000 P
AVAUS    0.410  1.000 P
AVAUW    1.070  1.000 P
# 2005 06 13 05 37 23.25  59.3587 -153.4267 -0.56 0.20 0.16 0.07 0.05   61059143
AVAUE    1.170  1.000 P
AVAUH    0.620  1.000 P
AVAUI    1.750 -1.000 S
AVAUI    1.000  1.000 P
AVAUL    1.760 -1.000 S
AVAUL    0.930  1.000 P
AVAUP    0.310  1.000 P
AVAUR    0.340  1.000 P
AVAUS    0.370  1.000 P
AVAUW    1.050  1.000 P
# 2005 06 13 08 45 23.01  59.3662 -153.4278 -0.27 -0.90 0.35 0.28 0.04   61059183
AVAUE    0.980 -1.000 P
AVAUH    0.530  1.000 P
AVAUL    1.190 -1.000 S
AVAUL    0.730  1.000 P
AVAUP    0.450  1.000 P
AVAUR    0.940  1.000 P
AVAUS    0.480  1.000 P
AVAUW    0.870 -1.000 P
# 2005 06 13 10 49 5.97  59.3587 -153.4220 -0.42 -0.50 0.67 0.14 0.03   61059208
AVAUL    1.780 -1.000 S
AVAUL    0.960 -1.000 P
AVAUP    0.350 -1.000 P
AVAUR    0.510  1.000 P
AVAUS    0.410 -1.000 P
# 2005 06 13 14 57 14.72  59.3592 -153.4275 -0.54 0.10 0.19 0.08 0.07   61059288
AVAUE    1.070  1.000 P
AVAUH    0.640  1.000 P
AVAUI    1.870 -1.000 S
AVAUI    0.510  1.000 P
AVAUL    1.740 -1.000 S
AVAUL    0.900  1.000 P
AVAUP    0.280  1.000 P
AVAUR    0.320  1.000 P
AVAUS    0.320  1.000 P
AVAUW    1.000  1.000 P
# 2005 06 14 05 29 53.90  59.3587 -153.4335 -0.61 0.00 0.57 0.17 0.03   61059493
AVAUL    1.840 -1.000 S
AVAUL    0.980 -1.000 P
AVAUP    0.380  1.000 P
AVAUR    0.250  1.000 P
AVAUS    0.290 -1.000 P
# 2005 06 14 15 14 54.94  59.3567 -153.4287 -0.47 -0.20 0.46 0.11 0.03   61059703
AVAUL    1.850 -1.000 S
AVAUL    0.960  1.000 P
AVAUP    0.430 -1.000 P
AVAUR    0.460  1.000 P
AVAUS    0.340  1.000 P
# 2005 06 14 21 50 29.13  59.3560 -153.4147 -1.18 -0.40 0.38 0.67 0.06   61059823
AVAUL    2.440 -1.000 S
AVAUL    1.250  1.000 P
AVAUP    0.470  1.000 P
AVAUR    0.480  1.000 P
AVAUS    0.510  1.000 P
# 2005 06 15 08 53 32.93  59.3580 -153.4337 -0.58 0.10 0.16 0.08 0.07   61060178
AVAUE    1.170  1.000 P
AVAUH    0.470  1.000 P
AVAUI    1.850 -1.000 S
AVAUI    0.990  1.000 P
AVAUL    2.200  1.000 S
AVAUL    0.930  1.000 P
AVAUP    0.310  1.000 P
AVAUR    0.340  1.000 P
AVAUS    0.330  1.000 P
AVAUW    0.990  1.000 P
# 2005 06 15 09 00 53.09  59.3543 -153.4207 -0.61 -0.40 0.36 0.13 0.04   61060193
AVAUL    2.160 -1.000 S
AVAUL    1.110  1.000 P
AVAUP    0.480  1.000 P
AVAUR    0.520  1.000 P
AVAUS    0.520  1.000 P
# 2005 06 15 09 27 54.83  59.3598 -153.4245 -0.59 -0.40 0.32 0.09 0.03   61060203
AVAUL    1.720 -1.000 S
AVAUL    1.040  1.000 P
AVAUP    0.240  1.000 P
AVAUR    0.350  1.000 P
AVAUS    0.300  1.000 P
# 2005 06 15 21 11 0.10  59.3590 -153.4298 -0.02 -0.40 0.55 0.10 0.09   61060478
AVAUE    1.000 -1.000 P
AVAUI    1.640 -1.000 S
AVAUI    0.830  1.000 P
AVAUL    1.500 -1.000 S
AVAUL    0.780  1.000 P
AVAUR    0.730  1.000 P
AVAUS    0.430  1.000 P
# 2005 06 16 22 44 46.69  59.3577 -153.4278 -0.60 0.00 0.27 0.08 0.07   61061088
AVAUE    1.190 -1.000 P
AVAUH    0.630  1.000 P
AVAUI    1.820 -1.000 S
AVAUI    0.800  1.000 P
AVAUL    1.790  1.000 S
AVAUL    1.020  1.000 P
AVAUR    0.360  1.000 P
AVAUS    0.360  1.000 P
AVAUW    1.080  1.000 P
# 2005 06 17 02 39 13.20  59.3588 -153.4325  0.03 -0.40 0.45 0.18 0.03   61061283
AVAUE    1.040 -1.000 P
AVAUI    1.570 -1.000 S
AVAUI    0.840  1.000 P
AVAUL    1.530  1.000 S
AVAUL    0.820  1.000 P
AVAUR    0.490  1.000 P
AVAUS    0.470  1.000 P
# 2005 06 17 04 53 10.11  59.3568 -153.4230 -0.46 -0.30 0.42 0.12 0.03   61061388
AVAUL    1.880 -1.000 S
AVAUL    1.020  1.000 P
AVAUP    0.410  1.000 P
AVAUR    0.470  1.000 P
AVAUS    0.420  1.000 P
# 2005 06 17 05 57 38.92  59.3598 -153.4257 -0.53 -0.10 0.58 0.11 0.06   61061438
AVAUL    1.680 -1.000 S
AVAUL    1.120  1.000 P
AVAUP    0.260 -1.000 P
AVAUR    0.320  1.000 P
AVAUS    0.320  1.000 P
AVAUW    0.970  1.000 P
# 2005 06 17 08 21 38.15  59.3585 -153.4285 -0.70 0.30 0.11 0.07 0.04   61061513
AVAUE    1.220  1.000 P
AVAUH    0.540  1.000 P
AVAUI    1.860 -1.000 S
AVAUI    1.040  1.000 P
AVAUL    1.880 -1.000 S
AVAUL    1.000  1.000 P
AVAUP    0.310  1.000 P
AVAUR    0.240  1.000 P
AVAUS    0.260  1.000 P
AVAUW    1.040  1.000 P
# 2005 06 17 14 19 22.76  59.3553 -153.4065 -1.18 -0.40 0.56 0.41 0.09   61061743
AVAUL    2.530 -1.000 S
AVAUL    1.460  1.000 P
AVAUP    0.590  1.000 P
AVAUR    0.570  1.000 P
AVAUS    0.630  1.000 P
# 2005 06 17 16 17 9.19  59.3593 -153.4313 -0.64 0.30 0.12 0.08 0.07   61061753
AVAUE    1.150  1.000 P
AVAUH    0.470  1.000 P
AVAUI    1.860  1.000 S
AVAUI    0.930  1.000 P
AVAUL    1.810  1.000 S
AVAUL    0.930  1.000 P
AVAUP    0.310  1.000 P
AVAUR    0.290  1.000 P
AVAUS    0.320  1.000 P
AVAUW    0.980  1.000 P
# 2005 06 18 00 40 5.63  59.3548 -153.4287 -1.18 -0.50 0.41 1.41 0.12   61061943
AVAUH    0.600 -1.000 P
AVAUP    0.410 -1.000 P
AVAUR    0.220  1.000 P
AVAUS    0.170  1.000 P
# 2005 06 18 00 40 11.50  59.3568 -153.4317 -1.18 -0.60 0.42 0.61 0.13   61061948
AVAUH    0.710  1.000 P
AVAUP    0.420  1.000 P
AVAUR    0.190  1.000 P
AVAUS    0.200  1.000 P
# 2005 06 18 05 25 7.09  59.5075 -153.3038  2.93 1.10 3.05 31.61 0.25   61062098
AVAUE    3.470  1.000 P
AVAUH    4.240  1.000 P
AVAUI    4.250  1.000 P
AVAUP    4.050  1.000 P
AVAUS    4.590  1.000 P
AVAUW    4.250  1.000 P
AVOPT    3.850  1.000 P
# 2005 06 19 22 53 39.46  59.3593 -153.4298 -0.44 0.70 0.19 0.08 0.04   61063318
AVAUE    1.140  1.000 P
AVAUH    0.470  1.000 P
AVAUI    1.770 -1.000 S
AVAUI    0.950  1.000 P
AVAUP    0.300  1.000 P
AVAUR    0.300  1.000 P
AVAUS    0.320  1.000 P
AVAUW    0.980 -1.000 P
# 2005 06 22 11 11 0.84  59.3512 -153.4205 -1.17 -0.20 0.42 1.75 0.08   61064363
AVAUH    0.960 -1.000 P
AVAUP    0.540 -1.000 P
AVAUR    0.530  1.000 P
AVAUS    0.450  1.000 P
# 2005 06 23 06 23 15.51  59.3603 -153.4260 -0.81 0.10 0.38 0.13 0.04   61065008
AVAUE    1.170 -1.000 P
AVAUH    0.500  1.000 P
AVAUP    0.200  1.000 P
AVAUR    0.330  1.000 P
AVAUS    0.230  1.000 P
AVAUW    1.070 -1.000 P
# 2005 06 23 09 42 38.19  59.2283 -153.4408  3.73 0.20 2.92 31.61 0.25   61065158
AVAUH    3.320  1.000 P
AVAUL    7.360  1.000 S
AVAUL    6.990  1.000 S
AVAUL    3.960  1.000 P
AVAUP    3.340  1.000 P
AVAUR    3.610  1.000 P
AVAUS    3.680  1.000 P
AVAUW    3.640  1.000 P
# 2005 06 24 08 47 51.45  59.3572 -153.4255 -0.45 -0.40 0.49 0.13 0.04   61065888
AVAUL    1.850 -1.000 S
AVAUL    0.990 -1.000 P
AVAUP    0.350  1.000 P
AVAUR    0.530  1.000 P
AVAUS    0.390  1.000 P
# 2005 06 24 18 10 16.80  59.3585 -153.4287  0.16 -0.70 0.27 0.19 0.02   61066083
AVAUE    1.010 -1.000 P
AVAUI    1.510  1.000 S
AVAUI    0.850  1.000 P
AVAUL    1.530  1.000 S
AVAUL    0.820  1.000 P
AVAUP    0.530  1.000 P
AVAUR    0.930  1.000 P
AVAUS    0.560  1.000 P
AVAUW    0.900 -1.000 P
# 2005 06 25 08 35 39.60  59.3585 -153.4305 -0.54 0.50 0.12 0.07 0.06   61066343
AVAUE    1.130  1.000 P
AVAUH    0.540  1.000 P
AVAUI    1.800 -1.000 S
AVAUI    0.950  1.000 P
AVAUL    1.730  1.000 S
AVAUL    0.910  1.000 P
AVAUP    0.310  1.000 P
AVAUR    0.320  1.000 P
AVAUS    0.330  1.000 P
AVAUW    1.010  1.000 P
# 2005 06 25 18 03 7.66  59.3637 -153.4330  0.17 -0.20 0.32 0.45 0.07   61066728
AVAUE    0.930 -1.000 P
AVAUL    1.170 -1.000 S
AVAUL    0.750  1.000 P
AVAUP    0.620  1.000 P
AVAUR    1.110  1.000 P
AVAUS    0.480  1.000 P
AVAUW    0.790 -1.000 P
# 2005 06 26 11 55 23.30  59.3602 -153.4295 -0.63 -0.50 0.35 0.20 0.03   61067613
AVAUL    1.680 -1.000 S
AVAUL    1.320  1.000 P
AVAUP    0.250 -1.000 P
AVAUR    0.340  1.000 P
AVAUS    0.250  1.000 P
# 2005 06 26 20 59 53.16  59.3578 -153.4220  0.33 -0.90 0.27 0.26 0.04   61865178
AVAUE    0.830 -0.500 P
AVAUH    0.720  1.000 P
AVAUL    1.610 -1.000 S
AVAUL    0.910  1.000 P
AVAUP    0.630  1.000 P
AVAUS    0.620  0.500 P
AVAUW    0.990 -1.000 P
# 2005 06 26 21 54 32.08  59.3573 -153.4202 -0.22 -0.60 0.31 0.14 0.03   61865223
AVAUH    0.650  0.500 P
AVAUL    1.710 -0.500 S
AVAUL    1.070  0.500 P
AVAUP    0.430  1.000 P
AVAUR    0.560  1.000 P
AVAUS    0.500  1.000 P
# 2005 06 26 22 26 31.97  59.3517 -153.4195 -1.14 -0.90 1.48 5.93 0.43   61865263
AVAUH    1.040 -0.500 P
AVAUP    0.230  1.000 P
AVAUR    0.220  1.000 P
AVAUS    0.140  1.000 P
# 2005 06 27 00 56 51.93  59.3558 -153.4287 -1.18 -0.80 0.45 1.51 0.14   61865363
AVAUH    0.850 -0.500 P
AVAUP    0.470 -1.000 P
AVAUR    0.230  1.000 P
AVAUS    0.300  1.000 P
# 2005 06 27 04 12 41.11  59.3623 -153.4300 -1.18 -0.80 0.24 0.67 0.07   61865483
AVAUH    0.500  1.000 P
AVAUL    1.660 -0.500 S
AVAUP    0.190  1.000 P
AVAUR    0.040 -1.000 P
AVAUS    0.100  1.000 P
# 2005 06 27 04 39 26.63  59.3597 -153.4250 -0.63 -0.60 0.69 0.15 0.09   61865503
AVAUH    0.610  0.500 P
AVAUL    1.690 -0.500 S
AVAUP    0.230 -1.000 P
AVAUR    0.530  1.000 P
AVAUS    0.280 -1.000 P
# 2005 06 27 05 03 38.59  59.3588 -153.4243  0.44 -0.90 0.45 0.40 0.03   61865523
AVAUH    0.700  0.500 P
AVAUI    1.540 -0.500 S
AVAUI    1.460  0.500 P
AVAUL    1.560 -1.000 S
AVAUL    0.870 -1.000 P
AVAUP    0.620  0.500 P
AVAUS    0.620 -1.000 P
AVAUW    0.960 -1.000 P
# 2005 06 27 06 25 51.53  59.3573 -153.4252 -0.81 -0.60 0.40 0.10 0.04   61865578
AVAUH    1.030  0.100 P
AVAUL    2.060 -0.500 S
AVAUL    1.060  0.500 P
AVAUP    0.270 -1.000 P
AVAUR    0.320  1.000 P
AVAUS    0.330  1.000 P
# 2005 06 27 07 38 53.32  59.3593 -153.4287 -0.60 -0.10 0.12 0.07 0.04   61865618
AVAUE    1.190  0.200 P
AVAUH    0.530  1.000 P
AVAUI    1.840 -0.500 S
AVAUI    1.020  0.500 P
AVAUL    1.760 -1.000 S
AVAUL    0.970  1.000 P
AVAUP    0.310  1.000 P
AVAUR    0.410  1.000 P
AVAUS    0.320  1.000 P
AVAUW    1.040  1.000 P
# 2005 06 27 16 53 10.96  59.3628 -153.4265 -1.14 -0.40 0.73 1.38 0.14   61865968
AVAUH    0.750  0.500 P
AVAUL    1.490 -0.500 S
AVAUL    1.160  0.500 P
AVAUP    0.060  1.000 P
AVAUR    0.200  1.000 P
AVAUS    0.070  1.000 P
# 2005 06 27 18 05 45.02  59.3567 -153.4223 -0.63 0.10 0.42 0.12 0.07   61866028
AVAUH    0.820  0.500 P
AVAUL    1.980 -0.500 S
AVAUL    1.040  0.500 P
AVAUP    0.360  1.000 P
AVAUR    0.370  1.000 P
AVAUS    0.410  1.000 P
AVAUW    1.180  0.500 P
# 2005 06 28 01 28 17.78  59.3588 -153.4250 -0.68 0.10 0.19 0.10 0.08   61866343
AVAUE    1.110  0.500 P
AVAUH    0.700  0.500 P
AVAUI    2.030 -0.500 S
AVAUI    0.870  0.500 P
AVAUL    1.380  0.500 S
AVAUL    1.000  1.000 P
AVAUP    0.320  1.000 P
AVAUR    0.320  1.000 P
AVAUS    0.300  1.000 P
AVAUW    1.050  0.500 P
# 2005 06 28 02 04 23.29  59.3648 -153.4258 -0.98 -0.60 0.73 1.19 0.16   61866383
AVAUH    0.760  0.500 P
AVAUL    1.320 -1.000 S
AVAUL    1.130  0.500 P
AVAUR    0.270  1.000 P
AVAUS    0.220 -1.000 P
# 2005 06 28 03 00 44.69  59.3608 -153.4298 -0.25 -0.60 0.76 0.30 0.09   61866443
AVAUH    0.530 -0.500 P
AVAUL    1.500 -1.000 S
AVAUL    0.770  1.000 P
AVAUR    0.550  1.000 P
AVAUS    0.390 -1.000 P
AVAUW    0.890 -0.500 P
# 2005 06 28 13 37 19.16  59.3617 -153.4317 -0.53 -0.90 0.41 0.28 0.07   61866798
AVAUH    0.870  0.500 P
AVAUL    1.560 -0.500 S
AVAUL    0.890  1.000 P
AVAUP    0.380  1.000 P
AVAUR    0.370  0.500 P
AVAUS    0.370  1.000 P
AVAUW    0.840 -0.500 P
# 2005 06 28 17 29 16.19  59.3540 -153.4007 -1.12 -0.80 2.35 7.28 0.31   61866928
AVAUH    1.600 -0.500 P
AVAUP    0.830  1.000 P
AVAUR    0.660 -1.000 P
AVAUS    0.760  1.000 P
# 2005 06 28 17 41 2.04  59.3623 -153.4333 -0.56 -0.80 0.71 0.66 0.09   61866948
AVAUH    0.330 -1.000 P
AVAUL    1.330 -0.500 S
AVAUL    0.970 -1.000 P
AVAUP    0.330  0.500 P
AVAUR    0.360  0.500 P
AVAUS    0.220 -1.000 P
# 2005 06 28 21 01 36.71  59.3615 -153.4302 -1.15 -0.30 0.21 0.54 0.09   61867083
AVAUH    0.610  0.500 P
AVAUL    1.710 -0.500 S
AVAUP    0.140  1.000 P
AVAUR    0.040 -1.000 P
AVAUS    0.080  1.000 P
# 2005 06 29 09 44 14.03  59.3612 -153.4272 -0.91 0.20 0.25 0.20 0.09   61867628
AVAUH    0.660  1.000 P
AVAUL    1.670 -0.500 S
AVAUL    0.860  0.500 P
AVAUP    0.120  1.000 P
AVAUR    0.240  1.000 P
AVAUS    0.180  1.000 P
# 2005 06 30 06 38 29.14  59.3610 -153.4270 -0.65 -0.10 0.44 0.27 0.10   61868573
AVAUH    0.590 -1.000 P
AVAUP    0.110  1.000 P
AVAUR    0.220  1.000 P
AVAUS    0.230  1.000 P
# 2005 06 30 09 42 37.39  59.3542 -153.4373 -1.18 -0.10 0.53 1.10 0.11   61868703
AVAUH    0.660 -0.500 P
AVAUP    0.730 -1.000 P
AVAUR    0.350 -1.000 P
AVAUS    0.300  1.000 P
# 2005 06 30 13 38 21.93  59.3498 -153.4205 -1.18 -0.50 0.96 4.10 0.27   61868838
AVAUH    1.160 -0.500 P
AVAUP    0.580 -1.000 P
AVAUR    0.380  1.000 P
AVAUS    0.290  1.000 P
# 2005 07 03 10 18 42.11  59.3562 -153.4260 -0.11 -0.50 0.76 0.14 0.03   61848603
AVAUL    1.690 -0.500 S
AVAUL    1.000 -1.000 P
AVAUP    0.470 -1.000 P
AVAUR    0.600  1.000 P
AVAUS    0.480 -1.000 P
# 2005 07 03 18 29 20.44  59.3543 -153.4045 -1.18 -0.70 1.25 0.71 0.29   61848788
AVAUE    2.590  0.500 P
AVAUH    1.610  0.500 P
AVAUL    2.730  0.500 S
AVAUL    1.020  1.000 P
AVAUP    0.480  0.500 P
AVAUR    1.020  0.200 P
AVAUS    0.580  1.000 P
AVAUW    1.300  0.500 P
# 2005 07 03 19 21 11.12  59.3605 -153.4290 -0.54 -0.20 0.52 0.19 0.04   61848818
AVAUH    0.540  0.500 P
AVAUL    1.650 -0.500 S
AVAUL    0.920 -1.000 P
AVAUP    0.330  1.000 P
AVAUR    0.300  1.000 P
AVAUS    0.290 -1.000 P
AVAUW    1.840  0.500 P
# 2005 07 03 20 44 8.77  59.3640 -153.4332 -0.82 -0.20 0.26 0.27 0.02   61848878
AVAUH    1.020  0.500 P
AVAUP    0.300  1.000 P
AVAUR    0.200  1.000 P
AVAUS    0.250  1.000 P
# 2005 07 04 07 32 52.23  59.3568 -153.4252 -1.18 -0.80 0.69 0.54 0.10   61849343
AVAUH    0.710  0.500 P
AVAUP    0.280 -1.000 P
AVAUR    0.150  1.000 P
AVAUS    0.130 -1.000 P
# 2005 07 04 15 33 9.48  59.3583 -153.4282 -0.60 0.30 0.14 0.08 0.06   61849793
AVAUE    1.190  0.500 P
AVAUH    0.540  1.000 P
AVAUI    1.850 -0.500 S
AVAUI    0.790  0.500 P
AVAUL    1.840  0.500 S
AVAUL    0.960  1.000 P
AVAUP    0.350  1.000 P
AVAUR    0.310  1.000 P
AVAUS    0.320  1.000 P
AVAUW    1.370  0.500 P
# 2005 07 04 21 19 53.50  59.3563 -153.4273 -0.46 -0.20 0.33 0.11 0.04   61850118
AVAUL    1.880 -1.000 S
AVAUL    0.990  0.500 P
AVAUP    0.400  1.000 P
AVAUR    0.440  0.500 P
AVAUS    0.440  1.000 P
# 2005 07 05 00 45 29.16  59.3590 -153.4282 -0.48 -0.20 0.33 0.11 0.06   61850228
AVAUH    0.530  0.500 P
AVAUL    1.680 -1.000 S
AVAUL    0.940  1.000 P
AVAUP    0.320  1.000 P
AVAUR    0.380  1.000 P
AVAUS    0.330 -1.000 P
# 2005 07 06 08 19 59.26  59.3582 -153.4233 -0.77 0.20 0.45 0.12 0.06   61851763
AVAUH    0.700  0.500 P
AVAUL    2.020 -0.500 S
AVAUP    0.300 -1.000 P
AVAUR    0.310  1.000 P
AVAUS    0.350  1.000 P
AVAUW    1.060  0.500 P
# 2005 07 06 12 14 16.92  59.3672 -153.4337 -1.18 -0.40 0.20 0.68 0.12   61852008
AVAUH    0.320  0.500 P
AVAUL    1.300 -0.200 S
AVAUP    0.180  1.000 P
AVAUR    0.680  0.500 P
AVAUS    0.190  1.000 P
AVAUW    1.190  0.500 P
# 2005 07 06 23 41 47.44  59.3578 -153.4290 -0.46 -0.60 0.65 0.14 0.08   61852773
AVAUL    1.830 -0.500 S
AVAUL    0.880 -1.000 P
AVAUP    0.410 -1.000 P
AVAUR    0.530  1.000 P
AVAUS    0.350  1.000 P
