# 2005 07 07 01 00 46.17  59.3558 -153.4267 -1.16 -0.40 0.71 2.18 0.19   61852823
AVAUH    0.840 -0.500 P
AVAUP    0.440 -1.000 P
AVAUR    0.140  1.000 P
AVAUS    0.110 -1.000 P
# 2005 07 08 13 27 24.99  59.3425 -153.4113 -1.18 -0.40 2.80 12.91 0.60   61853543
AVAUH    1.650 -0.500 P
AVAUP    0.660 -1.000 P
AVAUR    0.710  1.000 P
AVAUS    0.720  1.000 P
# 2005 07 08 13 58 2.97  59.3593 -153.4315 -0.53 0.70 0.13 0.07 0.06   61853548
AVAUE    1.190  1.000 P
AVAUH    0.480  1.000 P
AVAUI    1.800  0.500 S
AVAUI    0.930  1.000 P
AVAUL    1.760  1.000 S
AVAUL    0.930  1.000 P
AVAUP    0.340  1.000 P
AVAUR    0.330  1.000 P
AVAUS    0.350  1.000 P
AVAUW    0.990  1.000 P
# 2005 07 09 06 07 51.36  59.3582 -153.4255 -0.14 0.00 0.16 0.09 0.07   61853873
AVAUE    1.040  0.500 P
AVAUH    0.780  0.500 P
AVAUI    1.570 -0.500 S
AVAUI    0.830  0.500 P
AVAUL    1.670 -1.000 S
AVAUL    0.850  0.500 P
AVAUP    0.480  0.500 P
AVAUR    0.810  0.500 P
AVAUS    0.490  1.000 P
AVAUW    0.880  1.000 P
# 2005 07 09 06 26 41.44  59.3587 -153.4277 -0.13 -0.70 0.22 0.09 0.04   61853883
AVAUE    1.050 -1.000 P
AVAUH    0.590  0.500 P
AVAUI    1.530 -0.500 S
AVAUI    0.880  0.500 P
AVAUL    1.550 -0.500 S
AVAUL    0.870  0.500 P
AVAUP    0.510  0.500 P
AVAUR    0.920  0.500 P
AVAUS    0.470  1.000 P
# 2005 07 09 11 35 23.48  59.3537 -153.4192 -0.58 0.00 0.54 0.28 0.05   61854043
AVAUH    0.690 -0.500 P
AVAUP    0.550 -1.000 P
AVAUR    0.580  1.000 P
AVAUS    0.540 -1.000 P
# 2005 07 09 20 01 54.97  59.3567 -153.4222 -1.18 0.10 0.41 1.30 0.06   61854458
AVAUH    0.700 -0.500 P
AVAUP    0.310 -1.000 P
AVAUR    0.290  1.000 P
AVAUS    0.260  1.000 P
# 2005 07 11 11 11 52.16  59.3582 -153.4208 -0.58 0.30 0.30 0.19 0.08   61856218
AVAUE    1.360  0.200 P
AVAUH    0.810  1.000 P
AVAUI    1.850 -0.500 S
AVAUI    0.920  0.500 P
AVAUP    0.370  1.000 P
AVAUR    0.370  1.000 P
AVAUS    0.430  1.000 P
AVAUW    1.070 -1.000 P
# 2005 07 11 21 47 13.43  59.3593 -153.4188 -0.04 0.00 0.69 0.10 0.06   61856583
AVAUH    0.860  0.500 P
AVAUL    1.590 -1.000 S
AVAUL    0.870  1.000 P
AVAUP    0.510  1.000 P
AVAUR    0.600  0.500 P
AVAUS    0.540  1.000 P
AVAUW    0.950  0.500 P
# 2005 07 12 00 30 24.64  59.3588 -153.4278 -0.56 0.40 0.12 0.07 0.05   61856708
AVAUE    1.190  0.500 P
AVAUH    0.500  0.500 P
AVAUI    1.850 -1.000 S
AVAUI    0.950  0.500 P
AVAUL    1.830  0.500 S
AVAUL    0.940  1.000 P
AVAUL    0.990  1.000 P
AVAUP    0.300  1.000 P
AVAUR    0.240  1.000 P
AVAUS    0.300  1.000 P
AVAUW    0.990  1.000 P
# 2005 07 12 16 35 15.11  59.3588 -153.4268 -1.12 0.10 0.31 0.87 0.08   61857378
AVAUH    0.700 -0.500 P
AVAUP    0.180  1.000 P
AVAUR    0.140  1.000 P
AVAUS    0.150  1.000 P
# 2005 07 12 22 55 54.47  59.3573 -153.4327 -0.89 0.40 0.13 0.21 0.08   61857543
AVAUE    1.500  0.500 P
AVAUH    0.460  1.000 P
AVAUI    1.830 -1.000 S
AVAUI    1.000  1.000 P
AVAUP    0.340  1.000 P
AVAUR    0.290  1.000 P
AVAUS    0.310  1.000 P
AVAUW    1.050  1.000 P
# 2005 07 13 20 17 37.27  59.3578 -153.4308 -0.94 0.10 0.66 0.17 0.08   61858003
AVAUH    0.620  0.500 P
AVAUP    0.310 -1.000 P
AVAUR    0.150  1.000 P
AVAUS    0.190 -1.000 P
AVAUW    1.040 -0.500 P
# 2005 07 14 03 44 40.00  59.3593 -153.4328 -0.24 -0.50 0.25 0.09 0.07   61858118
AVAUH    0.990  0.500 P
AVAUI    1.620 -0.500 S
AVAUI    0.930  0.500 P
AVAUL    1.470 -1.000 S
AVAUL    0.910  0.500 P
AVAUP    0.540  1.000 P
AVAUS    0.430  1.000 P
AVAUW    0.970  1.000 P
# 2005 07 14 19 43 28.54  59.3592 -153.4278 -0.57 0.60 0.15 0.06 0.05   61858558
AVAUE    1.140  1.000 P
AVAUH    0.520  1.000 P
AVAUI    1.780  1.000 S
AVAUI    1.790  1.000 S
AVAUI    0.990  1.000 P
AVAUL    1.790  1.000 S
AVAUL    1.730  1.000 S
AVAUL    0.990  1.000 P
AVAUL    0.890  1.000 P
AVAUP    0.350  1.000 P
AVAUR    0.350  1.000 P
AVAUS    0.380  1.000 P
AVAUW    1.040  1.000 P
# 2005 07 17 13 24 30.74  59.1767 -153.4683  3.76 1.10 6.73 31.61 0.38   61859918
AVAUH    5.110  0.500 P
AVAUL    9.230  0.500 S
AVAUL    9.010  1.000 S
AVAUL    5.380  0.500 P
AVAUP    4.930  0.500 P
AVAUR    4.640  0.500 P
AVAUS    4.080  1.000 P
AVAUW    6.070  0.500 P
# 2005 07 17 22 38 48.33  59.3637 -153.4283 -1.18 -0.20 0.31 0.94 0.06   61860233
AVAUH    0.520 -0.500 P
AVAUP    0.080  1.000 P
AVAUR    0.090  1.000 P
AVAUS    0.130  1.000 P
# 2005 07 24 14 56 31.92  59.3572 -153.4273 -0.64 0.30 0.40 0.10 0.05   61863108
AVAUE    1.210 -0.500 P
AVAUH    0.570  0.500 P
AVAUL    1.900 -0.500 S
AVAUR    0.340  1.000 P
AVAUS    0.370  1.000 P
AVAUW    1.040 -1.000 P
# 2005 07 25 02 03 33.02  59.3608 -153.4198 -1.01 -0.30 0.42 0.32 0.07   61863223
AVAUH    0.680  1.000 P
AVAUR    0.400 -1.000 P
AVAUS    0.290  0.500 P
AVAUW    1.170 -0.500 P
# 2005 07 25 11 10 27.77  59.3493 -153.3643  1.08 0.20 69.24 98.78 1.22   61863318
AVAUH    1.100  0.500 P
AVAUR    0.430 -1.000 P
AVAUS    0.630 -1.000 P
AVAUW    1.520 -0.500 P
# 2005 07 26 01 22 22.78  59.3568 -153.3945 -1.18 -0.50 7.43 3.31 0.74   61863378
AVAUH    0.670  0.200 P
AVAUR    0.420 -1.000 P
AVAUS    0.520 -1.000 P
AVAUW    2.160 -0.500 P
# 2005 07 27 06 11 23.93  59.3602 -153.4257 -0.59 -0.10 0.19 0.08 0.06   61863728
AVAUE    1.150 -1.000 P
AVAUH    0.550  1.000 P
AVAUI    1.860 -0.500 S
AVAUI    0.980  0.500 P
AVAUL    1.750 -1.000 S
AVAUL    0.950  1.000 P
AVAUR    0.300  1.000 P
AVAUS    0.350  1.000 P
AVAUW    1.020  1.000 P
# 2005 07 27 06 11 48.45  59.3613 -153.4253 -0.80 -0.20 0.56 0.25 0.11   61863733
AVAUH    0.700  1.000 P
AVAUL    1.750  0.500 S
AVAUL    0.900 -1.000 P
AVAUR    0.190  1.000 P
AVAUS    0.300 -1.000 P
AVAUW    0.980 -0.500 P
# 2005 07 30 10 42 0.72  59.3622 -153.4207 -1.17 0.00 0.28 0.60 0.09   61864488
AVAUE    1.360 -0.500 P
AVAUH    0.740  1.000 P
AVAUL    1.910 -1.000 S
AVAUL    0.950  1.000 P
AVAUR    0.260  1.000 P
AVAUS    0.230  1.000 P
AVAUW    1.020  0.500 P
# 2005 08 01 02 21 20.40  59.3580 -153.4292 -0.56 0.10 0.21 0.08 0.06   61102628
AVAUE    1.170  1.000 P
AVAUH    0.590  1.000 P
AVAUI    1.770 -1.000 S
AVAUI    0.950  1.000 P
AVAUL    1.930  1.000 S
AVAUL    0.930  1.000 P
AVAUR    0.300  1.000 P
AVAUS    0.340  1.000 P
AVAUW    1.020  1.000 P
# 2005 08 01 02 43 29.68  59.3565 -153.4210 -0.85 0.20 0.65 0.24 0.02   61102633
AVAUH    0.650 -1.000 P
AVAUL    2.120 -1.000 S
AVAUL    1.230  1.000 P
AVAUR    0.430 -1.000 P
AVAUS    0.370  1.000 P
# 2005 08 01 18 51 32.36  59.3675 -153.4183 -1.18 0.10 0.55 1.36 0.22   61102953
AVAUE    1.190 -1.000 P
AVAUH    0.850  1.000 P
AVAUL    1.390 -1.000 S
AVAUL    0.940  1.000 P
AVAUR    0.250  1.000 P
AVAUS    0.290  1.000 P
AVAUW    1.800 -1.000 P
# 2005 08 02 17 50 49.25  59.3553 -153.4508 -1.18 0.30 0.69 1.31 0.28   61103263
AVAUE    2.120 -1.000 P
AVAUH    0.520  1.000 P
AVAUI    1.970 -1.000 S
AVAUR    0.320  1.000 P
AVAUS    0.330  1.000 P
AVAUW    1.040 -1.000 P
# 2005 08 02 21 14 30.03  59.3583 -153.4300 -0.62 0.60 0.84 0.13 0.04   61103288
AVAUH    0.510  1.000 P
AVAUR    0.310 -1.000 P
AVAUS    0.320  1.000 P
AVAUW    0.990 -1.000 P
# 2005 08 03 19 48 46.00  59.3595 -153.4198 -0.75 0.60 0.45 0.20 0.06   61103388
AVAUH    0.890  1.000 P
AVAUI    1.920 -1.000 S
AVAUL    1.830 -1.000 S
AVAUL    1.110  1.000 P
AVAUR    0.360  1.000 P
AVAUS    0.390  1.000 P
AVAUW    1.300  1.000 P
# 2005 08 04 10 03 52.85  59.2453 -153.2663  5.88 1.70 2.51 5.27 0.12   61103503
AVAUE    3.420 -1.000 P
AVAUH    3.490  1.000 P
AVAUI    5.630  1.000 S
AVAUI    3.110  1.000 P
AVAUL    7.250 -1.000 S
AVAUL    3.890  1.000 P
AVAUR    4.250  1.000 P
AVAUS    3.730  1.000 P
AVAUW    3.940  1.000 P
AVOPT    8.190  1.000 P
# 2005 08 04 23 23 27.97  59.3608 -153.4318 -0.72 0.10 0.30 0.18 0.04   61103828
AVAUH    0.430  1.000 P
AVAUL    1.660 -1.000 S
AVAUL    0.940  1.000 P
AVAUR    0.200 -1.000 P
AVAUW    0.950 -1.000 P
# 2005 08 05 21 45 38.15  59.3673 -153.4218 -1.18 0.10 0.29 0.55 0.10   61104138
AVAUH    0.730  1.000 P
AVAUI    1.620 -1.000 P
AVAUR    0.340  1.000 P
AVAUS    0.390  1.000 P
AVAUW    1.040  1.000 P
# 2005 08 06 21 17 17.64  59.3588 -153.4280 -0.63 -0.20 0.26 0.07 0.07   61104378
AVAUE    1.180 -1.000 P
AVAUH    0.590  1.000 P
AVAUI    1.810  1.000 S
AVAUI    1.850  1.000 S
AVAUI    0.980  1.000 P
AVAUL    1.840  1.000 S
AVAUL    0.970  1.000 P
AVAUL    0.990  1.000 P
AVAUR    0.350  1.000 P
AVAUS    0.380  1.000 P
AVAUW    1.050  1.000 P
# 2005 08 07 00 17 8.07  59.3578 -153.4335 -0.17 -0.40 0.49 0.12 0.08   61104398
AVAUH    0.510  1.000 P
AVAUL    1.690 -1.000 S
AVAUL    0.700  1.000 P
AVAUR    0.580  1.000 P
AVAUS    0.430  1.000 P
AVAUW    0.890 -1.000 P
# 2005 08 07 03 07 7.29  59.3607 -153.4290 -0.81 0.10 0.20 0.11 0.05   61104438
AVAUH    0.450  1.000 P
AVAUL    1.850 -1.000 S
AVAUL    0.870  1.000 P
AVAUR    0.190  1.000 P
AVAUS    0.210  1.000 P
AVAUW    1.020  1.000 P
# 2005 08 08 11 18 36.50  59.3577 -153.4210 -1.02 0.30 0.34 0.30 0.07   61104823
AVAUH    0.640  1.000 P
AVAUL    2.080 -1.000 S
AVAUL    1.170  1.000 P
AVAUR    0.430  1.000 P
AVAUS    0.360  1.000 P
AVAUW    1.250 -1.000 P
# 2005 08 08 18 18 34.95  59.3585 -153.4290 -0.60 0.00 0.17 0.06 0.03   61104848
AVAUE    1.180 -1.000 P
AVAUH    0.500  1.000 P
AVAUI    1.800 -1.000 S
AVAUI    0.990  1.000 P
AVAUL    1.780  1.000 S
AVAUL    0.990  1.000 P
AVAUR    0.310  1.000 P
AVAUS    0.350  1.000 P
# 2005 08 09 11 07 32.61  59.3582 -153.4270 -0.41 -0.40 0.43 0.13 0.02   61105128
AVAUH    0.550  1.000 P
AVAUL    1.760 -1.000 S
AVAUL    0.970  1.000 P
AVAUR    0.410  1.000 P
AVAUS    0.380  1.000 P
AVAUW    1.020 -1.000 P
# 2005 08 09 12 21 48.50  59.2238 -153.2825  3.37 0.30 2.12 31.61 0.07   61105148
AVAUE    3.620  1.000 P
AVAUI    5.840  1.000 S
AVAUI    3.320  1.000 P
AVAUL    7.610  1.000 S
AVAUL    4.370  1.000 P
AVAUR    4.880  1.000 P
AVAUS    3.980  1.000 P
AVAUW    4.160  1.000 P
# 2005 08 09 17 34 51.75  59.3648 -153.3993 -1.18 -0.50 3.53 1.75 0.39   61105223
AVAUH    1.190  1.000 P
AVAUR    0.770  1.000 P
AVAUS    0.750 -1.000 P
AVAUW    2.230 -1.000 P
# 2005 08 09 19 44 57.32  59.3580 -153.4265 -0.77 0.10 0.22 0.08 0.06   61105253
AVAUE    1.180 -1.000 P
AVAUH    0.640  1.000 P
AVAUI    1.860 -1.000 S
AVAUI    1.020  1.000 P
AVAUL    1.890 -1.000 S
AVAUL    1.460  1.000 P
AVAUR    0.340  1.000 P
AVAUS    0.310  1.000 P
# 2005 08 11 05 49 34.11  59.3388 -153.4493 -1.19 -0.90 2.89 2.16 0.60   61105863
AVAUH    1.150 -1.000 P
AVAUL    2.400 -1.000 P
AVAUR    0.740  1.000 P
AVAUS    0.810  1.000 P
# 2005 08 11 05 54 54.55  59.3560 -153.4373 -1.17 -0.80 0.54 1.10 0.11   61105868
AVAUH    0.390 -1.000 P
AVAUL    1.350 -1.000 P
AVAUR    0.230  1.000 P
AVAUS    0.030 -1.000 P
# 2005 08 11 06 03 23.16  59.3588 -153.4282 -0.56 0.30 0.21 0.08 0.06   61105878
AVAUE    1.130  1.000 P
AVAUH    0.610  1.000 P
AVAUI    1.790 -1.000 S
AVAUI    1.010  1.000 P
AVAUL    1.830 -1.000 S
AVAUL    0.890  1.000 P
AVAUR    0.310  1.000 P
AVAUS    0.340  1.000 P
AVAUW    1.020  1.000 P
# 2005 08 11 11 58 13.33  59.3610 -153.4220 -0.96 0.00 0.23 0.27 0.06   61105963
AVAUE    1.250  0.200 P
AVAUH    0.600  1.000 P
AVAUL    1.860 -1.000 S
AVAUL    0.940  1.000 P
AVAUR    0.370  1.000 P
AVAUS    0.310  1.000 P
AVAUW    1.120  1.000 P
# 2005 08 11 17 32 26.92  59.3592 -153.4300 -0.48 0.30 0.25 0.07 0.05   61106043
AVAUE    1.160 -1.000 P
AVAUH    0.460  1.000 P
AVAUI    1.830  1.000 S
AVAUI    0.960  1.000 P
AVAUL    1.710  1.000 S
AVAUL    0.890  1.000 P
AVAUR    0.330  1.000 P
AVAUS    0.340  1.000 P
AVAUW    1.010  1.000 P
# 2005 08 12 19 17 58.08  59.3580 -153.4262 -0.56 -0.20 0.30 0.09 0.07   61106478
AVAUE    1.140 -1.000 P
AVAUH    0.710  1.000 P
AVAUI    1.760 -1.000 S
AVAUL    1.850 -1.000 S
AVAUR    0.300  1.000 P
AVAUS    0.340  1.000 P
AVAUW    0.990  1.000 P
# 2005 08 13 06 54 0.36  59.3330 -153.4772 14.80 0.50 4.80 1.57 0.28   61106578
AVAUE    3.020 -1.000 P
AVAUH    3.690  1.000 P
AVAUI    5.180 -1.000 S
AVAUI    2.660  1.000 P
AVAUL    5.170 -1.000 S
AVAUL    3.350  1.000 P
AVAUS    3.300  1.000 P
# 2005 08 13 13 13 16.57  59.3567 -153.4268 -0.06 0.20 0.98 0.38 0.03   61106653
AVAUH    0.670  1.000 P
AVAUL    1.690 -1.000 S
AVAUL    0.900 -1.000 P
AVAUR    0.580 -1.000 P
AVAUS    0.490 -1.000 P
AVAUW    1.520  1.000 P
# 2005 08 13 14 48 35.87  59.3600 -153.4222 -0.98 -0.50 0.61 0.66 0.06   61106693
AVAUH    0.610  1.000 P
AVAUL    1.820 -1.000 S
AVAUL    1.100  1.000 P
AVAUR    0.380 -1.000 P
AVAUS    0.260 -1.000 P
# 2005 08 14 06 47 26.27  59.3602 -153.4250 -1.19 0.10 0.19 0.38 0.11   61106903
AVAUE    1.290  1.000 P
AVAUH    0.630  1.000 P
AVAUI    2.190 -1.000 S
AVAUI    1.200  1.000 P
AVAUL    2.140  1.000 S
AVAUL    1.910  1.000 S
AVAUL    0.920  1.000 P
AVAUR    0.230  1.000 P
AVAUS    0.350  1.000 P
AVAUW    1.180  1.000 P
# 2005 08 14 06 55 18.88  59.3637 -153.4130 -1.17 0.40 0.24 0.37 0.12   61106908
AVAUH    0.720  1.000 P
AVAUI    2.350 -0.200 S
AVAUI    1.590  1.000 P
AVAUL    2.020 -1.000 S
AVAUL    1.030  1.000 P
AVAUR    0.330  1.000 P
AVAUS    0.430  1.000 P
AVAUW    1.270  1.000 P
# 2005 08 14 19 27 56.73  59.3627 -153.4258 -0.63 0.10 0.36 0.33 0.09   61107098
AVAUH    0.580  1.000 P
AVAUL    1.710 -1.000 S
AVAUL    0.790  1.000 P
AVAUR    0.250  1.000 P
AVAUS    0.300  1.000 P
AVAUW    1.060 -1.000 P
# 2005 08 15 16 40 18.86  59.3613 -153.4243 -1.18 -0.30 0.61 1.18 0.25   61107458
AVAUH    0.360  1.000 P
AVAUL    1.780 -1.000 S
AVAUL    1.620  1.000 S
AVAUL    1.490  1.000 P
AVAUR    0.020  1.000 P
AVAUS    0.010 -1.000 P
AVAUW    1.600  1.000 P
# 2005 08 15 19 04 14.75  59.3598 -153.4312 -0.65 -0.60 0.51 0.12 0.03   61107508
AVAUH    0.430  1.000 P
AVAUR    0.320  1.000 P
AVAUS    0.230 -1.000 P
AVAUW    0.960 -1.000 P
# 2005 08 20 22 23 38.06  59.3615 -153.4305 -1.08 0.00 0.21 0.35 0.06   61108643
AVAUH    0.480  1.000 P
AVAUP    0.110  1.000 P
AVAUR    0.100 -1.000 P
AVAUS    0.140  1.000 P
# 2005 08 20 23 26 17.82  59.3587 -153.4243 -0.42 -0.60 0.73 0.52 0.13   61108663
AVAUH    0.410 -1.000 P
AVAUP    0.420  1.000 P
AVAUR    0.650  1.000 P
AVAUS    0.280 -1.000 P
# 2005 08 21 04 53 22.16  59.3562 -153.4245 -0.34 0.40 0.51 0.27 0.05   61108723
AVAUH    0.620 -1.000 P
AVAUP    0.500  1.000 P
AVAUR    0.430  1.000 P
AVAUS    0.450  1.000 P
# 2005 08 22 16 52 1.58  59.3532 -153.4315 -1.18 -0.10 0.51 1.70 0.16   61109048
AVAUH    0.720 -1.000 P
AVAUP    0.370 -1.000 P
AVAUR    0.370  1.000 P
AVAUS    0.240  1.000 P
# 2005 08 23 21 34 2.96  59.3568 -153.4240 -1.17 -0.30 0.35 1.13 0.04   61109228
AVAUH    0.720 -1.000 P
AVAUP    0.270 -1.000 P
AVAUR    0.300  1.000 P
AVAUS    0.270  1.000 P
# 2005 08 24 23 18 43.11  59.3527 -153.4307 -1.16 -0.80 5.86 16.25 0.22   61109363
AVAUH    1.520  0.200 P
AVAUP    0.510 -1.000 P
AVAUR    0.460 -1.000 P
AVAUS    0.130 -1.000 P
# 2005 08 25 17 17 10.46  59.3615 -153.4333 -0.82 -0.40 0.22 0.15 0.06   61109538
AVAUH    0.410 -1.000 P
AVAUP    0.250  1.000 P
AVAUR    0.120  1.000 P
AVAUS    0.120  1.000 P
# 2005 08 26 03 31 56.36  59.3597 -153.4245 -0.76 -0.50 0.35 0.23 0.05   61109663
AVAUH    0.550 -1.000 P
AVAUP    0.210  1.000 P
AVAUR    0.360  1.000 P
AVAUS    0.200  1.000 P
# 2005 08 26 03 33 3.54  59.3658 -153.4270 -1.15 -0.80 0.34 0.98 0.08   61109668
AVAUH    0.620 -1.000 P
AVAUP    0.140  1.000 P
AVAUR    0.170  1.000 P
AVAUS    0.220  1.000 P
# 2005 08 26 08 10 25.18  59.3558 -153.4357 -0.21 -0.90 0.75 0.32 0.06   61109723
AVAUH    1.110  1.000 P
AVAUP    0.440  1.000 P
AVAUR    0.570  1.000 P
AVAUS    0.510  1.000 P
# 2005 08 28 01 28 42.93  59.3677 -153.4273 -1.18 -0.20 0.44 1.46 0.16   61110223
AVAUH    0.690 -1.000 P
AVAUP    0.180 -1.000 P
AVAUR    0.170  1.000 P
AVAUS    0.380  1.000 P
# 2005 08 28 09 31 19.77  59.3580 -153.4310 -1.09 0.40 0.13 0.22 0.09   61110353
AVAUE    1.240  1.000 P
AVAUH    0.310  1.000 P
AVAUI    2.080 -1.000 S
AVAUI    1.000  1.000 P
AVAUL    2.140 -1.000 S
AVAUL    1.420  1.000 P
AVAUP    0.280  1.000 P
AVAUR    0.180  1.000 P
AVAUS    0.220  1.000 P
# 2005 08 28 19 10 36.68  59.3600 -153.4292 -1.17 -0.20 0.18 0.40 0.08   61110593
AVAUH    0.410  1.000 P
AVAUL    2.090 -1.000 S
AVAUL    0.930  1.000 P
AVAUP    0.190  1.000 P
AVAUR    0.080  1.000 P
AVAUS    0.100  1.000 P
# 2005 08 28 19 57 33.98  59.3595 -153.4287 -0.53 -0.30 0.31 0.08 0.03   61110623
AVAUH    0.430  1.000 P
AVAUL    1.720 -1.000 S
AVAUL    0.900  1.000 P
AVAUP    0.310  1.000 P
AVAUR    0.320  1.000 P
AVAUS    0.340 -1.000 P
AVAUW    2.210  1.000 P
# 2005 08 29 00 31 35.68  59.3610 -153.4288 -0.53 0.20 0.15 0.07 0.03   61110738
AVAUE    1.140  1.000 P
AVAUH    0.480  1.000 P
AVAUI    2.600  1.000 S
AVAUI    1.000  1.000 P
AVAUL    1.550  1.000 S
AVAUL    0.920  1.000 P
AVAUP    0.310  1.000 P
AVAUR    0.300  1.000 P
AVAUS    0.320  1.000 P
AVAUW    0.990  1.000 P
# 2005 08 29 09 16 57.48  59.3597 -153.4260 -0.79 -0.50 0.28 0.27 0.04   61111093
AVAUH    0.540  0.200 P
AVAUP    0.120  1.000 P
AVAUR    0.310  1.000 P
AVAUS    0.280  1.000 P
# 2005 08 29 18 59 43.74  59.3538 -153.4213 -1.17 -0.50 0.40 1.54 0.08   61111483
AVAUH    0.850 -1.000 P
AVAUP    0.400 -1.000 P
AVAUR    0.420  1.000 P
AVAUS    0.290  1.000 P
# 2005 08 30 05 10 51.04  59.3580 -153.4273 -1.15 0.00 0.30 0.39 0.07   61111868
AVAUH    0.500  1.000 P
AVAUP    0.180  1.000 P
AVAUR    0.410  1.000 P
AVAUS    0.140  1.000 P
AVAUW    1.840  1.000 P
# 2005 09 01 00 24 42.23  59.3502 -153.4218 -1.17 -0.20 0.69 2.99 0.19   61114513
AVAUH    1.020 -1.000 P
AVAUP    0.430 -1.000 P
AVAUR    0.550  1.000 P
AVAUS    0.490  1.000 P
# 2005 09 02 09 39 47.38  59.3560 -153.4125 -1.08 -0.30 0.58 2.04 0.09   61115378
AVAUH    0.980 -1.000 P
AVAUP    0.470  1.000 P
AVAUR    0.450  1.000 P
AVAUS    0.510  1.000 P
# 2005 09 02 14 32 12.52  59.3633 -153.4368 -0.71 -0.10 0.74 0.25 0.03   61115468
AVAUH    0.710  1.000 P
AVAUP    0.340 -1.000 P
AVAUR    0.280 -1.000 P
AVAUS    0.310 -1.000 P
# 2005 09 03 02 56 43.88  59.3553 -153.4238 -1.20 -0.30 0.34 0.59 0.13   61115603
AVAUH    0.920  1.000 P
AVAUP    0.340  1.000 P
AVAUR    0.320  1.000 P
AVAUS    0.360  1.000 P
AVAUW    1.140 -1.000 P
# 2005 09 04 23 48 12.19  59.3585 -153.4265 -1.19 -0.30 0.59 0.91 0.24   61116048
AVAUH    0.630  1.000 P
AVAUP    0.090  1.000 P
AVAUR   -0.050  1.000 P
AVAUS    0.110  1.000 P
AVAUW    1.310  1.000 P
# 2005 09 05 03 40 40.59  59.3617 -153.4380 -0.91 0.20 0.20 0.18 0.07   61116123
AVAUH    0.110  1.000 P
AVAUP    0.430  1.000 P
AVAUR    0.160  1.000 P
AVAUS    0.150  1.000 P
AVAUW    1.130  1.000 P
# 2005 09 05 03 57 21.37  59.3607 -153.4310 -0.76 -0.40 0.26 0.13 0.05   61116128
AVAUH    0.500  1.000 P
AVAUP    0.300  1.000 P
AVAUR    0.200  1.000 P
AVAUS    0.240  1.000 P
AVAUW    0.930 -1.000 P
# 2005 09 05 11 07 43.63  59.3597 -153.4335 -0.70 -0.90 0.38 0.23 0.11   61116243
AVAUH    0.550 -1.000 P
AVAUP    0.270  1.000 P
AVAUR    0.090  1.000 P
AVAUS    0.190  1.000 P
# 2005 09 05 11 12 41.27  59.3562 -153.4278 -1.18 -0.90 0.49 1.66 0.16   61116248
AVAUH    0.790 -1.000 P
AVAUP    0.300 -1.000 P
AVAUR    0.190  1.000 P
AVAUS    0.210  1.000 P
# 2005 09 05 12 19 59.76  59.3567 -153.4322 -1.18 -0.70 0.42 0.64 0.14   61116303
AVAUH    0.570  1.000 P
AVAUP    0.280  1.000 P
AVAUR    0.150  1.000 P
AVAUS    0.180  1.000 P
# 2005 09 06 10 14 41.87  59.3533 -153.4258 -1.15 -0.70 0.42 1.58 0.12   61116568
AVAUH    0.840 -1.000 P
AVAUP    0.410 -1.000 P
AVAUR    0.320  1.000 P
AVAUS    0.300  1.000 P
# 2005 09 06 13 16 51.36  59.3608 -153.4277 -1.16 -0.70 0.18 0.38 0.06   61116608
AVAUH    0.580  1.000 P
AVAUP    0.140  1.000 P
AVAUR    0.110  1.000 P
AVAUS    0.050  1.000 P
# 2005 09 06 13 43 2.51  59.3623 -153.4305 -1.20 -0.70 0.22 0.43 0.09   61116618
AVAUH    0.430  1.000 P
AVAUL    1.720 -1.000 S
AVAUL    0.800  1.000 P
AVAUP    0.100  1.000 P
AVAUR    0.020  1.000 P
AVAUS    0.100 -1.000 P
# 2005 09 06 21 29 46.10  59.3607 -153.4320 -0.96 -0.70 0.22 0.34 0.03   61116698
AVAUH    0.890  1.000 P
AVAUP    0.200 -1.000 P
AVAUR    0.150 -1.000 P
AVAUS    0.160  1.000 P
# 2005 09 07 02 51 5.65  59.3607 -153.4310 -1.18 -0.70 0.16 0.29 0.04   61116768
AVAUH    0.480  1.000 P
AVAUP    0.270 -1.000 P
AVAUR    0.050  1.000 P
AVAUS    0.100 -1.000 P
