# 2021 06 23 02 37 11.65  52.0857 -176.1038  7.09 -0.42 0.94 1.26 0.21   91031628
AVGSCK    3.750 -1.000 S
AVGSCK    1.910  1.000 P
AVGSIG    5.550 -1.000 S
AVGSIG    2.970  1.000 P
AVGSMY    2.450 -1.000 S
AVGSMY    1.370  1.000 P
AVGSTR    2.690 -1.000 S
AVGSTR    1.330  1.000 P
# 2021 06 23 03 11 38.11  51.9977 -176.0818  9.29 -0.78 1.10 1.67 0.19   91031633
AVGSCK    3.450 -1.000 S
AVGSCK    1.690 -1.000 P
AVGSIG    4.310 -1.000 S
AVGSIG    2.150  0.500 P
AVGSMY    2.910 -1.000 S
AVGSTR    4.430 -0.500 S
AVGSTR    2.450  0.500 P
AVGSMY    0.000  0.000 P
# 2021 06 23 04 22 57.98  52.0147 -176.0855  7.35 -0.49 1.32 1.71 0.23   91031638
AVGSCK    2.960 -1.000 S
AVGSCK    1.240  1.000 P
AVGSIG    3.820 -1.000 S
AVGSIG    2.620  1.000 P
AVGSMY    2.540 -1.000 S
AVGSTR    1.940 -1.000 P
AVGSMY    0.000  0.000 P
# 2021 06 23 08 37 56.54  52.0562 -176.0860  9.44 -0.22 1.27 1.98 0.32   91031658
AVGSCK    3.580 -1.000 S
AVGSCK    1.880  1.000 P
AVGSIG    4.420 -1.000 S
AVGSIG    3.280  1.000 P
AVGSMY    3.200 -1.000 S
AVGSMY    1.200  0.500 P
AVGSTR    3.180 -1.000 S
AVGSTR    1.560  0.500 P
# 2021 06 23 11 52 52.19  52.0735 -176.1173  5.24 0.02 0.75 1.25 0.18   91288876
AVGSCK    3.090 -1.000 S
AVGSCK    1.590  1.000 P
AVGSIG    5.410 -1.000 S
AVGSIG    2.810  0.500 P
AVGSMY    2.170 -1.000 S
AVGSMY    1.130  1.000 P
AVGSTR    2.490 -1.000 S
AVGSTR    1.130  1.000 P
# 2021 06 23 18 37 58.43  52.0543 -176.0740  9.18 -0.28 0.79 1.24 0.16   91031678
AVGSCK    3.710 -1.000 S
AVGSCK    2.050  1.000 P
AVGSIG    4.750 -1.000 S
AVGSIG    2.550  1.000 P
AVGSMY    2.650 -1.000 S
AVGSMY    1.330  1.000 P
AVGSTR    3.270 -1.000 S
AVGSTR    0.000  0.000 P
# 2021 06 23 19 35 22.11  52.0553 -176.0705  9.23 -0.10 0.69 1.07 0.14   91031683
AVGSCK    3.750 -1.000 S
AVGSCK    2.070  1.000 P
AVGSIG    4.690 -1.000 S
AVGSIG    2.570  1.000 P
AVGSMY    2.670 -1.000 S
AVGSMY    1.350  1.000 P
AVGSTR    3.270 -1.000 S
AVGSTR    1.690  0.500 P
# 2021 06 24 03 26 0.46  52.0468 -176.0552  7.92 0.99 0.53 0.86 0.16   91289511
AVETKA    9.420  1.000 S
AVETKA    5.220  1.000 P
AVGSCK    3.520  1.000 S
AVGSCK    1.840  1.000 P
AVGSIG    4.240 -1.000 S
AVGSIG    2.240  1.000 P
AVGSMY    2.360 -1.000 S
AVGSMY    1.120  1.000 P
AVGSSP    2.420  0.500 P
AVGSTR    3.120  1.000 S
AVGSTR    1.460  1.000 P
# 2021 06 24 05 01 47.94  52.0427 -176.0715  7.36 0.09 0.78 0.89 0.14   91289571
AVETKA    5.200  0.500 P
AVGSCK    3.160 -1.000 S
AVGSCK    1.780  1.000 P
AVGSIG    4.300 -1.000 S
AVGSIG    2.200  1.000 P
AVGSMY    2.280 -1.000 S
AVGSMY    1.040  1.000 P
AVGSTR    3.100 -0.500 S
AVGSTR    0.000  0.000 P
# 2021 06 24 11 57 10.53  52.0923 -176.1548 28.84 1.32 1.71 1.38 0.23   91031733
AVETKA   11.150 -1.000 S
AVETKA    7.510  0.500 P
AVGSCK    7.650  0.500 S
AVGSCK    4.650  0.500 P
AVGSIG    9.170 -1.000 S
AVGSIG    5.410  1.000 P
AVGSMY    7.710  1.000 S
AVGSMY    4.330  1.000 P
AVGSSP    7.830  1.000 S
AVGSSP    3.890  1.000 P
AVGSTR    8.110  1.000 S
AVGSTR    4.630  0.200 P
# 2021 06 25 18 36 31.12  52.0578 -176.1077  7.89 0.16 1.23 1.67 0.10   91031853
AVGSCK    1.860 -1.000 P
AVGSMY    2.600 -1.000 S
AVGSMY    1.500 -1.000 P
AVGSSP    1.480 -0.500 P
AVGSTR    3.000 -1.000 S
AVGSTR    1.600 -1.000 P
# 2021 06 26 20 16 23.65  52.0592 -176.1053  1.70 -0.54 0.80 2.49 0.27   91032048
AVGSCK    2.410 -1.000 S
AVGSCK    0.950  0.500 P
AVGSIG    4.670 -1.000 S
AVGSIG    3.190  0.500 P
AVGSMY    1.390 -1.000 S
AVGSMY    0.450  1.000 P
AVGSTR    1.950 -1.000 S
AVGSTR    0.650  1.000 P
# 2021 06 28 05 12 53.65  52.0678 -176.1175  4.79 0.21 0.50 1.30 0.16   91292736
AVGSCK    2.870 -1.000 S
AVGSCK    1.450  1.000 P
AVGSIG    5.390 -0.500 S
AVGSMY    2.050 -1.000 S
AVGSMY    1.050  1.000 P
AVGSSP    2.170  0.500 S
AVGSSP    1.170  1.000 P
AVGSTR    2.430 -1.000 S
AVGSTR    1.170  1.000 P
AVGSIG    0.000  0.000 P
# 2021 06 28 20 27 57.23  52.0773 -176.1208  7.57 -0.44 0.62 1.16 0.12   91032333
AVGSCK    3.430 -1.000 S
AVGSCK    1.890  1.000 P
AVGSMY    2.770 -1.000 S
AVGSMY    1.550  1.000 P
AVGSSP    2.590 -1.000 S
AVGSSP    1.370  1.000 P
AVGSTR    2.930  0.500 S
AVGSTR    1.730  0.500 P
# 2021 06 29 06 05 22.43  52.0643 -176.1135  5.78 -0.21 0.76 1.15 0.16   91032403
AVGSCK    2.950 -1.000 S
AVGSCK    1.470  1.000 P
AVGSIG    5.230 -0.500 S
AVGSIG    2.870  0.500 P
AVGSMY    2.190 -1.000 S
AVGSMY    1.090  1.000 P
AVGSTR    2.610 -1.000 S
AVGSTR    1.290  1.000 P
# 2021 06 29 06 06 0.41  52.0698 -176.1210  6.20 0.76 0.58 1.07 0.15   91294211
AVGSCK    3.110 -1.000 S
AVGSCK    1.650  1.000 P
AVGSIG    5.310  1.000 S
AVGSIG    2.910  1.000 P
AVGSMY    2.290 -1.000 S
AVGSMY    1.270  1.000 P
AVGSSP    2.290  1.000 S
AVGSSP    1.290  1.000 P
AVGSTR    2.790 -1.000 S
AVGSTR    1.410  1.000 P
# 2021 06 29 06 06 27.03  52.0797 -176.1325  7.04 -0.26 0.93 1.34 0.14   91032353
AVGSCK    3.310 -1.000 S
AVGSCK    1.810 -1.000 P
AVGSIG    5.790 -0.500 S
AVGSMY    2.730  0.500 S
AVGSMY    1.450  1.000 P
AVGSTR    2.810 -1.000 S
AVGSTR    1.570 -1.000 P
AVGSIG    0.000  0.000 P
# 2021 06 29 06 11 10.67  52.0863 -176.1483  6.71 -0.06 0.81 1.56 0.20   91032408
AVGSCK    3.470 -1.000 S
AVGSCK    1.950  1.000 P
AVGSIG    5.690  0.500 S
AVGSMY    3.010 -1.000 S
AVGSMY    1.590  1.000 P
AVGSSP    1.790 -0.500 S
AVGSTR    3.070 -1.000 S
AVGSTR    1.690  1.000 P
AVGSSP    0.000  0.000 P
AVGSIG    0.000  0.000 P
# 2021 06 29 07 29 9.33  52.0703 -176.1180  5.40 -0.23 0.91 1.75 0.27   91294291
AVGSCK    3.150 -1.000 S
AVGSCK    1.430  1.000 P
AVGSIG    5.430 -1.000 S
AVGSIG    2.990  0.200 P
AVGSMY    2.050 -1.000 S
AVGSMY    1.050  1.000 P
AVGSSP    1.110 -0.500 P
AVGSTR    2.610 -1.000 S
AVGSTR    0.000  0.000 P
# 2021 06 29 12 30 38.18  52.0793 -176.1652  5.18 1.42 0.77 0.40 0.28   91294561
AVADAG    9.940  0.500 S
AVADAG    5.320  1.000 P
AVETKA    8.260  1.000 S
AVETKA    4.400  1.000 P
AVGSCK    3.200 -1.000 S
AVGSCK    1.460  1.000 P
AVGSIG    6.260  1.000 S
AVGSIG    3.160  1.000 P
AVGSMY    3.360  1.000 S
AVGSMY    1.600  1.000 P
AVGSSP    1.780  1.000 S
AVGSSP    0.720  1.000 P
AVGSTR    4.180  1.000 S
AVGSTR    1.680  1.000 P
AVKICM   11.380  1.000 P
AVKIKV   20.680  1.000 S
AVKIKV   11.380  1.000 P
AVKIMD   13.100  0.500 P
AVKINC   10.660  1.000 P
AVKIRH   19.020  1.000 S
AVKIRH   10.580  1.000 P
AVKIWB   20.880  0.500 S
AVKIWB   11.420  1.000 P
AVTAFP   19.080  1.000 P
# 2021 06 29 12 31 25.26  52.0792 -176.2317  7.97 0.39 1.41 1.63 0.22   91032428
AVGSCK    3.680 -1.000 S
AVGSCK    2.200  1.000 P
AVGSMY    4.060  1.000 S
AVGSMY    2.300  1.000 P
AVGSSP    2.580 -1.000 S
AVGSSP    1.420  1.000 P
AVGSTR    4.640 -1.000 S
AVGSTR    2.380  1.000 P
# 2021 06 29 12 32 39.45  52.0903 -176.2052  7.64 0.08 0.84 0.67 0.17   91032433
AVETKA    5.010  0.500 P
AVGSCK    3.710 -1.000 S
AVGSCK    1.990  1.000 P
AVGSIG    3.710  0.500 P
AVGSMY    3.730  0.500 S
AVGSMY    2.130  1.000 P
AVGSSP    2.330 -1.000 S
AVGSSP    1.230  1.000 P
AVGSTR    4.030  1.000 S
AVGSTR    2.230  1.000 P
# 2021 07 02 19 06 43.05  52.0958 -176.1933 10.40 -0.46 1.08 1.74 0.12   91032798
AVGSCK    4.050 -1.000 S
AVGSCK    2.550  1.000 P
AVGSMY    4.470 -1.000 S
AVGSMY    2.330  1.000 P
AVGSSP    1.690 -0.500 P
AVGSTR    4.130 -1.000 S
AVGSTR    2.250  1.000 P
# 2021 07 02 20 05 3.97  52.0602 -176.1022  5.48 -0.80 0.92 1.50 0.20   91032803
AVGSCK    2.930 -1.000 S
AVGSCK    1.490  1.000 P
AVGSIG    5.090 -0.500 S
AVGSMY    1.970 -1.000 S
AVGSMY    0.930  1.000 P
AVGSTR    2.550 -1.000 S
AVGSTR    1.190  1.000 P
AVGSIG    0.000  0.000 P
# 2021 07 03 09 37 23.98  52.0812 -176.1072  6.22 -0.61 0.57 0.63 0.09   91032918
AVGSCK    3.340 -1.000 S
AVGSCK    1.820  1.000 P
AVGSIG    5.380 -0.500 S
AVGSIG    2.900  1.000 P
AVGSMY    2.500 -1.000 S
AVGSMY    1.300  1.000 P
AVGSTR    2.360 -1.000 S
AVGSTR    1.280  1.000 P
# 2021 07 03 19 44 46.02  52.0822 -176.0683  9.70 -0.29 1.41 1.28 0.15   91032988
AVGSCK    4.300 -1.000 S
AVGSCK    2.300  1.000 P
AVGSMY    2.980 -1.000 S
AVGSMY    1.860  1.000 P
AVGSSP    1.820 -1.000 P
AVGSTR    3.100 -0.500 S
AVGSTR    1.820  1.000 P
# 2021 07 03 19 55 58.48  52.0885 -176.1570  3.97 -0.38 0.90 1.50 0.21   91032993
AVGSCK    3.220 -0.500 S
AVGSCK    1.760 -1.000 P
AVGSMY    2.500  0.500 S
AVGSMY    1.420  0.200 P
AVGSSP    1.420 -1.000 S
AVGSSP    0.420  0.500 P
AVGSTR    2.640 -1.000 S
AVGSTR    1.460 -1.000 P
# 2021 07 05 01 55 34.82  52.0722 -176.1123  4.32 0.70 0.32 0.61 0.09   91033108
AVETKA    5.380  0.500 P
AVGSCK    2.880 -1.000 S
AVGSCK    1.460  1.000 P
AVGSIG    5.140  0.500 S
AVGSIG    2.800  0.500 P
AVGSMY    2.080  1.000 S
AVGSMY    1.080  1.000 P
AVGSSP    2.100  0.500 S
AVGSSP    1.080  1.000 P
AVGSTR    2.100 -1.000 S
AVGSTR    1.140  1.000 P
# 2021 07 05 10 49 2.16  52.0698 -176.1185  6.27 0.21 0.66 1.11 0.16   91033113
AVGSCK    3.080 -1.000 S
AVGSCK    1.620  1.000 P
AVGSIG    5.340 -1.000 S
AVGSIG    2.920  0.500 P
AVGSMY    2.340 -1.000 S
AVGSMY    1.220  1.000 P
AVGSTR    2.720 -1.000 S
AVGSTR    1.300  1.000 P
# 2021 07 06 07 27 18.54  52.0347 -175.9133  4.72 0.02 2.31 3.98 0.27   91033213
AVGSCK    2.840 -1.000 P
AVGSIG    1.060 -0.500 P
AVGSMY    3.520 -1.000 S
AVGSMY    2.400  1.000 P
AVGSTR    3.760 -1.000 S
AVGSTR    2.400 -1.000 P
# 2021 07 06 09 32 40.70  52.0742 -176.1093  5.89 -0.03 0.71 1.26 0.15   91033228
AVGSCK    3.180 -1.000 S
AVGSCK    1.700  1.000 P
AVGSIG    5.220 -1.000 S
AVGSMY    2.260 -1.000 S
AVGSMY    1.220  1.000 P
AVGSTR    2.500 -1.000 S
AVGSTR    1.140  1.000 P
AVGSIG    0.000  0.000 P
# 2021 07 07 04 45 44.92  52.0567 -176.1228  4.98 0.83 0.74 0.49 0.12   91300806
AVGSCK    2.460 -1.000 S
AVGSCK    1.460  1.000 P
AVGSIG    5.140 -1.000 S
AVGSIG    2.760  1.000 P
AVGSMY    2.160 -1.000 S
AVGSMY    1.080  1.000 P
AVGSTR    2.660 -1.000 S
AVGSTR    1.240  1.000 P
# 2021 07 07 17 06 30.04  52.0640 -176.1167  4.81 0.84 0.46 0.91 0.12   91301271
AVGSCK    2.620  0.500 S
AVGSCK    1.600  1.000 P
AVGSIG    5.180  1.000 S
AVGSIG    2.760  1.000 P
AVGSMY    1.980 -1.000 S
AVGSMY    1.160  1.000 P
AVGSSP    2.280 -1.000 S
AVGSSP    1.140  1.000 P
AVGSTR    2.440 -1.000 S
AVGSTR    1.140  1.000 P
# 2021 07 08 17 15 29.42  52.0687 -176.1260  4.90 -0.03 0.51 1.09 0.15   91303036
AVGSCK    2.800 -1.000 S
AVGSCK    1.460  1.000 P
AVGSIG    5.580  1.000 S
AVGSIG    2.820  1.000 P
AVGSMY    2.160 -1.000 S
AVGSMY    1.180  1.000 P
AVGSSP    2.180 -1.000 S
AVGSSP    1.060  1.000 P
AVGSTR    2.480 -1.000 S
AVGSTR    1.300  1.000 P
# 2021 07 08 17 15 53.36  52.0700 -176.1175  4.97 -0.09 0.41 0.43 0.08   91033353
AVGSCK    2.840 -1.000 S
AVGSIG    5.240 -1.000 S
AVGSIG    2.860  1.000 P
AVGSMY    2.200 -1.000 S
AVGSMY    1.220  1.000 P
AVGSSP    2.220 -1.000 S
AVGSSP    1.100  1.000 P
AVGSTR    2.280  0.500 S
AVGSTR    1.340  1.000 P
AVGSCK    0.000  0.000 P
# 2021 07 08 17 25 24.53  52.0813 -176.1282  3.65 1.10 0.34 0.85 0.08   91303061
AVGSCK    2.870 -1.000 S
AVGSCK    1.530  1.000 P
AVGSIG    5.570  1.000 S
AVGSIG    3.010  1.000 P
AVGSMY    2.390 -1.000 S
AVGSMY    1.270  1.000 P
AVGSSP    1.610  0.500 S
AVGSSP    0.950  1.000 P
AVGSTR    1.890 -1.000 S
AVGSTR    1.310  1.000 P
# 2021 07 08 17 27 31.12  52.0763 -176.1170  7.71 -0.57 0.68 1.18 0.12   91033398
AVGSCK    3.480 -0.500 S
AVGSCK    1.860  1.000 P
AVGSMY    2.780 -1.000 S
AVGSMY    1.660  1.000 P
AVGSSP    2.800 -0.500 S
AVGSSP    1.320  1.000 P
AVGSTR    2.740  0.500 S
AVGSTR    1.700  1.000 P
# 2021 07 08 17 27 50.16  52.0827 -176.1260  7.63 -0.71 0.62 1.68 0.07   91033403
AVGSCK    3.480 -1.000 S
AVGSCK    1.880 -1.000 P
AVGSMY    2.980 -1.000 S
AVGSMY    1.680  1.000 P
AVGSSP    1.380 -1.000 P
AVGSTR    1.660  1.000 P
# 2021 07 08 17 43 32.60  52.0775 -176.1325  3.83 0.39 0.31 0.53 0.10   91033408
AVETKA    9.300  0.500 S
AVETKA    5.300  1.000 P
AVGSCK    2.800 -1.000 S
AVGSCK    1.400  1.000 P
AVGSIG    5.480  1.000 S
AVGSIG    2.960  1.000 P
AVGSMY    2.400  1.000 S
AVGSMY    1.240  1.000 P
AVGSSP    1.640  0.500 S
AVGSSP    0.840  1.000 P
AVGSTR    2.260  1.000 S
AVGSTR    1.220  1.000 P
# 2021 07 08 17 57 10.60  52.0698 -176.1307  3.29 -0.47 0.63 1.38 0.12   91033413
AVGSCK    2.540 -1.000 S
AVGSCK    1.360  1.000 P
AVGSIG    5.460 -1.000 S
AVGSMY    2.060 -1.000 S
AVGSMY    1.000  1.000 P
AVGSTR    2.200 -1.000 S
AVGSTR    1.100  1.000 P
AVGSIG    0.000  0.000 P
# 2021 07 08 18 17 0.53  52.0692 -176.1253  5.27 -0.66 0.68 1.16 0.16   91033428
AVGSCK    2.890 -1.000 S
AVGSCK    1.490  1.000 P
AVGSIG    5.430 -1.000 S
AVGSIG    2.830  0.500 P
AVGSMY    2.210 -1.000 S
AVGSMY    1.190  1.000 P
AVGSTR    2.590 -1.000 S
AVGSTR    1.230  1.000 P
# 2021 07 08 18 37 32.82  52.0710 -176.1240  5.52 -0.18 0.47 0.97 0.13   91033433
AVGSCK    3.000 -1.000 S
AVGSCK    1.540  1.000 P
AVGSIG    5.500  0.500 S
AVGSIG    2.920  1.000 P
AVGSMY    2.260 -1.000 S
AVGSMY    1.260  1.000 P
AVGSSP    2.240  0.500 S
AVGSSP    1.140  1.000 P
AVGSTR    2.560 -1.000 S
AVGSTR    1.380  1.000 P
# 2021 07 08 18 39 35.75  52.0432 -176.1197 12.36 -0.83 3.03 1.78 0.29   91033438
AVGSCK    3.890 -1.000 S
AVGSCK    2.450  1.000 P
AVGSMY    3.390 -1.000 S
AVGSMY    2.250  1.000 P
AVGSSP    1.870 -1.000 P
AVGSTR    4.530 -1.000 S
AVGSTR    2.270  1.000 P
# 2021 07 08 19 17 50.60  52.0775 -176.1200  4.55 -0.16 0.40 0.92 0.11   91033443
AVGSCK    2.900 -1.000 S
AVGSCK    1.520  1.000 P
AVGSIG    5.200  0.500 S
AVGSIG    3.120  0.500 P
AVGSMY    2.420 -1.000 S
AVGSMY    1.340  1.000 P
AVGSSP    2.060 -1.000 S
AVGSSP    1.000  1.000 P
AVGSTR    1.900 -1.000 S
AVGSTR    1.360  1.000 P
# 2021 07 08 23 33 41.32  52.0898 -176.1142  6.11 -0.31 0.78 1.32 0.22   91033448
AVGSCK    3.560 -1.000 S
AVGSCK    1.960  1.000 P
AVGSIG    5.620  1.000 S
AVGSMY    2.480  1.000 S
AVGSMY    1.440  1.000 P
AVGSSP    2.220 -1.000 S
AVGSSP    1.480  1.000 P
AVGSTR    2.680 -1.000 S
AVGSTR    0.900  1.000 P
AVGSIG    0.000  0.000 P
# 2021 07 09 00 54 43.39  52.0902 -176.1093  6.39 -0.46 0.79 1.26 0.23   91033473
AVGSCK    3.810 -1.000 S
AVGSCK    1.890  0.500 P
AVGSIG    5.590  0.500 S
AVGSIG    3.030  1.000 P
AVGSMY    2.430 -1.000 S
AVGSMY    1.370  1.000 P
AVGSSP    2.110  0.500 S
AVGSSP    1.430  1.000 P
AVGSTR    2.630 -1.000 S
AVGSTR    1.290  1.000 P
# 2021 07 09 02 48 12.16  52.0475 -176.1418 12.73 -0.70 0.74 0.61 0.05   91033493
AVGSCK    3.940 -0.500 S
AVGSCK    2.180  0.500 P
AVGSMY    2.180  0.500 P
AVGSSP    3.940 -0.500 S
AVGSSP    2.260 -1.000 P
AVGSTR    4.320 -0.500 S
AVGSTR    2.460  1.000 P
# 2021 07 09 03 34 39.07  52.0637 -176.1158  5.33 -0.07 0.40 0.80 0.10   91033498
AVGSCK    2.630 -1.000 S
AVGSCK    1.630  1.000 P
AVGSIG    5.150  1.000 S
AVGSIG    2.770  1.000 P
AVGSMY    2.250 -1.000 S
AVGSMY    1.130  1.000 P
AVGSSP    2.430 -1.000 S
AVGSSP    1.250  0.500 P
AVGSTR    2.450 -1.000 S
AVGSTR    1.170  1.000 P
# 2021 07 09 03 40 31.17  52.0645 -176.1135  5.76 -0.56 0.55 1.34 0.09   91033463
AVGSCK    1.670 -1.000 P
AVGSMY    2.310 -1.000 S
AVGSMY    1.190  1.000 P
AVGSSP    2.350 -0.500 S
AVGSTR    2.510 -1.000 S
AVGSTR    1.330 -1.000 P
AVGSSP    0.000  0.000 P
# 2021 07 09 03 40 44.84  52.0628 -176.0972  7.70 -0.70 0.84 1.32 0.14   91033458
AVGSCK    2.980 -0.500 S
AVGSCK    2.000 -1.000 P
AVGSMY    2.620 -1.000 S
AVGSMY    1.480  1.000 P
AVGSSP    3.040 -0.500 S
AVGSTR    2.800 -1.000 S
AVGSTR    1.320  1.000 P
AVGSSP    0.000  0.000 P
# 2021 07 09 04 14 9.83  52.0827 -176.1025  6.84 -0.05 0.73 1.16 0.19   91304496
AVGSCK    3.750 -1.000 S
AVGSCK    1.810  1.000 P
AVGSIG    5.330  1.000 S
AVGSIG    2.950  1.000 P
AVGSMY    2.370 -1.000 S
AVGSMY    1.310  1.000 P
AVGSSP    2.530  1.000 S
AVGSSP    1.470  1.000 P
AVGSTR    2.630 -1.000 S
AVGSTR    1.370  1.000 P
# 2021 07 09 08 06 3.22  52.0600 -176.1337  5.40 -0.58 0.79 1.96 0.13   91033528
AVGSCK    2.360 -1.000 S
AVGSCK    1.580  1.000 P
AVGSMY    2.520 -1.000 S
AVGSMY    1.320  1.000 P
AVGSSP    1.460  0.200 P
AVGSTR    2.660 -0.500 S
AVGSTR    1.300  1.000 P
# 2021 07 09 08 16 34.40  52.0423 -176.1070  8.83 -0.52 1.29 1.83 0.23   91033538
AVGSCK    3.160 -1.000 S
AVGSCK    1.840  1.000 P
AVGSIG    5.140 -0.500 S
AVGSMY    2.620 -1.000 S
AVGSMY    1.280  1.000 P
AVGSTR    3.600 -1.000 S
AVGSTR    1.740  1.000 P
AVGSIG    0.000  0.000 P
# 2021 07 09 13 12 16.43  52.0582 -176.0955  5.32 -0.51 0.71 1.12 0.18   91033543
AVGSCK    2.930 -1.000 S
AVGSCK    1.470  1.000 P
AVGSIG    4.910 -0.500 S
AVGSIG    2.510  0.500 P
AVGSMY    1.890 -1.000 S
AVGSMY    0.890  1.000 P
AVGSTR    2.510 -1.000 S
AVGSTR    1.130  1.000 P
# 2021 07 09 23 14 8.81  52.0647 -176.1198  5.79 -0.18 0.62 1.42 0.12   91033648
AVGSCK    2.910 -0.500 S
AVGSCK    1.570 -1.000 P
AVGSMY    2.290 -1.000 S
AVGSMY    1.210  1.000 P
AVGSSP    2.190 -0.500 S
AVGSTR    2.610 -1.000 S
AVGSTR    1.410  1.000 P
AVGSSP    0.000  0.000 P
# 2021 07 09 23 14 8.84  52.0652 -176.1212  5.35 -0.18 0.54 1.59 0.13   91305331
AVGSCK    2.940 -0.500 S
AVGSCK    1.520 -1.000 P
AVGSMY    2.200 -1.000 S
AVGSMY    1.200  1.000 P
AVGSSP    2.160 -1.000 S
AVGSTR    2.570 -1.000 S
AVGSTR    1.370 -1.000 P
AVGSSP    0.000  0.000 P
# 2021 07 09 23 14 16.81  52.0727 -176.1427  8.53 -0.05 0.76 1.04 0.09   91033643
AVGSCK    3.270 -1.000 S
AVGSCK    1.990  1.000 P
AVGSMY    3.310 -1.000 S
AVGSMY    1.650  1.000 P
AVGSSP    2.690 -0.500 S
AVGSTR    3.210 -1.000 S
AVGSTR    1.830  1.000 P
AVGSSP    0.000  0.000 P
# 2021 07 09 23 14 17.11  52.0625 -176.1218  6.72 -0.05 0.74 1.40 0.13   91033468
AVGSCK    2.950 -1.000 S
AVGSCK    1.670  1.000 P
AVGSMY    2.450 -1.000 S
AVGSMY    1.350  1.000 P
AVGSSP    2.360 -0.500 S
AVGSTR    2.910 -1.000 S
AVGSTR    1.500  1.000 P
AVGSSP    0.000  0.000 P
# 2021 07 10 11 18 8.41  52.0782 -176.1342  6.54 -0.49 0.59 1.06 0.15   91033708
AVGSCK    3.210 -0.500 S
AVGSCK    1.790  1.000 P
AVGSIG    5.810  0.500 S
AVGSIG    3.050  0.500 P
AVGSMY    2.730 -1.000 S
AVGSMY    1.350  1.000 P
AVGSSP    2.150  0.500 S
AVGSSP    1.390  1.000 P
AVGSTR    2.830 -1.000 S
AVGSTR    1.410  1.000 P
# 2021 07 10 11 58 55.11  52.0510 -176.1557 12.30 -0.75 1.20 1.35 0.21   91033718
AVGSCK    3.970 -1.000 S
AVGSCK    2.150  1.000 P
AVGSIG    5.870  0.500 S
AVGSIG    3.510  1.000 P
AVGSMY    4.030  1.000 S
AVGSMY    1.950  1.000 P
AVGSSP    3.510 -1.000 S
AVGSSP    2.350  1.000 P
AVGSTR    4.570 -1.000 S
AVGSTR    0.000  0.000 P
# 2021 07 10 11 58 55.50  52.0482 -176.1352  9.86 -0.85 1.46 2.00 0.31   91033723
AVGSCK    3.580 -1.000 S
AVGSCK    1.760  1.000 P
AVGSIG    5.480  1.000 S
AVGSIG    3.120  1.000 P
AVGSMY    2.800  1.000 S
AVGSMY    1.560  1.000 P
AVGSSP    3.120  1.000 S
AVGSSP    1.900  1.000 P
AVGSTR    4.180 -1.000 S
AVGSTR    0.000  0.000 P
# 2021 07 10 18 17 59.68  52.0675 -176.1242  4.83 -0.28 0.66 1.35 0.21   91305846
AVGSCK    2.460 -1.000 S
AVGSCK    1.500  1.000 P
AVGSIG    5.640  0.500 S
AVGSIG    2.960  1.000 P
AVGSMY    2.380 -1.000 S
AVGSMY    1.220  1.000 P
AVGSSP    2.480 -1.000 S
AVGSSP    0.980  1.000 P
AVGSTR    1.960  0.500 S
AVGSTR    1.240  1.000 P
# 2021 07 10 18 44 17.83  52.0975 -176.1982 32.04 0.21 2.98 1.27 0.17   91305876
AVGSCK    8.870 -0.500 S
AVGSCK    5.210  0.200 P
AVGSIG   10.270 -1.000 S
AVGSIG    5.570  1.000 P
AVGSMY    8.530  1.000 S
AVGSMY    5.070  0.500 P
AVGSSP    8.250 -1.000 S
AVGSSP    4.710  0.500 P
AVGSTR    8.950 -1.000 S
AVGSTR    4.870  1.000 P
# 2021 07 10 18 44 35.89  52.0973 -176.1508 30.50 0.35 1.21 0.99 0.12   91033653
AVETKA   11.350 -1.000 S
AVGSCK    4.930  1.000 P
AVGSIG    9.610 -1.000 S
AVGSIG    5.290  1.000 P
AVGSMY    8.170  1.000 S
AVGSMY    4.490  1.000 P
AVGSSP    8.010 -1.000 S
AVGSSP    4.470  1.000 P
AVGSTR    8.270  1.000 S
AVGSTR    4.650  0.500 P
AVETKA    0.000  0.000 P
# 2021 07 11 10 27 4.44  52.0648 -176.1145  6.14 -0.85 0.61 1.48 0.15   91033868
AVGSCK    3.020 -1.000 S
AVGSCK    1.560  1.000 P
AVGSMY    2.300 -1.000 S
AVGSMY    1.180  1.000 P
AVGSSP    2.300 -1.000 S
AVGSSP    1.540  1.000 P
AVGSTR    2.700 -1.000 S
AVGSTR    1.420  1.000 P
