# 2021 07 18 12 12 41.83  52.0597 -176.1177  4.98 0.00 0.60 1.08 0.14   91034763
AVGSCK    2.690 -1.000 S
AVGSCK    1.350  1.000 P
AVGSIG    5.150 -1.000 S
AVGSIG    2.690  0.500 P
AVGSMY    2.050 -1.000 S
AVGSMY    1.050  1.000 P
AVGSTR    2.570 -1.000 S
AVGSTR    1.230  1.000 P
# 2021 07 19 22 57 45.16  51.9840 -176.0785  8.30 -0.10 1.14 1.78 0.19   91315491
AVGSCK    3.400 -1.000 S
AVGSCK    1.540  1.000 P
AVGSIG    3.980 -1.000 S
AVGSIG    2.240  1.000 P
AVGSMY    2.940  0.500 S
AVGSMY    1.620  0.500 P
AVGSTR    4.420 -0.500 S
AVGSTR    2.780  0.500 P
# 2021 07 20 12 09 42.01  52.0423 -176.0420  9.20 0.12 0.74 1.10 0.13   91315796
AVGSCK    3.970 -1.000 S
AVGSCK    2.110  1.000 P
AVGSIG    4.130 -1.000 S
AVGSIG    2.270  1.000 P
AVGSMY    2.630 -1.000 S
AVGSMY    1.370  1.000 P
AVGSTR    3.470 -1.000 S
AVGSTR    1.830  1.000 P
# 2021 07 20 17 45 12.16  52.1097 -176.1902  4.65 0.27 0.81 0.71 0.09   91034918
AVGSCK    3.680 -1.000 S
AVGSCK    2.160  1.000 P
AVGSIG    6.960 -0.500 S
AVGSIG    3.960  0.500 P
AVGSMY    4.060  1.000 S
AVGSMY    2.040  0.500 P
AVGSTR    3.100 -1.000 S
AVGSTR    1.860  1.000 P
# 2021 07 21 00 44 23.53  52.0843 -176.1135  7.14 -0.02 0.54 0.67 0.06   91035013
AVGSCK    3.470 -0.500 S
AVGSCK    1.950 -1.000 P
AVGSIG    5.470 -0.500 S
AVGSIG    3.070  0.500 P
AVGSMY    2.850 -1.000 S
AVGSMY    1.470  1.000 P
AVGSTR    2.550 -1.000 S
AVGSTR    1.450  1.000 P
# 2021 07 21 14 28 18.74  52.1005 -176.1693  8.61 -0.25 0.63 0.86 0.07   91035068
AVGSCK    3.940 -1.000 S
AVGSCK    2.240  1.000 P
AVGSMY    3.860 -1.000 S
AVGSMY    2.080  1.000 P
AVGSSP    2.540 -0.500 S
AVGSSP    1.480  1.000 P
AVGSTR    3.560  0.500 S
AVGSTR    1.980  1.000 P
# 2021 07 21 15 54 50.50  52.0645 -176.1297 10.76 -0.60 0.77 0.96 0.10   91035073
AVGSCK    3.620 -1.000 S
AVGSCK    2.140  1.000 P
AVGSMY    3.600 -1.000 S
AVGSMY    1.960  1.000 P
AVGSSP    3.320 -0.500 S
AVGSSP    2.100  0.500 P
AVGSTR    3.740  0.500 S
AVGSTR    1.900  1.000 P
# 2021 07 21 20 15 59.77  52.0777 -176.1807  8.23 -0.29 0.82 1.19 0.15   91035103
AVGSCK    3.410 -1.000 S
AVGSCK    1.710  1.000 P
AVGSMY    3.810 -1.000 S
AVGSMY    1.930  1.000 P
AVGSSP    2.490 -1.000 S
AVGSSP    1.510  1.000 P
AVGSTR    3.250  0.500 S
AVGSTR    2.210  1.000 P
# 2021 07 21 20 21 0.51  52.0683 -176.1073 10.86 -0.44 0.96 1.04 0.10   91035108
AVGSCK    3.750 -1.000 S
AVGSCK    2.250  1.000 P
AVGSMY    3.610 -1.000 S
AVGSMY    1.830  1.000 P
AVGSSP    3.630 -0.500 S
AVGSTR    3.370 -1.000 S
AVGSTR    1.990  1.000 P
AVGSSP    0.000  0.000 P
# 2021 07 21 20 22 5.05  52.0765 -176.1108  8.21 0.46 0.92 1.41 0.17   91035003
AVGSCK    3.650 -1.000 S
AVGSCK    1.930  1.000 P
AVGSMY    2.770 -1.000 S
AVGSMY    1.530  1.000 P
AVGSSP    2.610 -0.500 S
AVGSSP    1.610  0.200 P
AVGSTR    3.110  0.500 S
AVGSTR    1.670  1.000 P
# 2021 07 21 20 22 7.90  52.0858 -176.1090  8.64 0.51 0.92 1.34 0.22   91316391
AVGSCK    3.880 -1.000 S
AVGSCK    2.000  1.000 P
AVGSIG    5.880 -1.000 S
AVGSIG    2.680  0.500 P
AVGSMY    2.840  1.000 S
AVGSMY    1.620  1.000 P
AVGSSP    3.060  0.500 S
AVGSSP    1.720  1.000 P
AVGSTR    2.900 -1.000 S
AVGSTR    1.720  1.000 P
# 2021 07 21 20 22 35.52  52.0880 -176.1027  9.76 -0.46 1.28 0.89 0.04   91035008
AVGSCK    2.320 -0.500 P
AVGSMY    1.860 -1.000 P
AVGSSP    3.240 -0.500 S
AVGSSP    1.800 -0.500 P
AVGSTR    3.100 -1.000 S
AVGSTR    1.760 -1.000 P
# 2021 07 21 20 51 2.63  52.0725 -176.1938  9.18 -0.35 0.77 0.88 0.10   91035118
AVGSCK    3.570 -1.000 S
AVGSCK    1.830  1.000 P
AVGSMY    3.970 -1.000 S
AVGSMY    2.150  1.000 P
AVGSSP    2.750 -1.000 S
AVGSSP    1.670  1.000 P
AVGSTR    2.410  0.500 P
# 2021 07 22 00 11 45.67  52.0607 -175.9845  5.10 0.03 1.02 1.68 0.20   91035158
AVGSCK    4.550 -1.000 S
AVGSCK    2.650  1.000 P
AVGSIG    3.510 -1.000 S
AVGSIG    1.710  1.000 P
AVGSMY    2.210 -1.000 S
AVGSMY    1.030  1.000 P
AVGSTR    2.890 -1.000 S
AVGSTR    1.330  1.000 P
# 2021 07 22 00 40 36.70  52.0730 -176.1467  6.33 -0.58 0.98 2.07 0.28   91035163
AVGSCK    3.020 -1.000 S
AVGSCK    1.420  1.000 P
AVGSIG    6.140 -1.000 S
AVGSMY    2.600 -1.000 S
AVGSMY    1.260  1.000 P
AVGSSP    2.300 -1.000 S
AVGSSP    1.540  0.500 P
AVGSTR    2.940 -1.000 S
AVGSTR    1.300  1.000 P
AVGSIG    0.000  0.000 P
# 2021 07 22 02 25 17.59  52.0572 -176.0935  5.82 -0.45 0.59 1.10 0.17   91035173
AVGSCK    3.010 -1.000 S
AVGSCK    1.550  1.000 P
AVGSIG    4.770 -1.000 S
AVGSIG    2.510  1.000 P
AVGSMY    1.950 -1.000 S
AVGSMY    0.970  1.000 P
AVGSTR    2.630 -1.000 S
AVGSTR    1.190  1.000 P
# 2021 07 22 04 22 12.33  52.0832 -176.1250  8.16 -0.47 1.32 1.79 0.20   91035193
AVGSCK    3.670 -1.000 S
AVGSCK    1.950 -1.000 P
AVGSIG    5.930 -0.500 S
AVGSMY    2.890 -1.000 S
AVGSMY    1.530  1.000 P
AVGSTR    3.150 -0.500 S
AVGSTR    1.650 -1.000 P
AVGSIG    0.000  0.000 P
# 2021 07 22 07 38 10.88  52.0080 -176.1302 12.20 -0.40 1.11 1.38 0.18   91035203
AVGSCK    3.620 -1.000 S
AVGSCK    2.200  1.000 P
AVGSIG    5.400 -1.000 S
AVGSIG    3.160  0.500 P
AVGSMY    3.840  1.000 S
AVGSMY    1.900  1.000 P
AVGSTR    4.900 -1.000 S
AVGSTR    2.540  0.500 P
# 2021 07 22 07 39 35.60  52.0065 -176.0825 -1.80 -0.80 0.73 1.03 0.22   91035208
AVGSCK    2.340 -0.500 S
AVGSCK    0.880  0.500 P
AVGSIG    3.980 -0.500 S
AVGSMY    1.680 -1.000 S
AVGSMY    0.580  1.000 P
AVGSTR    3.540  0.200 S
AVGSTR    2.000  1.000 P
AVGSIG    0.000  0.000 P
# 2021 07 22 15 35 27.03  52.0647 -176.0993  5.43 -0.64 0.68 1.05 0.16   91035233
AVGSCK    3.010 -1.000 S
AVGSCK    1.530  1.000 P
AVGSIG    5.010 -0.500 S
AVGSIG    2.690  0.500 P
AVGSMY    2.010 -1.000 S
AVGSMY    0.970  1.000 P
AVGSTR    2.430 -1.000 S
AVGSTR    1.110  1.000 P
# 2021 07 22 16 13 5.76  52.0477 -176.0377  9.76 -0.41 0.78 1.09 0.12   91035238
AVGSCK    4.100 -1.000 S
AVGSCK    2.240  1.000 P
AVGSIG    4.280 -0.500 S
AVGSMY    2.820 -1.000 S
AVGSMY    1.560  1.000 P
AVGSTR    3.580 -0.500 S
AVGSTR    1.840 -1.000 P
AVGSIG    0.000  0.000 P
# 2021 07 22 17 06 1.37  52.0090 -176.0293 11.95 -0.26 1.45 1.19 0.16   91035248
AVGSCK    4.430 -1.000 S
AVGSCK    2.510  1.000 P
AVGSMY    3.530 -1.000 S
AVGSMY    2.230  1.000 P
AVGSSP    5.030 -0.500 S
AVGSTR    4.710 -1.000 S
AVGSTR    2.310  1.000 P
AVGSSP    0.000  0.000 P
# 2021 07 22 20 18 3.10  52.0753 -176.1073  6.65 -0.61 0.81 1.72 0.18   91035128
AVGSCK    3.420 -1.000 S
AVGSCK    1.840  1.000 P
AVGSMY    2.340 -1.000 S
AVGSMY    1.360  1.000 P
AVGSSP    2.400 -1.000 S
AVGSTR    2.700 -1.000 S
AVGSTR    1.340  1.000 P
AVGSSP    0.000  0.000 P
# 2021 07 22 20 18 26.39  52.0613 -176.0752  7.87 -0.15 0.64 0.89 0.07   91316946
AVGSCK    3.470 -1.000 S
AVGSCK    1.950  1.000 P
AVGSMY    2.450 -1.000 S
AVGSMY    1.450  1.000 P
AVGSSP    3.210 -0.500 S
AVGSTR    2.810 -1.000 S
AVGSTR    1.450  1.000 P
AVGSSP    0.000  0.000 P
# 2021 07 22 23 02 13.75  52.0775 -176.1137  6.19 -0.54 0.83 1.16 0.17   91316986
AVGSCK    3.270 -1.000 S
AVGSCK    1.790  0.500 P
AVGSIG    5.470 -0.500 S
AVGSIG    3.030  0.500 P
AVGSMY    2.410 -1.000 S
AVGSMY    1.210  1.000 P
AVGSTR    2.570 -1.000 S
AVGSTR    1.210  1.000 P
# 2021 07 22 23 02 26.04  52.0717 -176.1093  5.10 -0.45 1.03 0.86 0.20   91035138
AVGSCK    3.080 -1.000 S
AVGSCK    1.540  1.000 P
AVGSIG    5.400 -0.500 S
AVGSMY    2.040 -1.000 S
AVGSMY    1.080  1.000 P
AVGSTR    2.400 -1.000 S
AVGSTR    1.040  1.000 P
AVGSIG    0.000  0.000 P
# 2021 07 22 23 02 47.80  52.0708 -176.1110  4.98 -0.35 0.98 0.85 0.20   91035143
AVGSCK    3.060 -1.000 S
AVGSCK    1.520  1.000 P
AVGSIG    5.340 -0.500 S
AVGSMY    2.040 -1.000 S
AVGSMY    1.100  1.000 P
AVGSTR    2.420 -1.000 S
AVGSTR    1.040  1.000 P
AVGSIG    0.000  0.000 P
# 2021 07 22 23 02 55.84  52.0795 -176.1163  6.79 -0.54 1.00 1.43 0.16   91035148
AVGSCK    3.400 -1.000 S
AVGSCK    1.820  1.000 P
AVGSIG    5.620 -0.500 S
AVGSMY    2.540 -1.000 S
AVGSMY    1.360  1.000 P
AVGSTR    2.700 -1.000 S
AVGSTR    1.340  1.000 P
AVGSIG    0.000  0.000 P
# 2021 07 22 23 03 23.09  52.0210 -176.0325 10.96 -0.49 3.29 1.87 0.26   91035153
AVGSCK    4.150 -1.000 S
AVGSCK    2.570  1.000 P
AVGSMY    3.070 -1.000 S
AVGSMY    2.090  1.000 P
AVGSSP    2.230  0.500 P
AVGSTR    4.370 -1.000 S
AVGSTR    2.070  1.000 P
# 2021 07 22 23 05 4.96  52.0762 -176.1090  6.80 0.02 0.56 1.05 0.14   91316996
AVGSCK    3.320 -1.000 S
AVGSCK    1.760  1.000 P
AVGSIG    5.340  1.000 S
AVGSIG    2.960  0.500 P
AVGSMY    2.460 -1.000 S
AVGSMY    1.280  1.000 P
AVGSSP    2.640 -1.000 S
AVGSTR    2.640 -1.000 S
AVGSTR    1.260  1.000 P
AVGSSP    0.000  0.000 P
# 2021 07 22 23 18 47.26  52.0773 -176.1085  7.24 0.00 0.50 0.89 0.13   91317001
AVGSCK    3.420 -1.000 S
AVGSCK    1.860  1.000 P
AVGSIG    5.440  0.500 S
AVGSIG    2.960  0.500 P
AVGSMY    2.580 -1.000 S
AVGSMY    1.380  1.000 P
AVGSSP    2.720  0.500 S
AVGSSP    1.480  0.200 P
AVGSTR    2.700 -1.000 S
AVGSTR    1.360  1.000 P
# 2021 07 22 23 38 32.55  52.0378 -176.0970  6.01 -0.60 0.49 0.91 0.06   91035273
AVGSCK    2.590 -1.000 S
AVGSCK    1.390 -1.000 P
AVGSMY    2.110 -1.000 S
AVGSMY    1.110  1.000 P
AVGSSP    3.030 -0.500 S
AVGSTR    2.810  0.500 S
AVGSTR    1.670 -1.000 P
AVGSSP    0.000  0.000 P
# 2021 07 23 00 55 32.52  52.0468 -176.1178  5.85 0.16 0.33 0.63 0.10   91317016
AVETKA    8.640 -1.000 S
AVETKA    4.800  1.000 P
AVGSCK    2.440 -1.000 S
AVGSCK    1.220  1.000 P
AVGSIG    4.840  1.000 S
AVGSIG    2.600  1.000 P
AVGSMY    2.500  0.500 S
AVGSMY    1.120  1.000 P
AVGSSP    2.740 -1.000 S
AVGSSP    1.400  1.000 P
AVGSTR    1.640  1.000 P
# 2021 07 23 01 41 9.78  52.0525 -176.0852  8.80 -0.34 1.20 1.04 0.12   91035283
AVGSCK    3.460 -1.000 S
AVGSCK    1.980  1.000 P
AVGSMY    2.580 -1.000 S
AVGSMY    1.600  1.000 P
AVGSSP    1.740 -1.000 P
AVGSTR    3.200 -1.000 S
AVGSTR    1.760  1.000 P
# 2021 07 23 01 41 51.69  52.0587 -176.1088  5.41 -0.26 0.86 1.41 0.17   91317036
AVGSCK    2.810 -1.000 S
AVGSCK    1.410  1.000 P
AVGSIG    5.070 -0.500 S
AVGSMY    2.010 -1.000 S
AVGSMY    1.030  1.000 P
AVGSTR    2.630 -1.000 S
AVGSTR    1.170  1.000 P
AVGSIG    0.000  0.000 P
# 2021 07 23 04 11 23.15  52.0650 -176.1175  6.14 0.09 0.61 1.16 0.16   91317091
AVGSCK    2.990 -1.000 S
AVGSCK    1.590  1.000 P
AVGSIG    5.210 -1.000 S
AVGSIG    2.810  0.500 P
AVGSMY    2.190 -1.000 S
AVGSMY    1.210  1.000 P
AVGSSP    1.290 -1.000 P
AVGSTR    2.790 -1.000 S
AVGSTR    1.350  1.000 P
# 2021 07 23 04 41 7.63  52.0653 -176.1038  6.15 -0.12 0.57 1.15 0.16   91317101
AVGSCK    3.070 -1.000 S
AVGSCK    1.610  1.000 P
AVGSIG    5.030 -1.000 S
AVGSIG    2.710  0.500 P
AVGSMY    2.050  0.500 S
AVGSMY    1.090  1.000 P
AVGSSP    1.470  0.500 P
AVGSTR    2.610 -1.000 S
AVGSTR    1.230  1.000 P
# 2021 07 23 15 10 41.12  52.0437 -176.0822  5.26 -0.32 0.53 1.01 0.17   91317291
AVGSCK    2.820 -1.000 S
AVGSCK    1.440  1.000 P
AVGSIG    4.340 -1.000 S
AVGSIG    2.240  0.500 P
AVGSMY    1.720 -1.000 S
AVGSMY    0.820  1.000 P
AVGSTR    2.740 -1.000 S
AVGSTR    1.220  1.000 P
# 2021 07 23 15 10 52.80  52.0438 -176.0873  4.17 -0.69 0.71 1.25 0.18   91035278
AVGSCK    2.600 -1.000 S
AVGSCK    1.220  1.000 P
AVGSIG    4.420 -0.500 S
AVGSMY    1.500 -1.000 S
AVGSMY    0.620  1.000 P
AVGSTR    2.480 -1.000 S
AVGSTR    1.180  0.500 P
AVGSIG    0.000  0.000 P
# 2021 07 23 19 32 35.13  52.0712 -176.1190  3.89 -0.62 0.70 1.38 0.13   91035328
AVGSCK    2.850 -0.500 S
AVGSCK    1.410 -1.000 P
AVGSIG    5.390 -0.500 S
AVGSMY    2.010 -1.000 S
AVGSMY    0.990  1.000 P
AVGSTR    2.070 -1.000 S
AVGSTR    1.130  1.000 P
AVGSIG    0.000  0.000 P
# 2021 07 23 20 45 21.91  52.0685 -176.1187  4.99 0.21 0.43 0.52 0.12   91317391
AVGSCK    2.690 -1.000 S
AVGSCK    1.670  1.000 P
AVGSIG    5.370 -1.000 S
AVGSIG    2.770  1.000 P
AVGSMY    2.210 -1.000 S
AVGSMY    1.170  1.000 P
AVGSSP    2.230  1.000 S
AVGSSP    1.210  1.000 P
AVGSTR    2.390 -1.000 S
AVGSTR    1.130  1.000 P
# 2021 07 23 20 54 38.06  52.0685 -176.1075  4.92 -0.58 0.65 1.25 0.15   91035333
AVGSCK    3.060 -0.500 S
AVGSCK    1.500 -1.000 P
AVGSIG    5.100 -1.000 S
AVGSMY    2.080 -1.000 S
AVGSMY    1.020  1.000 P
AVGSTR    2.320 -1.000 S
AVGSTR    1.080  1.000 P
AVGSIG    0.000  0.000 P
# 2021 07 23 22 34 20.57  52.0925 -176.1392  4.16 0.56 0.45 0.88 0.11   91317426
AVGSCK    3.190 -1.000 S
AVGSCK    1.650  1.000 P
AVGSIG    6.150  1.000 S
AVGSIG    3.330  1.000 P
AVGSMY    2.770  1.000 S
AVGSMY    1.470  1.000 P
AVGSSP    1.710 -1.000 S
AVGSSP    0.870  1.000 P
AVGSTR    2.070 -1.000 S
AVGSTR    1.370  1.000 P
# 2021 07 23 23 52 47.90  52.0043 -176.1608 12.54 -0.48 0.88 0.91 0.11   91035343
AVGSCK    3.560 -1.000 S
AVGSCK    2.100  1.000 P
AVGSMY    4.460 -1.000 S
AVGSMY    2.440  1.000 P
AVGSSP    4.680 -1.000 S
AVGSSP    2.420  0.500 P
AVGSTR    4.860  1.000 S
AVGSTR    2.880  0.500 P
# 2021 07 23 23 58 35.59  52.0757 -176.2287  6.45 -0.39 0.64 0.75 0.10   91035348
AVGSCK    3.310 -1.000 S
AVGSCK    1.750  1.000 P
AVGSMY    4.170  0.500 S
AVGSMY    2.170  0.500 P
AVGSSP    2.330 -1.000 S
AVGSSP    1.290  1.000 P
AVGSTR    3.950  0.500 S
AVGSTR    2.450  1.000 P
# 2021 07 24 00 05 45.82  52.0147 -176.2133 12.89 -0.39 0.92 0.82 0.08   91035398
AVGSCK    3.780 -1.000 S
AVGSCK    2.240  1.000 P
AVGSMY    5.000 -1.000 S
AVGSMY    2.660  1.000 P
AVGSSP    4.480 -1.000 S
AVGSSP    2.640  0.500 P
AVGSTR    5.300  0.500 S
AVGSTR    2.960  1.000 P
# 2021 07 24 00 53 12.69  52.0600 -176.0962  5.53 -0.62 0.73 1.40 0.25   91035403
AVGSCK    2.870 -1.000 S
AVGSCK    1.410  1.000 P
AVGSIG    4.990 -1.000 S
AVGSIG    2.790  0.500 P
AVGSMY    1.990 -1.000 S
AVGSMY    0.950  1.000 P
AVGSSP    3.090  1.000 S
AVGSSP    1.110  0.500 P
AVGSTR    2.370 -1.000 S
AVGSTR    1.030  1.000 P
# 2021 07 24 01 18 19.31  52.0747 -176.2095  7.46 0.15 0.63 0.80 0.15   91317481
AVETKA    4.710 -1.000 P
AVGSCK    3.330 -1.000 S
AVGSCK    1.710  1.000 P
AVGSIG    6.510  0.500 S
AVGSIG    3.650  1.000 P
AVGSMY    4.090  1.000 S
AVGSMY    2.070  1.000 P
AVGSSP    2.370 -1.000 S
AVGSSP    1.250  1.000 P
AVGSTR    3.930  0.500 S
AVGSTR    2.450  1.000 P
# 2021 07 24 01 37 11.18  52.0617 -176.1948  5.08 0.46 0.77 0.75 0.29   91317486
AVADAG    5.380  1.000 P
AVETKA    4.260  1.000 P
AVGSCK    2.760 -1.000 S
AVGSCK    1.280  1.000 P
AVGSIG    6.260  1.000 S
AVGSIG    3.200  1.000 P
AVGSMY    3.400  1.000 S
AVGSMY    1.640  1.000 P
AVGSSP    1.860  1.000 S
AVGSSP    0.800  1.000 P
AVGSTR    4.000  1.000 S
AVGSTR    2.000  1.000 P
# 2021 07 24 02 02 34.69  52.0665 -176.1247  5.27 0.26 0.45 0.82 0.10   91317491
AVGSCK    2.650 -1.000 S
AVGSCK    1.650  1.000 P
AVGSIG    5.290 -1.000 S
AVGSIG    2.830  1.000 P
AVGSMY    2.330 -1.000 S
AVGSMY    1.210  1.000 P
AVGSSP    1.250  0.500 P
AVGSTR    2.530 -1.000 S
AVGSTR    1.230  1.000 P
# 2021 07 24 02 15 27.06  52.0675 -176.2607  7.33 0.00 0.94 1.02 0.16   91035433
AVGSCK    3.640 -1.000 S
AVGSCK    2.060  1.000 P
AVGSIG    4.040  1.000 P
AVGSMY    4.560  1.000 S
AVGSMY    2.520  1.000 P
AVGSSP    2.760 -1.000 S
AVGSSP    1.640  0.500 P
AVGSTR    4.940  1.000 S
AVGSTR    2.840  1.000 P
# 2021 07 24 02 16 26.23  52.0687 -176.1170  6.28 -0.59 0.60 1.07 0.16   91035353
AVGSCK    3.080 -1.000 S
AVGSCK    1.630  1.000 P
AVGSIG    5.250 -1.000 S
AVGSIG    2.890  0.500 P
AVGSMY    2.270 -1.000 S
AVGSMY    1.250  1.000 P
AVGSSP    1.230  0.500 P
AVGSTR    2.740 -1.000 S
AVGSTR    1.330  1.000 P
# 2021 07 24 02 16 32.85  52.0785 -176.1372  5.93 -0.25 0.83 1.22 0.13   91035358
AVGSCK    1.830 -1.000 P
AVGSIG    5.770 -1.000 S
AVGSIG    3.030  1.000 P
AVGSMY    2.670 -1.000 S
AVGSMY    1.370  1.000 P
AVGSTR    2.670 -1.000 S
AVGSTR    1.430  1.000 P
# 2021 07 24 02 16 49.51  52.0750 -176.1143  6.52 0.18 0.56 0.92 0.13   91317496
AVGSCK    3.330  0.500 S
AVGSCK    1.770  1.000 P
AVGSIG    5.400  1.000 S
AVGSIG    2.910  1.000 P
AVGSMY    2.410 -1.000 S
AVGSMY    1.310  1.000 P
AVGSSP    2.530  1.000 S
AVGSSP    1.310  1.000 P
AVGSTR    2.630 -1.000 S
AVGSTR    1.310  1.000 P
# 2021 07 24 02 17 10.66  52.0817 -176.1285  6.09 -0.31 0.78 1.13 0.16   91035363
AVGSCK    3.360 -0.500 S
AVGSCK    1.780  1.000 P
AVGSIG    5.720 -1.000 S
AVGSIG    2.980  1.000 P
AVGSMY    2.540 -1.000 S
AVGSMY    1.360  1.000 P
AVGSTR    2.640 -1.000 S
AVGSTR    1.380  1.000 P
# 2021 07 24 02 37 55.33  52.0723 -176.1100  5.49 -0.16 0.46 1.02 0.13   91035438
AVGSCK    3.110 -1.000 S
AVGSCK    1.610  1.000 P
AVGSIG    5.190  0.500 S
AVGSIG    2.910  0.500 P
AVGSMY    2.190 -1.000 S
AVGSMY    1.130  1.000 P
AVGSSP    2.310 -1.000 S
AVGSTR    2.430 -1.000 S
AVGSTR    1.170  1.000 P
AVGSSP    0.000  0.000 P
# 2021 07 24 02 38 25.93  52.0730 -176.1065  5.96 -0.18 0.54 1.05 0.15   91035443
AVGSCK    3.210 -1.000 S
AVGSCK    1.670  1.000 P
AVGSIG    5.250  1.000 S
AVGSIG    2.770  1.000 P
AVGSMY    2.210 -1.000 S
AVGSMY    1.170  1.000 P
AVGSSP    2.490 -1.000 S
AVGSTR    2.490 -1.000 S
AVGSTR    1.190  1.000 P
AVGSSP    0.000  0.000 P
# 2021 07 24 02 38 45.64  52.0805 -176.2497  7.55 -0.17 1.30 1.04 0.15   91035448
AVGSCK    3.660 -1.000 S
AVGSCK    2.080  1.000 P
AVGSIG    4.060  1.000 P
AVGSMY    4.860 -1.000 S
AVGSMY    2.500  1.000 P
AVGSSP    2.740 -1.000 S
AVGSTR    4.300 -1.000 S
AVGSTR    2.780  1.000 P
AVGSSP    0.000  0.000 P
# 2021 07 24 03 02 50.50  52.0748 -176.0897 10.86 -0.56 0.92 0.95 0.10   91035458
AVGSCK    3.900 -0.500 S
AVGSCK    2.320 -1.000 P
AVGSMY    3.560 -1.000 S
AVGSMY    1.880  1.000 P
AVGSSP    3.760 -0.500 S
AVGSTR    3.240 -1.000 S
AVGSTR    1.900  1.000 P
AVGSSP    0.000  0.000 P
# 2021 07 24 03 02 55.65  52.0740 -176.1077  6.24 -0.31 0.50 0.97 0.14   91035453
AVGSCK    3.290 -1.000 S
AVGSCK    1.710  1.000 P
AVGSIG    5.270  0.500 S
AVGSIG    2.870  0.500 P
AVGSMY    2.270 -1.000 S
AVGSMY    1.230  1.000 P
AVGSSP    2.470 -1.000 S
AVGSSP    1.310  0.500 P
AVGSTR    2.550 -1.000 S
AVGSTR    1.290  1.000 P
# 2021 07 24 04 25 18.31  52.0757 -176.1045  6.20 0.25 0.56 1.12 0.15   91317516
AVGSCK    3.330 -1.000 S
AVGSCK    1.750  1.000 P
AVGSIG    5.230 -1.000 S
AVGSMY    2.230 -1.000 S
AVGSMY    1.250  1.000 P
AVGSSP    2.570  1.000 S
AVGSSP    1.330  1.000 P
AVGSTR    2.530 -1.000 S
AVGSTR    1.210  1.000 P
AVGSIG    0.000  0.000 P
# 2021 07 24 04 26 47.45  52.0708 -176.1200 -1.80 -0.28 0.66 1.37 0.28   91035463
AVGSCK    2.990 -1.000 S
AVGSCK    1.430  1.000 P
AVGSIG    5.030  0.500 S
AVGSMY    1.910  1.000 S
AVGSMY    1.070  1.000 P
AVGSSP    0.630  0.500 P
AVGSTR    2.210 -1.000 S
AVGSTR    0.870  1.000 P
AVGSIG    0.000  0.000 P
# 2021 07 24 04 29 40.09  52.0750 -176.1077  6.17 0.11 0.64 1.14 0.18   91317521
AVGSCK    3.230 -1.000 S
AVGSCK    1.690  1.000 P
AVGSIG    5.430  1.000 S
AVGSIG    2.810  1.000 P
AVGSMY    2.250 -1.000 S
AVGSMY    1.190  1.000 P
AVGSSP    2.690  1.000 S
AVGSSP    1.270  1.000 P
AVGSTR    2.470 -1.000 S
AVGSTR    1.170  1.000 P
# 2021 07 24 04 29 51.65  52.0813 -176.0860 10.00 -0.12 1.44 2.45 0.32   91035378
AVGSCK    3.850 -1.000 S
AVGSCK    2.110  1.000 P
AVGSIG    5.750 -1.000 S
AVGSMY    3.110  0.500 S
AVGSMY    1.630  1.000 P
AVGSSP    4.070 -1.000 S
AVGSTR    2.890 -1.000 S
AVGSTR    1.590  1.000 P
AVGSSP    0.000  0.000 P
AVGSIG    0.000  0.000 P
# 2021 07 24 04 30 4.48  52.1117 -176.0970 10.41 -0.03 1.03 1.04 0.17   91035373
AVGSCK    4.720  0.500 S
AVGSCK    2.440 -1.000 P
AVGSIG    6.240 -1.000 S
AVGSMY    3.700  1.000 S
AVGSMY    1.920  0.500 P
AVGSSP    3.650 -1.000 S
AVGSSP 3588.960  0.500 P
AVGSTR    3.190 -1.000 S
AVGSTR    1.960 -1.000 P
AVGSIG    0.000  0.000 P
# 2021 07 24 04 39 13.84  52.0690 -176.0832 10.78 0.07 1.22 1.48 0.20   91035468
AVGSCK    3.800 -1.000 S
AVGSCK    2.380  1.000 P
AVGSMY    3.520 -1.000 S
AVGSMY    1.960  1.000 P
AVGSSP    4.020 -1.000 S
AVGSSP    1.840  1.000 P
AVGSTR    3.100 -1.000 S
AVGSTR    1.980  1.000 P
# 2021 07 24 05 32 41.02  52.0753 -176.1243  8.37 0.04 0.72 1.12 0.16   91317536
AVGSCK    3.490 -1.000 S
AVGSCK    2.000  1.000 P
AVGSIG    5.540  1.000 S
AVGSIG    3.180  1.000 P
AVGSMY    2.860  1.000 S
AVGSMY    1.540  1.000 P
AVGSSP    2.740 -1.000 S
AVGSTR    3.240 -1.000 S
AVGSTR    1.490  1.000 P
AVGSSP    0.000  0.000 P
