# 2021 06 02 05 44 31.25  52.0820 -176.1207  2.71 1.14 0.62 1.03 0.24   91259556
AVADAG    6.390  1.000 P
AVETKA    5.190  1.000 P
AVGSCK    3.070 -1.000 S
AVGSCK    1.270  1.000 P
AVGSIG    5.450  1.000 S
AVGSIG    2.810  1.000 P
AVGSMY    2.290  1.000 S
AVGSMY    1.030  1.000 P
AVGSSP    1.630 -1.000 S
AVGSSP    0.590  1.000 P
AVGSTR    1.930  0.500 S
AVGSTR    1.050  1.000 P
# 2021 06 02 16 41 18.40  52.0772 -176.1258  6.43 -0.81 0.75 1.66 0.19   91028943
AVGSCK    3.460 -0.500 S
AVGSCK    1.780  1.000 P
AVGSMY    2.520 -1.000 S
AVGSMY    1.380  1.000 P
AVGSSP    2.160 -1.000 S
AVGSSP    1.360  0.500 P
AVGSTR    2.800 -1.000 S
AVGSTR    1.440  1.000 P
# 2021 06 02 17 46 40.82  52.0600 -176.0987  5.66 -0.88 0.54 1.00 0.16   91028958
AVGSCK    2.980 -1.000 S
AVGSCK    1.500  1.000 P
AVGSIG    4.900 -1.000 S
AVGSIG    2.500  0.500 P
AVGSMY    2.000 -1.000 S
AVGSMY    0.980  1.000 P
AVGSSP    1.540  0.500 P
AVGSTR    2.540 -1.000 S
AVGSTR    1.200  1.000 P
# 2021 06 03 10 34 41.96  52.0577 -176.0965  8.29 -0.70 1.02 1.26 0.12   91029033
AVGSCK    3.380 -0.500 S
AVGSCK    1.900  1.000 P
AVGSMY    2.540 -1.000 S
AVGSMY    1.540  1.000 P
AVGSSP    1.600 -1.000 P
AVGSTR    3.040 -1.000 S
AVGSTR    1.700  1.000 P
# 2021 06 03 13 59 12.88  52.0357 -176.0547  7.00 -0.44 0.77 1.29 0.19   91029078
AVGSCK    3.360 -1.000 S
AVGSCK    1.600  1.000 P
AVGSIG    3.940 -1.000 S
AVGSIG    2.060  1.000 P
AVGSMY    2.220 -1.000 S
AVGSMY    0.920  1.000 P
AVGSSP    2.460  0.500 P
AVGSTR    3.000 -1.000 S
AVGSTR    0.000  0.000 P
# 2021 06 05 12 32 13.57  52.0648 -176.0933  7.04 -0.51 0.54 0.97 0.05   91029293
AVGSCK    1.850 -1.000 P
AVGSMY    2.410 -1.000 S
AVGSMY    1.350  1.000 P
AVGSSP    2.850 -0.500 S
AVGSTR    2.610 -1.000 S
AVGSTR    1.370 -1.000 P
AVGSSP    0.000  0.000 P
# 2021 06 05 12 32 24.56  52.0812 -176.0968  6.96 -0.24 0.76 1.48 0.20   91029288
AVGSCK    3.700 -1.000 S
AVGSCK    1.840  1.000 P
AVGSIG    5.400 -0.500 S
AVGSMY    2.380 -1.000 S
AVGSMY    1.320  1.000 P
AVGSSP    2.660 -0.500 S
AVGSTR    2.600 -1.000 S
AVGSTR    1.320  1.000 P
AVGSSP    0.000  0.000 P
AVGSIG    0.000  0.000 P
# 2021 06 05 22 34 33.36  52.0647 -176.0012  3.68 0.58 0.66 1.16 0.14   91264346
AVGSCK    4.210 -1.000 S
AVGSCK    2.180  1.000 P
AVGSIG    3.620 -1.000 S
AVGSIG    1.800  1.000 P
AVGSMY    1.860 -1.000 S
AVGSMY    0.880  1.000 P
AVGSSP    4.300  0.500 S
AVGSTR    2.150 -1.000 S
AVGSTR    1.140  1.000 P
AVGSSP    0.000  0.000 P
# 2021 06 06 15 55 37.12  52.0023 -176.0795  2.56 -0.62 0.89 2.77 0.23   91029408
AVGSCK    2.340 -1.000 S
AVGSCK    0.760  1.000 P
AVGSIG    3.460 -1.000 S
AVGSIG    2.160  0.500 P
AVGSMY    1.720 -1.000 S
AVGSMY    0.760  1.000 P
AVGSTR    2.060 -1.000 P
# 2021 06 08 01 31 14.23  52.0687 -176.1220  5.68 -0.14 0.53 1.07 0.14   91266531
AVGSCK    3.050  0.500 S
AVGSCK    1.570  1.000 P
AVGSIG    5.450  0.500 S
AVGSIG    2.870  0.500 P
AVGSMY    2.250 -1.000 S
AVGSMY    1.210  1.000 P
AVGSSP    2.290 -1.000 S
AVGSSP    1.230  1.000 P
AVGSTR    2.630 -1.000 S
AVGSTR    1.290  1.000 P
# 2021 06 09 02 51 31.92  52.0755 -176.1173  5.38 -0.11 0.82 1.64 0.20   91029673
AVGSCK    3.280 -0.500 S
AVGSCK    1.620  1.000 P
AVGSIG    5.520 -0.500 S
AVGSMY    2.220 -1.000 S
AVGSMY    1.140  1.000 P
AVGSSP    1.180  0.500 P
AVGSTR    2.480 -1.000 S
AVGSTR    1.180  1.000 P
AVGSIG    0.000  0.000 P
# 2021 06 09 04 25 46.15  52.0352 -176.0643  6.48 -0.01 0.81 1.48 0.21   91029688
AVGSCK    3.210 -1.000 S
AVGSCK    1.530  1.000 P
AVGSIG    4.110 -1.000 S
AVGSIG    1.930  1.000 P
AVGSMY    2.010 -1.000 S
AVGSMY    0.850  1.000 P
AVGSTR    2.890 -1.000 S
AVGSTR    1.850  1.000 P
# 2021 06 09 15 53 20.27  52.0707 -176.1085 -1.80 1.06 0.59 1.06 0.30   91268826
AVADAG    6.890  1.000 P
AVETKA    5.430  0.500 P
AVGSCK    2.990 -1.000 S
AVGSCK    1.470  1.000 P
AVGSIG    5.070  1.000 S
AVGSIG    2.510  1.000 P
AVGSMY    1.950  1.000 S
AVGSMY    0.930  1.000 P
AVGSSP    1.550 -1.000 S
AVGSSP    0.990  1.000 P
AVGSTR    1.970 -1.000 S
AVGSTR    0.850  1.000 P
AVKIRH   12.270  0.500 P
# 2021 06 09 15 54 17.47  52.0818 -176.1095  6.58 0.44 0.65 1.09 0.18   91029648
AVGSCK    3.530 -1.000 S
AVGSCK    1.870  1.000 P
AVGSIG    5.570  0.500 S
AVGSIG    2.930  1.000 P
AVGSMY    2.390 -1.000 S
AVGSMY    1.330  1.000 P
AVGSSP    2.450 -1.000 S
AVGSSP    1.410  1.000 P
AVGSTR    2.650 -1.000 S
AVGSTR    1.250  1.000 P
# 2021 06 10 13 33 20.16  52.0857 -176.1135  7.66 -0.13 1.61 2.15 0.28   91029793
AVGSCK    3.980 -0.500 S
AVGSCK    1.880 -1.000 P
AVGSIG    5.880 -0.500 S
AVGSMY    2.600 -1.000 S
AVGSMY    1.460  1.000 P
AVGSTR    2.880 -1.000 S
AVGSTR    1.480 -1.000 P
AVGSIG    0.000  0.000 P
# 2021 06 11 04 38 56.92  52.0688 -176.1198  5.62 -0.09 0.51 0.96 0.13   91271031
AVGSCK    2.960 -1.000 S
AVGSCK    1.580  1.000 P
AVGSIG    5.280 -1.000 S
AVGSIG    2.880  1.000 P
AVGSMY    2.220 -1.000 S
AVGSMY    1.180  1.000 P
AVGSSP    1.220 -1.000 P
AVGSTR    2.600 -1.000 S
AVGSTR    1.280  1.000 P
# 2021 06 11 04 53 53.55  52.0607 -176.0555  8.47 0.38 0.53 0.78 0.14   91271041
AVETKA    9.710  1.000 S
AVETKA    5.450  1.000 P
AVGSCK    3.830  1.000 S
AVGSCK    2.030  1.000 P
AVGSIG    4.550 -1.000 S
AVGSIG    2.390  1.000 P
AVGSMY    2.470  1.000 S
AVGSMY    1.270  1.000 P
AVGSSP    2.050  0.500 P
AVGSTR    3.090  1.000 S
AVGSTR    1.550  1.000 P
# 2021 06 11 14 09 41.62  52.0940 -176.2450  7.16 -0.19 1.34 1.36 0.24   91029878
AVGSCK    4.160 -1.000 S
AVGSCK    2.260  1.000 P
AVGSIG    7.380  1.000 S
AVGSIG    4.160  1.000 P
AVGSMY    4.340  1.000 S
AVGSMY    2.520  1.000 P
AVGSSP    2.400 -1.000 S
AVGSSP    1.320  1.000 P
AVGSTR    4.840  1.000 S
AVGSTR    2.620  1.000 P
# 2021 06 12 11 06 49.38  52.0542 -176.0817  8.57 -0.16 0.58 0.94 0.17   91273811
AVETKA    9.320  1.000 S
AVETKA    5.160  1.000 P
AVGSCK    3.480  1.000 S
AVGSCK    1.900  1.000 P
AVGSIG    4.640 -1.000 S
AVGSIG    2.440  1.000 P
AVGSMY    2.540  1.000 S
AVGSMY    1.380  1.000 P
AVGSSP    3.160  1.000 S
AVGSSP    1.240  1.000 P
AVGSTR    3.400  1.000 S
AVGSTR    1.760  1.000 P
# 2021 06 12 11 14 52.86  52.0308 -176.0703  7.41 -0.38 0.60 1.16 0.22   91029993
AVETKA    8.940  1.000 S
AVETKA    4.860  1.000 P
AVGSCK    3.180 -1.000 S
AVGSCK    1.580  1.000 P
AVGSIG    4.240 -1.000 S
AVGSIG    2.140  1.000 P
AVGSMY    2.240 -1.000 S
AVGSMY    1.060  1.000 P
AVGSSP    3.660  1.000 S
AVGSSP    2.460  1.000 P
AVGSTR    3.560  0.500 S
AVGSTR    1.460  1.000 P
# 2021 06 12 14 41 18.67  51.9560 -176.2107 13.61 0.53 0.89 1.44 0.20   91274236
AVADAG    8.770  1.000 S
AVADAG    4.860  0.500 P
AVETKA    6.090  0.500 S
AVETKA    3.130  1.000 P
AVGSCK    4.490 -1.000 S
AVGSCK    2.340  1.000 P
AVGSIG    6.920  1.000 S
AVGSIG    3.910  1.000 P
AVGSMY    5.660  1.000 S
AVGSMY    3.050  1.000 P
AVGSSP    5.510  1.000 S
AVGSSP    2.990  1.000 P
AVGSTR    3.810  1.000 P
# 2021 06 12 16 30 32.95  52.0277 -176.0685  5.37 -0.98 1.66 1.58 0.30   91030038
AVGSCK    2.890 -1.000 S
AVGSCK    1.210  1.000 P
AVGSIG    3.970 -1.000 S
AVGSIG    1.810  0.500 P
AVGSMY    1.910 -1.000 S
AVGSMY    0.690  1.000 P
AVGSSP    2.550 -0.500 P
# 2021 06 12 16 31 8.65  52.0708 -176.0752 10.64 -0.54 1.57 0.78 0.10   91030033
AVETKA    5.550 -1.000 P
AVGSCK    3.970 -1.000 S
AVGSCK    2.270  1.000 P
AVGSIG    5.050 -1.000 S
AVGSIG    2.810  1.000 P
AVGSMY    3.470 -1.000 S
AVGSMY    1.750  1.000 P
# 2021 06 14 05 08 26.10  52.0753 -176.1193  4.49 0.14 0.67 1.49 0.17   91030378
AVGSCK    3.020 -1.000 S
AVGSCK    1.500  1.000 P
AVGSIG    5.540 -0.500 S
AVGSMY    2.160 -1.000 S
AVGSMY    1.100  1.000 P
AVGSSP    1.100  0.500 P
AVGSTR    2.400 -0.500 S
AVGSTR    1.120  1.000 P
AVGSIG    0.000  0.000 P
# 2021 06 15 07 48 6.89  52.0270 -176.0757  8.87 -0.05 0.68 1.09 0.20   91030458
AVETKA    4.970 -1.000 P
AVGSCK    3.410 -1.000 S
AVGSCK    1.690  1.000 P
AVGSIG    4.450 -1.000 S
AVGSIG    2.250  1.000 P
AVGSMY    2.630  1.000 S
AVGSMY    1.170  1.000 P
AVGSSP    2.510  0.500 P
AVGSTR    3.670 -1.000 S
AVGSTR    1.950  1.000 P
# 2021 06 16 03 18 46.26  52.0360 -176.0750 11.22 -0.26 1.45 1.66 0.24   91030503
AVGSCK    3.860 -1.000 S
AVGSCK    2.380  1.000 P
AVGSMY    3.020 -1.000 S
AVGSMY    2.000  1.000 P
AVGSSP    4.260 -1.000 S
AVGSSP    2.000  1.000 P
AVGSTR    4.320  0.500 S
AVGSTR    2.120  1.000 P
# 2021 06 17 02 14 33.13  52.0757 -176.1810 11.74 -0.45 1.78 1.88 0.25   91030593
AVGSCK    4.010 -0.500 S
AVGSCK    2.550  1.000 P
AVGSMY    3.810  0.500 S
AVGSMY    2.430  1.000 P
AVGSSP    3.370 -0.500 S
AVGSSP    1.770  1.000 P
AVGSTR    4.590 -1.000 S
AVGSTR    2.210  1.000 P
# 2021 06 17 10 42 24.87  52.0590 -176.0710 12.38 -0.61 0.63 0.84 0.08   91030633
AVGSCK    4.230 -1.000 S
AVGSCK    2.490 -1.000 P
AVGSIG    5.050 -1.000 S
AVGSIG    2.910  0.500 P
AVGSMY    3.810  1.000 S
AVGSTR    3.770 -1.000 S
AVGSTR    2.130 -1.000 P
AVGSMY    0.000  0.000 P
# 2021 06 18 06 58 10.64  52.0742 -176.1397  8.66 -0.11 0.83 1.29 0.14   91030668
AVGSCK    3.440 -1.000 S
AVGSCK    2.020  1.000 P
AVGSMY    3.060 -1.000 S
AVGSMY    1.820  1.000 P
AVGSSP    2.800 -0.500 S
AVGSSP    1.320  1.000 P
AVGSTR    3.320 -1.000 S
AVGSTR    1.860  1.000 P
# 2021 06 20 19 48 7.29  52.0472 -176.0605  7.73 0.10 0.64 0.91 0.16   91286621
AVETKA    9.490  0.500 S
AVETKA    5.190  1.000 P
AVGSCK    3.490 -1.000 S
AVGSCK    1.790  1.000 P
AVGSIG    4.330 -1.000 S
AVGSIG    2.170  1.000 P
AVGSMY    2.290 -1.000 S
AVGSMY    1.070  1.000 P
AVGSTR    3.010 -1.000 S
AVGSTR    1.810  0.500 P
# 2021 06 21 06 27 59.66  52.0523 -176.0678  9.62 -0.41 0.75 1.16 0.15   91030998
AVGSCK    3.820 -1.000 S
AVGSCK    2.120  1.000 P
AVGSIG    4.680 -1.000 S
AVGSIG    2.540  0.500 P
AVGSMY    2.740 -1.000 S
AVGSMY    1.400  1.000 P
AVGSTR    3.420 -1.000 S
AVGSTR    1.780  1.000 P
# 2021 06 21 08 11 27.92  52.0523 -176.0622  8.47 1.17 0.48 0.81 0.14   91286886
AVETKA    9.460  1.000 S
AVETKA    5.300  1.000 P
AVGSCK    3.640  1.000 S
AVGSCK    1.940  1.000 P
AVGSIG    4.480 -1.000 S
AVGSIG    2.340  1.000 P
AVGSMY    2.460  1.000 S
AVGSMY    1.220  1.000 P
AVGSSP    3.600  1.000 S
AVGSSP    2.200  0.500 P
AVGSTR    3.220  1.000 S
AVGSTR    1.560  1.000 P
# 2021 06 21 21 08 34.82  52.0507 -176.0552  8.00 1.13 0.46 0.82 0.15   91287136
AVADAG    7.120  0.500 P
AVETKA    9.560  1.000 S
AVETKA    5.260  1.000 P
AVGSCK    3.600  1.000 S
AVGSCK    1.900  1.000 P
AVGSIG    4.320 -1.000 S
AVGSIG    2.280  1.000 P
AVGSMY    2.300 -1.000 S
AVGSMY    1.160  1.000 P
AVGSSP    3.720  1.000 S
AVGSSP    1.980  1.000 P
AVGSTR    3.140  1.000 S
AVGSTR    1.520  1.000 P
# 2021 06 21 21 55 12.28  51.8898 -176.1232 12.40 0.15 0.63 1.41 0.03   91031088
AVETKA    3.720 -1.000 P
AVGSCK    5.280 -1.000 S
AVGSCK    2.940  1.000 P
AVGSIG    6.060 -1.000 S
AVGSIG    3.360  1.000 P
AVGSMY    6.720  1.000 S
AVGSMY    3.400  1.000 P
AVGSSP    4.140 -1.000 P
# 2021 06 21 22 50 41.58  51.8743 -176.1318 13.28 -0.11 1.00 2.14 0.02   91031093
AVETKA    3.680 -1.000 P
AVGSCK    5.740 -1.000 S
AVGSCK    3.260  1.000 P
AVGSIG    6.520 -1.000 S
AVGSIG    3.600  0.500 P
AVGSMY    3.740  0.500 P
# 2021 06 22 00 06 31.74  52.0607 -176.0603  7.61 0.95 0.36 0.60 0.09   91287221
AVETKA    9.600  1.000 S
AVETKA    5.300  1.000 P
AVGSCK    3.620  1.000 S
AVGSCK    1.920  1.000 P
AVGSIG    4.440 -1.000 S
AVGSIG    2.340  1.000 P
AVGSMY    2.340 -1.000 S
AVGSMY    1.200  1.000 P
AVGSSP    3.400  1.000 S
AVGSSP    2.000  1.000 P
AVGSTR    2.700  1.000 S
AVGSTR    1.540  1.000 P
# 2021 06 22 01 09 15.94  52.0993 -175.9812  8.38 0.48 0.90 1.20 0.15   91287261
AVGSCK    5.380 -1.000 S
AVGSCK    2.920  1.000 P
AVGSIG    4.800 -1.000 S
AVGSIG    2.560  1.000 P
AVGSMY    3.240  1.000 S
AVGSMY    1.780  1.000 P
AVGSSP    4.740  1.000 S
AVGSSP    2.600  1.000 P
AVGSTR    3.280 -0.500 S
AVGSTR    1.720  0.500 P
# 2021 06 22 01 34 33.70  51.8913 -176.1243 12.87 -0.13 0.71 1.44 0.02   91031203
AVETKA    3.740 -1.000 P
AVGSCK    5.340 -1.000 S
AVGSCK    2.980  1.000 P
AVGSIG    6.100 -1.000 S
AVGSIG    3.420  1.000 P
AVGSMY    3.420  1.000 P
AVGSSP    4.160  0.500 P
# 2021 06 22 03 56 0.68  52.0590 -176.0548  7.83 0.85 0.37 0.58 0.07   91287341
AVETKA    9.640 -1.000 S
AVETKA    5.360  1.000 P
AVGSCK    3.640  1.000 S
AVGSCK    1.960  1.000 P
AVGSIG    4.360 -1.000 S
AVGSIG    2.360  1.000 P
AVGSMY    2.460 -1.000 S
AVGSMY    1.240  1.000 P
AVGSSP    3.620  1.000 S
AVGSSP    2.040  1.000 P
AVGSTR    3.200  1.000 S
AVGSTR    1.580  1.000 P
# 2021 06 22 04 50 56.94  52.0773 -176.1222  5.24 -0.27 0.48 1.75 0.05   91031273
AVGSCK    3.020 -1.000 S
AVGSCK    1.640 -1.000 P
AVGSMY    2.440 -1.000 S
AVGSMY    1.360  1.000 P
AVGSSP    1.140 -1.000 P
AVGSTR    1.340 -1.000 P
# 2021 06 22 10 33 6.66  52.0475 -176.0645  8.56 0.14 0.76 1.08 0.16   91287606
AVGSCK    3.640 -1.000 S
AVGSCK    1.940  1.000 P
AVGSIG    4.460 -1.000 S
AVGSIG    2.340  1.000 P
AVGSMY    2.440 -1.000 S
AVGSMY    1.220  1.000 P
AVGSSP    2.100 -1.000 P
AVGSTR    3.240 -1.000 S
# 2021 06 22 14 10 56.84  52.0422 -176.0512  7.01 0.26 0.76 1.15 0.18   91287736
AVGSCK    3.400 -1.000 S
AVGSCK    1.680  1.000 P
AVGSIG    3.980 -1.000 S
AVGSIG    2.120  1.000 P
AVGSMY    2.220 -1.000 S
AVGSMY    0.980  1.000 P
AVGSSP    2.380  1.000 P
AVGSTR    2.940 -1.000 S
AVGSTR    1.340  1.000 P
# 2021 06 22 18 09 48.79  52.0452 -176.0657  5.45 -0.35 0.69 1.43 0.28   91031108
AVETKA    9.250  0.500 S
AVETKA    4.810  0.200 P
AVGSCK    3.150  1.000 S
AVGSCK    1.390  1.000 P
AVGSIG    3.950 -1.000 S
AVGSIG    2.730  0.500 P
AVGSMY    1.830 -0.500 S
AVGSMY    0.670  1.000 P
AVGSSP    2.250  0.500 P
AVGSTR    2.690 -1.000 S
AVGSTR    1.050  1.000 P
# 2021 06 22 18 09 58.33  52.0500 -176.0605  8.29 0.67 0.46 0.77 0.14   91287911
AVETKA    9.510  0.500 S
AVETKA    5.290  1.000 P
AVGSCK    3.570  1.000 S
AVGSCK    1.910  1.000 P
AVGSIG    4.450  0.500 S
AVGSIG    2.330  1.000 P
AVGSMY    2.450 -1.000 S
AVGSMY    1.190  1.000 P
AVGSSP    3.590  1.000 S
AVGSSP    2.110  1.000 P
AVGSTR    3.210  1.000 S
AVGSTR    1.550  1.000 P
# 2021 06 22 18 18 24.96  52.0353 -176.0615  5.29 -0.73 0.78 1.44 0.24   91031408
AVGSCK    3.120 -1.000 S
AVGSCK    1.360  1.000 P
AVGSIG    3.940 -1.000 S
AVGSIG    1.760  0.500 P
AVGSMY    1.820 -1.000 S
AVGSMY    0.640  1.000 P
AVGSTR    2.640 -1.000 S
AVGSTR    1.780  1.000 P
# 2021 06 22 18 20 42.52  52.0530 -176.0582  8.26 0.52 0.51 0.87 0.16   91287931
AVETKA    9.580  1.000 S
AVETKA    5.300  1.000 P
AVGSCK    3.600  1.000 S
AVGSCK    1.900  1.000 P
AVGSIG    4.500 -1.000 S
AVGSIG    2.280  1.000 P
AVGSMY    2.400 -1.000 S
AVGSMY    1.180  1.000 P
AVGSSP    3.700  1.000 S
AVGSSP    2.180  0.500 P
AVGSTR    3.140  1.000 S
AVGSTR    1.500  1.000 P
# 2021 06 22 23 27 59.29  52.0313 -176.0590  4.72 -0.32 0.81 1.44 0.26   91288191
AVGSCK    2.970 -1.000 S
AVGSCK    1.290  1.000 P
AVGSIG    3.830 -1.000 S
AVGSIG    1.710  1.000 P
AVGSMY    1.730 -1.000 S
AVGSMY    0.570  1.000 P
AVGSSP    2.510  0.500 P
AVGSTR    2.530 -1.000 S
AVGSTR    1.690  1.000 P
# 2021 06 23 00 21 45.29  52.0557 -176.0692 11.83 -0.67 0.64 0.83 0.09   91031548
AVGSCK    4.090 -1.000 S
AVGSCK    2.350  1.000 P
AVGSIG    4.910 -1.000 S
AVGSIG    2.730  1.000 P
AVGSMY    3.610  1.000 S
AVGSMY    2.150  1.000 P
AVGSTR    3.630 -1.000 S
AVGSTR    2.030  0.500 P
# 2021 06 23 00 23 31.40  52.0717 -176.1028  2.83 1.58 0.50 0.86 0.28   91288241
AVADAG    6.420  1.000 P
AVETKA    5.000  1.000 P
AVGSCK    2.840 -1.000 S
AVGSCK    1.300  1.000 P
AVGSIG    5.000  1.000 S
AVGSIG    2.380  1.000 P
AVGSMY    1.960  1.000 S
AVGSMY    0.800  1.000 P
AVGSSP    1.920  1.000 S
AVGSSP    0.860  1.000 P
AVGSTR    1.860  1.000 S
AVGSTR    0.760  1.000 P
AVKICM   12.660  0.500 P
AVKIKV   12.760  0.500 P
AVKINC   11.840  0.500 P
AVKIRH   11.800  0.200 P
AVKIWB   12.740  0.500 P
# 2021 06 23 00 24 49.47  52.0677 -176.0965  4.60 -0.39 0.80 1.57 0.27   91031568
AVGSCK    3.010 -1.000 S
AVGSCK    1.310  1.000 P
AVGSIG    5.210 -1.000 S
AVGSIG    2.470  1.000 P
AVGSMY    1.870 -1.000 S
AVGSMY    0.810  1.000 P
AVGSSP    1.730  1.000 P
AVGSTR    2.110 -1.000 S
AVGSTR    0.810  1.000 P
# 2021 06 23 00 25 4.73  52.0720 -176.1022  5.76 -0.59 0.59 0.94 0.14   91031573
AVGSCK    3.150 -1.000 S
AVGSCK    1.630  1.000 P
AVGSIG    5.190 -0.500 S
AVGSIG    2.810  0.500 P
AVGSMY    2.190 -1.000 S
AVGSMY    1.150  1.000 P
AVGSSP    1.470  0.500 P
AVGSTR    2.390 -1.000 S
AVGSTR    1.090  1.000 P
# 2021 06 23 00 25 34.16  52.0882 -176.1225  7.66 -0.41 0.39 0.61 0.06   91031563
AVGSCK    3.540 -1.000 S
AVGSCK    2.020  1.000 P
AVGSIG    5.680  1.000 S
AVGSIG    3.160  1.000 P
AVGSMY    3.020  1.000 S
AVGSMY    1.480  1.000 P
AVGSSP    2.600 -1.000 S
AVGSTR    2.800 -1.000 S
AVGSTR    1.440  1.000 P
AVGSSP    0.000  0.000 P
# 2021 06 23 00 26 40.71  52.0518 -176.0655  9.39 -0.17 0.82 1.23 0.16   91031578
AVGSCK    3.810 -1.000 S
AVGSCK    2.090  1.000 P
AVGSIG    4.650 -1.000 S
AVGSIG    2.470  1.000 P
AVGSMY    2.630 -1.000 S
AVGSMY    1.370  1.000 P
AVGSTR    3.390 -1.000 S
AVGSTR    1.730  1.000 P
# 2021 06 23 00 35 52.34  52.0700 -176.0912  2.24 0.63 0.38 1.08 0.14   91288251
AVGSCK    2.880  1.000 S
AVGSCK    1.440  1.000 P
AVGSIG    4.860 -1.000 S
AVGSIG    2.500  1.000 P
AVGSMY    1.260 -1.000 S
AVGSMY    0.900  1.000 P
AVGSSP    2.240  1.000 S
AVGSSP    0.980  1.000 P
AVGSTR    1.400 -1.000 S
AVGSTR    0.880  1.000 P
# 2021 06 23 00 36 20.65  52.0712 -176.0973  2.02 0.22 0.51 1.62 0.20   91031528
AVGSCK    2.930 -1.000 S
AVGSCK    1.390  1.000 P
AVGSIG    5.070  1.000 S
AVGSIG    2.470  1.000 P
AVGSMY    1.230 -1.000 S
AVGSMY    0.890  1.000 P
AVGSSP    2.050  0.500 S
AVGSSP    0.950  1.000 P
AVGSTR    1.530  0.500 S
AVGSTR    0.890  1.000 P
# 2021 06 23 00 39 9.16  52.0853 -176.1090  6.56 0.50 0.66 1.07 0.17   91288256
AVGSCK    3.620 -1.000 S
AVGSCK    1.860  1.000 P
AVGSIG    5.560  1.000 S
AVGSIG    2.940  1.000 P
AVGSMY    2.420 -1.000 S
AVGSMY    1.340  1.000 P
AVGSSP    2.480  1.000 S
AVGSSP    1.380  1.000 P
AVGSTR    2.580 -1.000 S
AVGSTR    1.300  1.000 P
# 2021 06 23 00 59 19.95  52.0880 -176.0990  6.14 -0.49 0.65 1.08 0.18   91031588
AVGSCK    3.750 -1.000 S
AVGSCK    1.830  1.000 P
AVGSIG    5.470  1.000 S
AVGSIG    2.910  1.000 P
AVGSMY    2.310 -1.000 S
AVGSMY    1.290  1.000 P
AVGSSP    2.570  1.000 S
AVGSSP    1.350  1.000 P
AVGSTR    2.370 -1.000 S
AVGSTR    1.210  1.000 P
# 2021 06 23 01 05 6.17  52.0817 -176.0940  7.23 -0.68 0.84 1.38 0.21   91031593
AVGSCK    3.690 -0.500 S
AVGSCK    1.850  0.500 P
AVGSIG    5.470  0.500 S
AVGSIG    2.970  0.500 P
AVGSMY    2.390 -0.500 S
AVGSMY    1.270  1.000 P
AVGSSP    3.030 -0.500 S
AVGSTR    2.570 -1.000 S
AVGSTR    1.250  1.000 P
AVGSSP    0.000  0.000 P
# 2021 06 23 01 23 2.26  52.0787 -176.1053  9.18 -0.65 0.68 0.94 0.14   91031598
AVGSCK    3.760 -1.000 S
AVGSCK    2.080  1.000 P
AVGSIG    5.500 -1.000 S
AVGSIG    3.140  1.000 P
AVGSMY    2.960  1.000 S
AVGSMY    1.560  1.000 P
AVGSSP    3.320  0.500 S
AVGSSP    1.700  0.500 P
AVGSTR    3.140 -1.000 S
AVGSTR    1.540  1.000 P
# 2021 06 23 01 23 45.68  52.0582 -176.0952 -1.76 -0.76 0.52 1.01 0.21   91031603
AVGSCK    2.740 -0.500 S
AVGSCK    1.260  0.500 P
AVGSIG    4.920  1.000 S
AVGSIG    2.380  0.500 P
AVGSMY    1.060  1.000 S
AVGSMY    0.740  1.000 P
AVGSTR    2.000 -0.500 S
AVGSTR    0.680 -1.000 P
# 2021 06 23 01 33 47.49  52.0787 -176.1053  5.08 -0.63 1.08 0.63 0.21   91031608
AVGSCK    3.490 -0.500 S
AVGSCK    1.650 -1.000 P
AVGSIG    5.470 -0.500 S
AVGSIG    2.750  0.500 P
AVGSMY    2.170 -1.000 S
AVGSMY    1.110  1.000 P
AVGSTR    2.270 -1.000 S
AVGSTR    1.030  1.000 P
# 2021 06 23 02 00 50.70  52.0743 -176.0953  5.11 -0.68 1.25 0.85 0.24   91031623
AVGSCK    3.420 -0.500 S
AVGSCK    1.580  0.500 P
AVGSIG    5.220 -0.500 S
AVGSIG    2.640  0.500 P
AVGSMY    1.860 -0.500 S
AVGSMY    1.060  1.000 P
AVGSTR    2.360  0.500 S
AVGSTR    1.020 -1.000 P
