# 2021 07 11 10 59 58.08  52.0873 -176.1197  6.24 -0.42 0.61 0.85 0.12   91306736
AVGSCK    3.360 -0.500 S
AVGSCK    1.880  1.000 P
AVGSIG    5.740  1.000 S
AVGSIG    3.000  1.000 P
AVGSMY    2.560  0.500 S
AVGSMY    1.420  1.000 P
AVGSSP    2.380 -1.000 S
AVGSSP    1.280  1.000 P
AVGSTR    2.440 -1.000 S
AVGSTR    1.300  1.000 P
# 2021 07 11 14 13 2.25  52.0890 -176.1395  3.48 -0.67 0.43 1.05 0.10   91033878
AVGSCK    3.030 -1.000 S
AVGSCK    1.550  1.000 P
AVGSIG    5.950  0.500 S
AVGSMY    2.710 -1.000 S
AVGSMY    1.410  1.000 P
AVGSSP    1.450 -1.000 S
AVGSSP    0.830  1.000 P
AVGSTR    1.950 -1.000 S
AVGSTR    1.330  1.000 P
AVGSIG    0.000  0.000 P
# 2021 07 11 14 29 7.33  52.0803 -176.1155  6.01 -0.71 0.72 1.55 0.21   91033883
AVGSCK    3.270 -1.000 S
AVGSCK    1.670  1.000 P
AVGSIG    5.670 -1.000 S
AVGSMY    2.350 -1.000 S
AVGSMY    1.230  1.000 P
AVGSSP    2.550 -1.000 S
AVGSSP    1.230  1.000 P
AVGSTR    2.490 -1.000 S
AVGSTR    1.130  1.000 P
AVGSIG    0.000  0.000 P
# 2021 07 11 15 08 26.26  52.0622 -176.1300  5.13 -0.36 0.46 0.51 0.12   91306936
AVGSCK    2.560  0.500 S
AVGSCK    1.560  1.000 P
AVGSIG    5.360 -1.000 S
AVGSIG    2.840  1.000 P
AVGSMY    2.320 -1.000 S
AVGSMY    1.160  1.000 P
AVGSSP    2.220  0.500 S
AVGSSP    1.180  1.000 P
AVGSTR    2.680 -1.000 S
AVGSTR    1.280  1.000 P
# 2021 07 11 15 08 34.53  52.0360 -176.1522  6.18 -0.61 0.55 1.17 0.15   91033798
AVGSCK    2.170 -1.000 S
AVGSCK    1.110  1.000 P
AVGSIG    5.130 -1.000 S
AVGSMY    2.930 -1.000 S
AVGSMY    1.590  1.000 P
AVGSSP    2.530  0.500 S
AVGSSP    1.770  0.500 P
AVGSTR    3.190  1.000 S
AVGSTR    2.130  0.500 P
AVGSIG    0.000  0.000 P
# 2021 07 11 18 09 40.71  52.0713 -176.1213  4.98 -0.60 0.55 0.62 0.16   91033918
AVGSCK    2.930 -1.000 S
AVGSCK    1.490  1.000 P
AVGSIG    5.490 -1.000 S
AVGSIG    2.770  1.000 P
AVGSMY    2.130 -1.000 S
AVGSMY    1.170  1.000 P
AVGSSP    2.190  0.500 S
AVGSSP    1.150  1.000 P
AVGSTR    2.490  0.500 S
AVGSTR    1.290  1.000 P
# 2021 07 11 18 11 24.40  52.0688 -176.1182  5.99 0.26 0.51 0.96 0.13   91307096
AVGSCK    3.000 -1.000 S
AVGSCK    1.600  1.000 P
AVGSIG    5.300  1.000 S
AVGSIG    2.880  1.000 P
AVGSMY    2.260 -1.000 S
AVGSMY    1.220  1.000 P
AVGSSP    2.420  1.000 S
AVGSSP    1.240  1.000 P
AVGSTR    2.640 -1.000 S
AVGSTR    1.300  1.000 P
# 2021 07 11 18 11 33.82  52.0620 -176.1122  5.15 -0.02 0.50 0.67 0.18   91033813
AVGSCK    2.820 -1.000 S
AVGSCK    1.420  1.000 P
AVGSIG    5.080 -1.000 S
AVGSIG    2.820  0.200 P
AVGSMY    2.060 -1.000 S
AVGSMY    1.040  1.000 P
AVGSSP    2.620  0.500 S
AVGSSP    1.040  0.500 P
AVGSTR    2.560 -1.000 S
AVGSTR    1.120  1.000 P
# 2021 07 11 18 11 39.63  52.0612 -176.1175  5.03 -0.15 0.77 0.61 0.14   91033818
AVGSCK    2.750 -0.500 S
AVGSCK    1.370 -1.000 P
AVGSIG    5.110 -1.000 S
AVGSMY    2.030 -1.000 S
AVGSMY    1.210  0.500 P
AVGSTR    2.510 -1.000 S
AVGSTR    1.090  0.500 P
AVGSIG    0.000  0.000 P
# 2021 07 11 18 23 1.58  52.0647 -176.1185  5.57 -0.85 0.67 1.14 0.16   91033923
AVGSCK    2.900 -1.000 S
AVGSCK    1.500  1.000 P
AVGSIG    5.240 -0.500 S
AVGSIG    2.900  0.500 P
AVGSMY    2.160 -1.000 S
AVGSMY    1.120  1.000 P
AVGSSP    1.200  0.500 P
AVGSTR    2.660 -1.000 S
AVGSTR    1.260  1.000 P
# 2021 07 11 20 08 19.62  52.0443 -176.1053  8.08 -0.01 1.15 2.25 0.30   91033958
AVGSCK    2.960 -1.000 S
AVGSCK    1.440  1.000 P
AVGSIG    4.420 -1.000 S
AVGSIG    3.140  0.500 P
AVGSMY    2.760  0.500 S
AVGSMY    1.980  1.000 P
AVGSTR    3.060 -1.000 S
AVGSTR    1.340  0.500 P
# 2021 07 11 22 58 18.98  52.0848 -176.1215  5.66 0.23 0.48 0.91 0.13   91307336
AVGSCK    3.400 -1.000 S
AVGSCK    1.820  1.000 P
AVGSIG    5.560  1.000 S
AVGSIG    3.020  1.000 P
AVGSMY    2.460 -1.000 S
AVGSMY    1.400  1.000 P
AVGSSP    2.000  0.500 S
AVGSSP    1.240  1.000 P
AVGSTR    2.480 -1.000 S
AVGSTR    1.300  1.000 P
# 2021 07 11 23 43 48.03  52.0783 -176.1182  6.16 -0.95 0.61 1.14 0.12   91034008
AVGSCK    3.290 -0.500 S
AVGSCK    1.730  1.000 P
AVGSIG    5.510 -0.500 S
AVGSMY    2.530 -1.000 S
AVGSMY    1.290  1.000 P
AVGSSP    1.350  0.500 P
AVGSTR    2.490 -1.000 S
AVGSTR    1.330  1.000 P
AVGSIG    0.000  0.000 P
# 2021 07 11 23 44 18.89  52.0800 -176.1332  5.01 -0.51 0.69 0.81 0.22   91307381
AVGSCK    3.210 -1.000 S
AVGSCK    1.690  1.000 P
AVGSIG    5.750 -1.000 S
AVGSIG    2.910  1.000 P
AVGSMY    2.310 -1.000 S
AVGSMY    1.290  1.000 P
AVGSSP    1.670  1.000 S
AVGSSP    1.250  1.000 P
AVGSTR    2.670 -1.000 S
AVGSTR    1.310  1.000 P
# 2021 07 11 23 48 37.83  52.0698 -176.1347  3.75 -0.86 0.71 1.50 0.14   91034013
AVGSCK    1.530 -1.000 P
AVGSIG    5.570 -1.000 S
AVGSIG    2.890  0.500 P
AVGSMY    2.150 -1.000 S
AVGSMY    1.110  1.000 P
AVGSTR    2.350 -1.000 S
AVGSTR    1.130  1.000 P
# 2021 07 12 00 07 17.67  52.0782 -176.1108  5.73 0.24 0.50 0.89 0.16   91307396
AVETKA    5.510  0.500 P
AVGSCK    3.270 -1.000 S
AVGSCK    1.610  1.000 P
AVGSIG    5.370  1.000 S
AVGSIG    2.790  1.000 P
AVGSMY    2.290  1.000 S
AVGSMY    1.210  1.000 P
AVGSSP    2.330  1.000 S
AVGSSP    1.210  1.000 P
AVGSTR    2.470 -1.000 S
AVGSTR    1.230  1.000 P
# 2021 07 12 00 11 40.39  52.0683 -176.1177  4.43 0.43 0.48 0.86 0.18   91307406
AVETKA    5.330 -1.000 P
AVGSCK    2.850 -1.000 S
AVGSCK    1.430  1.000 P
AVGSIG    5.110  1.000 S
AVGSIG    2.690  1.000 P
AVGSMY    2.050  1.000 S
AVGSMY    1.070  1.000 P
AVGSSP    1.790  0.500 S
AVGSSP    1.090  1.000 P
AVGSTR    2.490  1.000 S
AVGSTR    1.170  1.000 P
# 2021 07 12 00 20 28.94  52.0677 -176.1220  5.35 -0.63 0.56 1.22 0.18   91307426
AVGSCK    2.900 -1.000 S
AVGSCK    1.500  1.000 P
AVGSIG    5.420 -1.000 S
AVGSIG    2.780  0.500 P
AVGSMY    2.120 -1.000 S
AVGSMY    1.160  1.000 P
AVGSSP    2.400  0.500 S
AVGSSP    1.140  1.000 P
AVGSTR    2.620 -1.000 S
AVGSTR    1.220  1.000 P
# 2021 07 12 00 20 57.30  52.0560 -176.0888  8.75 -0.01 1.40 1.49 0.17   91033828
AVGSCK    3.580 -0.500 S
AVGSCK    1.940  1.000 P
AVGSMY    2.560 -1.000 S
AVGSMY    1.620 -1.000 P
AVGSSP    1.660 -1.000 P
AVGSTR    3.260 -0.500 S
AVGSTR    1.780  1.000 P
# 2021 07 12 01 02 1.28  52.0677 -176.0557 10.85 -0.75 0.89 0.82 0.13   91033833
AVGSCK    4.320 -0.500 S
AVGSCK    2.400  1.000 P
AVGSMY    3.180 -1.000 S
AVGSMY    1.960  1.000 P
AVGSSP    4.200 -0.500 S
AVGSSP    2.020  1.000 P
AVGSTR    3.360 -1.000 S
AVGSTR    2.000  1.000 P
# 2021 07 12 01 02 36.21  52.0733 -176.1047  9.83 -0.92 0.83 0.79 0.05   91033838
AVGSCK    3.730 -1.000 S
AVGSCK    2.190  1.000 P
AVGSMY    3.250 -1.000 S
AVGSMY    1.770  1.000 P
AVGSSP    1.790  0.500 P
AVGSTR    3.210 -1.000 S
AVGSTR    1.790  1.000 P
# 2021 07 12 01 08 17.08  52.0885 -176.1457  9.12 -0.76 0.80 1.39 0.13   91307476
AVGSCK    3.680 -1.000 S
AVGSCK    2.160  1.000 P
AVGSIG    6.220 -1.000 S
AVGSMY    3.620  1.000 S
AVGSMY    1.740  1.000 P
AVGSSP    1.740  1.000 P
AVGSTR    3.280 -0.500 S
AVGSTR    1.780  1.000 P
AVGSIG    0.000  0.000 P
# 2021 07 12 01 38 3.19  52.0667 -176.0842  8.99 -0.76 1.14 1.15 0.12   91034043
AVGSCK    3.750 -0.500 S
AVGSCK    2.130  1.000 P
AVGSMY    2.710 -1.000 S
AVGSMY    1.670  1.000 P
AVGSSP    1.710 -1.000 P
AVGSTR    3.070 -1.000 S
AVGSTR    1.670  1.000 P
# 2021 07 12 04 28 24.36  52.0825 -176.1142  7.53 -0.70 0.43 0.77 0.07   91034048
AVGSCK    3.440 -1.000 S
AVGSCK    1.920  1.000 P
AVGSIG    5.460 -1.000 S
AVGSIG    3.060  0.500 P
AVGSMY    2.960  0.500 S
AVGSMY    1.460  1.000 P
AVGSSP    1.560 -1.000 P
AVGSTR    2.640 -1.000 S
AVGSTR    1.480  1.000 P
# 2021 07 12 07 28 56.77  52.0840 -176.1673  6.33 -0.04 0.83 1.25 0.20   91034058
AVGSCK    3.370 -1.000 S
AVGSCK    1.810  1.000 P
AVGSIG    6.210  1.000 S
AVGSIG    3.510  1.000 P
AVGSMY    2.930  1.000 S
AVGSMY    1.650  1.000 P
AVGSSP    1.910 -1.000 S
AVGSSP    1.130  1.000 P
AVGSTR    3.390 -1.000 S
AVGSTR    1.610  1.000 P
# 2021 07 12 07 29 27.99  52.0757 -176.1088  5.96 -0.50 0.53 1.02 0.15   91034078
AVGSCK    3.270 -1.000 S
AVGSCK    1.710  1.000 P
AVGSIG    5.270 -1.000 S
AVGSIG    2.850  0.500 P
AVGSMY    2.210 -1.000 S
AVGSMY    1.250  1.000 P
AVGSSP    2.370  0.500 S
AVGSSP    1.330  1.000 P
AVGSTR    2.530 -1.000 S
AVGSTR    1.170  1.000 P
# 2021 07 12 10 39 19.59  51.9932 -176.1303 14.59 -0.01 1.94 2.24 0.28   91034088
AVGSCK    4.170 -1.000 S
AVGSCK    2.710  1.000 P
AVGSIG    5.690 -0.500 S
AVGSIG    3.530  0.500 P
AVGSMY    2.130  1.000 P
AVGSTR    5.590 -1.000 S
AVGSTR    2.910  0.500 P
# 2021 07 12 10 39 38.83  52.0505 -176.0807  5.17 -0.65 0.39 0.67 0.09   91034093
AVGSCK    2.850 -1.000 S
AVGSCK    1.470  1.000 P
AVGSIG    4.410 -1.000 S
AVGSIG    2.290  1.000 P
AVGSMY    1.730 -1.000 S
AVGSMY    0.890  0.500 P
AVGSSP    3.070  1.000 S
AVGSSP    1.570  1.000 P
AVGSTR    2.310 -1.000 S
AVGSTR    1.370  1.000 P
# 2021 07 12 10 39 45.10  52.0540 -176.0928  8.21 -0.64 0.63 0.89 0.12   91034103
AVGSCK    3.300 -1.000 S
AVGSCK    1.860  1.000 P
AVGSIG    4.800 -1.000 S
AVGSIG    2.620  1.000 P
AVGSMY    2.540 -1.000 S
AVGSMY    1.260  1.000 P
AVGSSP    1.780  0.500 P
AVGSTR    3.160  0.500 S
AVGSTR    1.680  1.000 P
# 2021 07 12 10 39 58.48  52.0485 -176.0783  5.01 -0.62 0.39 0.67 0.10   91034098
AVGSCK    2.840 -1.000 S
AVGSCK    1.440  1.000 P
AVGSIG    4.360 -1.000 S
AVGSIG    2.220  1.000 P
AVGSMY    1.700 -1.000 S
AVGSMY    0.840  1.000 P
AVGSSP    3.080  0.500 S
AVGSSP    1.740  1.000 P
AVGSTR    2.340 -1.000 S
AVGSTR    1.360  0.500 P
# 2021 07 12 10 40 31.25  52.0448 -176.0860  5.49 -0.54 0.55 0.92 0.16   91034083
AVGSCK    2.850 -1.000 S
AVGSCK    1.450  1.000 P
AVGSIG    4.410 -1.000 S
AVGSIG    2.310  1.000 P
AVGSMY    1.730 -1.000 S
AVGSMY    0.850  1.000 P
AVGSSP    3.050  0.500 S
AVGSSP    1.550  1.000 P
AVGSTR    2.810  1.000 S
AVGSTR    1.310  1.000 P
# 2021 07 12 13 28 1.57  52.0725 -176.0458  5.13 -0.45 0.54 0.82 0.15   91034123
AVGSCK    3.870 -1.000 S
AVGSCK    1.990  1.000 P
AVGSIG    4.330  0.500 S
AVGSIG    2.430  0.500 P
AVGSMY    1.910 -1.000 S
AVGSMY    0.910  1.000 P
AVGSSP    3.190  1.000 S
AVGSSP    1.830  1.000 P
AVGSTR    2.150 -1.000 S
AVGSTR    0.990  1.000 P
# 2021 07 12 17 13 6.61  52.0430 -176.1537  5.14 -0.61 1.36 3.47 0.32   91308291
AVGSCK    1.470 -1.000 P
AVGSMY    2.410 -1.000 S
AVGSMY    1.210  1.000 P
AVGSSP    2.410 -1.000 S
AVGSSP    0.970  1.000 P
AVGSTR    3.630  0.500 S
AVGSTR    2.210  0.500 P
# 2021 07 12 17 36 30.09  52.0883 -176.1173  6.59 0.42 0.63 0.91 0.14   91308311
AVGSCK    3.550  0.500 S
AVGSCK    1.990  1.000 P
AVGSIG    5.690  1.000 S
AVGSIG    3.070  1.000 P
AVGSMY    2.630 -1.000 S
AVGSMY    1.490  1.000 P
AVGSSP    2.550 -1.000 S
AVGSSP    1.110  1.000 P
AVGSTR    2.510 -1.000 S
AVGSTR    1.430  1.000 P
# 2021 07 12 17 36 52.05  52.0770 -176.1175  5.35 0.72 0.53 0.99 0.14   91034023
AVGSCK    3.150  0.500 S
AVGSCK    1.670  1.000 P
AVGSIG    5.530  1.000 S
AVGSIG    2.890  1.000 P
AVGSMY    2.290 -1.000 S
AVGSMY    1.190  1.000 P
AVGSSP    2.290 -1.000 S
AVGSSP    1.190  1.000 P
AVGSTR    2.390 -1.000 S
AVGSTR    1.110  1.000 P
# 2021 07 12 17 37 20.34  52.0852 -176.0772  2.63 0.43 0.51 0.99 0.19   91034028
AVGSCK    3.500 -1.000 S
AVGSCK    1.760  1.000 P
AVGSIG    4.940  0.500 S
AVGSIG    2.860  1.000 P
AVGSMY    1.580 -1.000 S
AVGSMY    0.340  1.000 P
AVGSSP    2.360  1.000 S
AVGSSP    1.280  1.000 P
AVGSTR    1.360 -1.000 S
AVGSTR    0.280  1.000 P
# 2021 07 12 17 39 3.79  52.0742 -176.1035  7.84 -0.52 0.54 0.85 0.05   91034118
AVGSCK    2.030  0.500 P
AVGSMY    2.770 -1.000 S
AVGSMY    1.530  1.000 P
AVGSSP    2.810 -0.500 S
AVGSSP    1.610  1.000 P
AVGSTR    2.750 -1.000 S
AVGSTR    1.470 -1.000 P
# 2021 07 12 17 41 10.09  52.0760 -176.0840  5.96 0.11 0.63 1.26 0.13   91034033
AVGSCK    3.510 -0.500 S
AVGSCK    1.750  1.000 P
AVGSMY    2.290 -0.500 S
AVGSMY    1.230  1.000 P
AVGSSP    2.530 -0.500 S
AVGSSP    1.790  0.500 P
AVGSTR    2.150 -0.500 S
AVGSTR    1.210  1.000 P
# 2021 07 12 17 41 21.06  52.0817 -176.1025  7.64 -0.03 0.89 1.45 0.24   91308316
AVGSCK    3.840 -0.500 S
AVGSCK    2.000  0.500 P
AVGSIG    5.500  0.500 S
AVGSIG    2.960  0.500 P
AVGSMY    2.380  0.500 S
AVGSMY    1.380  1.000 P
AVGSSP    2.620  0.500 S
AVGSSP    1.760  0.500 P
AVGSTR    2.880 -1.000 S
AVGSTR    1.320  1.000 P
# 2021 07 12 17 42 45.96  52.0845 -176.1103  6.53 0.35 0.65 1.08 0.17   91308321
AVGSCK    3.600 -1.000 S
AVGSCK    1.840  1.000 P
AVGSIG    5.560  1.000 S
AVGSIG    2.940  1.000 P
AVGSMY    2.400 -1.000 S
AVGSMY    1.360  1.000 P
AVGSSP    2.460  1.000 S
AVGSSP    1.380  1.000 P
AVGSTR    2.600 -1.000 S
AVGSTR    1.280  1.000 P
# 2021 07 12 21 59 48.00  52.0797 -176.1237  4.43 0.66 0.28 0.46 0.06   91308496
AVETKA    5.240 -1.000 P
AVGSCK    2.940 -1.000 S
AVGSCK    1.560  1.000 P
AVGSIG    5.500  1.000 S
AVGSIG    2.960  1.000 P
AVGSMY    2.400  1.000 S
AVGSMY    1.300  1.000 P
AVGSSP    1.880 -1.000 S
AVGSSP    1.080  1.000 P
AVGSTR    2.020  0.500 S
AVGSTR    1.260  1.000 P
# 2021 07 13 02 45 19.95  52.0778 -176.1205  6.06 -0.41 0.65 1.25 0.17   91034188
AVGSCK    3.250 -1.000 S
AVGSCK    1.690  1.000 P
AVGSIG    5.590 -1.000 S
AVGSIG    2.870  0.500 P
AVGSMY    2.370 -1.000 S
AVGSMY    1.250  1.000 P
AVGSSP    1.310 -1.000 P
AVGSTR    2.610 -1.000 S
AVGSTR    1.290  1.000 P
# 2021 07 13 02 53 55.56  52.0760 -176.1138  6.53 0.76 0.50 0.87 0.12   91308721
AVGSCK    3.300 -1.000 S
AVGSCK    1.760  1.000 P
AVGSIG    5.360  1.000 S
AVGSIG    2.920  1.000 P
AVGSMY    2.420 -1.000 S
AVGSMY    1.300  1.000 P
AVGSSP    2.480  0.500 S
AVGSSP    1.340  1.000 P
AVGSTR    2.620 -1.000 S
AVGSTR    1.360  1.000 P
# 2021 07 13 03 16 47.78  52.0887 -176.1010  7.39 -0.48 0.74 1.09 0.19   91308736
AVGSCK    3.880 -1.000 S
AVGSCK    1.940  1.000 P
AVGSIG    5.540  1.000 S
AVGSIG    3.040  1.000 P
AVGSMY    2.540  1.000 S
AVGSMY    1.420  1.000 P
AVGSSP    2.860  0.500 S
AVGSSP    1.460  1.000 P
AVGSTR    2.680 -1.000 S
AVGSTR    1.380  1.000 P
# 2021 07 13 03 25 3.22  52.0985 -176.2198 10.44 -0.27 1.16 1.38 0.18   91308751
AVGSCK    4.140 -1.000 S
AVGSCK    2.680  1.000 P
AVGSMY    5.100  0.500 S
AVGSMY    2.420  1.000 P
AVGSSP    3.180 -0.500 S
AVGSSP    1.840  1.000 P
AVGSTR    4.400 -1.000 S
AVGSTR    2.440  1.000 P
# 2021 07 13 05 21 28.24  52.0565 -176.0908  8.54 -0.87 1.05 1.10 0.11   91308916
AVGSCK    3.380 -1.000 S
AVGSCK    1.980  1.000 P
AVGSMY    2.580 -1.000 S
AVGSMY    1.580  1.000 P
AVGSSP    1.680 -1.000 P
AVGSTR    3.120 -1.000 S
AVGSTR    1.680  1.000 P
# 2021 07 13 05 55 27.95  52.0697 -176.1217  6.44 -0.55 0.49 0.87 0.12   91308971
AVGSCK    3.050 -1.000 S
AVGSCK    1.650  1.000 P
AVGSIG    5.270  1.000 S
AVGSIG    3.010  1.000 P
AVGSMY    2.470 -1.000 S
AVGSMY    1.250  1.000 P
AVGSSP    2.350  0.500 S
AVGSSP    1.370  1.000 P
AVGSTR    2.770 -1.000 S
AVGSTR    1.350  1.000 P
# 2021 07 13 05 55 51.38  52.0683 -176.1210  5.22 -0.41 0.54 1.14 0.17   91034138
AVGSCK    2.940 -1.000 S
AVGSCK    1.520  1.000 P
AVGSIG    5.440  0.500 S
AVGSIG    2.900  1.000 P
AVGSMY    2.120 -1.000 S
AVGSMY    1.120  1.000 P
AVGSSP    2.200 -1.000 S
AVGSSP    1.180  1.000 P
AVGSTR    2.620 -1.000 S
AVGSTR    1.220  1.000 P
# 2021 07 13 07 05 22.01  52.0688 -176.1193  6.16 0.15 0.57 1.06 0.15   91309041
AVGSCK    3.070 -1.000 S
AVGSCK    1.650  1.000 P
AVGSIG    5.290  1.000 S
AVGSIG    2.870  1.000 P
AVGSMY    2.250 -1.000 S
AVGSMY    1.250  1.000 P
AVGSSP    2.350  1.000 S
AVGSSP    1.310  1.000 P
AVGSTR    2.770 -1.000 S
AVGSTR    1.370  1.000 P
# 2021 07 13 08 53 4.23  52.0718 -176.1247  6.22 -0.72 0.60 1.16 0.18   91034143
AVGSCK    3.150 -1.000 S
AVGSCK    1.610  1.000 P
AVGSIG    5.410  0.500 S
AVGSIG    2.950  0.500 P
AVGSMY    2.410 -1.000 S
AVGSMY    1.250  1.000 P
AVGSSP    2.030  0.500 S
AVGSSP    1.410  1.000 P
AVGSTR    2.770 -1.000 S
AVGSTR    1.410  1.000 P
# 2021 07 13 08 53 27.86  52.0745 -176.1148  7.15 -0.18 0.49 0.81 0.10   91309136
AVGSCK    3.280 -1.000 S
AVGSCK    1.820  1.000 P
AVGSIG    5.380  1.000 S
AVGSIG    2.980  1.000 P
AVGSMY    2.580 -1.000 S
AVGSMY    1.380  1.000 P
AVGSSP    2.660  1.000 S
AVGSSP    1.420  1.000 P
AVGSTR    2.740 -1.000 S
AVGSTR    1.400  1.000 P
# 2021 07 13 12 23 25.54  51.9050 -176.0373 11.06 -0.16 0.82 1.70 0.15   91309406
AVETKA    8.040 -1.000 S
AVETKA    4.320  1.000 P
AVGSCK    5.400  1.000 S
AVGSCK    2.860  1.000 P
AVGSIG    4.720 -1.000 S
AVGSIG    2.500  1.000 P
AVGSMY    5.380  1.000 S
AVGSMY    2.940  1.000 P
AVGSSP    6.980  1.000 S
AVGSSP    4.260  1.000 P
AVGSTR    4.080  1.000 P
# 2021 07 13 20 07 39.79  52.0432 -176.0820  5.30 -0.50 0.60 1.12 0.19   91309776
AVGSCK    2.850 -1.000 S
AVGSCK    1.450  1.000 P
AVGSIG    4.370 -1.000 S
AVGSIG    2.270  1.000 P
AVGSMY    1.730 -1.000 S
AVGSMY    0.730  1.000 P
AVGSTR    2.790 -1.000 S
AVGSTR    1.250  1.000 P
# 2021 07 13 20 08 47.14  52.0442 -176.0825  5.07 -0.54 0.53 1.02 0.15   91309781
AVGSCK    2.800 -1.000 S
AVGSCK    1.420  1.000 P
AVGSIG    4.340 -1.000 S
AVGSIG    2.260  1.000 P
AVGSMY    1.700 -1.000 S
AVGSMY    0.800  1.000 P
AVGSTR    2.680 -1.000 S
AVGSTR    1.220  1.000 P
# 2021 07 13 21 22 33.28  52.0668 -176.1165  5.89 -0.18 0.56 1.20 0.17   91309836
AVGSCK    3.000 -1.000 S
AVGSCK    1.580  1.000 P
AVGSIG    5.220 -1.000 S
AVGSIG    2.800  0.500 P
AVGSMY    2.180 -1.000 S
AVGSMY    1.180  1.000 P
AVGSSP    2.280  0.500 S
AVGSTR    2.720 -1.000 S
AVGSTR    1.300  1.000 P
AVGSSP    0.000  0.000 P
# 2021 07 13 22 38 16.38  52.0507 -176.1330  7.02 -0.24 0.65 1.17 0.17   91309951
AVGSCK    2.860 -1.000 S
AVGSCK    1.440  1.000 P
AVGSIG    5.140  1.000 S
AVGSIG    2.880  1.000 P
AVGSMY    2.400 -1.000 S
AVGSMY    1.460  1.000 P
AVGSSP    2.540 -1.000 S
AVGSSP    1.420  0.500 P
AVGSTR    3.320  1.000 S
AVGSTR    1.780  1.000 P
# 2021 07 13 22 39 21.64  52.0857 -176.1243  7.44 -0.06 0.55 0.84 0.11   91309956
AVGSCK    3.540 -1.000 S
AVGSCK    1.900  1.000 P
AVGSIG    5.720  1.000 S
AVGSIG    3.120  1.000 P
AVGSMY    2.920  1.000 S
AVGSMY    1.480  1.000 P
AVGSSP    2.420  0.500 S
AVGSSP    1.560  1.000 P
AVGSTR    2.800 -1.000 S
AVGSTR    1.480  1.000 P
# 2021 07 13 23 49 43.74  52.0480 -176.1382  6.69 -0.57 0.63 1.22 0.17   91310021
AVGSCK    2.700 -1.000 S
AVGSCK    1.420  1.000 P
AVGSIG    5.200  0.500 S
AVGSIG    2.880  0.500 P
AVGSMY    2.380 -1.000 S
AVGSMY    1.460  1.000 P
AVGSSP    2.520 -1.000 S
AVGSSP    1.400  1.000 P
AVGSTR    3.380  1.000 S
AVGSTR    1.780  1.000 P
# 2021 07 14 00 32 53.37  52.0488 -176.1388  6.44 -0.13 0.50 0.92 0.12   91310081
AVGSCK    2.590 -1.000 S
AVGSCK    1.410  1.000 P
AVGSIG    5.270  1.000 S
AVGSIG    2.850  1.000 P
AVGSMY    2.430 -1.000 S
AVGSMY    1.430  1.000 P
AVGSSP    2.550  1.000 S
AVGSSP    1.370  1.000 P
AVGSTR    3.210  1.000 S
AVGSTR    1.750  1.000 P
# 2021 07 14 00 34 51.03  52.0543 -176.1682  7.51 -0.84 0.57 1.00 0.08   91034313
AVGSCK    2.750 -1.000 S
AVGSCK    1.510  1.000 P
AVGSMY    3.150 -1.000 S
AVGSMY    2.030  0.500 P
AVGSSP    2.610 -0.500 S
AVGSSP    1.450  1.000 P
AVGSTR    3.570  0.500 S
AVGSTR    1.850  1.000 P
# 2021 07 14 01 51 2.40  52.0470 -176.1367  6.06 -0.13 0.58 1.20 0.16   91310156
AVGSCK    2.520 -1.000 S
AVGSCK    1.360  1.000 P
AVGSIG    5.120  1.000 S
AVGSIG    2.840  1.000 P
AVGSMY    2.320 -1.000 S
AVGSMY    1.260  1.000 P
AVGSSP    2.380 -1.000 S
AVGSTR    3.240  1.000 S
AVGSTR    1.720  1.000 P
AVGSSP    0.000  0.000 P
# 2021 07 14 02 22 0.28  52.0530 -176.1683  7.50 -0.62 0.58 1.04 0.10   91034318
AVGSCK    2.740 -1.000 S
AVGSCK    1.520  1.000 P
AVGSMY    3.100 -1.000 S
AVGSMY    2.020  0.500 P
AVGSSP    2.600 -1.000 S
AVGSSP    1.440  1.000 P
AVGSTR    3.580  1.000 S
AVGSTR    1.840  1.000 P
# 2021 07 14 05 17 57.51  52.0597 -176.1222  6.68 -0.91 0.65 1.47 0.10   91034323
AVGSCK    2.730 -1.000 S
AVGSCK    1.750  1.000 P
AVGSMY    2.510 -1.000 S
AVGSMY    1.370  1.000 P
AVGSSP    1.370 -1.000 P
AVGSTR    2.850 -1.000 S
AVGSTR    1.470  1.000 P
# 2021 07 14 05 40 1.59  52.0653 -176.1335  7.42 -0.41 0.69 1.34 0.14   91310241
AVGSCK    3.090 -1.000 S
AVGSCK    1.770  1.000 P
AVGSMY    2.610  0.500 S
AVGSMY    1.470  1.000 P
AVGSSP    2.470 -1.000 S
AVGSSP    1.450  1.000 P
AVGSTR    3.150 -1.000 S
AVGSTR    1.650  1.000 P
