# 2021 07 14 06 42 54.81  52.0942 -176.1345  9.23 0.44 0.76 1.31 0.13   91034288
AVGSCK    3.870 -1.000 S
AVGSCK    2.210  1.000 P
AVGSIG    6.170 -1.000 S
AVGSIG    3.330  0.500 P
AVGSMY    1.770  1.000 P
AVGSSP    1.770 -1.000 P
AVGSTR    3.170 -0.500 S
AVGSTR    1.790  1.000 P
# 2021 07 14 06 43 5.31  52.0750 -176.1070  6.87 0.43 0.56 1.02 0.15   91034283
AVGSCK    3.370 -1.000 S
AVGSCK    1.810  1.000 P
AVGSIG    5.410  0.500 S
AVGSIG    2.810  0.500 P
AVGSMY    2.370 -1.000 S
AVGSMY    1.350  1.000 P
AVGSSP    2.630  0.500 S
AVGSSP    1.350  0.500 P
AVGSTR    2.670 -1.000 S
AVGSTR    1.370  1.000 P
# 2021 07 14 07 16 55.07  52.0763 -176.1122  6.26 -0.75 0.56 1.20 0.15   91034333
AVGSCK    3.330 -1.000 S
AVGSCK    1.770  1.000 P
AVGSMY    2.330 -1.000 S
AVGSMY    1.290  1.000 P
AVGSSP    2.390 -1.000 S
AVGSSP    1.330  1.000 P
AVGSTR    2.610 -1.000 S
AVGSTR    1.310  1.000 P
# 2021 07 14 07 36 42.55  52.0800 -176.1192  6.22 -0.35 0.60 1.00 0.16   91310331
AVGSCK    3.290 -1.000 S
AVGSCK    1.730  1.000 P
AVGSIG    5.650  1.000 S
AVGSIG    2.910  1.000 P
AVGSMY    2.430 -1.000 S
AVGSMY    1.290  1.000 P
AVGSSP    2.390  1.000 S
AVGSSP    1.270  1.000 P
AVGSTR    2.570 -1.000 S
AVGSTR    1.290  1.000 P
# 2021 07 14 09 11 49.42  52.0575 -176.0687  8.39 -0.77 0.95 0.70 0.08   91034348
AVGSCK    3.560 -1.000 S
AVGSCK    2.040  0.500 P
AVGSMY    2.540 -1.000 S
AVGSMY    1.560 -1.000 P
AVGSSP    1.840  0.500 P
AVGSTR    2.940 -1.000 S
AVGSTR    1.560  1.000 P
# 2021 07 14 09 14 18.45  52.0795 -176.0882  8.43 -0.80 0.85 1.26 0.16   91034353
AVGSCK    3.830  0.500 S
AVGSCK    2.190  1.000 P
AVGSMY    2.730 -1.000 S
AVGSMY    1.690  1.000 P
AVGSSP    3.010 -1.000 S
AVGSSP    1.830  1.000 P
AVGSTR    2.990 -1.000 S
AVGSTR    1.290  1.000 P
# 2021 07 14 09 49 52.00  52.0763 -176.1123  6.27 0.03 0.53 0.92 0.14   91310386
AVGSCK    3.300 -1.000 S
AVGSCK    1.780  1.000 P
AVGSIG    5.320  1.000 S
AVGSIG    2.880  1.000 P
AVGSMY    2.320 -1.000 S
AVGSMY    1.300  1.000 P
AVGSSP    2.400  1.000 S
AVGSSP    1.320  1.000 P
AVGSTR    2.600 -1.000 S
AVGSTR    1.280  1.000 P
# 2021 07 14 09 57 21.72  52.0518 -176.1352  6.67 -0.98 0.89 1.89 0.25   91034363
AVGSCK    2.780 -1.000 S
AVGSCK    1.380  1.000 P
AVGSIG    4.920  0.500 S
AVGSMY    2.320 -1.000 S
AVGSMY    1.840  1.000 P
AVGSSP    2.440 -1.000 S
AVGSSP    1.300  1.000 P
AVGSTR    3.440  0.500 S
AVGSTR    1.720  1.000 P
AVGSIG    0.000  0.000 P
# 2021 07 14 11 44 55.76  52.0860 -176.1370  6.30 -0.74 0.83 1.26 0.20   91034293
AVGSCK    3.540 -0.500 S
AVGSCK    1.840  1.000 P
AVGSIG    5.860  1.000 S
AVGSIG    3.080  1.000 P
AVGSMY    2.600  0.500 S
AVGSMY    1.440  1.000 P
AVGSSP    1.820  0.500 S
AVGSSP    1.400  1.000 P
AVGSTR    2.820 -1.000 S
AVGSTR    1.460  1.000 P
# 2021 07 14 11 45 5.49  52.0812 -176.1547  6.32 -0.27 0.62 1.04 0.15   91310486
AVGSCK    3.230 -1.000 S
AVGSCK    1.790  1.000 P
AVGSIG    6.030  1.000 S
AVGSIG    3.310  1.000 P
AVGSMY    2.810  1.000 S
AVGSMY    1.550  1.000 P
AVGSSP    2.110  0.500 S
AVGSSP    1.030  1.000 P
AVGSTR    3.050 -1.000 S
AVGSTR    1.650  1.000 P
# 2021 07 14 11 45 32.67  52.0647 -176.1238  5.05 0.30 0.39 0.51 0.11   91034298
AVGSCK    2.590 -1.000 S
AVGSCK    1.610  1.000 P
AVGSIG    5.290 -1.000 S
AVGSIG    2.830  1.000 P
AVGSMY    2.230  0.500 S
AVGSMY    1.190  1.000 P
AVGSSP    2.290  0.500 S
AVGSSP    1.170  1.000 P
AVGSTR    2.530 -1.000 S
AVGSTR    1.210  1.000 P
# 2021 07 14 12 09 45.44  52.0607 -176.0620 10.70 -0.95 0.97 1.12 0.15   91034373
AVGSCK    4.000 -1.000 S
AVGSCK    2.380  1.000 P
AVGSMY    3.160 -1.000 S
AVGSMY    1.960  1.000 P
AVGSSP    4.180 -1.000 S
AVGSSP    1.940  1.000 P
AVGSTR    3.320 -1.000 S
AVGSTR    2.000  0.500 P
# 2021 07 14 12 15 35.53  52.0783 -176.1205  7.22 0.46 0.58 0.96 0.13   91310506
AVGSCK    3.390 -1.000 S
AVGSCK    1.850  1.000 P
AVGSIG    5.530 -1.000 S
AVGSIG    3.050  1.000 P
AVGSMY    2.630  1.000 S
AVGSMY    1.430  1.000 P
AVGSSP    1.390 -1.000 P
AVGSTR    2.830 -1.000 S
AVGSTR    1.450  1.000 P
# 2021 07 14 12 18 44.21  52.0870 -176.1277  8.90 0.29 0.58 0.77 0.08   91310511
AVGSCK    3.730 -1.000 S
AVGSCK    2.110  1.000 P
AVGSIG    5.850  0.500 S
AVGSIG    3.330  1.000 P
AVGSMY    3.350  1.000 S
AVGSMY    1.690  1.000 P
AVGSSP    1.650 -1.000 P
AVGSTR    3.110 -1.000 S
AVGSTR    1.690  1.000 P
# 2021 07 14 12 20 10.29  52.0632 -176.1075 -1.21 1.54 0.54 1.38 0.32   91310516
AVGSCK    2.670  1.000 S
AVGSCK    1.070  1.000 P
AVGSIG    4.610  1.000 S
AVGSIG    2.290  1.000 P
AVGSMY    1.770  1.000 S
AVGSMY    0.670  1.000 P
AVGSSP    0.630  1.000 P
AVGSTR    1.990 -1.000 S
AVGSTR    0.670  1.000 P
AVKICM   12.470  0.500 P
AVKIKV   12.370  1.000 P
AVKIMD   13.530  0.500 P
AVKINC   11.670  1.000 P
AVKIRH   20.830  0.500 S
AVKIRH   11.570  1.000 P
AVKIWB   22.170  0.500 S
AVKIWB   12.350  1.000 P
AVTAFL   20.390  0.500 P
AVTAFP   20.370  0.500 P
AVTANO   21.970  0.500 P
AVTASE   21.370  0.500 P
# 2021 07 14 12 26 40.70  52.0815 -176.1190  7.00 0.46 0.46 0.82 0.10   91310521
AVGSCK    3.400 -1.000 S
AVGSCK    1.880  1.000 P
AVGSIG    5.460  1.000 S
AVGSIG    3.080  1.000 P
AVGSMY    2.640  0.500 S
AVGSMY    1.440  1.000 P
AVGSSP    2.380  0.500 S
AVGSSP    1.420  1.000 P
AVGSTR    2.700 -1.000 S
AVGSTR    1.420  1.000 P
# 2021 07 14 12 34 15.53  52.0827 -176.1105  6.91 -0.30 0.60 1.05 0.13   91034073
AVGSCK    3.510 -1.000 S
AVGSCK    1.810  1.000 P
AVGSIG    5.510 -0.500 S
AVGSIG    3.010  0.500 P
AVGSMY    2.570  0.500 S
AVGSMY    1.370  1.000 P
AVGSSP    1.450 -1.000 P
AVGSTR    2.590 -0.500 S
AVGSTR    1.430  1.000 P
# 2021 07 14 12 34 20.69  52.0817 -176.1217  7.68 0.51 0.44 0.68 0.07   91310531
AVETKA    5.830  0.500 P
AVGSCK    3.410 -1.000 S
AVGSCK    1.970  1.000 P
AVGSIG    5.550  1.000 S
AVGSIG    3.130  1.000 P
AVGSMY    2.970  1.000 S
AVGSMY    1.510  1.000 P
AVGSSP    2.630  0.500 S
AVGSSP    1.490  1.000 P
AVGSTR    2.810 -1.000 S
AVGSTR    1.490  1.000 P
# 2021 07 14 12 35 59.56  52.0770 -176.1175  6.56 -0.31 0.49 0.83 0.11   91310536
AVGSCK    3.280 -1.000 S
AVGSCK    1.820  1.000 P
AVGSIG    5.400  1.000 S
AVGSIG    2.900  1.000 P
AVGSMY    2.500 -1.000 S
AVGSMY    1.380  1.000 P
AVGSSP    2.340  1.000 S
AVGSSP    1.400  1.000 P
AVGSTR    2.660 -1.000 S
AVGSTR    1.360  1.000 P
# 2021 07 14 12 38 3.77  52.0752 -176.1137  7.53 -0.47 0.63 1.01 0.15   91310541
AVGSCK    3.370 -1.000 S
AVGSCK    1.830  1.000 P
AVGSIG    5.470  1.000 S
AVGSIG    3.010  1.000 P
AVGSMY    2.590  1.000 S
AVGSMY    1.390  1.000 P
AVGSSP    3.050  0.500 S
AVGSSP    1.410  1.000 P
AVGSTR    2.810 -1.000 S
AVGSTR    1.410  1.000 P
# 2021 07 14 14 25 14.05  52.1023 -176.0815 10.67 -0.75 2.82 1.84 0.32   91034408
AVGSCK    2.210  1.000 P
AVGSIG    6.170 -1.000 S
AVGSIG    3.470  0.500 P
AVGSMY    3.430 -1.000 S
AVGSMY    1.750  1.000 P
AVGSSP    4.170 -1.000 S
AVGSSP    2.130  1.000 P
AVGSTR    3.110 -1.000 S
AVGSTR    1.770  1.000 P
# 2021 07 14 16 24 39.21  52.0687 -176.1345  4.33 -0.52 0.45 1.02 0.14   91310651
AVGSCK    2.550 -1.000 S
AVGSCK    1.630  1.000 P
AVGSIG    5.350  1.000 S
AVGSIG    2.910  1.000 P
AVGSMY    2.310 -1.000 S
AVGSMY    1.250  1.000 P
AVGSSP    1.630 -1.000 S
AVGSSP    1.210  1.000 P
AVGSTR    2.490 -1.000 S
AVGSTR    1.310  1.000 P
# 2021 07 14 16 47 44.14  52.0700 -176.1312  6.94 0.42 0.50 0.86 0.11   91310681
AVGSCK    3.100 -1.000 S
AVGSCK    1.740  1.000 P
AVGSIG    5.440  1.000 S
AVGSIG    3.040  1.000 P
AVGSMY    2.680 -1.000 S
AVGSMY    1.380  1.000 P
AVGSSP    2.360  1.000 S
AVGSSP    1.420  1.000 P
AVGSTR    2.940 -1.000 S
AVGSTR    1.540  1.000 P
# 2021 07 14 16 48 1.76  52.0573 -176.1045 -1.80 -0.13 0.59 1.12 0.29   91034108
AVGSCK    2.840 -1.000 S
AVGSCK    1.260  1.000 P
AVGSIG    5.320  1.000 S
AVGSIG    2.680  1.000 P
AVGSMY    1.200  1.000 S
AVGSMY    0.340  1.000 P
AVGSSP    2.100 -1.000 S
AVGSSP    1.200  1.000 P
AVGSTR    2.320 -1.000 S
AVGSTR    1.060  1.000 P
# 2021 07 14 16 48 21.15  52.0672 -176.1225  7.42 -0.47 0.63 1.03 0.13   91034113
AVGSCK    3.170 -1.000 S
AVGSCK    1.750  1.000 P
AVGSIG    3.070  0.500 P
AVGSMY    2.610  0.500 S
AVGSMY    1.370  1.000 P
AVGSSP    2.490 -0.500 S
AVGSSP    1.570  0.500 P
AVGSTR    2.970 -1.000 S
AVGSTR    1.530  1.000 P
# 2021 07 14 16 48 24.75  52.0717 -176.1375  7.29 0.14 0.52 0.94 0.12   91310686
AVGSCK    3.150 -1.000 S
AVGSCK    1.790  1.000 P
AVGSIG    5.610  1.000 S
AVGSIG    3.130  1.000 P
AVGSMY    2.730  0.500 S
AVGSMY    1.450  1.000 P
AVGSSP    2.410 -1.000 S
AVGSSP    1.450  0.500 P
AVGSTR    3.050 -1.000 S
AVGSTR    1.590  1.000 P
# 2021 07 14 16 49 22.40  52.0550 -176.1097 -1.80 0.88 0.43 0.75 0.26   91310691
AVADAG    6.460  1.000 P
AVETKA    9.420  1.000 S
AVETKA    4.980  1.000 P
AVGSCK    2.660  1.000 S
AVGSCK    1.280  1.000 P
AVGSIG    4.980  1.000 S
AVGSIG    2.600  1.000 P
AVGSMY    1.460  1.000 S
AVGSMY    0.960  1.000 P
AVGSSP    1.980  1.000 S
AVGSSP    0.940  1.000 P
AVGSTR    2.280  1.000 S
AVGSTR    1.080  1.000 P
AVKICM   13.140  0.500 P
AVKINC   11.960  0.500 P
AVKIRH   20.900  1.000 S
AVKIRH   11.920  1.000 P
AVKIWB   12.620  0.500 P
# 2021 07 14 16 50 24.15  52.0560 -176.1097 -1.80 1.34 0.42 0.73 0.26   91310696
AVADAG    6.450  1.000 P
AVETKA    9.490  1.000 S
AVETKA    4.970  1.000 P
AVGSCK    2.750  1.000 S
AVGSCK    1.290  1.000 P
AVGSIG    4.990  1.000 S
AVGSIG    2.590  1.000 P
AVGSMY    1.450  1.000 S
AVGSMY    0.950  1.000 P
AVGSSP    1.970  1.000 S
AVGSSP    0.950  1.000 P
AVGSTR    2.270  1.000 S
AVGSTR    1.090  1.000 P
AVKICM   12.730  0.500 P
AVKIKV   12.850  0.500 P
AVKINC   12.070  1.000 P
AVKIRH   20.890  1.000 S
AVKIRH   11.910  1.000 P
AVKIWB   12.510  1.000 P
# 2021 07 14 17 00 5.07  52.0652 -176.1203  5.01 -0.49 0.42 0.48 0.11   91310711
AVGSCK    2.850  0.500 S
AVGSCK    1.510  1.000 P
AVGSIG    5.210 -1.000 S
AVGSIG    2.810  1.000 P
AVGSMY    2.110 -1.000 S
AVGSMY    1.170  1.000 P
AVGSSP    2.190  1.000 S
AVGSSP    1.150  1.000 P
AVGSTR    2.490 -1.000 S
AVGSTR    1.310  1.000 P
# 2021 07 14 17 04 20.11  52.0680 -176.1300  6.79 -0.79 0.56 0.92 0.12   91034428
AVGSCK    3.110 -0.500 S
AVGSCK    1.690  1.000 P
AVGSIG    5.390  1.000 S
AVGSIG    3.030  1.000 P
AVGSMY    2.570 -1.000 S
AVGSMY    1.350  1.000 P
AVGSSP    2.430 -1.000 S
AVGSSP    1.310  1.000 P
AVGSTR    2.930 -1.000 S
AVGSTR    1.530  1.000 P
# 2021 07 14 17 05 1.82  52.0708 -176.1122  5.24 -0.01 0.52 1.50 0.10   91034433
AVGSCK    2.980 -1.000 S
AVGSCK    1.500  1.000 P
AVGSMY    2.220 -0.500 S
AVGSMY    1.180  1.000 P
AVGSSP    2.220 -1.000 S
AVGSSP    1.280  1.000 P
AVGSTR    1.400 -1.000 P
# 2021 07 14 18 35 3.89  52.0757 -176.1062  6.14 -0.53 0.50 0.96 0.14   91310826
AVGSCK    3.290 -1.000 S
AVGSCK    1.770  1.000 P
AVGSIG    5.270  0.500 S
AVGSIG    2.950  0.500 P
AVGSMY    2.310 -1.000 S
AVGSMY    1.190  1.000 P
AVGSSP    2.490  0.500 S
AVGSSP    1.350  1.000 P
AVGSTR    2.510 -1.000 S
AVGSTR    1.190  1.000 P
# 2021 07 14 19 36 34.02  52.0763 -176.1008  5.63 -0.70 0.41 0.78 0.09   91034443
AVGSCK    3.260 -1.000 S
AVGSCK    1.740  1.000 P
AVGSIG    2.880 -1.000 P
AVGSMY    2.240 -1.000 S
AVGSMY    1.200  1.000 P
AVGSSP    2.400 -1.000 S
AVGSSP    1.340  1.000 P
AVGSTR    2.260 -1.000 S
AVGSTR    1.200  1.000 P
# 2021 07 14 20 38 32.95  52.0710 -176.1075  4.01 -0.57 0.77 1.78 0.28   91034308
AVGSCK    3.130 -1.000 S
AVGSCK    1.510  1.000 P
AVGSIG    5.330  1.000 S
AVGSIG    2.590  1.000 P
AVGSMY    1.490 -1.000 S
AVGSMY    1.030  1.000 P
AVGSSP    2.070  1.000 S
AVGSSP    1.010  1.000 P
AVGSTR    2.330 -1.000 S
AVGSTR    0.970  1.000 P
# 2021 07 14 21 24 26.86  52.0500 -175.9738  6.28 -0.31 1.60 1.94 0.29   91310911
AVGSCK    4.940 -0.500 S
AVGSCK    2.820  0.500 P
AVGSIG    3.300 -1.000 S
AVGSIG    1.600  1.000 P
AVGSMY    2.380 -1.000 S
AVGSMY    1.200  1.000 P
AVGSSP    4.460  0.500 S
AVGSSP    2.760  0.500 P
AVGSTR    3.560 -1.000 S
AVGSTR    1.520  1.000 P
# 2021 07 15 04 51 24.19  52.0650 -176.1103  3.28 0.76 0.59 1.08 0.29   91311261
AVADAG    6.430  1.000 P
AVETKA    9.390  0.500 S
AVETKA    4.970  1.000 P
AVGSCK    2.710 -1.000 S
AVGSCK    1.230  1.000 P
AVGSIG    4.950  1.000 S
AVGSIG    2.530  1.000 P
AVGSMY    1.970  1.000 S
AVGSMY    0.590  1.000 P
AVGSSP    1.910  1.000 S
AVGSSP    0.830  1.000 P
AVGSTR    2.310  1.000 S
AVGSTR    0.930  1.000 P
# 2021 07 15 06 09 0.22  52.0757 -176.1408  4.71 -0.69 0.37 0.85 0.09   91311336
AVGSCK    2.860 -1.000 S
AVGSCK    1.500  1.000 P
AVGSIG    5.760  0.500 S
AVGSIG    3.240  0.500 P
AVGSMY    2.440 -1.000 S
AVGSMY    1.360  1.000 P
AVGSSP    1.800 -1.000 S
AVGSSP    1.020  1.000 P
AVGSTR    2.540 -1.000 S
AVGSTR    1.280  1.000 P
# 2021 07 15 06 09 9.84  52.0688 -176.1462  8.45 -0.72 1.19 1.97 0.26   91034448
AVGSCK    3.380 -1.000 S
AVGSCK    2.020  1.000 P
AVGSMY    2.960 -1.000 S
AVGSMY    1.520  1.000 P
AVGSSP    2.500 -1.000 S
AVGSSP    1.520  0.500 P
AVGSTR    3.680 -1.000 S
AVGSTR    1.840  1.000 P
# 2021 07 15 06 09 16.59  52.0652 -176.1425  9.00 -0.39 1.16 1.57 0.26   91034453
AVGSCK    3.210 -1.000 S
AVGSCK    1.830  1.000 P
AVGSIG    5.990  0.500 S
AVGSIG    3.530  1.000 P
AVGSMY    3.090 -1.000 S
AVGSMY    1.570  1.000 P
AVGSSP    3.310 -1.000 S
AVGSSP    1.290  0.500 P
AVGSTR    3.430  0.500 S
AVGSTR    1.610  1.000 P
# 2021 07 15 06 09 30.42  52.0553 -176.1215  9.38 -0.96 0.82 1.14 0.12   91034458
AVGSCK    3.320 -1.000 S
AVGSCK    1.960  1.000 P
AVGSMY    3.020 -1.000 S
AVGSMY    1.700  1.000 P
AVGSSP    3.040 -0.500 S
AVGSSP    1.860  0.500 P
AVGSTR    3.560 -1.000 S
AVGSTR    1.780  1.000 P
# 2021 07 15 06 36 56.62  52.0615 -176.1095 -1.80 -0.29 0.55 1.07 0.27   91311366
AVGSCK    2.740 -1.000 S
AVGSCK    1.360  1.000 P
AVGSIG    4.740  0.500 S
AVGSIG    2.460  1.000 P
AVGSMY    1.920  1.000 S
AVGSMY    0.880  1.000 P
AVGSSP    2.240  0.500 S
AVGSSP    0.960  1.000 P
AVGSTR    2.180 -1.000 S
AVGSTR    0.880  1.000 P
# 2021 07 15 06 54 12.02  52.0657 -176.1285  5.96 -0.01 0.50 1.05 0.14   91034488
AVGSCK    2.880 -1.000 S
AVGSCK    1.540  1.000 P
AVGSIG    5.360  0.500 S
AVGSIG    3.080  0.500 P
AVGSMY    2.380 -1.000 S
AVGSMY    1.200  1.000 P
AVGSSP    2.300  0.500 S
AVGSSP    1.260  1.000 P
AVGSTR    2.800 -1.000 S
AVGSTR    1.400  1.000 P
# 2021 07 15 09 50 43.77  52.0747 -176.1073  6.31 0.31 0.55 0.95 0.14   91311531
AVGSCK    3.290 -1.000 S
AVGSCK    1.730  1.000 P
AVGSIG    5.270  1.000 S
AVGSIG    2.850  1.000 P
AVGSMY    2.290 -1.000 S
AVGSMY    1.230  1.000 P
AVGSSP    2.570  1.000 S
AVGSSP    1.310  1.000 P
AVGSTR    2.570 -1.000 S
AVGSTR    1.250  1.000 P
# 2021 07 15 11 12 3.64  52.0810 -176.1363  5.42 -0.45 0.59 1.56 0.16   91311591
AVGSCK    3.180 -1.000 S
AVGSCK    1.760  1.000 P
AVGSMY    2.520 -1.000 S
AVGSMY    1.420  1.000 P
AVGSSP    1.860 -1.000 S
AVGSSP    1.120  1.000 P
AVGSTR    2.720 -1.000 S
AVGSTR    1.320  1.000 P
# 2021 07 15 11 12 13.25  52.0772 -176.1455  7.43 -0.17 1.03 2.02 0.25   91034463
AVGSCK    3.410 -1.000 S
AVGSCK    1.970  0.500 P
AVGSMY    2.750 -1.000 S
AVGSMY    1.650  1.000 P
AVGSSP    2.210 -1.000 S
AVGSSP    1.350  1.000 P
AVGSTR    3.410 -1.000 S
AVGSTR    1.570  1.000 P
# 2021 07 15 11 21 51.11  52.0725 -176.1020  7.48 -0.32 0.61 1.13 0.12   91311621
AVGSCK    3.430 -1.000 S
AVGSCK    1.930  1.000 P
AVGSMY    2.490 -1.000 S
AVGSMY    1.490  1.000 P
AVGSSP    2.750 -1.000 S
AVGSSP    1.510  1.000 P
AVGSTR    2.790 -1.000 S
AVGSTR    1.450  1.000 P
# 2021 07 15 11 57 20.75  52.0640 -176.1115  7.36 -0.57 0.56 1.08 0.10   91034498
AVGSCK    3.190 -0.500 S
AVGSCK    1.810  1.000 P
AVGSMY    2.490 -1.000 S
AVGSMY    1.510  1.000 P
AVGSSP    2.770 -1.000 S
AVGSSP    1.430  1.000 P
AVGSTR    2.870 -1.000 S
AVGSTR    1.530  1.000 P
# 2021 07 15 14 43 40.88  52.0458 -176.0665  8.38 -0.38 0.87 0.60 0.04   91034518
AVGSCK    3.400 -1.000 S
AVGSCK    1.960  1.000 P
AVGSMY    2.520 -0.500 S
AVGSMY    1.460 -1.000 P
AVGSSP    2.020 -1.000 P
AVGSTR    3.080 -1.000 S
AVGSTR    1.680  1.000 P
# 2021 07 15 14 48 34.60  52.0633 -176.0863  7.54 0.05 0.62 1.09 0.11   91311746
AVGSCK    3.420 -1.000 S
AVGSCK    1.900  1.000 P
AVGSMY    2.340 -1.000 S
AVGSMY    1.360  1.000 P
AVGSSP    2.980 -1.000 S
AVGSSP    1.660  1.000 P
AVGSTR    2.820 -1.000 S
AVGSTR    1.500  1.000 P
# 2021 07 15 16 00 42.65  52.0680 -175.9877  4.72 -0.44 0.84 0.89 0.10   91034523
AVGSCK    4.490 -1.000 S
AVGSCK    2.510  1.000 P
AVGSMY    2.370 -1.000 S
AVGSMY    1.210  1.000 P
AVGSSP    4.190 -1.000 S
AVGSSP    2.610  1.000 P
AVGSTR    2.470 -1.000 S
AVGSTR    1.250  1.000 P
# 2021 07 15 16 32 15.73  52.0622 -175.9868  3.68 -0.42 0.89 1.13 0.11   91034528
AVGSCK    4.410 -1.000 S
AVGSCK    2.510  0.500 P
AVGSMY    1.990 -0.500 S
AVGSMY    1.150  1.000 P
AVGSSP    4.110 -0.500 S
AVGSSP    2.550  0.500 P
AVGSTR    2.430 -1.000 S
AVGSTR    1.190  1.000 P
# 2021 07 16 07 57 30.47  52.0860 -176.1557  6.10 -0.26 0.57 1.20 0.13   91034583
AVGSCK    3.310 -1.000 S
AVGSCK    1.850  1.000 P
AVGSMY    2.990 -1.000 S
AVGSMY    1.610  1.000 P
AVGSSP    1.870 -1.000 S
AVGSSP    1.150  1.000 P
AVGSTR    3.030 -1.000 S
AVGSTR    1.570  1.000 P
# 2021 07 16 10 51 10.49  52.0855 -176.1032  6.46 -0.41 0.51 1.05 0.10   91034593
AVGSCK    3.570 -1.000 S
AVGSCK    1.930  1.000 P
AVGSMY    2.510 -1.000 S
AVGSMY    1.450  1.000 P
AVGSSP    2.450 -1.000 S
AVGSSP    1.390  1.000 P
AVGSTR    2.410 -1.000 S
AVGSTR    1.310  1.000 P
# 2021 07 16 12 54 13.81  52.0717 -176.0997  7.88 -0.48 0.75 1.25 0.09   91034598
AVGSCK    3.450 -1.000 S
AVGSCK    1.950  1.000 P
AVGSMY    2.630 -1.000 S
AVGSMY    1.550  1.000 P
AVGSSP    1.510 -1.000 P
AVGSTR    2.830 -0.500 S
AVGSTR    1.570  1.000 P
# 2021 07 16 15 34 14.83  52.0580 -176.0887  7.06 -0.64 0.72 1.31 0.15   91034603
AVGSCK    3.250 -1.000 S
AVGSCK    1.750  1.000 P
AVGSMY    2.210 -1.000 S
AVGSMY    1.210  1.000 P
AVGSSP    2.730 -0.500 S
AVGSSP    1.730  1.000 P
AVGSTR    2.830 -1.000 S
AVGSTR    1.450  1.000 P
# 2021 07 17 11 28 24.38  52.0922 -176.0985 19.25 0.31 3.13 2.38 0.30   91313516
AVETKA   10.460 -0.500 S
AVGSCK    6.260 -0.500 S
AVGSCK    2.960  0.500 P
AVGSIG    7.080 -0.500 S
AVGSIG    3.780  0.200 P
AVGSMY    5.340 -0.500 S
AVGSMY    3.660  0.500 P
AVETKA    0.000  0.000 P
# 2021 07 17 15 25 0.39  52.0750 -176.1198  5.44 0.90 0.72 1.40 0.16   91313581
AVGSCK    3.070 -1.000 S
AVGSCK    1.610  1.000 P
AVGSIG    5.530 -0.500 S
AVGSMY    2.290 -1.000 S
AVGSMY    1.190  1.000 P
AVGSSP    1.230  0.500 P
AVGSTR    2.490 -1.000 S
AVGSTR    1.170  1.000 P
AVGSIG    0.000  0.000 P
# 2021 07 17 15 45 52.85  52.0813 -176.1192  5.10 0.65 0.75 0.79 0.18   91313596
AVGSCK    3.350 -1.000 S
AVGSCK    1.610  1.000 P
AVGSIG    5.490 -1.000 S
AVGSMY    2.290 -1.000 S
AVGSMY    1.210  1.000 P
AVGSSP    1.990 -0.500 S
AVGSTR    2.410 -1.000 S
AVGSTR    1.190  1.000 P
AVGSSP    0.000  0.000 P
AVGSIG    0.000  0.000 P
# 2021 07 17 17 11 0.73  52.0697 -176.1130  4.59 0.29 0.77 1.61 0.19   91313611
AVGSCK    2.950 -1.000 S
AVGSCK    1.430  1.000 P
AVGSIG    5.330 -0.500 S
AVGSMY    1.990 -1.000 S
AVGSMY    0.970  1.000 P
AVGSSP    1.070 -0.500 P
AVGSTR    2.290 -1.000 S
AVGSTR    0.000  0.000 P
AVGSIG    0.000  0.000 P
# 2021 07 18 04 10 0.19  52.0450 -176.0993  5.48 0.24 1.00 1.91 0.33   91313911
AVGSCK    2.770 -1.000 S
AVGSCK    1.350  1.000 P
AVGSIG    4.890 -1.000 S
AVGSIG    2.330  1.000 P
AVGSMY    1.730 -1.000 S
AVGSMY    0.810  1.000 P
AVGSTR    3.090 -1.000 S
AVGSTR    1.110  1.000 P
# 2021 07 18 09 35 49.54  52.0728 -176.1165  3.79 -0.03 0.64 1.23 0.11   91314076
AVGSCK    2.820 -1.000 S
AVGSCK    1.420  1.000 P
AVGSIG    5.340 -0.500 S
AVGSMY    2.000 -1.000 S
AVGSMY    1.020  1.000 P
AVGSTR    1.980 -1.000 S
AVGSTR    1.120  1.000 P
AVGSIG    0.000  0.000 P
# 2021 07 18 10 34 27.26  52.0048 -176.1292 12.71 -0.50 0.58 0.78 0.04   91314141
AVGSCK    3.760 -1.000 S
AVGSCK    2.120 -1.000 P
AVGSIG    5.360 -1.000 S
AVGSIG    3.080 -1.000 P
AVGSMY    2.040  0.500 P
AVGSTR    4.880 -1.000 S
AVGSTR    2.620  0.500 P
