# 2021 08 02 11 31 52.24  52.0885 -176.1387  3.51 0.47 0.47 1.13 0.11   91037098
AVGSCK    3.040 -1.000 S
AVGSCK    1.540  1.000 P
AVGSIG    5.940  1.000 S
AVGSMY    2.680  1.000 S
AVGSMY    1.340  1.000 P
AVGSSP    1.500 -1.000 S
AVGSSP    0.840  1.000 P
AVGSTR    1.940 -1.000 S
AVGSTR    1.340  1.000 P
AVGSIG    0.000  0.000 P
# 2021 08 02 12 11 15.26  52.0907 -176.1335  4.64 0.73 0.54 1.01 0.15   91328031
AVGSCK    3.120 -1.000 S
AVGSCK    1.680  1.000 P
AVGSIG    6.080  1.000 S
AVGSIG    3.160  1.000 P
AVGSMY    2.820  1.000 S
AVGSMY    1.440  1.000 P
AVGSSP    1.960 -1.000 S
AVGSSP    0.960  1.000 P
AVGSTR    2.000 -1.000 S
AVGSTR    1.400  1.000 P
# 2021 08 02 13 00 42.08  52.0152 -176.0763  4.44 -0.50 1.06 2.34 0.32   91037168
AVGSCK    2.720 -1.000 S
AVGSCK    1.020  1.000 P
AVGSIG    3.940 -1.000 S
AVGSIG    1.820  0.500 P
AVGSMY    1.700 -1.000 S
AVGSMY    0.540  1.000 P
AVGSTR    3.520 -0.500 S
AVGSTR    1.960  0.500 P
# 2021 08 02 23 47 9.22  52.0872 -176.0460  3.26 0.06 0.52 0.65 0.14   91037188
AVGSCK    3.920  1.000 S
AVGSCK    2.040  1.000 P
AVGSIG    4.560 -1.000 S
AVGSIG    2.820  0.500 P
AVGSMY    1.900 -1.000 S
AVGSMY    0.860  1.000 P
AVGSSP    3.140  1.000 S
AVGSSP    1.620  1.000 P
AVGSTR    1.380 -1.000 S
AVGSTR    0.580  1.000 P
# 2021 08 03 06 18 25.45  52.0527 -176.0823  7.52 -0.31 0.62 0.99 0.13   91328711
AVGSCK    3.310 -1.000 S
AVGSCK    1.670  1.000 P
AVGSIG    4.590 -1.000 S
AVGSIG    2.470  0.500 P
AVGSMY    2.330 -1.000 S
AVGSMY    1.170  1.000 P
AVGSTR    2.870 -0.500 S
AVGSTR    1.730  0.500 P
# 2021 08 03 12 53 4.97  52.0308 -176.0837  8.30 -0.06 0.97 1.43 0.22   91328896
AVGSCK    3.310 -1.000 S
AVGSCK    1.670  1.000 P
AVGSIG    4.550 -1.000 S
AVGSIG    2.290  1.000 P
AVGSMY    2.310 -1.000 S
AVGSMY    1.150  1.000 P
AVGSSP    2.030  1.000 P
AVGSTR    3.610 -1.000 S
AVGSTR    1.930  1.000 P
# 2021 08 03 16 43 43.18  52.1192 -176.0160  4.94 -0.02 0.94 0.83 0.15   91037228
AVGSCK    5.120 -1.000 S
AVGSCK    2.880  1.000 P
AVGSIG    5.400 -1.000 S
AVGSIG    2.820  1.000 P
AVGSMY    3.000  1.000 S
AVGSMY    1.640  1.000 P
AVGSSP    2.320 -1.000 P
AVGSTR    2.300 -1.000 S
AVGSTR    1.040  1.000 P
# 2021 08 03 17 26 36.45  52.0525 -176.0422  2.30 -0.33 0.81 1.28 0.31   91037233
AVGSCK    3.470 -1.000 S
AVGSCK    1.610  1.000 P
AVGSIG    3.590 -1.000 S
AVGSIG    2.230  0.500 P
AVGSMY    0.970 -1.000 S
AVGSMY    0.230  1.000 P
AVGSSP    3.190  0.500 S
AVGSSP    1.650  0.500 P
AVGSTR    2.230 -1.000 S
AVGSTR    0.510  1.000 P
# 2021 08 03 19 23 45.08  52.0867 -176.0422  4.89 -0.26 0.62 0.95 0.17   91037238
AVGSCK    4.100 -1.000 S
AVGSCK    2.180  1.000 P
AVGSIG    4.720 -1.000 S
AVGSMY    2.080 -1.000 S
AVGSMY    1.040  1.000 P
AVGSSP    3.320  1.000 S
AVGSSP    1.900  0.500 P
AVGSTR    1.940 -1.000 S
AVGSTR    0.780  1.000 P
AVGSIG    0.000  0.000 P
# 2021 08 03 19 36 23.55  52.0850 -176.0522  3.58 -0.33 0.70 0.95 0.20   91037243
AVGSCK    3.910 -1.000 S
AVGSCK    2.010  1.000 P
AVGSIG    4.850 -0.500 S
AVGSIG    2.590  0.500 P
AVGSMY    1.750 -1.000 S
AVGSMY    0.810  1.000 P
AVGSSP    1.650 -1.000 P
AVGSTR    1.570 -1.000 S
AVGSTR    0.550  1.000 P
# 2021 08 04 09 53 24.64  52.0602 -176.0953  9.23 -0.18 0.93 1.35 0.21   91329846
AVGSCK    3.700 -1.000 S
AVGSCK    2.080  1.000 P
AVGSIG    4.880 -1.000 S
AVGSIG    2.720  1.000 P
AVGSMY    2.760 -1.000 S
AVGSMY    1.500  1.000 P
AVGSSP    2.980  1.000 S
AVGSSP    2.060  0.500 P
AVGSTR    3.460 -1.000 S
AVGSTR    1.800  1.000 P
# 2021 08 04 09 53 24.84  52.0547 -176.0817  8.74 -0.07 0.57 0.83 0.15   91037308
AVETKA    5.280 -1.000 P
AVGSCK    3.500 -1.000 S
AVGSCK    1.900  1.000 P
AVGSIG    4.800 -1.000 S
AVGSIG    2.520  1.000 P
AVGSMY    2.560  1.000 S
AVGSMY    1.300  1.000 P
AVGSSP    1.860  0.500 P
AVGSTR    3.280 -1.000 S
AVGSTR    1.600  1.000 P
# 2021 08 04 11 19 1.57  52.0575 -176.0822  9.97 -0.52 0.57 0.82 0.08   91037313
AVGSCK    3.730 -1.000 S
AVGSCK    2.070  1.000 P
AVGSIG    4.870 -1.000 S
AVGSIG    2.670  1.000 P
AVGSMY    3.090 -1.000 S
AVGSMY    1.570  1.000 P
AVGSTR    3.190 -1.000 S
AVGSTR    1.990  1.000 P
# 2021 08 04 12 05 52.44  52.0377 -176.0770  8.60 0.00 0.65 1.06 0.18   91329936
AVETKA    5.080 -1.000 P
AVGSCK    3.400 -1.000 S
AVGSCK    1.780  1.000 P
AVGSIG    4.500 -1.000 S
AVGSIG    2.360  1.000 P
AVGSMY    2.420  1.000 S
AVGSMY    1.260  1.000 P
AVGSTR    3.560 -1.000 S
AVGSTR    1.660  1.000 P
# 2021 08 04 12 20 23.63  52.0668 -176.0563  6.57 -0.51 0.60 0.96 0.14   91037318
AVGSCK    3.670 -1.000 S
AVGSCK    1.930  1.000 P
AVGSIG    4.390 -1.000 S
AVGSIG    2.430  0.500 P
AVGSMY    2.170 -1.000 S
AVGSMY    1.030  1.000 P
AVGSTR    2.550  0.500 S
AVGSTR    1.270 -1.000 P
# 2021 08 04 13 18 37.94  52.0335 -176.0803  8.36 -0.09 0.71 1.12 0.23   91330051
AVETKA    5.020 -1.000 P
AVGSCK    3.280 -1.000 S
AVGSCK    1.720  1.000 P
AVGSIG    4.520 -1.000 S
AVGSIG    2.300  1.000 P
AVGSMY    2.340  1.000 S
AVGSMY    1.200  1.000 P
AVGSTR    3.680 -1.000 S
AVGSTR    1.600  1.000 P
AVKICM   12.120  0.500 P
# 2021 08 04 13 46 37.85  52.0977 -176.1717  4.10 0.06 0.82 1.08 0.20   91330056
AVGSCK    3.310 -0.500 S
AVGSCK    1.610  0.500 P
AVGSIG    6.850  0.500 S
AVGSIG    4.030  0.500 P
AVGSMY    3.230  0.500 S
AVGSMY    1.570  0.500 P
AVGSSP    1.610 -0.500 S
AVGSSP    0.810  0.500 P
AVGSTR    2.770 -1.000 S
AVGSTR    1.410  1.000 P
# 2021 08 04 14 53 46.11  52.0715 -176.0550  6.56 -0.53 0.56 0.89 0.12   91037333
AVGSCK    3.750 -1.000 S
AVGSCK    1.970  1.000 P
AVGSIG    4.470 -1.000 S
AVGSIG    2.410  0.500 P
AVGSMY    2.230 -1.000 S
AVGSMY    1.070  1.000 P
AVGSTR    2.410  0.500 S
AVGSTR    1.290 -1.000 P
# 2021 08 04 17 12 2.07  52.0423 -176.0797  9.38 -0.35 0.88 1.36 0.18   91330191
AVGSCK    3.570 -1.000 S
AVGSCK    1.950  1.000 P
AVGSIG    4.730 -1.000 S
AVGSIG    2.470  1.000 P
AVGSMY    2.570 -1.000 S
AVGSMY    1.410  1.000 P
AVGSTR    3.590 -1.000 S
AVGSTR    1.810  1.000 P
# 2021 08 04 18 39 36.24  52.0088 -176.0815  3.22 -0.68 0.83 2.37 0.28   91037343
AVGSCK    2.400 -1.000 S
AVGSCK    0.700  1.000 P
AVGSIG    3.480 -1.000 S
AVGSIG    2.360  1.000 P
AVGSMY    1.560 -1.000 S
AVGSMY    0.920  0.500 P
AVGSTR    3.380 -1.000 S
AVGSTR    1.480  0.500 P
# 2021 08 04 20 41 45.19  52.0110 -176.0787  6.18 -0.71 1.10 2.21 0.29   91037358
AVGSCK    2.950 -1.000 S
AVGSCK    1.310  1.000 P
AVGSIG    4.090 -1.000 S
AVGSIG    1.970  1.000 P
AVGSMY    1.930 -1.000 S
AVGSMY    1.070  0.500 P
AVGSTR    3.850 -1.000 S
AVGSTR    1.650  1.000 P
# 2021 08 04 20 43 32.12  52.0388 -176.0782  8.13 -0.75 0.79 1.36 0.18   91037363
AVGSCK    3.360 -1.000 S
AVGSCK    1.700  1.000 P
AVGSIG    4.480 -1.000 S
AVGSIG    2.340  1.000 P
AVGSMY    2.320 -1.000 S
AVGSMY    1.180  1.000 P
AVGSTR    3.340 -1.000 S
AVGSTR    1.780  0.500 P
# 2021 08 04 20 48 54.28  52.0230 -176.0707  5.36 -0.95 0.91 1.75 0.26   91037368
AVGSCK    2.880 -1.000 S
AVGSCK    1.200  1.000 P
AVGSIG    3.980 -1.000 S
AVGSIG    1.780  1.000 P
AVGSMY    1.820 -1.000 S
AVGSMY    0.940  1.000 P
AVGSTR    2.920 -0.500 S
AVGSTR    2.200  0.500 P
# 2021 08 04 21 01 55.89  52.0255 -176.0807  3.47 -0.90 0.94 1.96 0.32   91037378
AVGSCK    2.490 -1.000 S
AVGSCK    0.810  1.000 P
AVGSIG    3.630 -1.000 S
AVGSIG    2.430  1.000 P
AVGSMY    1.610 -1.000 S
AVGSMY    0.330  1.000 P
AVGSTR    2.490  0.500 S
AVGSTR    1.830  1.000 P
# 2021 08 05 06 38 56.62  52.0407 -176.0810  6.91 -0.41 0.72 1.18 0.17   91037428
AVGSCK    3.120 -1.000 S
AVGSCK    1.480  1.000 P
AVGSIG    4.380 -1.000 S
AVGSIG    2.280  1.000 P
AVGSMY    2.140 -1.000 S
AVGSMY    0.980  1.000 P
AVGSTR    2.980  0.500 S
AVGSTR    1.740  1.000 P
# 2021 08 05 07 50 10.53  52.0558 -176.0318  2.69 0.54 0.70 1.20 0.23   91330741
AVGSCK    3.610  1.000 S
AVGSCK    1.770  1.000 P
AVGSIG    3.730 -1.000 S
AVGSIG    1.830  1.000 P
AVGSMY    1.150 -1.000 S
AVGSMY    0.410  1.000 P
AVGSSP    3.550  1.000 S
AVGSSP    1.830  0.500 P
AVGSTR    2.110 -1.000 S
AVGSTR    0.670  1.000 P
# 2021 08 05 11 17 12.11  52.1085 -176.2147  9.10 -0.06 1.52 0.98 0.27   91037453
AVGSCK    4.550 -0.500 S
AVGSCK    2.290  0.500 P
AVGSIG    7.630  0.500 S
AVGSIG    4.650  0.500 P
AVGSMY    4.230  1.000 S
AVGSMY    2.330  1.000 P
AVGSSP    2.930 -1.000 S
AVGSSP    1.710  0.500 P
AVGSTR    4.390 -1.000 S
AVGSTR    2.210  1.000 P
# 2021 08 05 13 49 36.00  52.0568 -176.0333  2.00 -0.14 0.55 1.22 0.17   91037418
AVGSCK    3.520 -1.000 S
AVGSCK    1.760  1.000 P
AVGSIG    3.680 -1.000 S
AVGSIG    1.880  1.000 P
AVGSMY    1.100 -1.000 S
AVGSMY    0.380  1.000 P
AVGSTR    1.860 -1.000 S
AVGSTR    0.700  1.000 P
# 2021 08 05 13 49 50.97  52.1100 -175.9873  5.00 0.42 1.21 0.77 0.19   91330981
AVGSCK    5.270 -1.000 S
AVGSCK    2.870  1.000 P
AVGSIG    4.970 -1.000 S
AVGSIG    2.530  1.000 P
AVGSMY    2.870 -1.000 S
AVGSMY    1.870  1.000 P
AVGSSP    4.490  1.000 S
AVGSSP    2.450  1.000 P
AVGSTR    2.550  1.000 S
AVGSTR    0.970  0.500 P
# 2021 08 05 14 40 54.18  52.0867 -176.0235  4.22 1.28 0.40 0.49 0.05   91331031
AVGSCK    4.260 -1.000 S
AVGSCK    2.320  1.000 P
AVGSIG    4.780  1.000 S
AVGSIG    2.420 -1.000 P
AVGSMY    2.160 -1.000 S
AVGSMY    1.200  1.000 P
AVGSSP    3.480  1.000 S
AVGSSP    2.000  1.000 P
AVGSTR    1.740 -1.000 S
AVGSTR    0.920  1.000 P
# 2021 08 05 15 42 52.26  52.1022 -176.0855 18.08 -0.39 3.06 2.18 0.32   91037488
AVGSCK    5.560 -0.500 S
AVGSCK    3.360  1.000 P
AVGSMY    5.660 -1.000 S
AVGSMY    3.180  1.000 P
AVGSSP    5.740 -1.000 S
AVGSSP    2.580  1.000 P
AVGSTR    4.700 -1.000 S
AVGSTR    3.160  1.000 P
# 2021 08 05 17 36 27.13  52.0247 -176.0833  6.24 -0.53 0.89 1.39 0.20   91331171
AVGSCK    1.510 -1.000 P
AVGSIG    4.170 -1.000 S
AVGSIG    2.130  1.000 P
AVGSMY    2.170 -1.000 S
AVGSMY    0.990  1.000 P
AVGSSP    2.410  0.500 P
AVGSTR    3.250 -1.000 S
AVGSTR    1.450  1.000 P
# 2021 08 05 22 17 28.37  51.9028 -176.0488  7.68 0.10 0.78 1.58 0.08   91331451
AVGSCK    4.750 -1.000 S
AVGSCK    2.870  0.500 P
AVGSIG    4.310 -1.000 S
AVGSMY    5.150  1.000 S
AVGSMY    2.490  1.000 P
AVGSSP    3.870  0.500 P
AVGSTR    6.610 -0.500 S
AVGSIG    0.000  0.000 P
AVGSTR    0.000  0.000 P
# 2021 08 06 01 58 56.06  52.0682 -176.0730 17.96 -0.35 1.01 0.70 0.07   91331581
AVGSCK    5.640 -0.500 S
AVGSCK    3.160 -1.000 P
AVGSMY    5.000  0.500 S
AVGSMY    2.880  0.500 P
AVGSSP    5.440 -1.000 S
AVGSSP    2.880  0.500 P
AVGSTR    5.160 -1.000 S
AVGSTR    3.000  0.500 P
# 2021 08 06 08 27 58.72  52.1037 -176.0020 -1.78 -0.06 1.10 0.98 0.10   91331851
AVGSCK    5.200  1.000 S
AVGSCK    2.780  1.000 P
AVGSIG    4.800 -1.000 S
AVGSIG    2.760  0.500 P
AVGSMY    2.780  1.000 S
AVGSMY    1.400  1.000 P
AVGSSP    2.440  1.000 P
AVGSTR    1.420 -0.500 S
AVGSTR    0.880  1.000 P
# 2021 08 06 10 57 44.99  52.0570 -176.0567  8.78 -0.27 0.62 0.88 0.16   91037573
AVETKA    5.470  0.500 P
AVGSCK    3.850 -1.000 S
AVGSCK    2.090  1.000 P
AVGSIG    4.550 -1.000 S
AVGSIG    2.390  1.000 P
AVGSMY    2.490  1.000 S
AVGSMY    1.310  1.000 P
AVGSSP    2.090  1.000 P
AVGSTR    3.230 -1.000 S
AVGSTR    1.570  1.000 P
# 2021 08 07 04 02 46.29  52.0627 -176.0295  2.79 0.76 0.60 1.02 0.17   91332691
AVGSCK    3.690  1.000 S
AVGSCK    1.870  1.000 P
AVGSIG    3.850 -1.000 S
AVGSIG    1.930  1.000 P
AVGSMY    1.310 -1.000 S
AVGSMY    0.530  1.000 P
AVGSSP    3.610  1.000 S
AVGSSP    1.830  1.000 P
AVGSTR    1.830 -1.000 S
AVGSTR    0.730  1.000 P
# 2021 08 07 06 20 28.16  52.0602 -176.0293  0.86 -0.21 0.62 2.00 0.19   91037673
AVGSCK    3.480 -1.000 S
AVGSCK    1.740  1.000 P
AVGSIG    3.780 -0.500 S
AVGSMY    1.080 -1.000 S
AVGSMY    0.340  1.000 P
AVGSSP    3.780  0.500 S
AVGSTR    1.540 -1.000 S
AVGSTR    0.620  1.000 P
AVGSSP    0.000  0.000 P
AVGSIG    0.000  0.000 P
# 2021 08 07 16 13 17.55  52.0613 -176.0318  2.56 1.18 0.36 0.55 0.14   91333131
AVETKA   10.370  1.000 S
AVETKA    5.650  1.000 P
AVGSCK    3.670  1.000 S
AVGSCK    1.890  1.000 P
AVGSIG    3.830 -1.000 S
AVGSIG    1.930  1.000 P
AVGSMY    1.210 -1.000 S
AVGSMY    0.490  1.000 P
AVGSSP    3.490  1.000 S
AVGSSP    1.870  1.000 P
AVGSTR    1.790  1.000 S
AVGSTR    0.790  1.000 P
# 2021 08 07 17 58 5.71  52.0548 -176.0377  1.21 -0.06 0.69 1.48 0.25   91037688
AVGSCK    3.470 -1.000 S
AVGSCK    1.610  1.000 P
AVGSIG    3.670 -1.000 S
AVGSMY    0.850 -1.000 S
AVGSMY    0.190  1.000 P
AVGSSP    3.450  0.500 S
AVGSTR    1.890 -1.000 S
AVGSTR    0.490  1.000 P
AVGSSP    0.000  0.000 P
AVGSIG    0.000  0.000 P
# 2021 08 07 18 07 1.10  52.0370 -175.9725 -0.64 -0.15 0.75 3.12 0.10   91037693
AVGSCK    4.220  0.500 S
AVGSCK    2.540  0.500 P
AVGSMY    1.840 -1.000 S
AVGSMY    1.140  1.000 P
AVGSSP    5.020 -0.500 S
AVGSTR    2.860 -0.500 S
AVGSTR    1.440 -1.000 P
AVGSSP    0.000  0.000 P
# 2021 08 07 18 44 16.44  52.0597 -176.0345  2.11 0.55 0.51 1.02 0.17   91333191
AVGSCK    3.600 -1.000 S
AVGSCK    1.760  1.000 P
AVGSIG    3.740 -1.000 S
AVGSIG    1.920  0.500 P
AVGSMY    1.100 -1.000 S
AVGSMY    0.400  1.000 P
AVGSSP    3.380  0.500 S
AVGSSP    1.820  0.500 P
AVGSTR    1.780 -1.000 S
AVGSTR    0.700  1.000 P
# 2021 08 07 19 33 8.77  52.0617 -176.0423  1.16 -0.04 0.63 1.57 0.22   91333216
AVGSCK    3.490 -1.000 S
AVGSCK    1.610  1.000 P
AVGSIG    3.870 -1.000 S
AVGSMY    0.970 -1.000 S
AVGSMY    0.230  1.000 P
AVGSTR    1.550 -1.000 S
AVGSTR    0.510  1.000 P
AVGSIG    0.000  0.000 P
# 2021 08 08 09 22 1.02  52.0877 -176.0392  4.39 0.27 0.50 0.68 0.13   91333496
AVGSCK    4.080 -1.000 S
AVGSCK    2.160  1.000 P
AVGSIG    4.640 -1.000 S
AVGSIG    2.580  0.500 P
AVGSMY    2.080 -1.000 S
AVGSMY    1.020  1.000 P
AVGSSP    3.380  1.000 S
AVGSSP    1.800  1.000 P
AVGSTR    1.770 -1.000 S
AVGSTR    0.760  1.000 P
