# 2021 07 24 06 01 50.33  52.0765 -176.1112  6.77 0.91 0.56 0.94 0.14   91317541
AVGSCK    3.370 -1.000 S
AVGSCK    1.770  1.000 P
AVGSIG    5.370  1.000 S
AVGSIG    2.950  1.000 P
AVGSMY    2.430 -1.000 S
AVGSMY    1.290  1.000 P
AVGSSP    2.630  0.500 S
AVGSSP    1.370  1.000 P
AVGSTR    2.650 -1.000 S
AVGSTR    1.330  1.000 P
# 2021 07 24 06 06 27.31  52.0773 -176.1115  6.86 0.55 0.54 0.90 0.13   91317546
AVGSCK    3.370 -1.000 S
AVGSCK    1.810  1.000 P
AVGSIG    5.510  0.500 S
AVGSIG    2.930  1.000 P
AVGSMY    2.490 -1.000 S
AVGSMY    1.350  1.000 P
AVGSSP    2.610 -1.000 S
AVGSSP    1.370  1.000 P
AVGSTR    2.650 -1.000 S
AVGSTR    1.350  1.000 P
# 2021 07 24 06 12 27.41  52.0675 -176.2195  5.94 -0.05 1.01 1.43 0.22   91317551
AVETKA    4.570 -1.000 P
AVGSCK    3.110 -1.000 S
AVGSCK    1.570  1.000 P
AVGSMY    3.650  1.000 S
AVGSMY    1.890  1.000 P
AVGSSP    2.210 -1.000 S
AVGSSP    1.110  1.000 P
AVGSTR    4.310  1.000 S
AVGSTR    2.270  1.000 P
# 2021 07 24 06 52 22.88  52.0830 -176.1468  5.65 0.02 0.71 1.35 0.15   91317576
AVGSCK    3.120 -1.000 S
AVGSCK    1.880  1.000 P
AVGSIG    5.760  0.500 S
AVGSMY    2.800 -1.000 S
AVGSMY    1.440  1.000 P
AVGSSP    1.820 -1.000 S
AVGSTR    2.840 -1.000 S
AVGSTR    1.440  1.000 P
AVGSSP    0.000  0.000 P
AVGSIG    0.000  0.000 P
# 2021 07 24 10 18 21.69  52.0503 -176.1962 -1.80 1.35 0.56 0.76 0.32   91317661
AVADAG    4.950  0.500 P
AVETKA    8.230  1.000 S
AVETKA    4.290  1.000 P
AVGSCK    2.730  1.000 S
AVGSCK    1.310  1.000 P
AVGSIG    6.010  1.000 S
AVGSIG    3.230  1.000 P
AVGSMY    3.450  1.000 S
AVGSMY    1.650  1.000 P
AVGSSP    1.910  1.000 S
AVGSSP    0.830  1.000 P
AVGSTR    4.050  1.000 S
AVGSTR    1.990  1.000 P
AVKICM   12.130  1.000 P
AVKIKV   20.950  1.000 S
AVKIKV   11.670  1.000 P
AVKIMD   22.850  1.000 S
AVKIMD   12.830  1.000 P
AVKINC   11.310  0.500 P
AVKIRH   19.210  1.000 S
AVKIRH   10.890  1.000 P
AVKIWB   20.670  1.000 S
AVKIWB   11.630  0.500 P
# 2021 07 24 10 21 13.33  52.0682 -176.2228  5.96 0.23 1.04 1.31 0.23   91317666
AVETKA    4.610 -1.000 P
AVGSCK    3.150 -1.000 S
AVGSCK    1.610  1.000 P
AVGSIG    3.550  0.500 P
AVGSMY    3.750  1.000 S
AVGSMY    1.950  1.000 P
AVGSSP    2.190 -1.000 S
AVGSSP    1.130  1.000 P
AVGSTR    4.410  1.000 S
AVGSTR    2.330  1.000 P
# 2021 07 24 19 06 0.88  52.0798 -176.2137  8.03 -0.23 0.52 0.63 0.04   91035563
AVGSCK    3.520 -1.000 S
AVGSCK    1.940  1.000 P
AVGSIG    3.860  0.500 P
AVGSMY    4.080  1.000 S
AVGSMY    2.300  1.000 P
AVGSSP    2.520 -1.000 S
AVGSSP    1.460  1.000 P
AVGSTR    4.040 -1.000 S
AVGSTR    2.680  1.000 P
# 2021 07 24 20 23 24.66  52.0807 -176.1208  5.19 -0.24 0.46 0.93 0.06   91035578
AVGSCK    3.140 -1.000 S
AVGSCK    1.680  1.000 P
AVGSMY    2.460 -1.000 S
AVGSMY    1.360  1.000 P
AVGSSP    2.040 -0.500 S
AVGSTR    2.240 -1.000 S
AVGSTR    1.300  1.000 P
AVGSSP    0.000  0.000 P
# 2021 07 24 20 36 14.60  52.0660 -176.1103  4.75 0.10 0.50 1.11 0.16   91317996
AVGSCK    2.760 -1.000 S
AVGSCK    1.380  1.000 P
AVGSIG    5.240  1.000 S
AVGSIG    2.820  0.500 P
AVGSMY    2.080 -1.000 S
AVGSMY    1.040  1.000 P
AVGSSP    2.560  1.000 S
AVGSSP    1.040  1.000 P
AVGSTR    2.140 -1.000 S
AVGSTR    1.220  1.000 P
# 2021 07 24 20 37 47.19  52.0640 -176.1258  5.72 -0.22 0.72 1.53 0.17   91318001
AVGSCK    2.830 -1.000 S
AVGSCK    1.490  1.000 P
AVGSIG    5.250 -0.500 S
AVGSMY    2.150 -1.000 S
AVGSMY    1.490  1.000 P
AVGSSP    1.150 -1.000 P
AVGSTR    2.790 -1.000 S
AVGSTR    1.330  1.000 P
AVGSIG    0.000  0.000 P
# 2021 07 24 22 00 20.65  52.0687 -176.2418  6.54 -0.01 1.38 1.73 0.22   91035598
AVGSCK    3.450 -1.000 S
AVGSCK    1.850  1.000 P
AVGSMY    3.990  1.000 S
AVGSMY    2.190  1.000 P
AVGSSP    2.410 -1.000 S
AVGSSP    1.390  1.000 P
AVGSTR    4.650  1.000 S
AVGSTR    2.590  1.000 P
# 2021 07 24 22 08 33.82  52.0945 -176.1185  8.34 -0.38 0.52 0.93 0.09   91318056
AVGSCK    3.800 -1.000 S
AVGSCK    2.260  1.000 P
AVGSIG    5.760  0.500 S
AVGSMY    1.720  1.000 P
AVGSSP    2.700 -1.000 S
AVGSSP    1.640  1.000 P
AVGSTR    2.940 -1.000 S
AVGSTR    1.520  1.000 P
AVGSIG    0.000  0.000 P
# 2021 07 24 22 58 7.37  52.0473 -176.0330  8.47 -0.37 2.18 0.76 0.11   91035603
AVGSCK    2.030 -1.000 P
AVGSMY    2.650 -1.000 S
AVGSMY    1.610 -1.000 P
AVGSSP    2.530  0.500 P
AVGSTR    3.050 -1.000 S
AVGSTR    1.630 -1.000 P
# 2021 07 24 23 10 21.44  52.0637 -176.0767  4.37 0.11 0.95 1.58 0.32   91035393
AVGSCK    3.180 -1.000 S
AVGSCK    1.260  1.000 P
AVGSIG    4.880 -1.000 S
AVGSIG    2.280  1.000 P
AVGSMY    1.600 -1.000 S
AVGSMY    0.700  1.000 P
AVGSSP    3.020  0.500 S
AVGSSP    1.800  1.000 P
AVGSTR    2.280  0.500 S
AVGSTR    0.640  1.000 P
# 2021 07 24 23 36 17.09  52.0787 -176.1233  4.86 -0.17 0.58 1.04 0.09   91035613
AVGSCK    3.050 -1.000 S
AVGSCK    1.610  1.000 P
AVGSIG    5.490 -1.000 S
AVGSMY    2.370 -1.000 S
AVGSMY    1.270  1.000 P
AVGSTR    2.310 -1.000 S
AVGSTR    1.170  1.000 P
AVGSIG    0.000  0.000 P
# 2021 07 24 23 36 21.83  52.0420 -176.1100 -1.80 -0.15 0.78 1.30 0.26   91035608
AVGSCK    2.170 -1.000 S
AVGSCK    0.730 -1.000 P
AVGSIG    4.950 -1.000 S
AVGSMY    1.490  1.000 S
AVGSMY    0.370  1.000 P
AVGSTR    2.630 -0.500 S
AVGSTR    1.450  0.500 P
AVGSIG    0.000  0.000 P
# 2021 07 25 00 35 0.60  52.0562 -175.9833  5.35 -0.14 1.09 1.73 0.23   91035623
AVGSCK    4.560 -1.000 S
AVGSCK    2.620  1.000 P
AVGSIG    3.420 -1.000 S
AVGSIG    1.680  1.000 P
AVGSMY    2.220 -1.000 S
AVGSMY    1.000  1.000 P
AVGSTR    3.080 -1.000 S
AVGSTR    1.340  1.000 P
# 2021 07 25 00 42 19.56  52.0557 -175.9825  4.68 -0.22 1.15 1.98 0.24   91318146
AVGSCK    4.560 -1.000 S
AVGSCK    2.540  1.000 P
AVGSIG    3.340 -1.000 S
AVGSIG    1.600  1.000 P
AVGSMY    2.040 -1.000 S
AVGSMY    0.960  1.000 P
AVGSTR    3.000 -1.000 S
AVGSTR    1.280  1.000 P
# 2021 07 25 12 08 17.69  52.0747 -176.1088  5.45 0.72 0.60 1.20 0.18   91318516
AVGSCK    3.150 -1.000 S
AVGSCK    1.590  1.000 P
AVGSIG    5.430  1.000 S
AVGSIG    2.730  1.000 P
AVGSMY    2.150 -1.000 S
AVGSMY    1.110  1.000 P
AVGSSP    2.410 -1.000 S
AVGSTR    2.370 -1.000 S
AVGSTR    1.090  1.000 P
AVGSSP    0.000  0.000 P
# 2021 07 25 12 28 15.90  52.0635 -176.1000 -1.80 0.29 0.80 1.36 0.31   91318546
AVGSCK    3.020 -1.000 S
AVGSCK    1.220  1.000 P
AVGSIG    5.020  1.000 S
AVGSIG    2.300  1.000 P
AVGSMY    1.760  1.000 S
AVGSMY    0.720  1.000 P
AVGSTR    2.000 -1.000 S
AVGSTR    0.720  1.000 P
# 2021 07 25 17 29 51.72  52.0697 -176.1060  3.41 0.67 0.69 1.52 0.23   91318661
AVGSCK    2.960 -1.000 S
AVGSCK    1.420  1.000 P
AVGSIG    5.140 -1.000 S
AVGSIG    2.660  1.000 P
AVGSMY    1.460 -1.000 S
AVGSMY    1.020  1.000 P
AVGSSP    0.920 -1.000 P
AVGSTR    2.180  0.500 S
AVGSTR    1.040  1.000 P
# 2021 07 25 19 10 11.14  52.0837 -176.1300  4.86 0.60 0.44 0.47 0.06   91318691
AVGSCK    3.100 -1.000 S
AVGSCK    1.660  1.000 P
AVGSIG    5.660 -1.000 S
AVGSIG    3.100  1.000 P
AVGSMY    2.580 -1.000 S
AVGSMY    1.380  1.000 P
AVGSSP    1.880 -1.000 S
AVGSSP    1.060  1.000 P
AVGSTR    1.340  1.000 P
# 2021 07 25 19 15 53.83  52.0763 -176.1063  5.80 0.32 0.61 1.41 0.18   91035618
AVGSCK    3.330 -1.000 S
AVGSCK    1.670  1.000 P
AVGSIG    5.250 -1.000 S
AVGSMY    2.170 -1.000 S
AVGSMY    1.210  1.000 P
AVGSSP    2.350  0.500 S
AVGSTR    2.470 -1.000 S
AVGSTR    1.130  1.000 P
AVGSSP    0.000  0.000 P
AVGSIG    0.000  0.000 P
# 2021 07 25 19 16 3.98  52.0725 -176.1065  5.27 0.57 0.54 1.04 0.16   91318701
AVGSCK    3.160 -1.000 S
AVGSCK    1.620  1.000 P
AVGSIG    5.240  1.000 S
AVGSIG    2.760  1.000 P
AVGSMY    2.000 -1.000 S
AVGSMY    1.160  1.000 P
AVGSSP    2.420  1.000 S
AVGSSP    1.180  1.000 P
AVGSTR    2.400 -1.000 S
AVGSTR    1.100  1.000 P
# 2021 07 25 19 17 57.94  52.0728 -176.1118  4.44 0.16 0.56 1.47 0.18   91318706
AVGSCK    2.980 -1.000 S
AVGSCK    1.460  1.000 P
AVGSIG    5.360 -1.000 S
AVGSMY    2.080 -1.000 S
AVGSMY    0.960  1.000 P
AVGSSP    2.220 -0.500 S
AVGSTR    2.220 -1.000 S
AVGSTR    0.940  1.000 P
AVGSSP    0.000  0.000 P
AVGSIG    0.000  0.000 P
# 2021 07 25 20 08 18.77  52.0768 -176.1127  6.60 0.38 0.45 0.75 0.09   91318796
AVGSCK    3.350  0.500 S
AVGSCK    1.830  1.000 P
AVGSIG    5.550  0.500 S
AVGSIG    2.990 -1.000 P
AVGSMY    2.530 -1.000 S
AVGSMY    1.390  1.000 P
AVGSSP    2.490 -1.000 S
AVGSSP    1.350  1.000 P
AVGSTR    2.590 -1.000 S
AVGSTR    1.350  1.000 P
# 2021 07 25 20 42 20.46  52.0770 -176.1078  5.21 1.21 0.40 0.72 0.11   91318846
AVADAG    6.760  0.500 P
AVETKA    5.360  1.000 P
AVGSCK    3.200 -1.000 S
AVGSCK    1.640  1.000 P
AVGSIG    5.220  1.000 S
AVGSIG    2.800  1.000 P
AVGSMY    2.260 -1.000 S
AVGSMY    1.160  1.000 P
AVGSSP    2.280  1.000 S
AVGSSP    1.220  1.000 P
AVGSTR    2.300 -1.000 S
AVGSTR    1.140  1.000 P
AVKIWB   13.580  0.500 P
# 2021 07 25 20 52 57.10  52.0708 -176.1225  6.93 -0.39 0.77 1.70 0.17   91035728
AVGSCK    3.220 -1.000 S
AVGSCK    1.760 -1.000 P
AVGSMY    2.500 -1.000 S
AVGSMY    1.400  1.000 P
AVGSSP    2.360 -1.000 S
AVGSTR    2.920 -1.000 S
AVGSTR    1.500  0.500 P
AVGSSP    0.000  0.000 P
# 2021 07 26 04 17 57.43  52.0632 -176.1020  5.69 0.30 0.41 0.75 0.14   91319056
AVETKA    5.230  1.000 P
AVGSCK    2.970 -1.000 S
AVGSCK    1.510  1.000 P
AVGSIG    4.930  1.000 S
AVGSIG    2.590  1.000 P
AVGSMY    2.090 -1.000 S
AVGSMY    1.010  1.000 P
AVGSSP    2.550  1.000 S
AVGSSP    1.370  0.500 P
AVGSTR    2.570  1.000 S
AVGSTR    1.190  1.000 P
# 2021 07 26 07 02 31.13  52.0655 -176.1195 -1.80 -0.55 0.49 1.18 0.22   91035783
AVGSCK    2.790 -1.000 S
AVGSCK    1.250  1.000 P
AVGSIG    5.210  1.000 S
AVGSMY    1.990  1.000 S
AVGSMY    0.850  1.000 P
AVGSSP    0.950 -1.000 P
AVGSTR    2.250 -1.000 S
AVGSTR    0.890  1.000 P
AVGSIG    0.000  0.000 P
# 2021 07 26 10 27 19.51  52.0667 -176.1112  5.47 -0.37 0.55 1.03 0.11   91319186
AVGSCK    2.930 -1.000 S
AVGSCK    1.570  1.000 P
AVGSIG    5.150 -0.500 S
AVGSMY    2.150 -1.000 S
AVGSMY    1.170  1.000 P
AVGSSP    1.230  0.500 P
AVGSTR    2.510  0.500 S
AVGSTR    1.310  1.000 P
AVGSIG    0.000  0.000 P
# 2021 07 26 13 19 48.85  52.0667 -176.2418  7.27 -0.09 1.35 1.38 0.22   91319291
AVGSCK    3.490 -1.000 S
AVGSCK    1.950  1.000 P
AVGSIG    3.870  1.000 P
AVGSMY    4.070  1.000 S
AVGSMY    2.310  1.000 P
AVGSSP    2.530 -1.000 S
AVGSSP    1.470  1.000 P
AVGSTR    4.770  1.000 S
AVGSTR    2.670  1.000 P
# 2021 07 26 14 39 38.52  52.0702 -176.0928  6.59 -0.70 0.61 0.96 0.13   91035823
AVGSCK    3.340 -1.000 S
AVGSCK    1.760  1.000 P
AVGSIG    2.940 -0.500 P
AVGSMY    2.260 -1.000 S
AVGSMY    1.260  1.000 P
AVGSSP    2.780  0.500 S
AVGSSP    1.420  0.500 P
AVGSTR    2.540 -1.000 S
AVGSTR    1.220  1.000 P
# 2021 07 26 14 48 21.13  52.0650 -176.2330  7.82 -0.18 1.25 1.39 0.24   91035828
AVGSCK    3.530 -1.000 S
AVGSCK    1.930  1.000 P
AVGSIG    6.770  0.500 S
AVGSIG    3.850  1.000 P
AVGSMY    3.990  1.000 S
AVGSMY    2.290  1.000 P
AVGSSP    2.530 -1.000 S
AVGSSP    1.470  1.000 P
AVGSTR    4.770  1.000 S
AVGSTR    2.650  1.000 P
# 2021 07 26 14 56 57.59  52.0653 -176.2468  7.96 -0.32 1.17 1.23 0.21   91319341
AVGSCK    3.590 -1.000 S
AVGSCK    2.050  1.000 P
AVGSIG    6.950 -1.000 S
AVGSIG    3.990  1.000 P
AVGSMY    2.450  1.000 P
AVGSSP    2.630 -1.000 S
AVGSSP    1.590  1.000 P
AVGSTR    4.890 -1.000 S
AVGSTR    2.850  0.500 P
# 2021 07 26 15 12 3.38  52.0627 -176.2292  6.17 -0.69 1.31 1.30 0.26   91035833
AVGSCK    3.280 -0.500 S
AVGSCK    1.700  1.000 P
AVGSIG    3.640  1.000 P
AVGSMY    3.780 -1.000 S
AVGSMY    2.100  1.000 P
AVGSSP    2.260 -1.000 S
AVGSSP    1.220  1.000 P
AVGSTR    4.540  0.500 S
AVGSTR    2.740  1.000 P
# 2021 07 27 00 42 52.93  52.0428 -176.1123 -1.80 -0.49 0.55 0.96 0.22   91319631
AVGSCK    2.150 -1.000 S
AVGSCK    1.010  1.000 P
AVGSIG    4.770  1.000 S
AVGSIG    2.310  1.000 P
AVGSMY    1.810  1.000 S
AVGSMY    0.810  1.000 P
AVGSSP    2.490 -1.000 S
AVGSSP    1.210  1.000 P
AVGSTR    1.330  1.000 P
# 2021 07 27 01 12 30.46  52.0563 -175.9830  5.01 -0.59 1.48 1.92 0.29   91035913
AVGSCK    4.780  0.500 S
AVGSCK    2.300  1.000 P
AVGSIG    3.580 -1.000 S
AVGSIG    1.600  1.000 P
AVGSMY    2.040 -1.000 S
AVGSMY    0.940  1.000 P
AVGSSP    4.800  1.000 S
AVGSSP    2.620  1.000 P
AVGSTR    3.000 -1.000 S
AVGSTR    1.260  1.000 P
# 2021 07 27 01 25 24.22  52.0818 -176.1265  6.58 -0.81 0.40 0.86 0.04   91035918
AVGSCK    3.260 -1.000 S
AVGSCK    1.800 -1.000 P
AVGSMY    2.840 -1.000 S
AVGSMY    1.540  1.000 P
AVGSSP    2.320 -1.000 S
AVGSTR    2.540  0.500 S
AVGSTR    1.500  1.000 P
AVGSSP    0.000  0.000 P
# 2021 07 27 03 25 23.36  52.0253 -176.1010 -1.75 -0.96 0.61 1.04 0.26   91035933
AVGSCK    1.960 -0.500 S
AVGSCK    0.800  1.000 P
AVGSIG    4.420 -1.000 S
AVGSIG    2.100  0.500 P
AVGSMY    1.400  0.500 S
AVGSMY    0.560  1.000 P
AVGSSP    2.780 -1.000 S
AVGSSP    2.200  1.000 P
AVGSTR    3.080  0.500 S
AVGSTR    1.540  0.500 P
# 2021 07 27 03 32 37.88  52.0178 -176.1193  1.04 -0.98 0.79 2.64 0.26   91035938
AVGSCK    0.700 -1.000 P
AVGSIG    4.440 -1.000 S
AVGSMY    1.740 -1.000 S
AVGSMY    0.480  1.000 P
AVGSSP    2.680 -1.000 S
AVGSSP    1.980  1.000 P
AVGSTR    3.280  1.000 S
AVGSTR    1.420  0.500 P
AVGSIG    0.000  0.000 P
# 2021 07 27 04 17 29.45  52.0213 -176.1040  3.72 -0.63 0.77 1.51 0.25   91035948
AVGSCK    2.030 -0.500 S
AVGSCK    0.890  1.000 P
AVGSIG    4.330 -1.000 S
AVGSIG    2.130  1.000 P
AVGSMY    1.890 -1.000 S
AVGSMY    0.630  1.000 P
AVGSSP    2.890  1.000 S
AVGSSP    2.170  1.000 P
AVGSTR    2.890  0.500 S
AVGSTR    1.910  0.500 P
# 2021 07 27 05 34 9.52  52.1085 -176.1800  9.72 -0.80 1.25 0.96 0.14   91035958
AVGSCK    4.300 -0.500 S
AVGSCK    2.220  0.500 P
AVGSMY    2.620  0.500 P
AVGSSP    2.880 -1.000 S
AVGSSP    1.800 -1.000 P
AVGSTR    3.840 -1.000 S
AVGSTR    1.880  0.500 P
# 2021 07 27 09 04 30.08  52.0520 -176.0542  7.96 -0.46 0.62 0.89 0.13   91320201
AVGSCK    3.720 -1.000 S
AVGSCK    1.940  1.000 P
AVGSIG    4.200  0.500 S
AVGSIG    2.440  1.000 P
AVGSMY    2.340 -1.000 S
AVGSMY    1.180  1.000 P
AVGSSP    1.980  1.000 P
AVGSTR    3.020 -1.000 S
AVGSTR    1.560  1.000 P
# 2021 07 27 09 35 5.61  52.0340 -176.0987  6.18 -0.86 1.04 1.69 0.30   91035963
AVGSCK    2.710 -1.000 S
AVGSCK    1.050  1.000 P
AVGSIG    4.710  0.500 S
AVGSIG    2.370  1.000 P
AVGSMY    2.270 -1.000 S
AVGSMY    0.830  1.000 P
AVGSSP    3.050  1.000 S
AVGSSP    2.350  1.000 P
AVGSTR    3.050  0.500 S
AVGSTR    1.410  1.000 P
# 2021 07 27 12 17 58.40  52.0463 -176.0722  8.19 -0.27 0.78 1.19 0.19   91320536
AVGSCK    3.500 -1.000 S
AVGSCK    1.840  1.000 P
AVGSIG    4.580  0.500 S
AVGSIG    2.420  1.000 P
AVGSMY    2.280 -1.000 S
AVGSMY    1.200  1.000 P
AVGSSP    3.520  1.000 S
AVGSSP    2.020  0.500 P
AVGSTR    3.300 -1.000 S
AVGSTR    1.540  1.000 P
# 2021 07 27 16 30 15.97  52.0745 -176.1322  7.52 -0.86 0.56 1.07 0.10   91035988
AVGSCK    3.250 -1.000 S
AVGSCK    1.870  1.000 P
AVGSMY    2.830 -1.000 S
AVGSMY    1.670  1.000 P
AVGSSP    2.570 -1.000 S
AVGSSP    1.270  1.000 P
AVGSTR    3.030  0.500 S
AVGSTR    1.670  1.000 P
# 2021 07 27 16 49 39.16  52.0912 -176.1572  7.60 -0.47 0.61 0.99 0.09   91320776
AVGSCK    3.520 -1.000 S
AVGSCK    2.080  1.000 P
AVGSMY    3.440 -1.000 S
AVGSMY    1.800  1.000 P
AVGSSP    2.260 -0.500 S
AVGSSP    1.340  1.000 P
AVGSTR    3.260  0.500 S
AVGSTR    1.740  1.000 P
# 2021 07 28 05 38 18.15  52.0740 -176.1175  8.04 0.02 0.71 1.07 0.14   91321556
AVGSCK    3.390 -1.000 S
AVGSCK    1.970  1.000 P
AVGSIG    5.490 -1.000 S
AVGSIG    2.950  0.500 P
AVGSMY    2.790 -1.000 S
AVGSMY    1.370  1.000 P
AVGSTR    2.970 -1.000 S
AVGSTR    1.570  1.000 P
# 2021 07 28 08 27 40.72  52.0665 -176.1165  6.01 0.66 0.55 1.04 0.15   91321626
AVGSCK    2.980 -1.000 S
AVGSCK    1.560  1.000 P
AVGSIG    5.220  1.000 S
AVGSIG    2.860  1.000 P
AVGSMY    2.180 -1.000 S
AVGSMY    1.180  1.000 P
AVGSSP    2.480  1.000 S
AVGSSP    1.240  1.000 P
AVGSTR    2.700 -1.000 S
AVGSTR    1.280  1.000 P
# 2021 07 28 21 35 9.26  52.0013 -176.0790  9.16 -0.76 0.92 1.17 0.16   91036088
AVGSCK    3.340 -1.000 S
AVGSCK    1.760  1.000 P
AVGSIG    2.540 -0.500 P
AVGSMY    2.920 -1.000 S
AVGSMY    1.800  1.000 P
AVGSSP    4.520  0.500 S
AVGSSP    2.460  0.500 P
AVGSTR    4.440  0.500 S
AVGSTR    2.080  1.000 P
# 2021 07 28 22 19 26.36  52.0617 -176.1155  2.43 -0.63 0.62 3.16 0.24   91321921
AVGSCK    2.480  0.500 S
AVGSCK    1.460  1.000 P
AVGSMY    1.340 -1.000 S
AVGSMY    1.000  1.000 P
AVGSSP    1.840 -1.000 S
AVGSSP    0.840  1.000 P
AVGSTR    2.240 -1.000 S
AVGSTR    0.860  1.000 P
