# 2021 07 31 00 55 7.16  52.0212 -176.0872  8.36 -0.47 1.27 2.10 0.29   91036743
AVGSCK    3.260 -1.000 S
AVGSCK    1.640  1.000 P
AVGSIG    4.580 -1.000 S
AVGSIG    2.280  1.000 P
AVGSMY    2.300 -1.000 S
AVGSMY    1.180  1.000 P
AVGSTR    3.960 -1.000 S
AVGSTR    1.920  1.000 P
# 2021 07 31 01 07 45.69  52.0870 -175.9823  8.28 -0.62 1.34 1.54 0.23   91036758
AVGSCK    5.150 -1.000 S
AVGSCK    2.750  1.000 P
AVGSIG    4.570 -0.500 S
AVGSMY    3.090  1.000 S
AVGSMY    1.570  0.500 P
AVGSSP    4.590  1.000 S
AVGSSP    3.070  0.500 P
AVGSTR    3.270 -1.000 S
AVGSTR    1.450  1.000 P
AVGSIG    0.000  0.000 P
# 2021 07 31 01 41 36.41  52.0430 -176.0828  6.47 -0.72 0.55 1.03 0.14   91036763
AVGSCK    3.050 -1.000 S
AVGSCK    1.370  1.000 P
AVGSIG    4.290 -1.000 S
AVGSIG    2.410  1.000 P
AVGSMY    2.010 -1.000 S
AVGSMY    1.050  1.000 P
AVGSTR    2.850 -1.000 S
AVGSTR    1.510  0.500 P
# 2021 07 31 01 49 11.84  52.0455 -176.0725  8.30 0.17 0.54 0.73 0.12   91325671
AVETKA    9.180  1.000 S
AVETKA    5.120  1.000 P
AVGSCK    3.420 -1.000 S
AVGSCK    1.780  1.000 P
AVGSIG    4.560  0.500 S
AVGSIG    2.400  1.000 P
AVGSMY    2.420  1.000 S
AVGSMY    1.260  1.000 P
AVGSSP    2.020  1.000 P
AVGSTR    3.240  1.000 S
AVGSTR    1.640  1.000 P
# 2021 07 31 01 57 38.66  52.0718 -176.1028 11.81 -0.56 2.20 1.45 0.26   91036768
AVGSCK    2.600 -1.000 P
AVGSIG    5.880 -0.500 S
AVGSIG    3.100 -1.000 P
AVGSMY    3.380 -1.000 S
AVGSMY    1.800  1.000 P
AVGSTR    3.980 -1.000 S
AVGSTR    1.860  1.000 P
# 2021 07 31 03 18 10.89  52.0838 -176.1007  4.99 0.13 0.64 0.40 0.15   91036708
AVGSCK    3.370 -0.500 S
AVGSIG    5.490 -1.000 S
AVGSIG    2.750  1.000 P
AVGSMY    2.210 -1.000 S
AVGSMY    1.190  1.000 P
AVGSSP    2.450  0.500 S
AVGSSP    1.250  1.000 P
AVGSTR    1.990  0.500 S
AVGSTR    1.130  1.000 P
AVGSCK    0.000  0.000 P
# 2021 07 31 03 18 17.51  52.0778 -176.1045  6.25 0.65 0.55 0.95 0.16   91325741
AVGSCK    3.370 -1.000 S
AVGSCK    1.850  1.000 P
AVGSIG    5.410  0.500 S
AVGSIG    2.850  1.000 P
AVGSMY    2.290 -1.000 S
AVGSMY    1.270  1.000 P
AVGSSP    2.570  0.500 S
AVGSSP    1.330  1.000 P
AVGSTR    2.530 -1.000 S
AVGSTR    1.210  1.000 P
# 2021 07 31 03 19 18.38  52.0777 -176.1040  6.53 0.63 0.55 0.92 0.14   91325746
AVGSCK    3.400 -1.000 S
AVGSCK    1.820  1.000 P
AVGSIG    5.280  1.000 S
AVGSIG    2.860  1.000 P
AVGSMY    2.320 -1.000 S
AVGSMY    1.300  1.000 P
AVGSSP    2.620  1.000 S
AVGSSP    1.360  1.000 P
AVGSTR    2.560 -1.000 S
AVGSTR    1.240  1.000 P
# 2021 07 31 03 24 0.73  52.0855 -176.0670  6.45 -0.36 0.58 1.02 0.11   91036773
AVGSCK    3.830 -1.000 S
AVGSCK    2.010  0.500 P
AVGSMY    2.470 -1.000 S
AVGSMY    1.450  1.000 P
AVGSSP    3.110 -1.000 S
AVGSSP    1.530  1.000 P
AVGSTR    2.030 -1.000 S
AVGSTR    1.390  1.000 P
# 2021 07 31 06 58 26.49  52.0698 -176.1192  8.96 -0.62 1.34 1.48 0.23   91036803
AVGSCK    2.110 -1.000 P
AVGSIG    5.490  0.500 S
AVGSIG    3.450  0.500 P
AVGSMY    2.910 -1.000 S
AVGSMY    1.430  1.000 P
AVGSSP    3.190 -1.000 S
AVGSSP    1.470  1.000 P
AVGSTR    3.310 -1.000 S
AVGSTR    1.570  1.000 P
# 2021 07 31 08 04 12.01  51.9998 -176.0973  9.03 -0.74 1.65 2.21 0.30   91036808
AVGSCK    3.290 -1.000 S
AVGSCK    1.630  1.000 P
AVGSIG    4.530 -1.000 S
AVGSIG    2.610  0.500 P
AVGSMY    2.950 -1.000 S
AVGSMY    1.170  1.000 P
AVGSTR    4.490  0.500 S
AVGSTR    2.570  1.000 P
# 2021 07 31 08 17 44.28  52.0508 -176.0807  9.19 -0.19 0.72 1.03 0.15   91325991
AVGSCK    3.560 -1.000 S
AVGSCK    1.940  1.000 P
AVGSIG    4.860 -1.000 S
AVGSIG    2.560  1.000 P
AVGSMY    2.620 -1.000 S
AVGSMY    1.360  1.000 P
AVGSSP    3.780  0.500 S
AVGSSP    2.060  0.500 P
AVGSTR    3.320 -1.000 S
AVGSTR    1.680  1.000 P
# 2021 07 31 08 18 51.08  52.0643 -176.0763  8.04 -0.18 0.49 0.66 0.11   91325996
AVETKA    5.280  1.000 P
AVGSCK    3.540 -1.000 S
AVGSCK    1.880  1.000 P
AVGSIG    4.800 -1.000 S
AVGSIG    2.480  1.000 P
AVGSMY    2.580 -1.000 S
AVGSMY    1.280  1.000 P
AVGSSP    2.000  1.000 P
AVGSTR    2.700  0.500 S
AVGSTR    1.560  1.000 P
# 2021 07 31 08 43 48.63  52.1113 -175.9653 11.72 -0.09 0.76 0.89 0.09   91036813
AVGSCK    5.990 -1.000 S
AVGSCK    3.510  1.000 P
AVGSIG    5.250 -1.000 S
AVGSIG    3.050  1.000 P
AVGSMY    4.570  0.500 S
AVGSMY    2.310  1.000 P
AVGSSP    5.370  1.000 S
AVGSTR    4.030 -1.000 S
AVGSTR    2.230  1.000 P
AVGSSP    0.000  0.000 P
# 2021 07 31 08 47 45.51  52.0540 -175.9885  4.66 -0.53 1.12 1.97 0.25   91036818
AVGSCK    4.490 -1.000 S
AVGSCK    2.410  1.000 P
AVGSIG    3.270 -1.000 S
AVGSIG    1.710  0.500 P
AVGSMY    1.970 -1.000 S
AVGSMY    0.870  1.000 P
AVGSTR    2.970 -1.000 S
AVGSTR    1.190  1.000 P
# 2021 07 31 08 51 53.41  52.1082 -176.0920 10.93 -0.12 1.32 1.37 0.28   91326021
AVGSCK    5.050 -1.000 S
AVGSCK    2.530  0.500 P
AVGSIG    5.890 -1.000 S
AVGSIG    3.730  0.500 P
AVGSMY    3.430  1.000 S
AVGSMY    2.110  1.000 P
AVGSSP    3.550  1.000 S
AVGSSP    1.830  1.000 P
AVGSTR    3.710 -1.000 S
AVGSTR    2.030  0.500 P
# 2021 07 31 09 07 14.44  52.0510 -176.0842  8.55 -0.58 0.78 1.32 0.18   91036833
AVGSCK    3.480 -1.000 S
AVGSCK    1.860  1.000 P
AVGSIG    4.760 -1.000 S
AVGSIG    2.540  0.500 P
AVGSMY    2.440 -1.000 S
AVGSMY    1.280  1.000 P
AVGSTR    3.280 -1.000 S
AVGSTR    1.600  1.000 P
# 2021 07 31 09 40 51.95  52.0722 -176.0428  9.10 -0.43 0.76 0.76 0.17   91036838
AVETKA    5.790  1.000 P
AVGSCK    4.250 -1.000 S
AVGSCK    2.310  1.000 P
AVGSIG    4.710 -1.000 S
AVGSIG    2.450  1.000 P
AVGSMY    2.690  1.000 S
AVGSMY    1.430  1.000 P
AVGSSP    3.810  1.000 S
AVGSSP    2.150  1.000 P
AVGSTR    3.230  1.000 S
AVGSTR    1.510  1.000 P
# 2021 07 31 09 41 24.96  52.0728 -176.0452  9.10 -0.45 0.75 0.79 0.17   91036843
AVETKA    5.780  1.000 P
AVGSCK    4.240 -1.000 S
AVGSCK    2.300  1.000 P
AVGSIG    4.740 -1.000 S
AVGSIG    2.520  0.500 P
AVGSMY    2.680  1.000 S
AVGSMY    1.420  1.000 P
AVGSSP    3.800  1.000 S
AVGSSP    2.100  1.000 P
AVGSTR    3.220  1.000 S
AVGSTR    1.500  1.000 P
# 2021 07 31 09 41 58.21  52.0688 -176.0233  9.53 -0.78 0.88 0.75 0.11   91036848
AVGSCK    4.470  1.000 S
AVGSCK    2.550  1.000 P
AVGSMY    2.970  1.000 S
AVGSMY    1.670  0.500 P
AVGSSP    4.030  0.500 S
AVGSTR    3.270  1.000 S
AVGSTR    1.690  1.000 P
AVGSSP    0.000  0.000 P
# 2021 07 31 09 43 30.13  52.0748 -176.0442  9.44 0.55 0.82 0.70 0.16   91326041
AVETKA    5.790  1.000 P
AVGSCK    4.330 -1.000 S
AVGSCK    2.370  1.000 P
AVGSIG    4.810 -1.000 S
AVGSIG    2.530  1.000 P
AVGSMY    2.770  1.000 S
AVGSMY    1.510  1.000 P
AVGSSP    3.850  1.000 S
AVGSSP    2.150  1.000 P
AVGSTR    3.290  1.000 S
AVGSTR    1.550  1.000 P
# 2021 07 31 09 43 40.10  52.1047 -176.0208  4.85 0.25 1.52 1.19 0.24   91036718
AVETKA    5.980  0.500 P
AVGSCK    4.440 -1.000 S
AVGSCK    2.460  1.000 P
AVGSIG    5.000 -1.000 S
AVGSIG    2.640  1.000 P
AVGSMY    2.860  1.000 S
AVGSMY    1.620  1.000 P
AVGSSP    4.100 -1.000 S
AVGSSP    0.000  0.000 P
# 2021 07 31 10 14 41.15  52.0753 -176.0430  8.56 -0.34 0.67 0.68 0.13   91036878
AVETKA    5.750  1.000 P
AVGSCK    4.210 -1.000 S
AVGSCK    2.270  1.000 P
AVGSIG    4.730 -1.000 S
AVGSIG    2.430  1.000 P
AVGSMY    2.650  1.000 S
AVGSMY    1.450  1.000 P
AVGSSP    3.770  0.500 S
AVGSTR    2.910 -1.000 S
AVGSTR    1.510  1.000 P
AVGSSP    0.000  0.000 P
# 2021 07 31 16 42 35.03  52.0728 -176.0490  8.52 -0.43 0.75 1.06 0.15   91326381
AVGSCK    4.130 -1.000 S
AVGSCK    2.230  1.000 P
AVGSIG    4.670 -1.000 S
AVGSIG    2.470  1.000 P
AVGSMY    2.510 -1.000 S
AVGSMY    1.610  1.000 P
AVGSSP    3.650  1.000 S
AVGSTR    2.970 -1.000 S
AVGSTR    1.410  1.000 P
AVGSSP    0.000  0.000 P
# 2021 07 31 16 45 27.25  52.0707 -176.0487  8.62 -0.42 0.90 1.04 0.21   91036903
AVETKA    5.730  1.000 P
AVGSCK    4.090 -1.000 S
AVGSCK    2.190  1.000 P
AVGSIG    4.750 -1.000 S
AVGSIG    2.410  1.000 P
AVGSMY    2.490  1.000 S
AVGSMY    1.310  1.000 P
AVGSSP    3.690  1.000 S
AVGSTR    3.150 -1.000 S
AVGSTR    1.370  1.000 P
AVGSSP    0.000  0.000 P
# 2021 07 31 18 06 9.73  52.1248 -176.0160  4.34 0.14 0.97 1.01 0.13   91036918
AVGSCK    5.190 -1.000 S
AVGSCK    3.090  1.000 P
AVGSIG    5.470 -1.000 S
AVGSIG    2.930  1.000 P
AVGSMY    3.130  1.000 S
AVGSMY    1.710  1.000 P
AVGSTR    2.250 -1.000 S
AVGSTR    1.090  1.000 P
# 2021 07 31 18 10 58.61  52.0533 -176.0835 11.23 -0.57 0.72 1.07 0.10   91036923
AVGSCK    3.930 -1.000 S
AVGSCK    2.290  1.000 P
AVGSIG    5.050 -1.000 S
AVGSMY    3.290  1.000 S
AVGSMY    1.710  1.000 P
AVGSTR    3.730 -1.000 S
AVGSTR    2.030  1.000 P
AVGSIG    0.000  0.000 P
# 2021 07 31 18 24 31.38  52.1138 -176.0020  5.01 -0.04 1.18 0.59 0.14   91036928
AVGSCK    5.160 -1.000 S
AVGSCK    2.900  0.500 P
AVGSIG    2.900 -1.000 P
AVGSMY    3.060 -1.000 S
AVGSMY    1.680  1.000 P
AVGSTR    2.440 -1.000 S
AVGSTR    1.060  1.000 P
# 2021 07 31 18 47 34.17  52.1203 -176.0083  4.85 0.60 0.94 1.17 0.18   91326461
AVGSCK    5.190 -1.000 S
AVGSCK    2.910  1.000 P
AVGSIG    5.430 -1.000 S
AVGSIG    2.850  1.000 P
AVGSMY    3.010  1.000 S
AVGSMY    1.650  1.000 P
AVGSSP    4.270  0.500 S
AVGSSP    2.330  1.000 P
AVGSTR    2.390 -1.000 S
AVGSTR    1.050  1.000 P
# 2021 07 31 19 12 45.12  52.1168 -176.0035  3.15 0.15 1.27 1.59 0.18   91326471
AVGSCK    5.020 -1.000 S
AVGSCK    2.780  1.000 P
AVGSIG    5.220 -1.000 S
AVGSMY    2.900  1.000 S
AVGSMY    1.540  1.000 P
AVGSSP    4.240  1.000 S
AVGSTR    1.980 -1.000 S
AVGSTR    0.900  1.000 P
AVGSSP    0.000  0.000 P
AVGSIG    0.000  0.000 P
# 2021 07 31 19 14 33.15  52.1193 -176.0033  3.12 0.52 0.98 1.59 0.18   91036933
AVGSCK    5.050 -1.000 S
AVGSCK    2.810  1.000 P
AVGSIG    5.350 -1.000 S
AVGSIG    2.770  1.000 P
AVGSMY    2.950  1.000 S
AVGSMY    1.590  1.000 P
AVGSSP    4.310  1.000 S
AVGSSP    2.230  1.000 P
AVGSTR    2.030 -1.000 S
AVGSTR    0.950  1.000 P
# 2021 07 31 19 14 54.96  52.1233 -176.0155  4.28 -0.04 0.91 0.86 0.12   91036938
AVGSCK    5.180 -0.500 S
AVGSCK    3.040 -1.000 P
AVGSIG    5.460 -0.500 S
AVGSIG    2.900  0.500 P
AVGSMY    3.120 -1.000 S
AVGSMY    1.700  1.000 P
AVGSTR    2.160 -1.000 S
AVGSTR    1.080  1.000 P
# 2021 07 31 19 16 49.18  52.1183 -176.0037  3.96 0.51 0.93 1.29 0.17   91326486
AVGSCK    5.080 -1.000 S
AVGSCK    2.820  1.000 P
AVGSIG    5.300 -1.000 S
AVGSIG    2.820  1.000 P
AVGSMY    2.980  1.000 S
AVGSMY    1.620  1.000 P
AVGSSP    4.320  1.000 S
AVGSSP    2.240  1.000 P
AVGSTR    2.140 -1.000 S
AVGSTR    0.980  1.000 P
# 2021 07 31 19 38 35.80  52.1183 -176.0060  3.95 0.46 1.07 1.39 0.19   91326511
AVGSCK    5.060 -1.000 S
AVGSCK    2.780  1.000 P
AVGSIG    5.380 -1.000 S
AVGSIG    2.800  1.000 P
AVGSMY    2.940  1.000 S
AVGSMY    1.580  1.000 P
AVGSSP    4.280  1.000 S
AVGSSP    2.300  0.500 P
AVGSTR    2.120 -1.000 S
AVGSTR    0.960  1.000 P
# 2021 07 31 19 46 48.62  52.1195 -176.0082  3.73 1.16 0.78 1.06 0.13   91326516
AVGSCK    5.100 -1.000 S
AVGSCK    2.800  1.000 P
AVGSIG    5.320 -1.000 S
AVGSIG    2.820  1.000 P
AVGSMY    2.980  1.000 S
AVGSMY    1.620  1.000 P
AVGSSP    4.100  1.000 S
AVGSSP    2.260  1.000 P
AVGSTR    2.060 -1.000 S
AVGSTR    0.980  1.000 P
# 2021 07 31 19 47 59.01  52.1212 -176.0157  4.56 0.57 0.79 0.94 0.14   91326521
AVGSCK    5.130 -1.000 S
AVGSCK    2.850  1.000 P
AVGSIG    5.430 -1.000 S
AVGSIG    2.850  1.000 P
AVGSMY    3.030  1.000 S
AVGSMY    1.650  1.000 P
AVGSSP    2.310  1.000 P
AVGSTR    2.230 -1.000 S
AVGSTR    1.050  1.000 P
# 2021 07 31 19 58 15.85  52.1172 -176.0038  4.66 0.21 1.02 1.17 0.15   91326531
AVGSCK    5.190 -1.000 S
AVGSCK    3.050  1.000 P
AVGSIG    5.170 -0.500 S
AVGSIG    2.850  1.000 P
AVGSMY    3.010  1.000 S
AVGSMY    1.650  1.000 P
AVGSTR    2.370 -1.000 S
AVGSTR    1.050  1.000 P
# 2021 07 31 20 10 25.10  52.1172 -176.0047  3.07 0.78 0.81 1.28 0.14   91326536
AVGSCK    5.020 -1.000 S
AVGSCK    2.800  1.000 P
AVGSIG    5.220 -1.000 S
AVGSIG    2.760  1.000 P
AVGSMY    2.900  1.000 S
AVGSMY    1.560  1.000 P
AVGSSP    4.160  1.000 S
AVGSSP    2.220  1.000 P
AVGSTR    1.980 -1.000 S
AVGSTR    0.920  1.000 P
# 2021 07 31 20 10 46.09  52.1513 -176.0547  8.67 -0.02 3.50 1.76 0.31   91036728
AVGSCK    6.030 -1.000 S
AVGSCK    2.680  1.000 P
AVGSIG    3.970 -0.500 P
AVGSMY    4.010 -1.000 S
AVGSMY    2.570  1.000 P
AVGSTR    3.350 -1.000 S
AVGSTR    1.950  1.000 P
# 2021 07 31 20 11 13.97  52.1483 -176.0560  3.98 0.23 1.65 2.50 0.31   91326541
AVGSCK    5.730 -1.000 S
AVGSCK    3.470  1.000 P
AVGSIG    6.110 -1.000 S
AVGSIG    3.470  1.000 P
AVGSMY    3.630  1.000 S
AVGSMY    2.270  1.000 P
AVGSSP    2.970 -1.000 S
AVGSTR    2.690 -1.000 S
AVGSTR    1.150  0.500 P
AVGSSP    0.000  0.000 P
# 2021 07 31 20 46 38.95  52.0658 -176.0507 11.28 0.07 1.27 1.44 0.24   91326561
AVGSCK    4.530 -1.000 S
AVGSCK    2.590  1.000 P
AVGSIG    5.010 -1.000 S
AVGSIG    2.730  1.000 P
AVGSMY    2.970  1.000 S
AVGSMY    1.690  1.000 P
AVGSSP    4.170  1.000 S
AVGSSP    2.350  1.000 P
AVGSTR    3.930 -1.000 S
AVGSTR    1.750  1.000 P
# 2021 07 31 21 17 44.66  52.0765 -176.0960  7.47 -0.01 0.63 1.12 0.12   91326586
AVGSCK    3.560 -1.000 S
AVGSCK    2.000  1.000 P
AVGSMY    2.500 -1.000 S
AVGSMY    1.480  1.000 P
AVGSSP    2.780 -1.000 S
AVGSSP    1.540  1.000 P
AVGSTR    2.720 -1.000 S
AVGSTR    1.420  1.000 P
# 2021 07 31 21 43 46.71  52.1203 -176.0005  4.06 0.10 0.85 1.24 0.15   91326621
AVGSCK    5.190 -1.000 S
AVGSCK    2.870  1.000 P
AVGSIG    2.870  1.000 P
AVGSMY    3.090  1.000 S
AVGSMY    1.670  1.000 P
AVGSSP    4.370  1.000 S
AVGSSP    2.310  1.000 P
AVGSTR    2.210 -1.000 S
AVGSTR    1.050  1.000 P
# 2021 07 31 23 48 21.28  52.1193 -176.0155  4.41 0.37 0.86 0.98 0.15   91326676
AVGSCK    5.080 -1.000 S
AVGSCK    2.800  1.000 P
AVGSIG    5.380 -1.000 S
AVGSIG    2.780  1.000 P
AVGSMY    2.980  1.000 S
AVGSMY    1.580  1.000 P
AVGSSP    2.340  1.000 P
AVGSTR    2.160 -1.000 S
AVGSTR    1.000  1.000 P
# 2021 07 31 23 48 53.09  52.1235 -176.0167  4.16 0.39 0.85 1.09 0.15   91036733
AVGSCK    5.210 -1.000 S
AVGSCK    2.870  1.000 P
AVGSIG    5.510 -1.000 S
AVGSIG    2.870  1.000 P
AVGSMY    3.030  1.000 S
AVGSMY    1.670  1.000 P
AVGSSP    2.390  0.500 P
AVGSTR    2.150 -1.000 S
AVGSTR    1.070  1.000 P
# 2021 07 31 23 49 37.26  52.1277 -176.0200  4.44 0.16 1.01 1.05 0.15   91036948
AVGSCK    5.280 -1.000 S
AVGSCK    3.120  0.500 P
AVGSIG    5.560 -1.000 S
AVGSMY    3.160  1.000 S
AVGSMY    1.740  1.000 P
AVGSTR    2.280 -1.000 S
AVGSTR    1.120 -1.000 P
AVGSIG    0.000  0.000 P
# 2021 07 31 23 50 52.04  52.1193 -176.0150  4.12 0.98 0.73 0.95 0.12   91326681
AVGSCK    5.080 -1.000 S
AVGSCK    2.820  1.000 P
AVGSIG    5.340 -1.000 S
AVGSIG    2.800  1.000 P
AVGSMY    2.980  1.000 S
AVGSMY    1.620  1.000 P
AVGSSP    2.280  1.000 P
AVGSTR    2.100 -1.000 S
AVGSTR    1.020  1.000 P
# 2021 08 01 00 12 17.43  51.9950 -176.0368  9.42 -0.23 2.79 1.47 0.21   91036973
AVGSCK    3.710 -1.000 S
AVGSCK    2.270  1.000 P
AVGSMY    3.210 -1.000 S
AVGSMY    2.010 -1.000 P
AVGSSP    2.970  0.500 P
AVGSTR    4.530 -0.500 S
AVGSTR    2.010  1.000 P
# 2021 08 01 00 16 41.97  52.1200 -176.0107  4.59 0.07 0.95 1.17 0.18   91326706
AVGSCK    5.110 -1.000 S
AVGSCK    2.810  0.500 P
AVGSIG    5.430 -1.000 S
AVGSIG    2.830  1.000 P
AVGSMY    2.990  1.000 S
AVGSMY    1.630  1.000 P
AVGSSP    4.250  0.500 S
AVGSSP    2.290  1.000 P
AVGSTR    2.270 -1.000 S
AVGSTR    1.030  1.000 P
# 2021 08 01 00 16 54.58  52.1167 -176.0215  3.81 -0.03 1.13 1.18 0.18   91036958
AVGSCK    4.920 -1.000 S
AVGSCK    2.980  1.000 P
AVGSIG    5.240 -1.000 S
AVGSMY    2.780  1.000 S
AVGSMY    1.420  1.000 P
AVGSTR    1.980 -1.000 S
AVGSTR    0.860  1.000 P
AVGSIG    0.000  0.000 P
# 2021 08 01 00 17 36.24  52.1168 -176.0052  4.24 1.47 0.85 0.94 0.14   91326711
AVGSCK    5.080 -1.000 S
AVGSCK    2.840  1.000 P
AVGSIG    5.240 -1.000 S
AVGSIG    2.780  1.000 P
AVGSMY    2.980  1.000 S
AVGSMY    1.600  1.000 P
AVGSSP    4.180  1.000 S
AVGSSP    2.280  1.000 P
AVGSTR    2.160 -1.000 S
AVGSTR    1.000  1.000 P
# 2021 08 01 00 18 22.76  52.1255 -175.9992  1.87 -0.02 1.28 2.89 0.18   91036978
AVGSCK    5.620 -0.500 S
AVGSCK    3.180 -1.000 P
AVGSIG    5.360 -1.000 S
AVGSMY    2.980  1.000 S
AVGSMY    1.620  1.000 P
AVGSTR    2.060 -1.000 S
AVGSTR    1.000 -1.000 P
AVGSIG    0.000  0.000 P
# 2021 08 01 00 25 45.03  52.1200 -176.0102  3.86 0.78 0.79 1.10 0.15   91326726
AVGSCK    5.070 -1.000 S
AVGSCK    2.830  1.000 P
AVGSIG    5.390 -1.000 S
AVGSIG    2.790  1.000 P
AVGSMY    2.970  1.000 S
AVGSMY    1.590  1.000 P
AVGSSP    4.070  1.000 S
AVGSSP    2.230  1.000 P
AVGSTR    2.050 -1.000 S
AVGSTR    0.950  0.500 P
# 2021 08 01 01 42 12.76  52.0052 -176.0713 -1.80 -0.67 0.78 1.33 0.30   91036983
AVGSCK    2.680 -1.000 S
AVGSCK    0.960  1.000 P
AVGSIG    3.860 -0.500 S
AVGSIG    1.980  0.500 P
AVGSMY    1.620 -1.000 S
AVGSMY    0.480  1.000 P
AVGSTR    3.840  0.500 S
AVGSTR    1.920  0.500 P
# 2021 08 01 02 11 24.48  52.0522 -175.9945  3.83 -0.38 1.04 1.99 0.23   91036993
AVGSCK    4.200 -1.000 S
AVGSCK    2.260  1.000 P
AVGSIG    3.120 -1.000 S
AVGSMY    1.740 -1.000 S
AVGSTR    2.760 -1.000 S
AVGSTR    0.980  1.000 P
AVGSMY    0.000  0.000 P
AVGSIG    0.000  0.000 P
# 2021 08 01 03 46 17.13  52.1263 -176.0128  5.34 0.17 1.05 1.01 0.18   91036963
AVGSCK    5.350 -1.000 S
AVGSCK    3.070  1.000 P
AVGSIG    5.570 -0.500 S
AVGSIG    2.990  0.500 P
AVGSMY    3.190  1.000 S
AVGSMY    1.810  1.000 P
AVGSTR    2.550 -1.000 S
AVGSTR    1.170  1.000 P
# 2021 08 01 03 52 57.80  52.1217 -176.0197  4.38 0.55 0.87 0.92 0.14   91326891
AVGSCK    5.120 -1.000 S
AVGSCK    2.840  1.000 P
AVGSIG    5.480 -1.000 S
AVGSIG    2.840  1.000 P
AVGSMY    3.020  1.000 S
AVGSMY    1.660  1.000 P
AVGSSP    2.380  0.500 P
AVGSTR    2.120 -1.000 S
AVGSTR    1.040  1.000 P
# 2021 08 01 04 41 41.38  52.0732 -176.0525  9.79 -0.33 1.12 1.46 0.24   91037003
AVGSCK    4.300 -1.000 S
AVGSCK    2.340  1.000 P
AVGSIG    5.140 -0.500 S
AVGSIG    2.500 -1.000 P
AVGSMY    2.720 -1.000 S
AVGSMY    2.000  0.500 P
AVGSTR    3.320 -1.000 S
AVGSTR    1.540  1.000 P
# 2021 08 01 05 24 43.08  52.1215 -176.0093  3.78 -0.05 1.18 1.53 0.21   91037018
AVGSCK    5.240 -1.000 S
AVGSCK    3.120  1.000 P
AVGSIG    5.360 -1.000 S
AVGSMY    2.920  1.000 S
AVGSMY    1.480  1.000 P
AVGSSP    2.260 -1.000 P
AVGSTR    2.240 -1.000 S
AVGSTR    0.940  1.000 P
AVGSIG    0.000  0.000 P
# 2021 08 01 11 39 5.71  52.0612 -176.0445 10.70 -0.36 1.27 1.75 0.27   91037038
AVGSCK    4.410 -1.000 S
AVGSCK    2.450  1.000 P
AVGSIG    2.630  0.500 P
AVGSMY    2.830 -1.000 S
AVGSMY    1.550  0.500 P
AVGSTR    3.770 -1.000 S
AVGSTR    1.650  1.000 P
# 2021 08 01 13 27 34.18  52.0043 -176.0883  7.21 -0.40 1.18 2.34 0.27   91037043
AVGSCK    2.940 -1.000 S
AVGSCK    1.340  1.000 P
AVGSIG    4.260 -1.000 S
AVGSIG    1.760  0.500 P
AVGSMY    2.180 -0.500 S
AVGSTR    3.820 -1.000 S
AVGSTR    2.280  1.000 P
AVGSMY    0.000  0.000 P
# 2021 08 01 22 00 34.10  52.0513 -176.0070  2.26 0.04 0.91 2.00 0.25   91037088
AVGSCK    4.020 -1.000 S
AVGSCK    1.980  1.000 P
AVGSIG    3.160 -1.000 S
AVGSMY    1.360 -1.000 S
AVGSMY    0.480  1.000 P
AVGSTR    2.420 -1.000 S
AVGSTR    0.880  1.000 P
AVGSIG    0.000  0.000 P
# 2021 08 02 04 34 50.35  52.0275 -176.0642  8.70 -0.72 1.54 2.30 0.33   91037133
AVGSCK    3.690 -1.000 S
AVGSCK    1.730  1.000 P
AVGSIG    4.310 -1.000 S
AVGSIG    2.190  1.000 P
AVGSMY    2.390 -1.000 S
AVGSMY    0.990  1.000 P
AVGSTR    3.890 -0.500 S
AVGSTR    2.270  0.500 P
# 2021 08 02 06 04 3.21  52.0653 -176.0555 10.37 -0.07 0.78 1.05 0.14   91327871
AVGSCK    4.270 -1.000 S
AVGSCK    2.310  1.000 P
AVGSIG    4.810 -1.000 S
AVGSIG    2.670  1.000 P
AVGSMY    2.970 -1.000 S
AVGSMY    1.590  1.000 P
AVGSTR    3.430 -1.000 S
AVGSTR    1.810  1.000 P
# 2021 08 02 11 31 48.24  52.0872 -176.1357  3.55 0.01 0.39 1.12 0.09   91328001
AVGSCK    3.020 -1.000 S
AVGSCK    1.560  1.000 P
AVGSMY    2.600 -1.000 S
AVGSMY    1.340  1.000 P
AVGSSP    1.480 -1.000 S
AVGSSP    0.840  1.000 P
AVGSTR    1.940 -1.000 S
AVGSTR    1.320  1.000 P
