# 2009 02 09 12 57 12.63  60.4935 -152.7775 -2.97 0.80 0.36 0.50 0.10   60308383
AVDFR    2.360  1.000 P
AVNCT    2.370 -1.000 P
AVRDE    2.780  1.000 P
AVRDN    0.880  1.000 P
AVRDT    4.690  1.000 P
AVREF    1.850 -1.000 S
AVREF    0.810  1.000 P
AVRSO    0.730  1.000 P
# 2009 02 09 12 59 37.85  60.4853 -152.6753  1.87 -0.20 0.97 0.70 0.14   60308388
AVDFR    2.110 -1.000 P
AVNCT    1.980  1.000 P
AVRDE    2.280  1.000 P
AVREF    1.420 -1.000 S
AVREF    0.500  1.000 P
AVRSO    1.330 -1.000 P
# 2009 02 09 13 38 17.28  60.4958 -152.7437  1.24 0.20 0.73 0.40 0.14   60308403
AVNCT    2.150 -1.000 P
AVRDE    2.500 -1.000 P
AVRDN    0.640  1.000 P
AVREF    1.340 -1.000 S
AVREF    0.720  1.000 P
AVRSO    1.170 -1.000 P
# 2009 02 09 14 24 39.97  60.4852 -152.7840 -1.98 0.60 1.05 15.14 0.29   60308413
AVDFR    3.050  1.000 P
AVNCT    2.060 -1.000 P
AVRDE    3.390  1.000 P
AVRDN    1.040  1.000 P
AVREF    1.340  1.000 S
AVREF    0.590  1.000 P
AVRSO    0.440  1.000 P
# 2009 02 09 14 40 16.48  60.4698 -152.7488  2.42 0.00 0.76 0.89 0.08   60308418
AVDFR    2.940  1.000 P
AVNCT    2.620 -1.000 P
AVRDN    1.140  1.000 P
AVREF    1.880 -1.000 S
AVREF    1.020 -1.000 P
AVRSO    0.700  1.000 P
# 2009 02 09 15 47 15.83  60.4943 -152.7638 -1.45 0.30 0.50 6.19 0.08   60308428
AVDFR    2.260  1.000 P
AVNCT    2.180  1.000 P
AVRDE    2.800  1.000 P
AVRDN    0.630  1.000 P
AVREF    1.190 -1.000 S
AVREF    0.770  1.000 P
AVRSO    0.710  1.000 P
# 2009 02 09 18 09 53.93  60.4925 -152.7668  1.09 0.50 0.79 0.51 0.18   60308453
AVDFR    2.350  0.200 P
AVNCT    1.900 -1.000 P
AVRDE    2.660 -1.000 P
AVRDN    0.760  1.000 P
AVREF    1.560 -1.000 S
AVREF    0.810  1.000 P
AVRSO    1.220 -1.000 P
# 2009 02 09 21 57 56.16  60.4913 -152.7803  0.38 0.40 0.56 0.65 0.08   60308508
AVDFR    2.370 -1.000 P
AVNCT    2.350 -1.000 P
AVRDN    0.820  1.000 P
AVREF    1.960 -1.000 S
AVREF    0.900  1.000 P
AVRSO    0.780  1.000 P
# 2009 02 09 22 31 55.77  60.4958 -152.7513  1.35 0.10 0.44 0.46 0.04   60308518
AVDFR    2.520  1.000 P
AVNCT    2.230 -1.000 P
AVRDN    0.750  1.000 P
AVREF    1.540 -1.000 S
AVREF    0.840  1.000 P
AVRSO    1.090  1.000 P
# 2009 02 10 00 23 37.27  60.4407 -152.6755  2.93 0.10 2.69 1.84 0.19   60308563
AVDFR    4.100  0.200 P
AVNCT    3.520 -1.000 P
AVRDN    1.350  1.000 P
AVREF    2.470  1.000 S
AVREF    1.340 -1.000 P
AVRSO    1.300 -1.000 P
# 2009 02 10 00 37 34.28  60.4913 -152.7830 -1.50 0.50 0.96 12.09 0.17   60308578
AVDFR    2.450  1.000 P
AVNCT    2.410 -1.000 P
AVRDN    0.770  1.000 P
AVREF    2.030 -1.000 S
AVREF    0.890  1.000 P
AVRSO    0.750  1.000 P
# 2009 02 10 03 36 51.86  60.4928 -152.7818  0.61 0.60 0.76 1.04 0.12   60308603
AVNCT    2.360 -1.000 P
AVRDN    0.790  1.000 P
AVREF    2.060 -1.000 S
AVREF    0.910  1.000 P
AVRSO    0.810  1.000 P
# 2009 02 10 13 12 12.96  60.5172 -152.7483  1.28 0.20 0.58 0.29 0.03   60308703
AVNCT    2.100 -1.000 P
AVRDN    0.500  1.000 P
AVREF    1.860 -1.000 S
AVREF    1.010 -1.000 P
# 2009 02 10 17 34 24.52  60.4952 -152.7630  1.04 0.10 0.58 0.59 0.13   60308753
AVDFR    2.270 -1.000 P
AVNCT    2.220 -1.000 P
AVRDN    0.780  1.000 P
AVREF    1.660 -1.000 S
AVREF    0.760  1.000 P
AVRSO    0.680  1.000 P
# 2009 02 10 18 29 1.16  60.4967 -152.6932  5.67 1.10 1.08 0.63 0.09   60308763
AVDFR    3.590  0.200 P
AVNCT    2.760 -1.000 P
AVRDN    1.500  1.000 P
AVREF    2.260 -1.000 S
AVREF    1.300  1.000 P
AVRSO    1.410  1.000 P
# 2009 02 10 20 32 13.51  60.4885 -152.7878  0.46 0.10 0.78 1.19 0.12   60308788
AVNCT    2.370 -1.000 P
AVRDN    0.940  1.000 P
AVREF    2.110 -1.000 S
AVREF    0.930  1.000 P
AVRSO    0.730  1.000 P
# 2009 02 11 01 15 50.61  60.4908 -152.7672  0.43 0.00 0.39 0.37 0.05   60308838
AVNCT    2.270  1.000 P
AVRDE    2.590  1.000 P
AVRDJH    4.020  1.000 S
AVRDJH    2.270  1.000 P
AVRDN    0.780  1.000 P
AVREF    1.600 -1.000 S
AVREF    0.850  1.000 P
AVRSO    0.740  1.000 P
# 2009 02 11 07 39 22.43  60.4912 -152.7617  0.35 0.50 0.31 0.34 0.07   60308893
AVDFR    2.280  1.000 P
AVNCT    2.250  1.000 P
AVRDE    2.590  1.000 P
AVRDJH    4.190  1.000 S
AVRDJH    2.250  1.000 P
AVRDN    0.720  1.000 P
AVREF    1.460  1.000 S
AVREF    0.830  1.000 P
AVRSO    0.740  1.000 P
# 2009 02 11 08 33 46.67  60.4953 -152.7685  0.52 0.70 0.45 0.59 0.06   60308903
AVNCT    2.150 -1.000 P
AVRDJH    2.230  1.000 P
AVRDN    0.680  1.000 P
AVREF    1.580 -1.000 S
AVREF    0.980  1.000 P
# 2009 02 11 09 20 58.75  60.4867 -152.5508  5.01 0.20 2.73 7.67 0.07   60308908
AVDFR    2.480 -1.000 P
AVNCT    3.820 -1.000 P
AVRDE    2.090  1.000 P
AVRDT    2.380 -1.000 P
# 2009 02 11 11 27 53.51  60.4963 -152.7662  0.06 0.20 0.44 1.42 0.11   60308928
AVDFR    2.340  1.000 P
AVNCT    2.270  1.000 P
AVRDJH    2.150  1.000 P
AVRDN    0.570  1.000 P
AVREF    1.570  1.000 S
AVREF    0.770  1.000 P
AVRSO    0.700  1.000 P
# 2009 02 11 21 41 13.81  60.4933 -152.7673  0.37 0.50 0.36 0.39 0.08   60309058
AVDFR    2.230  1.000 P
AVNCT    2.330 -1.000 P
AVRDE    2.670  1.000 P
AVRDJH    2.250  1.000 P
AVRDN    0.680  1.000 P
AVREF    1.640 -1.000 S
AVREF    0.750  1.000 P
AVRSO    0.720  1.000 P
# 2009 02 11 21 51 19.50  60.4970 -152.7717  0.57 -0.20 0.55 0.56 0.10   60309063
AVDFR    2.210  1.000 P
AVNCT    2.240  1.000 P
AVRDJH    2.140  1.000 P
AVRDN    0.660  1.000 P
AVREF    1.830 -1.000 S
AVREF    0.770  1.000 P
AVRSO    1.080  1.000 P
# 2009 02 12 15 48 4.40  60.4827 -152.7397  1.99 0.00 2.09 3.19 0.31   60309213
AVDFR    2.370  1.000 P
AVRDN    0.500  1.000 P
AVREF    1.690 -1.000 S
AVREF    0.600 -1.000 P
AVRSO    1.220 -1.000 P
# 2009 02 12 15 48 30.32  60.4945 -152.6717  1.58 0.20 1.77 0.70 0.18   60309218
AVNCT    2.660  1.000 P
AVRDN    0.880  1.000 P
AVREF    1.110 -1.000 S
AVREF    0.840  1.000 P
AVRSO    1.530 -1.000 P
# 2009 02 13 01 29 14.13  60.6125 -152.8738 11.27 0.30 0.56 0.61 0.09   60309318
AVBGL   12.510  1.000 P
AVCKL   11.550  1.000 P
AVDFR    2.650  1.000 P
AVNCT    2.210  1.000 P
AVRDE    3.180  1.000 P
AVRDJH    4.050  1.000 S
AVRDJH    2.350  1.000 P
AVRDT    4.570  1.000 P
AVREF    6.240  1.000 S
AVREF    3.530  1.000 P
# 2009 02 13 06 45 9.27  60.4977 -152.6493  3.48 0.80 4.09 1.10 0.23   60309338
AVNCT    2.780  1.000 P
AVRDN    1.020  1.000 P
AVREF    1.650 -1.000 S
AVREF    1.260 -1.000 P
AVRSO    1.700 -1.000 P
# 2009 02 13 10 40 59.20  60.4675 -152.7245  3.63 -0.10 1.23 1.10 0.18   60309388
AVDFR    2.720  1.000 P
AVNCT    2.650  1.000 P
AVRDJH    4.830 -1.000 S
AVRDJH    2.680  1.000 P
AVRDN    1.050  1.000 P
AVREF    1.920 -1.000 S
AVREF    1.100  1.000 P
AVRSO    1.220  1.000 P
# 2009 02 13 18 39 49.21  60.4662 -152.7628  2.24 1.00 0.81 0.76 0.07   60309433
AVDFR    2.600  1.000 P
AVNCT    2.530 -1.000 P
AVRDN    0.910  1.000 P
AVREF    2.050 -1.000 S
AVREF    1.000  1.000 P
AVRSO    0.860  1.000 P
# 2009 02 13 19 14 38.21  60.5002 -152.7652 -2.75 0.60 0.41 0.57 0.15   60309453
AVDFR    2.630  1.000 P
AVNCT    2.050 -1.000 P
AVRDN    0.590  1.000 P
AVRDT    4.140  0.200 P
AVREF    1.170  1.000 S
AVREF    0.800  1.000 P
AVRSO    0.970  1.000 P
# 2009 02 13 21 10 8.36  60.4927 -152.7838 -0.07 0.90 0.39 0.59 0.09   60309468
AVDFR    2.450  1.000 P
AVNCT    2.290 -1.000 P
AVRDN    0.780  1.000 P
AVRDT    4.000 -1.000 P
AVREF    1.980  1.000 S
AVREF    0.870  1.000 P
AVRSO    0.750  1.000 P
# 2009 02 14 01 13 3.89  60.4928 -152.7613  0.69 0.30 0.45 0.54 0.11   60309498
AVDFR    2.340  1.000 P
AVNCT    2.220  1.000 P
AVRDJH    2.250  1.000 P
AVRDN    0.670  1.000 P
AVREF    1.330  1.000 S
AVREF    0.760  1.000 P
AVRSO    0.790  1.000 P
# 2009 02 14 12 09 5.16  60.5185 -152.7123  0.92 0.10 1.00 0.85 0.27   60309563
AVDFR    2.130  1.000 P
AVNCT    2.160 -1.000 P
AVRDE    2.260  1.000 P
AVRDJH    1.990  1.000 P
AVRDN    0.360  1.000 P
AVREF    1.440 -1.000 S
AVREF    0.700  1.000 P
AVRSO    1.830  1.000 P
# 2009 02 14 23 32 14.10  60.4902 -152.7657  0.36 0.60 0.48 0.44 0.06   60309593
AVDFR    2.300  1.000 P
AVNCT    2.340  1.000 P
AVRDJH    4.160  1.000 S
AVRDJH    2.310  1.000 P
AVRDN    0.750  1.000 P
AVREF    1.580  1.000 S
AVREF    0.880  1.000 P
AVRSO    0.780  0.200 P
# 2009 02 14 23 45 14.22  60.4940 -152.7940 -0.27 -0.50 0.37 0.83 0.08   60309598
AVDFR    2.500  1.000 P
AVNCT    2.120 -1.000 P
AVRDE    2.760 -1.000 P
AVRDJH    2.480  1.000 P
AVRDN    0.870  1.000 P
AVREF    2.050 -1.000 S
AVREF    0.960  1.000 P
AVRSO    0.870  1.000 P
# 2009 02 15 00 29 42.79  60.4948 -152.7858 -1.63 0.40 0.74 9.99 0.09   60309623
AVDFR    2.830  1.000 P
AVNCT    2.130 -1.000 P
AVRDJH    2.100 -0.200 P
AVRDN    0.720  1.000 P
AVREF    1.810 -1.000 S
AVREF    0.840  1.000 P
AVRSO    0.940  1.000 P
# 2009 02 15 06 39 32.33  60.5648 -152.8438 36.24 1.10 3.51 1.33 0.24   60309658
AVCKL   14.290  1.000 P
AVDFR    5.500  1.000 P
AVNCT    6.030  1.000 P
AVRDJH   10.360  1.000 S
AVRDJH    6.010  0.200 P
AVRDN    5.680  1.000 P
AVRDT    6.800  1.000 P
AVREF   11.040 -1.000 S
AVSPWE   15.640  0.200 P
# 2009 02 15 08 28 44.86  60.4763 -152.7045  5.05 0.10 0.96 0.74 0.05   60309673
AVNCT    3.610  1.000 P
AVRDN    1.360  1.000 P
AVREF    2.110 -1.000 S
AVREF    1.230 -1.000 P
AVRSO    1.400  1.000 P
# 2009 02 15 11 45 11.29  60.4905 -152.7605  0.49 0.40 0.41 0.47 0.09   60309708
AVDFR    2.420  1.000 P
AVNCT    2.270  1.000 P
AVRDJH    2.350  0.200 P
AVRDN    0.760  1.000 P
AVREF    1.530 -1.000 S
AVREF    0.680  1.000 P
AVRSO    0.750  1.000 P
# 2009 02 15 12 39 49.02  60.4927 -152.7495  1.26 0.80 0.53 0.62 0.02   60309718
AVDFR    1.100  0.200 P
AVNCT    2.290 -1.000 P
AVRDN    0.850  1.000 P
AVREF    1.470 -1.000 S
AVREF    0.800  1.000 P
AVRSO    0.910 -1.000 P
# 2009 02 15 13 55 26.13  60.4827 -152.6947  4.26 1.20 1.24 0.61 0.12   60309738
AVNCT    2.820 -1.000 P
AVRDN    1.100  1.000 P
AVREF    1.880 -1.000 S
AVREF    1.040  1.000 P
AVRSO    1.450 -1.000 P
# 2009 02 15 15 29 15.20  60.5138 -152.7685  0.27 0.00 0.44 1.16 0.14   60309783
AVDFR    2.050 -1.000 P
AVNCT    1.860  1.000 P
AVRDN    0.360  1.000 P
AVREF    1.930  1.000 S
AVREF    0.930  1.000 P
# 2009 02 15 23 30 52.79  60.4768 -152.7465  4.55 0.50 1.42 1.17 0.20   60309858
AVDFR    2.770  1.000 P
AVNCT    2.940  0.200 P
AVRDN    1.080  1.000 P
AVREF    2.250 -1.000 S
AVREF    1.190  1.000 P
AVRSO    1.040 -1.000 P
# 2009 02 16 01 18 31.94  60.4708 -152.7367  4.11 0.30 2.94 1.72 0.23   60309898
AVDFR    2.910  1.000 P
AVRDJH    2.570  0.200 P
AVRDN    0.970  1.000 P
AVREF    2.100 -1.000 S
AVREF    1.060 -1.000 P
AVRSO    1.070 -1.000 P
# 2009 02 16 01 19 1.90  60.4867 -152.7417 -1.78 0.40 2.15 30.59 0.45   60309908
AVDFR    2.860 -1.000 P
AVNCT    3.370  1.000 P
AVRDN    0.140  1.000 P
AVREF    1.260 -1.000 S
AVREF    0.090  1.000 P
AVRSO    0.390  1.000 P
# 2009 02 16 01 27 40.86  60.4763 -152.7962 -2.31 0.60 0.66 7.42 0.15   60309928
AVDFR    2.620  1.000 P
AVNCT    2.600 -1.000 P
AVRDJH    2.560  1.000 P
AVRDN    1.020  1.000 P
AVREF    2.200 -1.000 S
AVREF    1.030  1.000 P
AVRSO    0.400 -1.000 P
# 2009 02 16 01 31 14.35  60.4805 -152.7252  3.71 0.90 1.14 0.91 0.18   60309938
AVDFR    2.400  1.000 P
AVNCT    2.480  1.000 P
AVRDJH    2.260  0.200 P
AVRDN    0.890  1.000 P
AVREF    1.800 -1.000 S
AVREF    0.940  1.000 P
AVRSO    1.390  1.000 P
# 2009 02 16 02 22 58.02  60.4728 -152.7402  2.80 0.10 0.51 0.64 0.08   60309943
AVDFR    2.420  1.000 P
AVNCT    2.480  1.000 P
AVRDJH    5.560  1.000 S
AVRDJH    2.540  1.000 P
AVRDN    0.900  1.000 P
AVREF    1.830 -1.000 S
AVREF    0.980  1.000 P
AVRSO    0.880  1.000 P
# 2009 02 16 02 23 12.66  60.4857 -152.7433  3.05 0.20 0.99 1.22 0.13   60309948
AVDFR    2.370 -1.000 P
AVNCT    2.620  0.200 P
AVRDN    0.960  1.000 P
AVREF    1.880 -1.000 S
AVREF    0.830  1.000 P
AVRSO    1.090 -1.000 P
# 2009 02 16 03 36 7.87  60.5047 -152.7202  2.01 0.20 0.90 1.19 0.22   60309978
AVDFR    2.170 -1.000 P
AVRDJH    2.070  1.000 P
AVRDN    0.490  1.000 P
AVREF    1.620 -1.000 S
AVREF    0.520  1.000 P
AVRSO    1.190  1.000 P
# 2009 02 16 03 57 23.46  60.4560 -152.7207  5.50 0.60 0.64 0.54 0.09   60309983
AVDFR    2.970  1.000 P
AVNCT    2.930  1.000 P
AVRDJH    5.130  1.000 S
AVRDJH    2.930  1.000 P
AVRDN    1.340  1.000 P
AVREF    2.460 -1.000 S
AVREF    1.360  1.000 P
AVRSO    1.270  1.000 P
# 2009 02 16 05 07 40.67  60.4843 -152.7577 -1.90 0.60 0.67 10.86 0.21   60309993
AVDFR    2.540  1.000 P
AVNCT    2.790  1.000 P
AVRDJH    4.500  1.000 S
AVRDJH    2.560  1.000 P
AVRDN    0.600  1.000 P
AVREF    1.360 -1.000 S
AVREF    0.650  1.000 P
AVRSO    0.250  1.000 P
# 2009 02 16 07 26 29.22  60.5098 -152.7022  1.33 0.50 1.60 0.50 0.22   60310028
AVDFR    1.980 -1.000 P
AVNCT    2.200 -1.000 P
AVRDJH    2.050  1.000 P
AVRDN    0.480  1.000 P
AVREF    1.360  1.000 S
AVREF    0.640  1.000 P
AVRSO    1.690 -1.000 P
# 2009 02 16 07 37 55.75  60.5057 -152.7207  0.71 0.10 1.25 0.50 0.18   60310033
AVDFR    2.050 -1.000 P
AVRDJH    1.950  1.000 P
AVRDN    0.410  1.000 P
AVREF    1.300 -1.000 S
AVREF    0.370  1.000 P
AVRSO    1.310 -1.000 P
# 2009 02 16 12 52 44.39  60.4920 -152.7695 -1.39 0.80 0.62 6.23 0.02   60310058
AVDFR    2.380  1.000 P
AVNCT    2.270  1.000 P
AVRDJH    2.210  1.000 P
AVRDN    0.700  1.000 P
AVREF    1.450 -1.000 S
AVREF    0.800 -1.000 P
AVRSO    0.680  1.000 P
# 2009 02 16 15 25 29.70  60.4860 -152.7623  0.89 0.10 0.48 0.40 0.06   60310093
AVNCT    2.390  1.000 P
AVRDJH    2.270 -1.000 P
AVRDN    0.830  1.000 P
AVREF    1.660 -1.000 S
AVREF    0.840  1.000 P
AVRSO    0.880  0.200 P
# 2009 02 16 16 48 2.89  60.4328 -152.6757  5.28 0.80 3.10 1.86 0.25   60310108
AVDFR    3.360  1.000 P
AVNCT    3.410  1.000 P
AVRDJH    3.310  1.000 P
AVRDN    1.770  1.000 P
AVREF    2.540 -1.000 S
AVREF    1.830  1.000 P
AVRSO    1.680 -1.000 P
# 2009 02 16 16 48 35.79  60.4288 -152.7157  4.51 1.00 1.83 0.96 0.17   60310113
AVDFR    3.260  1.000 P
AVNCT    3.190  1.000 P
AVRDJH    3.140  1.000 P
AVRDN    1.520  1.000 P
AVREF    2.700 -1.000 S
AVREF    1.630  1.000 P
AVRSO    1.560  1.000 P
# 2009 02 16 16 53 35.54  60.4885 -152.7353  3.79 0.40 0.98 1.09 0.14   60310123
AVRDJH    2.430 -1.000 P
AVRDN    0.880  1.000 P
AVREF    2.020  1.000 S
AVREF    0.950  1.000 P
AVRSO    1.340  1.000 P
# 2009 02 16 16 53 43.14  60.5008 -152.7488  0.97 0.20 0.57 0.37 0.12   60310128
AVDFR    2.140  1.000 P
AVNCT    2.290  1.000 P
AVRDJH    4.380  1.000 S
AVRDJH    2.040  1.000 P
AVRDN    0.520  1.000 P
AVREF    1.590 -1.000 S
AVREF    0.590  1.000 P
AVRSO    1.080  1.000 P
# 2009 02 16 18 28 52.61  60.4812 -152.6778  6.05 1.20 1.28 1.09 0.21   60310143
AVDFR    1.980  1.000 P
AVNCT    2.950  1.000 P
AVRDJH    2.930  1.000 P
AVRDN    1.440  1.000 P
AVREF    2.580 -1.000 S
AVREF    1.460  1.000 P
# 2009 02 16 18 29 14.52  60.4785 -152.7292  3.47 0.90 1.02 0.99 0.20   60310148
AVDFR    2.620  1.000 P
AVNCT    2.550  1.000 P
AVRDJH    4.590  1.000 S
AVRDJH    2.440  1.000 P
AVRDN    0.860  1.000 P
AVREF    1.980 -1.000 S
AVREF    0.910  1.000 P
AVRSO    1.190  1.000 P
# 2009 02 16 18 36 54.88  60.4832 -152.7600  0.26 0.50 0.72 0.74 0.05   60310158
AVDFR    2.400  1.000 P
AVNCT    2.450  1.000 P
AVRDJH    4.370  1.000 S
AVRDJH    2.420  1.000 P
AVRDN    0.890 -1.000 P
AVREF    1.390 -1.000 S
AVREF    0.880  1.000 P
AVRSO    0.630 -1.000 P
# 2009 02 17 13 04 53.47  60.4962 -152.7202 -1.53 -0.50 1.21 19.74 0.30   60310243
AVDFR    2.480  1.000 P
AVNCT    2.390  1.000 P
AVRDJH    4.390 -0.200 S
AVRDJH    2.450  1.000 P
AVRDN    0.200  1.000 P
AVREF    0.880  0.200 S
AVREF    0.020 -1.000 P
AVRSO    1.110 -1.000 P
# 2009 02 17 13 26 2.19  60.4782 -152.7837 -0.29 0.60 0.34 0.52 0.06   60310248
AVDFR    2.640 -1.000 P
AVNCT    2.420 -1.000 P
AVRDE    2.880  0.200 P
AVRDJH    5.010  1.000 S
AVRDJH    2.560  1.000 P
AVRDN    1.030  1.000 P
AVREF    1.860  1.000 S
AVREF    1.090  1.000 P
AVRSO    0.060  1.000 P
# 2009 02 17 16 02 10.78  60.4780 -152.7283  3.05 0.40 1.59 1.57 0.25   60310283
AVDFR    2.680 -1.000 P
AVNCT    2.380  0.200 P
AVRDJH    4.470  1.000 S
AVRDJH    2.340  1.000 P
AVRDN    0.750  1.000 P
AVREF    1.850 -1.000 S
AVREF    0.740  1.000 P
AVRSO    1.270 -1.000 P
# 2009 02 17 21 06 46.55  60.4920 -152.7437  1.90 0.80 0.67 1.43 0.17   60310323
AVDFR    2.110  1.000 P
AVRDJH    4.030  1.000 S
AVRDJH    2.150  1.000 P
AVRDN    0.640  1.000 P
AVREF    1.700 -1.000 S
AVREF    0.640  1.000 P
AVRSO    1.170  1.000 P
# 2009 02 17 21 50 12.19  60.4833 -152.7473  1.38 0.90 0.76 0.52 0.16   60310338
AVDFR    2.330  1.000 P
AVNCT    2.300  1.000 P
AVRDJH    4.260  1.000 S
AVRDJH    2.230  1.000 P
AVRDN    0.690  1.000 P
AVREF    1.540 -1.000 S
AVREF    0.720  1.000 P
AVRSO    0.950  1.000 P
# 2009 02 17 21 56 22.50  60.4607 -152.7555  4.24 0.00 0.56 0.54 0.04   60310358
AVDFR    2.800  1.000 P
AVNCT    2.710  1.000 P
AVRDJH    4.760 -1.000 S
AVRDJH    2.660  1.000 P
AVRDN    1.210  1.000 P
AVREF    2.350 -1.000 S
AVREF    1.280  1.000 P
AVRSO    1.090  1.000 P
# 2009 02 17 22 33 13.17  60.4707 -152.7080  5.40 0.50 1.44 0.75 0.19   60310378
AVNCT    2.900  0.200 P
AVRDJH    5.060 -1.000 S
AVRDJH    2.800  1.000 P
AVRDN    1.270  1.000 P
AVREF    2.410 -1.000 S
AVREF    1.280 -1.000 P
AVRSO    1.350  1.000 P
# 2009 02 17 22 55 12.95  60.4782 -152.7865  0.41 0.20 0.62 0.64 0.14   60310403
AVDFR    2.370  1.000 P
AVNCT    2.450  1.000 P
AVRDE    3.010  0.200 P
AVRDJH    4.550  1.000 S
AVRDJH    2.370  1.000 P
AVRDN    0.910  1.000 P
AVRDT    4.060  1.000 P
AVRED    3.300  1.000 P
AVREF    2.040 -1.000 S
AVREF    0.950  1.000 P
AVRSO    0.830 -1.000 P
# 2009 02 18 05 46 40.20  60.5165 -152.9125  4.94 0.00 0.55 1.39 0.06   60310453
AVDFR    2.680  1.000 P
AVNCT    1.370 -1.000 P
AVRDE    3.300  1.000 P
AVRDJH    3.720  1.000 S
AVRDJH    2.040  1.000 P
AVRDN    2.010  1.000 P
AVREF    4.220 -1.000 S
AVREF    2.400  1.000 P
# 2009 02 18 13 16 3.34  60.4635 -152.7573  1.15 1.00 0.50 0.22 0.04   60310518
AVDFR    2.640  1.000 P
AVNCT    2.660  1.000 P
AVRDJH    4.640  1.000 S
AVRDJH    2.590  1.000 P
AVRDN    1.020  1.000 P
AVREF    1.790 -1.000 S
AVREF    1.070  1.000 P
# 2009 02 18 18 46 26.80  60.4923 -152.7442  1.62 0.40 1.25 2.41 0.27   60310573
AVDFR    2.030 -1.000 P
AVNCT    2.240  1.000 P
AVRDJH    4.330  1.000 S
AVRDJH    2.230  1.000 P
AVRDN    0.350  1.000 P
AVREF    1.740 -1.000 S
AVREF    0.800  1.000 P
AVRSO    1.090 -1.000 P
# 2009 02 18 19 36 59.75  60.4535 -152.7272  3.29 0.70 0.71 0.43 0.06   60310583
AVNCT    2.820  1.000 P
AVRDJH    5.100 -1.000 S
AVRDJH    2.840  1.000 P
AVRDN    1.880  1.000 P
AVREF    2.100 -1.000 S
AVREF    1.140  1.000 P
AVRSO    1.120  1.000 P
# 2009 02 18 19 37 2.80  60.4942 -152.7528  0.38 0.40 0.83 1.13 0.17   60310588
AVNCT    2.100 -1.000 P
AVRDJH    4.210  1.000 S
AVRDJH    2.060  1.000 P
AVRDN    0.220  0.200 P
AVREF    1.300 -1.000 S
AVREF    0.720  1.000 P
AVRSO    1.020 -1.000 P
# 2009 02 18 21 16 50.11  60.4703 -152.7563  3.01 0.20 0.75 0.73 0.06   60310623
AVDFR    2.570  1.000 P
AVRDJH    2.520  1.000 P
AVRDN    0.880  1.000 P
AVREF    2.020 -1.000 S
AVREF    1.000  1.000 P
AVRSO    0.870 -1.000 P
# 2009 02 18 21 17 8.13  60.4657 -152.7940 -0.38 0.30 1.02 0.71 0.15   60310633
AVDFR    2.750  1.000 P
AVNCT    2.700 -1.000 P
AVRDE    3.100  1.000 P
AVRDJH    5.020 -1.000 S
AVRDJH    2.660  1.000 P
AVRDN    1.080  1.000 P
AVRDT    4.540  1.000 P
AVREF    2.190 -1.000 S
AVREF    1.250 -1.000 P
# 2009 02 18 21 54 46.48  60.4857 -152.7297  3.32 0.70 1.25 1.43 0.25   60310653
AVDFR    2.400  1.000 P
AVNCT    2.420  1.000 P
AVRDJH    4.530  1.000 S
AVRDJH    2.280  1.000 P
AVRDN    0.700  1.000 P
AVREF    1.940 -1.000 S
AVREF    0.890  1.000 P
# 2009 02 18 21 55 9.10  60.4777 -152.7288  3.76 0.40 0.57 0.54 0.02   60310658
AVNCT    3.180  1.000 P
AVRDJH    2.420  1.000 P
AVRDN    1.280  1.000 P
AVREF    1.850 -1.000 S
AVREF    1.050 -1.000 P
AVRSO    0.700  1.000 P
