# 2009 02 04 03 43 33.93  60.6202 -152.8600  4.82 0.20 0.46 1.05 0.08   60306313
AVBGL   12.290  1.000 P
AVDFR    1.940  1.000 P
AVNCT    1.640  1.000 P
AVRDN    2.490  1.000 P
AVRDT    4.250  1.000 P
AVREF    5.530  1.000 S
AVREF    3.130  1.000 P
AVRSO    3.380  1.000 P
# 2009 02 04 05 49 19.38  60.4968 -152.7583  0.71 0.60 0.40 0.41 0.06   60306328
AVDFR    2.150 -1.000 P
AVNCT    2.230 -1.000 P
AVRDN    0.770  1.000 P
AVREF    1.440 -1.000 S
AVREF    1.000  1.000 P
AVRSO    0.930  1.000 P
# 2009 02 04 06 36 29.37  60.4995 -152.8068 -0.24 0.80 0.36 2.05 0.06   60306338
AVDFR    2.440  1.000 P
AVNCT    1.850 -1.000 P
AVRDN    0.940  1.000 P
AVREF    2.210  1.000 S
AVREF    1.150  1.000 P
AVRSO    1.120  1.000 P
# 2009 02 04 08 20 14.87  60.5037 -152.7678  0.21 0.30 0.47 1.68 0.12   60306378
AVNCT    2.280 -1.000 P
AVRDN    0.070  1.000 P
AVREF    1.880 -1.000 S
AVREF    0.700  1.000 P
AVRSO    1.010  1.000 P
# 2009 02 04 08 27 55.99  60.4867 -152.7607  3.04 0.60 1.08 1.85 0.19   60306383
AVDFR    2.510 -1.000 P
AVNCT    2.170 -1.000 P
AVRDN    0.750  1.000 P
AVREF    1.870 -1.000 S
AVREF    1.000  1.000 P
AVRSO    1.250 -1.000 P
# 2009 02 04 10 32 42.24  60.4667 -152.7462  3.90 1.00 0.80 0.57 0.08   60306423
AVDFR    2.670  1.000 P
AVNCT    2.660 -1.000 P
AVRDN    1.090  1.000 P
AVREF    2.220  1.000 S
AVREF    1.110  1.000 P
AVRSO    0.950  1.000 P
# 2009 02 04 12 53 55.60  60.4705 -152.7653  4.19 0.60 1.46 0.80 0.15   60306428
AVDFR    2.830  1.000 P
AVRDN    1.150  1.000 P
AVREF    2.310 -1.000 S
AVREF    1.220  1.000 P
AVRSO    1.080  1.000 P
# 2009 02 04 15 30 19.29  60.3152 -152.6740 10.77 0.90 1.03 1.29 0.14   60306468
AVDFR    5.390  1.000 P
AVILI    5.590  1.000 P
AVILW    6.660  1.000 P
AVINE    6.160  1.000 P
AVIVE    6.560  1.000 P
AVNCG   19.750  1.000 P
AVNCT    5.470  1.000 P
AVRDN    4.320  1.000 P
AVRDT    5.380  1.000 P
AVRED    5.250  1.000 S
AVRED    2.930  1.000 P
AVREF    6.680  1.000 S
AVREF    3.840  1.000 P
AVRSO    3.610  1.000 P
# 2009 02 04 19 50 12.91  60.5073 -152.7200 -1.47 0.30 0.77 11.00 0.10   60306523
AVDFR    2.420  1.000 P
AVNCT    2.350 -1.000 P
AVRDN    0.470  1.000 P
AVREF    0.960 -1.000 S
AVREF    0.330  1.000 P
AVRSO    1.070  1.000 P
# 2009 02 05 01 55 44.88  60.5047 -152.7567  0.33 0.00 1.41 1.55 0.22   60306613
AVDFR    2.350  1.000 P
AVNCT    2.120 -1.000 P
AVRDN    0.160  1.000 P
AVREF    1.440 -1.000 S
AVREF    0.840  1.000 P
AVRSO    1.290 -1.000 P
# 2009 02 05 01 55 52.68  60.4990 -152.7652 -1.38 0.40 1.17 21.12 0.31   60306618
AVDFR    2.770 -1.000 P
AVNCT    2.170 -1.000 P
AVRDN    0.250  1.000 P
AVREF    1.500 -1.000 S
AVREF    0.370  1.000 P
AVRSO    1.290 -0.200 P
# 2009 02 05 03 34 18.45  60.4510 -152.7562  1.38 0.00 1.60 0.28 0.05   60306648
AVDFR    2.730  1.000 P
AVNCT    2.830 -1.000 P
AVRDN    1.240  1.000 P
AVREF    2.180 -1.000 S
AVREF    1.220 -1.000 P
AVRSO    0.730  1.000 P
# 2009 02 05 07 22 35.65  60.5110 -152.7507  0.87 0.80 0.55 0.77 0.12   60306733
AVDFR    2.080 -1.000 P
AVNCT    2.080 -1.000 P
AVRDN    0.540 -1.000 P
AVREF    1.540  1.000 S
AVREF    1.770  1.000 S
AVREF    0.720  1.000 P
AVRSO    1.200  1.000 P
# 2009 02 05 09 26 50.10  60.4763 -152.7362 -0.24 -0.10 0.85 0.68 0.18   60306773
AVDFR    2.770  1.000 P
AVNCT    2.720 -1.000 P
AVRDN    1.140  1.000 P
AVREF    1.220 -1.000 S
AVREF    0.320  1.000 P
AVRSO    0.270  1.000 P
# 2009 02 05 12 23 16.96  60.5093 -152.7943 -2.99 0.70 1.57 1.66 0.42   60306813
AVDFR    2.550  1.000 P
AVNCT    1.940 -0.200 P
AVRDE    2.400  1.000 P
AVRDN    0.160  1.000 P
AVRDT    5.330  1.000 P
AVREF    1.960 -1.000 S
AVREF    0.780  1.000 P
AVRSO    1.360  1.000 P
# 2009 02 05 14 44 46.56  60.4828 -152.7837  3.83 0.30 0.66 1.12 0.07   60306838
AVNCT    2.840  1.000 P
AVRDN    1.160 -1.000 P
AVREF    2.360  1.000 S
AVREF    1.350  1.000 P
AVRSO    1.230  1.000 P
# 2009 02 05 14 55 52.64  60.4503 -152.6598  5.69 0.10 4.52 3.12 0.43   60306843
AVNCT    3.480  1.000 P
AVRDN    1.780  1.000 P
AVREF    3.110 -1.000 S
AVREF    1.810 -1.000 P
AVRSO    1.310 -1.000 P
# 2009 02 05 21 24 39.61  60.4800 -152.7837 -0.37 0.60 0.51 0.96 0.12   60306953
AVDFR    2.790 -1.000 P
AVNCT    2.430 -1.000 P
AVRDN    0.890  1.000 P
AVREF    1.830  1.000 S
AVREF    0.840  1.000 P
AVRSO    0.010  1.000 P
# 2009 02 05 21 57 0.31  60.5012 -152.7245  1.07 0.40 0.74 0.86 0.08   60306963
AVNCT    2.340 -1.000 P
AVRDN    0.710 -1.000 P
AVREF    1.110 -1.000 S
AVREF    0.800  1.000 P
AVRSO    0.370  1.000 P
# 2009 02 05 21 59 7.03  60.4960 -152.7367  3.06 0.30 1.17 1.46 0.25   60306968
AVDFR    2.270 -1.000 P
AVNCT    2.200 -1.000 P
AVRDN    0.730  1.000 P
AVREF    1.750 -1.000 S
AVREF    0.680  1.000 P
AVRSO    1.620  1.000 P
# 2009 02 05 22 53 24.79  60.3165 -152.6390 10.61 1.90 0.64 1.05 0.09   60306978
AVBGL   17.110  1.000 P
AVCKL   15.890  1.000 P
AVCKN   15.940  1.000 P
AVCKT   16.110  1.000 P
AVCP2   17.480  1.000 P
AVDFR    5.420  1.000 P
AVILI    5.510  1.000 P
AVILS    7.810  1.000 P
AVILW    6.730  1.000 P
AVINE    6.220  1.000 P
AVIVE    6.600  1.000 P
AVNCT    5.520  1.000 P
AVOPT   13.970  1.000 P
AVRDE    5.190  1.000 P
AVRDN    4.360  1.000 P
AVRDT    5.420  1.000 P
AVRED    5.290 -1.000 S
AVRED    2.970  1.000 P
AVREF    6.780  1.000 S
AVREF    3.720  1.000 P
AVRSO    3.640  1.000 P
AVSPU   15.960  1.000 P
AVSPWE   16.040  1.000 P
# 2009 02 06 05 24 34.16  60.4885 -152.7398  1.90 0.60 1.04 2.42 0.22   60307013
AVNCT    2.160  1.000 P
AVRDN    0.670  1.000 P
AVREF    1.640 -1.000 S
AVREF    1.000  1.000 P
# 2009 02 06 06 00 46.24  60.4992 -152.7580  0.40 0.50 0.43 0.53 0.10   60307048
AVDFR    2.330 -1.000 P
AVNCT    2.180 -1.000 P
AVRDN    0.580  1.000 P
AVREF    1.430 -1.000 S
AVREF    0.800  1.000 P
AVRSO    0.860  1.000 P
# 2009 02 06 07 34 1.95  60.4813 -152.6985  3.62 1.00 1.25 0.76 0.14   60307068
AVNCT    2.670 -1.000 P
AVRDN    1.070  1.000 P
AVREF    1.600 -1.000 S
AVREF    1.210  1.000 P
AVRSO    1.280  1.000 P
# 2009 02 06 11 10 34.66  60.4710 -152.7183  3.14 0.90 0.70 1.01 0.13   60307133
AVDFR    2.630  1.000 P
AVNCT    2.590  1.000 P
AVRDN    1.070  1.000 P
AVREF    1.040  1.000 P
AVRSO    0.920  1.000 P
# 2009 02 06 12 36 14.17  60.4783 -152.7730  4.86 1.40 0.74 0.82 0.09   60307173
AVDFR    2.540  1.000 P
AVNCT    2.440 -1.000 P
AVRDN    1.220  1.000 P
AVREF    2.500  1.000 S
AVREF    1.430  1.000 P
AVRSO    1.180  1.000 P
# 2009 02 07 06 53 47.61  60.4970 -152.7447  2.82 1.00 0.44 0.78 0.03   60307453
AVNCT    2.240 -1.000 P
AVRDN    0.890  1.000 P
AVREF    1.720 -1.000 S
AVREF    0.990  1.000 P
AVRSO    1.170  1.000 P
# 2009 02 07 11 05 55.12  60.4747 -152.7395 -2.97 0.50 0.45 0.66 0.23   60307518
AVDFR    2.480  1.000 P
AVILW    9.210  0.200 P
AVINE    8.960  1.000 P
AVNCT    2.550  1.000 P
AVRDE    2.810  1.000 P
AVRDN    1.350  1.000 P
AVRDT    4.000  1.000 P
AVREF    1.400 -1.000 S
AVREF    0.940  1.000 P
AVRSO   -0.340  1.000 P
# 2009 02 07 23 00 20.04  60.4930 -152.7543  0.99 0.10 0.58 0.38 0.14   60307623
AVDFR    2.150  1.000 P
AVNCT    2.270 -1.000 P
AVRDE    2.620  1.000 P
AVRDN    0.670  1.000 P
AVREF    1.470 -1.000 S
AVREF    0.690  1.000 P
AVRSO    0.670  1.000 P
# 2009 02 07 23 04 48.26  60.5017 -152.7487  0.63 0.40 0.55 0.29 0.12   60307628
AVDFR    2.100  1.000 P
AVNCT    2.060  1.000 P
AVRDE    2.380 -1.000 P
AVRDN    0.530  1.000 P
AVREF    1.540  1.000 S
AVREF    0.630  1.000 P
AVRSO    1.160 -1.000 P
# 2009 02 08 00 02 22.15  60.4902 -152.7612  0.04 0.30 0.35 0.41 0.10   60307638
AVDFR    2.460  0.200 P
AVNCT    2.380 -1.000 P
AVREF    1.460 -1.000 S
AVRSO    0.830 -1.000 P
# 2009 02 08 00 02 32.76  60.4887 -152.7673 -0.26 0.40 0.44 0.78 0.07   60307643
AVDFR    2.500  1.000 P
AVNCT    2.300 -1.000 P
AVRDE    2.650 -1.000 P
AVRDN    0.830  1.000 P
AVREF    1.470 -1.000 S
AVREF    0.860  1.000 P
# 2009 02 08 00 35 27.67  60.4985 -152.7585  0.30 0.40 0.42 0.42 0.08   60307653
AVDFR    2.250 -1.000 P
AVNCT    2.160  1.000 P
AVRDE    2.570  1.000 P
AVRDN    0.570  1.000 P
AVREF    1.440 -1.000 S
AVREF    0.740  1.000 P
AVRSO    1.010 -1.000 P
# 2009 02 08 01 24 35.59  60.4878 -152.7863 -1.87 0.50 1.05 11.69 0.14   60307663
AVDFR    2.700 -1.000 P
AVNCT    2.240 -1.000 P
AVRDE    3.440  1.000 P
AVRDN    0.770  1.000 P
AVREF    1.850 -1.000 S
AVREF    0.790  1.000 P
# 2009 02 08 02 53 13.02  60.4932 -152.7585  0.79 0.60 0.53 0.34 0.09   60307673
AVDFR    2.270  1.000 P
AVNCT    2.220 -1.000 P
AVRDE    2.550 -1.000 P
AVRDN    0.700  1.000 P
AVREF    1.520  1.000 S
AVREF    0.720  1.000 P
AVRSO    1.050 -1.000 P
# 2009 02 08 03 08 4.38  60.4988 -152.7470 -0.09 0.10 0.92 2.88 0.34   60307678
AVDFR    1.410  1.000 P
AVNCT    1.950  1.000 P
AVRDN    0.460  1.000 P
AVREF    1.430 -1.000 S
AVREF    0.470  1.000 P
AVRSO    1.110  1.000 P
# 2009 02 08 04 07 2.91  60.4947 -152.7762  0.41 0.50 0.60 0.74 0.11   60307698
AVDFR    2.310 -1.000 P
AVNCT    2.270 -1.000 P
AVRDN    0.710 -1.000 P
AVREF    1.920  1.000 S
AVREF    0.820  1.000 P
# 2009 02 08 04 13 23.19  60.4930 -152.7668  0.55 0.70 0.45 0.26 0.12   60307703
AVDFR    2.050  1.000 P
AVILW    8.820  0.200 P
AVNCT    2.180  1.000 P
AVRDE    2.590  1.000 P
AVRDN    0.720  1.000 P
AVRDT    4.010  0.200 P
AVREF    1.440 -1.000 S
AVREF    0.860  1.000 P
# 2009 02 08 04 22 45.36  60.4990 -152.7448  0.60 -0.20 0.46 0.30 0.11   60307708
AVDFR    2.270  1.000 P
AVNCT    2.100  1.000 P
AVRDE    2.490  1.000 P
AVRDN    0.570  1.000 P
AVREF    1.270 -1.000 S
AVREF    0.660  1.000 P
AVRSO    0.950  1.000 P
# 2009 02 08 05 22 38.08  60.4925 -152.7635  0.14 0.60 0.40 0.27 0.05   60307723
AVDFR    2.680  1.000 P
AVNCT    2.260  1.000 P
AVRDE    2.620  1.000 P
AVRDN    0.730  1.000 P
AVREF    1.510 -1.000 S
AVREF    0.790  1.000 P
# 2009 02 08 05 39 46.84  60.5005 -152.7450  1.01 0.00 0.49 0.29 0.08   60307733
AVDFR    2.190 -1.000 P
AVNCT    2.140 -1.000 P
AVRDN    0.650  1.000 P
AVREF    1.420 -1.000 S
AVREF    0.710  1.000 P
AVRSO    1.080  1.000 P
# 2009 02 08 06 09 28.96  60.4942 -152.7550  0.28 -0.10 0.46 0.42 0.12   60307743
AVDFR    2.290  1.000 P
AVNCT    2.140  1.000 P
AVRDE    2.650 -1.000 P
AVRDN    0.610  1.000 P
AVREF    1.240 -1.000 S
AVREF    0.680  1.000 P
AVRSO    0.920  1.000 P
# 2009 02 08 06 18 10.11  60.4927 -152.7668  0.67 0.50 0.39 0.33 0.06   60307748
AVDFR    2.290  1.000 P
AVNCT    2.190 -1.000 P
AVRDE    2.620  1.000 P
AVRDN    0.750  1.000 P
AVREF    1.560 -1.000 S
AVREF    0.860  1.000 P
AVRSO    0.790  1.000 P
# 2009 02 08 06 37 17.88  60.4917 -152.7338  0.38 0.00 0.46 0.26 0.09   60307758
AVDFR    2.360  1.000 P
AVNCT    2.500  1.000 P
AVRDE    2.540  1.000 P
AVRDN    0.650  1.000 P
AVREF    1.760  1.000 S
AVREF    0.460 -1.000 P
AVRSO    0.840  1.000 P
# 2009 02 08 06 50 45.94  60.4827 -152.8425 -2.67 0.90 0.93 2.60 0.26   60307768
AVDFR    2.070  1.000 P
AVNCT    1.680 -1.000 P
AVRDE    3.350  1.000 P
AVRDN    1.670  1.000 P
AVRDT    4.950  1.000 P
AVREF    2.260  1.000 S
AVREF    1.380  1.000 P
AVRSO    1.000  1.000 P
# 2009 02 08 07 15 37.71  60.5190 -152.6737  3.32 -0.20 3.12 1.05 0.15   60307778
AVDFR    3.340  1.000 P
AVNCT    2.480 -1.000 P
AVRDN    0.990 -1.000 P
AVREF    1.670 -1.000 S
AVREF    1.030 -1.000 P
AVRSO    1.760 -1.000 P
# 2009 02 08 07 31 2.50  60.5063 -152.8052 -2.90 0.50 1.04 1.65 0.36   60307788
AVDFR    2.060  1.000 P
AVILW    8.840  1.000 P
AVINE    9.560  1.000 P
AVNCT    1.980 -1.000 P
AVRDN    0.480  1.000 P
AVRDT    5.120  1.000 P
AVREF    2.340 -1.000 S
AVREF    1.220  1.000 P
# 2009 02 08 07 46 35.44  60.4912 -152.7707 -0.49 0.40 0.26 0.50 0.08   60307793
AVDFR    2.340  1.000 P
AVILW    8.930  1.000 P
AVINE    8.670  1.000 P
AVNCT    2.280 -1.000 P
AVRDE    2.630  1.000 P
AVRDN    0.790  1.000 P
AVRDT    3.900  1.000 P
AVRED    2.610 -1.000 S
AVREF    1.540 -1.000 S
AVREF    0.870  1.000 P
AVRSO    1.610  1.000 P
# 2009 02 08 07 53 55.32  60.4973 -152.7740  0.70 0.80 0.57 0.47 0.07   60307798
AVDFR    2.250 -1.000 P
AVNCT    2.850  1.000 P
AVRDN    0.670  1.000 P
AVREF    1.770 -1.000 S
AVREF    0.940  1.000 P
AVRSO    0.990  1.000 P
# 2009 02 08 07 58 8.25  60.4517 -152.7263  0.48 0.80 0.89 0.31 0.09   60307803
AVDFR    2.800 -1.000 P
AVNCT    3.210  1.000 P
AVRDN    1.180  1.000 P
AVREF    1.890 -1.000 S
AVREF    0.950 -1.000 P
AVRSO    0.580  1.000 P
# 2009 02 08 08 33 31.21  60.4862 -152.7738 -1.38 0.90 0.35 1.16 0.06   60307813
AVNCT    2.400 -1.000 P
AVRDN    0.880  1.000 P
AVRDT    4.080 -1.000 P
AVREF    1.560 -1.000 S
AVREF    0.930  1.000 P
AVRSO    0.440 -1.000 P
# 2009 02 08 08 47 52.05  60.4905 -152.7670  0.18 0.70 0.55 0.73 0.10   60307823
AVDFR    2.320  1.000 P
AVNCT    2.230  1.000 P
AVRDN    0.770  1.000 P
AVREF    1.470  1.000 S
AVREF    0.820  1.000 P
AVRSO    0.810 -1.000 P
# 2009 02 08 09 18 26.26  60.4837 -152.7918 -1.24 0.80 0.63 1.54 0.18   60307848
AVDFR    2.630  1.000 P
AVILW    8.580  0.200 P
AVNCT    2.010 -1.000 P
AVRDE    3.160 -1.000 P
AVRDN    1.230  1.000 P
AVRDT    4.060  0.200 P
AVREF    1.700 -1.000 S
AVREF    1.360  1.000 P
# 2009 02 08 09 20 42.05  60.4865 -152.7422  2.53 0.60 0.56 1.05 0.09   60307853
AVNCT    2.530 -1.000 P
AVRDN    0.950  1.000 P
AVREF    1.800 -1.000 S
AVREF    0.840 -1.000 P
AVRSO    0.960  1.000 P
# 2009 02 08 10 17 29.20  60.4930 -152.7610  0.20 0.60 0.32 0.37 0.05   60307873
AVDFR    2.290  1.000 P
AVNCT    2.260  1.000 P
AVRDE    2.590  1.000 P
AVRDN    0.720  1.000 P
AVREF    1.420 -1.000 S
AVREF    0.810  1.000 P
AVRSO    0.730  1.000 P
# 2009 02 08 10 23 42.89  60.4995 -152.8098 -1.84 1.20 0.74 2.25 0.25   60307883
AVDFR    2.820  1.000 P
AVILW    9.180 -1.000 P
AVNCT    1.450 -1.000 P
AVRDN    1.120  1.000 P
AVRDT    4.090 -1.000 P
AVRED    1.880  1.000 P
AVREF    1.940  1.000 S
AVREF    1.240  1.000 P
# 2009 02 08 10 38 12.84  60.4893 -152.7668 -0.49 0.80 0.24 0.60 0.07   60307888
AVDFR    2.330  1.000 P
AVILW    8.830 -1.000 P
AVNCT    2.270  1.000 P
AVRDN    0.770  1.000 P
AVRDT    3.840  1.000 P
AVREF    1.450  1.000 S
AVREF    0.830  1.000 P
AVRSO    0.690  1.000 P
# 2009 02 08 10 43 57.12  60.4872 -152.7755 -0.17 0.40 0.33 0.48 0.10   60307893
AVDFR    2.490  1.000 P
AVNCT    2.210  1.000 P
AVRDN    0.800  1.000 P
AVREF    1.640  1.000 S
AVREF    0.850  1.000 P
AVRSO    0.730  1.000 P
# 2009 02 08 11 19 46.71  60.4910 -152.7890 -2.84 0.70 0.39 0.62 0.14   60307903
AVDFR    2.600  0.200 P
AVNCT    2.060 -1.000 P
AVRDN    1.020  1.000 P
AVRED    2.970 -1.000 S
AVRED    0.950  1.000 P
AVREF    1.680 -1.000 S
AVREF    1.200  1.000 P
AVRSO    0.600  1.000 P
# 2009 02 08 11 33 44.55  60.5052 -152.7277  1.44 0.50 0.76 0.33 0.17   60307908
AVDFR    2.130 -1.000 P
AVNCT    2.080 -1.000 P
AVRDN    0.780  1.000 P
AVREF    1.240 -1.000 S
AVREF    0.890  0.200 P
AVRSO    1.690  0.200 P
# 2009 02 08 12 00 40.53  60.4867 -152.7753 -0.11 0.60 0.64 0.36 0.10   60307913
AVDFR    2.440  1.000 P
AVNCT    2.380 -1.000 P
AVRDE    2.730  1.000 P
AVRDN    0.840  1.000 P
AVREF    1.660 -1.000 S
AVREF    0.930  1.000 P
# 2009 02 08 14 46 51.64  60.5027 -152.7978  1.10 0.60 0.91 1.10 0.17   60307948
AVDFR    2.120 -1.000 P
AVNCT    2.090 -1.000 P
AVRDN    0.560  1.000 P
AVREF    2.340 -1.000 S
AVREF    1.410  1.000 P
AVRSO    1.020  1.000 P
# 2009 02 08 14 47 2.08  60.4928 -152.7673  0.25 0.50 0.63 0.47 0.02   60307953
AVDFR    2.300  1.000 P
AVNCT    2.300 -1.000 P
AVRDE    2.590 -1.000 P
AVRDN    0.770  1.000 P
AVREF    1.570 -1.000 S
AVREF    0.840  1.000 P
# 2009 02 08 15 11 0.23  60.5015 -152.7432  1.20 0.20 0.91 0.56 0.19   60307963
AVDFR    2.040 -1.000 P
AVNCT    2.520  0.200 P
AVRDN    0.450  1.000 P
AVREF    1.670 -1.000 S
AVREF    0.540  1.000 P
# 2009 02 08 15 11 6.17  60.4972 -152.7620  0.43 0.40 0.45 0.56 0.10   60307968
AVDFR    2.240  1.000 P
AVNCT    2.190 -1.000 P
AVRDN    0.670  1.000 P
AVREF    1.420 -1.000 S
AVREF    1.080  1.000 P
AVRSO    1.040  1.000 P
# 2009 02 08 20 52 2.36  60.4930 -152.7600  0.40 0.40 0.43 0.45 0.03   60308023
AVDFR    2.300 -1.000 P
AVNCT    2.270 -1.000 P
AVRDN    0.770  1.000 P
AVREF    1.420 -1.000 S
AVREF    0.830  1.000 P
AVRSO    0.850 -1.000 P
# 2009 02 08 22 32 19.83  60.5013 -152.7560  0.82 0.20 0.47 0.66 0.05   60308058
AVDFR    2.010  0.200 P
AVNCT    2.200 -1.000 P
AVRDN    0.650 -1.000 P
AVREF    1.520 -1.000 S
AVREF    0.900  1.000 P
AVRSO    1.120  1.000 P
# 2009 02 08 22 36 47.79  60.4985 -152.7270  0.59 0.50 0.65 0.86 0.08   60308068
AVNCT    2.420 -1.000 P
AVRDN    0.670 -1.000 P
AVREF    0.970 -1.000 S
AVREF    0.720  1.000 P
AVRSO    0.940  1.000 P
# 2009 02 08 23 12 27.73  60.4918 -152.7737 -1.98 0.60 0.39 1.95 0.13   60308073
AVDFR    2.260  1.000 P
AVINE    8.710 -1.000 P
AVNCT    2.410 -1.000 P
AVRDN    0.470  1.000 P
AVRED    1.600 -1.000 P
AVREF    1.610 -1.000 S
AVREF    0.700  1.000 P
# 2009 02 08 23 49 31.77  60.5042 -152.7687 -1.60 0.20 0.69 8.73 0.06   60308083
AVDFR    2.180 -1.000 P
AVNCT    2.090 -1.000 P
AVRDE    2.670  1.000 P
AVRDN    0.560  1.000 P
AVREF    1.510 -1.000 S
AVREF    0.860  1.000 P
AVRSO    1.330  1.000 P
# 2009 02 09 01 11 5.73  60.5070 -152.7988 -2.97 0.60 0.95 1.53 0.38   60308103
AVDFR    2.050  1.000 P
AVNCT    1.900 -1.000 P
AVRDE    3.550  1.000 P
AVRDN    0.450  1.000 P
AVREF    1.850  0.200 S
AVREF    0.790  1.000 P
AVRSO    0.730  1.000 P
# 2009 02 09 01 11 13.21  60.4900 -152.7692  0.25 0.30 0.72 0.59 0.08   60308108
AVDFR    2.430  1.000 P
AVNCT    2.300 -1.000 P
AVRDE    2.610 -1.000 P
AVRDN    0.730  1.000 P
AVREF    1.500 -1.000 S
AVREF    1.000  1.000 P
# 2009 02 09 02 32 14.38  60.4982 -152.7667 -0.16 0.30 0.34 1.28 0.08   60308143
AVDFR    2.250  1.000 P
AVNCT    2.090 -1.000 P
AVRDN    0.680  1.000 P
AVREF    1.420 -1.000 S
AVREF    0.980  1.000 P
AVRSO    0.930  1.000 P
# 2009 02 09 03 15 49.15  60.5040 -152.7588 -1.58 0.10 1.99 26.11 0.33   60308158
AVDFR    1.560 -1.000 P
AVNCT    2.590 -1.000 P
AVRDE    2.990  1.000 P
AVRDN   -0.070  1.000 P
AVREF    1.750  1.000 S
AVREF    0.750  1.000 P
AVRSO    0.760  1.000 P
# 2009 02 09 03 15 58.26  60.4915 -152.7715  0.05 0.60 0.32 0.45 0.02   60308163
AVDFR    2.380  1.000 P
AVNCT    2.300 -1.000 P
AVRDE    2.640 -1.000 P
AVRDN    0.830  1.000 P
AVREF    1.600 -1.000 S
AVREF    0.880  1.000 P
AVRSO    0.750  0.200 P
# 2009 02 09 03 53 43.63  60.4703 -152.7333  4.51 1.20 0.82 0.90 0.16   60308168
AVDFR    2.750  1.000 P
AVNCT    2.710  1.000 P
AVRDN    1.150  1.000 P
AVREF    2.310  1.000 S
AVREF    1.190  1.000 P
AVRSO    0.990  1.000 P
# 2009 02 09 06 58 7.12  60.4543 -152.7992 -2.32 0.90 1.31 13.67 0.23   60308248
AVDFR    3.220  1.000 P
AVNCT    3.050 -1.000 P
AVRDN    1.540  1.000 P
AVREF    2.870  1.000 S
AVREF    1.330  1.000 P
AVRSO    0.310 -1.000 P
# 2009 02 09 06 58 36.30  60.5105 -152.7437  0.88 0.10 1.14 0.62 0.28   60308253
AVDFR    2.290 -1.000 P
AVNCT    1.940 -1.000 P
AVRDN    0.260  1.000 P
AVREF    1.580 -1.000 S
AVREF    0.410  1.000 P
AVRSO    1.240  1.000 P
# 2009 02 09 07 13 48.99  60.4892 -152.7692  0.74 0.20 0.56 0.53 0.13   60308273
AVDFR    2.450  1.000 P
AVNCT    2.100 -1.000 P
AVRDE    2.700  1.000 P
AVRDN    0.690  1.000 P
AVREF    1.570 -1.000 S
AVREF    0.890  1.000 P
AVRSO    1.310  1.000 P
# 2009 02 09 07 34 4.02  60.4930 -152.7690 -0.01 0.40 0.39 0.60 0.09   60308288
AVDFR    2.380  1.000 P
AVNCT    2.220  1.000 P
AVRDE    2.600 -1.000 P
AVRDN    0.700  1.000 P
AVREF    1.510 -1.000 S
AVREF    0.940  1.000 P
AVRSO    0.970  1.000 P
# 2009 02 09 10 19 49.20  60.4930 -152.7957  0.12 0.30 0.51 0.67 0.16   60308333
AVDFR    2.500  1.000 P
AVNCT    2.320  1.000 P
AVRDE    2.670  1.000 P
AVRDN    0.840  1.000 P
AVRDT    4.300  0.200 P
AVREF    2.270  1.000 S
AVREF    0.840  1.000 P
AVRSO    0.960  1.000 P
# 2009 02 09 12 49 4.44  60.4947 -152.6622  2.19 0.80 1.46 0.94 0.16   60308378
AVNCT    2.590  0.200 P
AVRDN    0.950  1.000 P
AVREF    1.350 -1.000 S
AVREF    0.920 -1.000 P
AVRSO    1.580  1.000 P
