# 2008 06 17 13 27 50.05  60.5500 -152.8520  0.19 0.40 0.65 0.42 0.03   60446473
AVCKL   13.990  1.000 P
AVCKT   14.340  1.000 P
AVCP2   15.910  1.000 P
AVRDN    1.360  1.000 P
AVRED    5.050  1.000 S
AVRED    2.790  1.000 P
AVRSO    2.260  1.000 P
# 2008 07 22 06 30 35.73  60.5108 -152.6370  1.60 1.20 2.42 14.27 0.14   60433563
AVBGL   13.620  1.000 P
AVBGR    4.900 -1.000 P
AVBKG   10.750  1.000 P
AVCKL   12.590  1.000 P
AVCKT   13.070  1.000 P
AVCP2   15.350  1.000 P
AVCRP   24.930  0.200 S
AVCRP   14.360  0.200 P
AVNCG   16.580  1.000 P
AVRED    3.760  1.000 S
AVRED    2.280  1.000 P
AVRSO    1.740 -1.000 P
AVSPNW   14.950  1.000 P
AVSPWE   13.600  1.000 P
AVSTLK   19.260  1.000 P
# 2008 08 05 16 29 37.24  60.5888 -152.5780 11.15 0.30 1.91 0.77 0.06   60418338
AVBGR    3.980  1.000 P
AVBKG    9.280  1.000 P
AVCKL   11.150  1.000 P
AVRED    7.190  1.000 S
AVRED    4.000  1.000 P
AVREF    5.300  1.000 S
AVREF    2.950  1.000 P
# 2008 08 09 16 47 34.26  60.5567 -152.7008  6.27 0.10 1.37 0.83 0.09   61895343
AVRDN    1.580  1.000 P
AVRED    2.740  0.500 P
AVREF    3.360 -1.000 S
AVREF    2.020  0.500 P
AVRSO    2.480  1.000 P
# 2008 09 02 12 32 36.07  60.5257 -152.6942  4.44 0.60 1.29 0.68 0.10   60404118
AVRDN    1.030  1.000 P
AVRED    2.400 -1.000 P
AVREF    2.450  1.000 S
AVREF    2.120  1.000 S
AVREF    1.300  1.000 P
AVRSO    1.770  1.000 P
# 2008 09 22 06 32 55.90  60.4797 -152.9115  7.34 1.40 1.17 1.33 0.09   60411428
AVBGL   15.070  1.000 P
AVBGR    6.800  1.000 P
AVBKG   12.100  1.000 P
AVCGL   17.020  1.000 P
AVCKL   13.950  1.000 P
AVCKN   15.060  1.000 P
AVCKT   14.350  1.000 P
AVCP2   15.680  1.000 P
AVCRP   14.110  1.000 P
AVILW    7.840 -1.000 P
AVNCG   17.990  1.000 P
AVRDN    2.350  1.000 P
AVREF    4.480 -1.000 S
AVREF    2.590  1.000 P
AVRSO    2.220  1.000 P
AVSPBG   25.280  1.000 S
AVSPBG   14.010  1.000 P
AVSPCG   28.170  1.000 S
AVSPCG   15.620  1.000 P
AVSPCR   25.070  1.000 S
AVSPCR   14.700  1.000 P
AVSPNW   16.120  1.000 P
AVSPU   14.500  1.000 P
AVSPWE   14.920  1.000 P
AVSTLK   20.760  1.000 P
# 2008 09 28 22 36 34.92  60.5007 -152.7430  3.54 0.70 0.95 1.05 0.12   60413903
AVRDN    1.090  1.000 P
AVRED    1.790 -1.000 P
AVREF    1.850 -1.000 S
AVREF    1.160  1.000 P
AVRSO    1.040  1.000 P
# 2008 10 01 20 39 46.14  60.4932 -152.7345  3.19 0.60 1.58 1.63 0.07   60391138
AVRDN    0.930 -1.000 P
AVRED    2.980  1.000 S
AVRED    1.640 -1.000 P
AVREF    1.690 -1.000 S
AVREF    1.020 -1.000 P
AVRSO    1.350  1.000 P
# 2008 10 02 17 30 48.32  60.5022 -152.7353  2.61 0.30 0.58 0.87 0.07   60392323
AVRDN    0.900  1.000 P
AVRED    1.620  1.000 P
AVREF    1.630 -1.000 S
AVREF    0.980  1.000 P
AVRSO    1.290  1.000 P
# 2008 10 02 23 41 42.93  60.4897 -152.7703  0.25 0.60 0.31 0.34 0.08   60392643
AVBGR    6.070  1.000 P
AVBKG   11.760  1.000 P
AVCKL   13.750  1.000 P
AVDFR    2.330  1.000 P
AVNCT    2.380  1.000 P
AVRDN    0.380  1.000 P
AVRED    1.510  1.000 P
AVREF    1.690  1.000 S
AVREF    0.910  1.000 P
AVRSO    0.830  1.000 P
# 2008 10 02 23 42 51.73  60.4925 -152.7633  1.42 0.10 0.63 0.58 0.06   60392653
AVRDN    0.940  0.200 P
AVRED    1.630  1.000 P
AVREF    1.670  1.000 S
AVREF    1.670  1.000 S
AVREF    1.010  1.000 P
AVRSO    0.920 -1.000 P
# 2008 10 03 20 27 29.14  60.4937 -152.7395  2.58 0.50 1.05 1.61 0.10   60393378
AVRDN    1.030 -1.000 P
AVRED    1.710 -1.000 P
AVREF    1.720 -1.000 S
AVREF    0.740  1.000 P
AVRSO    1.030  1.000 P
# 2008 10 05 03 45 34.34  60.5090 -152.9217  8.96 0.70 2.05 2.45 0.07   60393958
AVRDN    2.390 -1.000 P
AVRED    2.600  1.000 P
AVREF    4.910 -1.000 S
AVREF    2.760  1.000 P
AVRSO    2.720  1.000 P
# 2008 10 05 21 45 11.66  60.5053 -152.8662 18.45 1.60 3.57 1.76 0.10   60394248
AVRDN    3.310 -1.000 P
AVRED    6.430 -1.000 S
AVRED    3.570 -1.000 P
AVREF    6.350 -1.000 S
AVREF    3.720  1.000 P
AVRSO    3.960  1.000 P
# 2008 10 06 08 25 52.01  60.4895 -152.7683  2.71 0.50 1.09 1.82 0.21   60394403
AVRDN    1.180  1.000 P
AVRED    2.370  1.000 S
AVRED    1.730  1.000 P
AVREF    1.860 -1.000 S
AVREF    1.140  1.000 P
AVRSO    1.030  1.000 P
# 2008 10 06 10 19 36.05  60.4897 -152.7753 -0.51 1.30 0.45 2.79 0.06   60394443
AVRDN    0.850  1.000 P
AVRED    4.000  1.000 S
AVRED    1.530  1.000 P
AVREF    1.580 -1.000 S
AVREF    0.930  1.000 P
AVRSO    0.810 -1.000 P
# 2008 10 07 07 22 39.83  60.4973 -152.7392  2.84 0.20 0.81 1.14 0.12   60394898
AVRDN    1.020  1.000 P
AVRED    1.690 -1.000 P
AVREF    1.630 -1.000 S
AVREF    1.090  1.000 P
AVRSO    0.950  1.000 P
# 2008 10 09 12 33 24.35  60.4860 -152.7717  0.24 -0.10 0.58 1.09 0.09   60396378
AVRDN    0.840 -1.000 P
AVRED    1.570  1.000 P
AVREF    1.620 -1.000 S
AVREF    0.910  1.000 P
AVRSO    0.840  1.000 P
# 2008 10 09 15 25 55.17  60.5318 -152.7753  4.02 -0.20 0.86 0.53 0.03   60396433
AVDFR    1.610  1.000 P
AVRDN    1.020  1.000 P
AVRED    2.290  1.000 P
AVREF    2.680 -1.000 S
AVREF    1.570  1.000 P
AVRSO    1.790  1.000 P
# 2008 10 11 21 33 6.85  60.4883 -152.7942 -2.37 1.90 0.51 3.22 0.06   60397043
AVRDN    0.900  1.000 P
AVRED    1.630 -1.000 P
AVREF    2.020 -1.000 S
AVREF    1.070  1.000 P
AVRSO    0.280  1.000 P
# 2008 10 11 21 41 31.60  60.4938 -152.7582  1.41 -0.10 0.85 0.67 0.06   60397053
AVRDN    0.870  1.000 P
AVRED    1.600  1.000 P
AVREF    1.600 -1.000 S
AVREF    0.960  1.000 P
AVRSO    1.040 -1.000 P
# 2008 10 13 00 38 22.89  60.5175 -152.7425  3.40 0.40 0.99 0.72 0.09   60397313
AVRDN    0.920 -1.000 P
AVRED    1.990 -1.000 P
AVREF    2.040 -1.000 S
AVREF    1.340  1.000 P
AVRSO    1.380  1.000 P
# 2008 10 13 04 36 18.83  60.5170 -152.7903  4.01 0.10 1.04 1.37 0.08   60397368
AVRDN    1.080  1.000 P
AVRED    2.170  1.000 P
AVREF    2.620 -1.000 S
AVREF    1.450 -1.000 P
AVRSO    1.420  1.000 P
# 2008 10 14 03 41 34.50  60.4918 -152.7668  1.45 -0.30 0.62 0.58 0.06   60397558
AVRDN    1.020  1.000 P
AVRED    1.540  1.000 P
AVREF    1.700  1.000 S
AVREF    1.040  1.000 P
AVRSO    0.920 -1.000 P
# 2008 10 14 10 36 39.13  60.4690 -152.8563 -1.48 0.70 1.21 12.27 0.15   60397628
AVRDN    1.790 -1.000 P
AVREF    2.900  1.000 S
AVREF    1.890  1.000 P
AVRSO    0.940 -1.000 P
# 2008 10 14 11 36 13.70  60.4983 -152.7403  2.77 0.00 0.69 0.98 0.10   60397643
AVRDN    1.010  1.000 P
AVRED    1.670 -1.000 P
AVREF    1.640  1.000 S
AVREF    1.050  1.000 P
AVRSO    0.940  1.000 P
# 2008 10 14 17 18 18.14  60.4998 -152.7502  3.02 0.30 0.58 0.87 0.07   60397698
AVRDN    1.010  1.000 P
AVRED    1.690 -1.000 P
AVREF    1.750  1.000 S
AVREF    1.090  1.000 P
AVRSO    1.090  1.000 P
# 2008 10 15 16 08 17.11  60.4932 -152.7282  4.40 0.20 1.44 0.89 0.12   60397963
AVRDN    1.150 -1.000 P
AVRED    1.850  1.000 P
AVREF    1.880 -1.000 S
AVREF    1.230 -1.000 P
AVRSO    1.130  1.000 P
# 2008 10 17 07 06 11.16  60.5273 -152.7257  4.62 0.00 0.86 0.52 0.04   60398673
AVDFR    1.550  1.000 P
AVRDN    1.050  1.000 P
AVRED    2.300  1.000 P
AVREF    2.430 -1.000 S
AVREF    1.370  1.000 P
AVRSO    1.790  1.000 P
# 2008 10 17 21 39 2.65  60.4907 -152.7692  0.17 -0.10 0.39 0.97 0.03   60398863
AVRDN    0.860  1.000 P
AVRED    1.530 -1.000 P
AVREF    1.560 -1.000 S
AVREF    0.910  1.000 P
AVRSO    0.800  1.000 P
# 2008 10 18 13 32 56.45  60.4893 -152.7743 -1.11 -0.10 0.97 8.40 0.02   60399053
AVRDN    0.830  1.000 P
AVRED    1.510  1.000 P
AVREF    1.530 -1.000 S
AVREF    0.880  1.000 P
AVRSO    1.300  1.000 P
# 2008 10 19 03 15 0.62  60.5070 -152.9965 10.97 0.60 1.11 1.18 0.05   60399168
AVNCT    2.230  1.000 P
AVRDN    3.130  1.000 P
AVRED    3.180 -1.000 P
AVREF    6.120  1.000 S
AVREF    3.510  1.000 P
AVRSO    3.200  1.000 P
# 2008 10 19 20 19 22.04  60.5672 -152.5673  1.69 0.00 1.91 19.04 0.21   60399338
AVRDN    2.200  1.000 P
AVRED    3.660 -1.000 P
AVREF    3.680 -1.000 S
AVREF    1.740  1.000 P
AVRSO    2.530  1.000 P
# 2008 10 21 06 17 24.71  60.4902 -152.7682  1.02 -0.10 0.68 0.66 0.05   60399713
AVRDN    0.940  1.000 P
AVRED    1.610  1.000 P
AVREF    1.670 -1.000 S
AVREF    1.020  1.000 P
AVRSO    0.820 -1.000 P
# 2008 10 21 07 38 21.76  60.5088 -152.7347  4.00 0.50 0.69 0.68 0.05   60399743
AVRDN    1.000 -1.000 P
AVRED    1.830  1.000 P
AVREF    2.010 -1.000 S
AVREF    1.230  1.000 P
AVRSO    1.000  1.000 P
# 2008 10 21 15 13 50.07  60.5012 -152.7347  3.16 0.10 0.80 0.91 0.11   60399908
AVRDN    1.060  1.000 P
AVRED    1.750 -1.000 P
AVREF    1.690 -1.000 S
AVREF    1.120  1.000 P
AVRSO    1.040  1.000 P
# 2008 10 21 15 37 12.24  60.5385 -152.7745  2.89 0.50 1.26 1.06 0.12   60399913
AVRDN    0.760  1.000 P
AVRED    2.570  1.000 P
AVREF    2.650  1.000 S
AVREF    1.500  1.000 P
AVRSO    1.750  1.000 P
# 2008 10 21 15 37 23.02  60.4917 -152.7648  1.31 0.20 0.86 0.80 0.10   60399918
AVRDN    0.850  1.000 P
AVRED    1.540  1.000 P
AVREF    1.570  1.000 S
AVREF    1.590  1.000 S
AVREF    0.930  1.000 P
AVRSO    0.750 -1.000 P
# 2008 10 21 16 44 8.53  60.5255 -152.7272  4.44 0.00 0.80 0.54 0.03   60399928
AVRDN    0.990  1.000 P
AVRED    2.280  1.000 P
AVREF    2.370 -1.000 S
AVREF    1.310  1.000 P
AVRSO    1.740  1.000 P
# 2008 10 21 18 45 31.67  60.4902 -152.7702  0.07 -0.20 0.42 1.82 0.04   60399988
AVRDN    0.840  1.000 P
AVRED    1.540  1.000 P
AVREF    1.550 -1.000 S
AVREF    0.920  1.000 P
AVRSO    0.810 -1.000 P
# 2008 10 22 07 10 45.54  60.4950 -152.7717  0.84 0.20 0.44 1.02 0.08   60400198
AVRDN    0.730  1.000 P
AVRED    1.620 -1.000 P
AVREF    1.690 -1.000 S
AVREF    1.070  1.000 P
AVRSO    0.900  1.000 P
# 2008 10 22 07 11 2.40  60.4905 -152.7732  0.21 0.00 0.49 2.01 0.06   60400208
AVRDN    0.870  1.000 P
AVRED    1.550  1.000 P
AVREF    1.620 -1.000 S
AVREF    0.940  1.000 P
AVRSO    1.000  1.000 P
# 2008 10 22 16 14 35.09  60.4933 -152.7550  1.94 -0.20 0.76 1.98 0.08   60400298
AVRDN    0.950 -1.000 P
AVRED    1.600  1.000 P
AVREF    1.610 -1.000 S
AVREF    0.970  1.000 P
AVRSO    1.080 -1.000 P
# 2008 10 23 15 47 12.61  60.4968 -152.8372  3.91 0.00 1.56 2.54 0.17   60400538
AVRDN    1.450  1.000 P
AVRED    2.090  1.000 P
AVREF    3.090 -1.000 S
AVREF    1.510  1.000 P
AVRSO    1.320  1.000 P
# 2008 10 23 18 31 4.25  60.4760 -152.5953  0.77 0.60 1.42 1.12 0.18   60400563
AVRDN    1.670 -1.000 P
AVREF    1.980 -1.000 S
AVREF    1.320  1.000 P
AVRSO    1.960 -1.000 P
# 2008 10 24 06 40 44.56  60.4970 -152.7372  2.73 0.60 0.96 1.02 0.13   60400728
AVDFR    1.770 -1.000 P
AVNCT    2.510  1.000 P
AVRDN    1.000  1.000 P
AVREF    1.650 -1.000 S
AVREF    1.070  1.000 P
AVRSO    0.980 -1.000 P
# 2008 10 24 07 46 31.21  60.4987 -152.8200  2.20 -0.10 1.13 4.73 0.05   60400808
AVRDN    1.210 -1.000 P
AVRED    1.720 -1.000 P
AVREF    2.600 -1.000 S
AVREF    1.410 -1.000 P
AVRSO    1.670  0.200 P
# 2008 10 26 02 26 33.14  60.5017 -152.7485 -2.98 -0.40 1.23 1.30 0.31   60401413
AVRDN    0.620 -1.000 P
AVRED    6.060  0.200 S
AVRED    2.260  1.000 P
AVREF    1.670 -1.000 S
AVREF    0.520 -1.000 P
AVRSO    0.520  1.000 P
# 2008 10 26 07 28 39.59  60.4985 -152.7460  3.53 -0.30 0.72 0.99 0.12   60401473
AVRDN    1.110  1.000 P
AVRED    1.790  1.000 P
AVREF    1.820  1.000 S
AVREF    1.180  1.000 P
AVRSO    1.060  1.000 P
# 2008 10 26 09 24 3.84  60.5428 -152.6583  7.48 0.00 1.60 0.71 0.09   60401508
AVDFR    1.790  1.000 P
AVRDN    1.780  1.000 P
AVRED    4.980  1.000 S
AVRED    2.780  1.000 P
AVREF    3.370  1.000 S
AVREF    2.560  1.000 P
AVRSO    2.510  1.000 P
# 2008 10 28 09 29 17.88  60.5115 -152.9680  3.92 0.60 0.54 1.19 0.04   60402348
AVDFR    3.050  1.000 P
AVNCT    1.340  1.000 P
AVRDN    2.370  1.000 P
AVRED    4.740  1.000 S
AVRED    2.610  1.000 P
AVREF    4.980  1.000 S
AVREF    2.830  1.000 P
AVRSO    2.570  1.000 P
# 2008 10 28 19 16 13.76  60.5000 -152.7430  3.27 -0.50 0.87 1.08 0.12   60402428
AVRDN    1.070  1.000 P
AVRED    1.750 -1.000 P
AVREF    1.790 -1.000 S
AVREF    1.140  1.000 P
AVRSO    1.030  1.000 P
# 2008 10 28 19 29 40.51  60.4985 -152.7517  2.89 -0.30 0.65 1.10 0.10   60402438
AVRDN    1.030  1.000 P
AVRED    1.710 -1.000 P
AVREF    1.750  1.000 S
AVREF    1.100  1.000 P
AVRSO    0.990  1.000 P
# 2008 10 29 01 24 38.19  60.5388 -152.6253  3.49 0.60 1.35 2.10 0.10   60402568
AVRDN    1.400  1.000 P
AVRED    2.900  1.000 P
AVREF    2.780 -1.000 S
AVREF    1.350  1.000 P
AVRSO    2.240  1.000 P
# 2008 10 29 09 31 2.61  60.4897 -152.7682  0.30 0.10 0.42 1.69 0.05   60402678
AVRDN    0.870  1.000 P
AVRED    1.530 -1.000 P
AVREF    1.550 -1.000 S
AVREF    0.920  1.000 P
AVRSO    0.830 -1.000 P
# 2008 10 30 01 22 30.11  60.4968 -152.6263  4.80 0.90 1.15 0.59 0.05   60402913
AVRDN    1.620  1.000 P
AVRED    2.340  1.000 P
AVREF    2.350 -1.000 S
AVREF    1.300 -1.000 P
AVRSO    1.770  1.000 P
# 2008 10 30 16 35 27.40  60.4972 -152.8902  7.02 -0.20 3.28 4.01 0.22   60403148
AVRDN    2.290  1.000 P
AVRED    2.390  1.000 P
AVREF    4.120 -1.000 S
AVREF    2.210  1.000 P
AVRSO    1.670  1.000 P
# 2008 10 30 17 25 36.07  60.4955 -152.8038  0.88 0.20 0.74 0.77 0.10   60403153
AVRDN    1.140  1.000 P
AVRED    1.760  1.000 P
AVREF    2.380 -1.000 S
AVREF    1.140  1.000 P
AVRSO    1.040 -1.000 P
# 2008 10 30 17 26 1.67  60.4892 -152.7692 -0.02 0.00 0.46 2.15 0.06   60403168
AVRDN    0.860  1.000 P
AVRED    1.530  1.000 P
AVREF    1.510 -1.000 S
AVREF    0.920  1.000 P
AVRSO    0.830 -1.000 P
# 2008 10 30 17 29 30.30  60.4975 -152.7517  3.27 -0.10 0.73 0.97 0.12   60403173
AVRDN    1.060  1.000 P
AVRED    1.720  1.000 P
AVREF    1.800 -1.000 S
AVREF    1.130  1.000 P
AVRSO    1.040  1.000 P
# 2008 10 31 20 58 39.00  60.4907 -152.7757 -2.67 0.20 0.24 1.15 0.09   60403588
AVBGL   14.920  1.000 P
AVBGR    6.180  0.200 P
AVBKG   11.790  1.000 P
AVCKL   13.770  1.000 P
AVDFR    1.850  1.000 P
AVILW    9.120  1.000 P
AVNCG   17.840  1.000 P
AVNCT    2.100  1.000 P
AVRDN    0.880  1.000 P
AVRED    1.570  1.000 P
AVREF    1.600  1.000 S
AVREF    1.500  1.000 S
AVREF    0.940  1.000 P
AVRSO    0.830  1.000 P
AVSPNW   16.220  1.000 P
AVSPU   14.230  1.000 P
AVSPWE   14.890  1.000 P
AVSTLK   20.540  1.000 P
# 2008 11 01 08 53 41.18  60.4842 -152.8085  4.41 0.10 1.42 1.42 0.13   60374493
AVRDN    1.300  1.000 P
AVRED    1.820  1.000 P
AVREF    2.720 -1.000 S
AVREF    1.510  1.000 P
AVRSO    1.110  1.000 P
# 2008 11 02 14 49 6.96  60.3505 -152.6905 14.61 0.10 3.47 1.38 0.09   60375103
AVRDN    4.050 -1.000 P
AVRED    2.930  1.000 P
AVREF    6.610  1.000 S
AVRSO    3.480  1.000 P
# 2008 11 04 03 42 34.77  60.4893 -152.7712 -0.25 0.10 0.42 2.28 0.05   60375878
AVRDN    0.850  1.000 P
AVRED    2.720  1.000 S
AVRED    1.530  1.000 P
AVREF    1.530 -1.000 S
AVREF    0.920  1.000 P
AVRSO    0.800 -1.000 P
# 2008 11 04 19 19 44.10  60.4915 -152.7740  0.39 0.10 0.52 1.64 0.04   60376103
AVRDN    0.830  1.000 P
AVRED    2.780 -1.000 S
AVRED    1.580 -1.000 P
AVREF    1.640 -1.000 S
AVREF    0.980 -1.000 P
AVRSO    0.870 -1.000 P
# 2008 11 04 21 48 10.86  60.4897 -152.7752 -3.00 0.50 0.67 0.87 0.31   60376133
AVNCT    2.380  1.000 P
AVRDN    0.830  1.000 P
AVRED    3.300  1.000 S
AVRED    1.470  1.000 P
AVREF    2.220 -1.000 S
AVREF    0.890  1.000 P
AVRSO    0.790  1.000 P
# 2008 11 05 00 01 13.50  60.4943 -152.7530  2.22 0.10 0.57 1.08 0.08   60376158
AVRDN    1.020  1.000 P
AVRED    2.850  1.000 S
AVRED    1.630  1.000 P
AVREF    1.640 -1.000 S
AVREF    1.040  1.000 P
AVRSO    0.920  1.000 P
# 2008 11 05 12 10 48.23  60.4927 -152.7600  1.41 -0.30 0.53 0.27 0.06   60376313
AVRDN    0.950  1.000 P
AVRED    2.790 -1.000 S
AVRED    1.610  1.000 P
AVREF    1.610 -1.000 S
AVREF    1.010  1.000 P
AVRSO    0.900  1.000 P
# 2008 11 06 04 08 48.17  60.4955 -152.7042  5.94 -0.50 1.27 0.84 0.11   60376558
AVRDN    1.440  1.000 P
AVRED    3.030  1.000 P
AVREF    2.110  1.000 S
AVREF    1.260 -1.000 P
AVRSO    1.650  1.000 P
# 2008 11 06 05 06 43.17  60.4895 -152.7700  0.36 0.20 0.41 1.63 0.04   60376573
AVRDN    0.860 -1.000 P
AVRED    2.660  1.000 S
AVRED    1.570  1.000 P
AVREF    1.590 -1.000 S
AVREF    0.930  1.000 P
AVRSO    0.830 -1.000 P
# 2008 11 06 05 55 57.35  60.4943 -152.7377  3.33 -0.10 0.71 1.18 0.11   60376583
AVRDN    1.010 -1.000 P
AVRED    2.780  1.000 S
AVREF    1.730 -1.000 S
AVREF    1.080  1.000 P
AVRSO    1.260  1.000 P
# 2008 11 06 15 10 9.27  60.4988 -152.7667  1.99 0.60 0.71 2.41 0.08   60376703
AVRDN    0.740 -1.000 P
AVRED    2.960 -1.000 S
AVREF    1.780 -1.000 S
AVREF    1.150 -1.000 P
AVRSO    1.120  1.000 P
# 2008 11 06 21 01 47.18  60.4958 -152.8125  0.14 0.70 0.88 3.68 0.10   60376803
AVRDN    1.130 -1.000 P
AVRED    3.000 -1.000 S
AVRED    1.770 -1.000 P
AVREF    2.550 -1.000 S
AVREF    1.180  1.000 P
AVRSO    1.070 -1.000 P
# 2008 11 07 15 37 54.70  60.4945 -152.7582  0.85 0.10 0.71 1.36 0.15   60377123
AVRDN    0.780  1.000 P
AVREF    1.530 -1.000 S
AVREF    0.820  1.000 P
AVRSO    0.650  1.000 P
# 2008 11 08 01 25 49.36  60.5550 -152.5972  1.94 0.50 3.34 14.32 0.18   60377288
AVRDN    1.780 -1.000 P
AVRED    3.440 -1.000 P
AVREF    3.320  1.000 S
AVREF    3.040  1.000 S
AVREF    1.740 -1.000 P
AVRSO    2.320 -1.000 P
# 2008 11 11 03 30 56.47  60.4830 -152.6343  2.70 0.70 0.75 0.69 0.03   60378133
AVRDN    1.460  1.000 P
AVRED    2.340  1.000 P
AVREF    1.800 -1.000 S
AVREF    1.000 -1.000 P
AVRSO    1.580 -1.000 P
# 2008 11 11 09 41 26.41  60.5142 -152.7650  0.62 0.20 0.56 0.59 0.06   60378218
AVRDN    0.520  1.000 P
AVRED    2.110 -0.200 P
AVREF    1.870 -1.000 S
AVREF    0.920  1.000 P
AVRSO    0.860  0.200 P
# 2008 11 15 01 39 6.16  60.5447 -153.0638 27.70 1.40 6.31 2.62 0.16   60379453
AVRDN    5.620  1.000 P
AVRDT    6.850 -1.000 P
AVREF    9.960 -1.000 S
AVREF    5.650  1.000 P
AVRSO    5.520 -1.000 P
# 2008 11 15 16 53 58.08  60.5385 -152.5565  7.63 -0.40 0.48 0.69 0.05   60379663
AVBGR    4.480  1.000 P
AVRDN    2.340  1.000 P
AVRDT    2.070  1.000 P
AVRED    5.810  1.000 S
AVRED    3.350  0.200 P
AVREF    3.970  1.000 S
AVREF    2.240  1.000 P
AVRSO    2.850  1.000 P
# 2008 11 15 18 43 15.80  60.4820 -152.7975  1.31 1.00 1.59 1.02 0.29   60379698
AVRDN    1.180  1.000 P
AVRED    3.090  0.200 S
AVRED    1.890  1.000 P
AVREF    2.330 -1.000 S
AVREF    0.870  1.000 P
AVRSO    0.540  1.000 P
# 2008 11 17 12 53 54.49  60.5060 -152.7528  1.33 -0.20 0.42 0.28 0.05   60380068
AVRDN    0.640  1.000 P
AVRED    3.270 -1.000 S
AVRED    1.780  1.000 P
AVREF    1.740  1.000 S
AVREF    0.970  1.000 P
AVRSO    1.220  1.000 P
# 2008 11 19 06 14 57.57  60.5065 -152.7633  3.10 0.20 0.72 0.90 0.08   60380808
AVRDN    0.970  1.000 P
AVRED    1.850  1.000 P
AVREF    2.030 -1.000 S
AVREF    1.180 -1.000 P
AVRSO    1.080  1.000 P
# 2008 11 19 06 29 58.15  60.5043 -152.7542  3.38 0.10 0.75 0.87 0.09   60380823
AVRDN    1.010 -1.000 P
AVRED    1.860 -1.000 P
AVREF    2.000 -1.000 S
AVREF    1.150  1.000 P
AVRSO    1.090  1.000 P
# 2008 11 20 00 21 11.48  60.4868 -152.5853 -0.19 0.70 0.97 0.96 0.16   60381068
AVRDN    1.700  1.000 P
AVRED    4.310 -1.000 S
AVRED    2.660  1.000 P
AVREF    1.940 -1.000 S
AVREF    1.180  1.000 P
AVRSO    1.940  1.000 P
# 2008 11 20 21 03 5.46  60.5275 -152.7398  6.93 0.70 2.10 0.91 0.16   60381303
AVRDN    1.620 -1.000 P
AVRED    4.540 -1.000 S
AVRED    2.340  1.000 P
AVREF    2.990 -1.000 S
AVREF    1.720 -1.000 P
AVRSO    1.650  1.000 P
# 2008 11 24 07 06 42.75  60.6017 -152.7813  9.12 0.70 0.37 0.57 0.14   60382143
AKHOM   18.940  1.000 P
AVBGL   12.610  1.000 P
AVBGR    4.490  1.000 P
AVBKG    9.560  1.000 P
AVCGL   14.450  1.000 P
AVCKL   11.510  1.000 P
AVCKN   12.470  1.000 P
AVCKT   11.880  1.000 P
AVCRP   23.210  1.000 S
AVCRP   11.550  1.000 P
AVDFR    2.080  1.000 P
AVILW   10.190  1.000 P
AVNCG   15.430  1.000 P
AVNCT    2.450  1.000 P
AVRDN    2.460  1.000 P
AVRDT    3.750  1.000 P
AVRED    6.520  1.000 S
AVRED    3.670  1.000 P
AVREF    4.980  1.000 S
AVREF    5.110  1.000 S
AVREF    2.940  1.000 P
AVRSO    3.280  1.000 P
AVSPBG   20.890  1.000 S
AVSPBG   11.580  1.000 P
AVSPCG   23.700  0.200 S
AVSPCG   13.290  1.000 P
AVSPCR   20.600  1.000 S
AVSPCR   11.790  1.000 P
AVSPNW   11.620  1.000 P
AVSPU   12.180  1.000 P
AVSPWE   12.440  1.000 P
AVSTLK   18.110  1.000 P
