# 2009 01 30 18 06 1.30  60.4783 -152.7460 -0.31 0.20 0.63 0.59 0.02   60327093
AVDFR    2.580 -1.000 P
AVNCT    2.640 -1.000 P
AVRDN    0.990 -1.000 P
AVREF    1.150 -1.000 S
AVREF    0.610  0.200 P
AVRSO    0.470  1.000 P
# 2009 01 30 18 06 30.73  60.4245 -152.6998 -2.61 0.00 1.00 1.53 0.20   60327098
AVDFR    3.700  1.000 P
AVNCT    3.670  1.000 P
AVRDN    2.040  1.000 P
AVREF    2.210 -1.000 S
AVREF    1.410  1.000 P
AVRSO    0.950  1.000 P
# 2009 01 30 18 28 52.87  60.4943 -152.7652 -1.75 0.20 0.91 11.46 0.11   60327118
AVDFR    2.690  1.000 P
AVNCT    2.160 -1.000 P
AVRDN    0.560  1.000 P
AVREF    1.260 -1.000 S
AVREF    0.840 -1.000 P
AVRSO    0.860  1.000 P
# 2009 01 30 19 43 34.93  60.5145 -152.6985  3.53 1.10 0.93 0.82 0.17   60327163
AVDFR    1.540 -1.000 P
AVNCT    2.510  1.000 P
AVRDN    1.040  1.000 P
AVREF    2.240  1.000 S
AVREF    1.720  1.000 P
AVRSO    1.510  1.000 P
# 2009 01 30 19 50 13.90  60.4815 -152.7442 -2.97 1.80 0.79 1.12 0.38   60327168
AVCKL   15.680  1.000 P
AVDFR    2.100  1.000 P
AVILW    8.830  1.000 P
AVNCT    1.660  1.000 P
AVRDN    0.640  1.000 P
AVRDT    3.870  1.000 P
AVREF    1.100  1.000 S
AVREF    0.090  1.000 P
AVRSO    0.520  1.000 P
# 2009 01 30 19 52 36.48  60.4845 -152.7338  2.55 0.60 0.88 1.34 0.19   60327173
AVDFR    2.450  1.000 P
AVNCT    2.330  1.000 P
AVRDN    0.750  1.000 P
AVREF    1.690 -1.000 S
AVREF    0.860  1.000 P
AVRSO    0.810  1.000 P
# 2009 01 30 20 40 57.53  60.4483 -152.7585  2.69 0.10 2.32 0.85 0.24   60327203
AVDFR    2.930  1.000 P
AVNCT    2.820 -1.000 P
AVRDN    1.220  1.000 P
AVREF    2.360 -1.000 S
AVREF    1.770  1.000 P
AVRSO    0.870  0.200 P
# 2009 01 30 20 41 18.83  60.4593 -152.7318  4.72 0.70 0.80 0.50 0.05   60327208
AVDFR    2.790  1.000 P
AVNCT    2.800  1.000 P
AVRDN    1.180  1.000 P
AVREF    2.290 -1.000 S
AVREF    1.250  1.000 P
AVRSO    1.180 -1.000 P
# 2009 01 30 20 41 30.81  60.4670 -152.6880 -2.97 0.80 2.99 1.76 0.41   60327213
AVDFR    3.130 -1.000 P
AVINE    9.330 -1.000 P
AVNCT    3.080 -1.000 P
AVRDN    1.150  1.000 P
AVREF    1.170 -1.000 S
AVREF   -0.020  1.000 P
# 2009 01 30 20 42 52.67  60.4472 -152.7243  5.53 0.20 1.87 0.88 0.16   60327218
AVDFR    3.170  1.000 P
AVNCT    3.160 -1.000 P
AVRDN    1.580  1.000 P
AVREF    2.650 -1.000 S
AVREF    1.610 -1.000 P
AVRSO    1.250  1.000 P
# 2009 01 30 22 02 58.71  60.4782 -152.6857  2.00 0.00 2.65 1.15 0.37   60327278
AVDFR    2.950  1.000 P
AVNCT    3.010  1.000 P
AVRDN    1.190  1.000 P
AVREF    1.600  1.000 S
AVREF    0.310  1.000 P
AVRSO    0.620  1.000 P
# 2009 01 30 22 13 10.93  60.4700 -152.7543  4.45 0.90 1.24 1.11 0.17   60327303
AVDFR    2.800  1.000 P
AVNCT    2.800 -1.000 P
AVRDN    1.190  1.000 P
AVREF    2.410 -1.000 S
AVREF    1.190  1.000 P
AVRSO    1.020  1.000 P
# 2009 01 30 22 16 48.43  60.4863 -152.7292  0.49 0.70 0.37 0.36 0.07   60327338
AVDFR    2.440 -1.000 P
AVNCT    2.490  1.000 P
AVRDN    0.840  1.000 P
AVREF    1.070 -1.000 S
AVREF    0.470  1.000 P
AVRSO    0.780  1.000 P
# 2009 01 30 22 17 42.27  60.4667 -152.7448  3.73 0.80 1.43 1.13 0.20   60327348
AVDFR    2.940  1.000 P
AVNCT    2.810  1.000 P
AVRDN    1.050  1.000 P
AVREF    2.100  1.000 S
AVREF    1.170  1.000 P
AVRSO    0.860  1.000 P
# 2009 01 30 22 22 30.82  60.4723 -152.6613  3.83 -0.40 1.14 0.80 0.09   60327383
AVDFR    3.940  1.000 P
AVNCT    3.080  1.000 P
AVRDN    1.570  1.000 P
AVREF    1.990 -1.000 S
AVREF    0.920  1.000 P
AVRSO    1.530  1.000 P
# 2009 01 30 22 23 58.72  60.4805 -152.7338  3.82 1.10 1.04 0.97 0.16   60327393
AVDFR    2.540  1.000 P
AVNCT    2.600 -1.000 P
AVRDN    1.040  1.000 P
AVREF    1.880 -1.000 S
AVREF    1.090  1.000 P
AVRSO    0.820  1.000 P
# 2009 01 30 22 24 20.20  60.5020 -152.7207 -0.37 0.10 0.90 2.43 0.27   60327403
AVDFR    2.410 -1.000 P
AVRDN    0.170  1.000 P
AVREF    1.010 -1.000 S
AVREF    0.130  1.000 P
AVRSO    0.970  1.000 P
# 2009 01 30 22 30 28.48  60.4927 -152.7488  3.98 0.30 0.87 0.80 0.11   60327428
AVDFR    2.280 -1.000 P
AVRDN    1.020  1.000 P
AVREF    2.110 -1.000 S
AVREF    0.960  1.000 P
AVRSO    1.330  1.000 P
# 2009 01 30 22 31 0.45  60.4888 -152.7822 -0.12 0.80 0.33 0.78 0.07   60327443
AVDFR    2.390 -1.000 P
AVNCT    2.370 -1.000 P
AVRDN    0.840  1.000 P
AVREF    1.830 -1.000 S
AVREF    0.860  1.000 P
AVRSO    0.700  1.000 P
# 2009 01 30 23 54 6.56  60.4952 -152.7412  1.32 0.20 0.66 0.38 0.15   60327468
AVDFR    2.190 -1.000 P
AVNCT    2.260 -1.000 P
AVRDN    0.710  1.000 P
AVREF    1.590 -1.000 S
AVREF    0.540  1.000 P
AVRSO    1.130  1.000 P
# 2009 01 31 02 14 13.80  60.5038 -152.7653 -1.84 0.30 0.63 7.07 0.05   60327518
AVNCT    2.220 -1.000 P
AVRDN    0.440 -1.000 P
AVREF    1.450 -1.000 S
AVREF    0.920 -1.000 P
AVRSO    0.900  1.000 P
# 2009 01 31 05 35 26.92  60.4977 -152.8117 -0.53 0.30 0.57 3.28 0.07   60327673
AVDFR    2.440 -1.000 P
AVRDN    0.940  1.000 P
AVREF    2.350 -1.000 S
AVREF    1.210  1.000 P
AVRSO    1.190  1.000 P
# 2009 01 31 06 29 11.77  60.4963 -152.7828  0.25 0.30 0.37 1.66 0.08   60327708
AVNCT    2.250 -1.000 P
AVRDN    0.740  1.000 P
AVREF    1.910 -1.000 S
AVREF    0.940  1.000 P
AVRSO    0.860  1.000 P
# 2009 01 31 07 40 35.90  60.5047 -152.7947 -1.59 -0.10 1.40 18.45 0.20   60327743
AVDFR    2.800 -1.000 P
AVNCT    1.900 -1.000 P
AVRDN    0.240  1.000 P
AVREF    2.000 -1.000 S
AVREF    1.090  1.000 P
AVRSO    0.960  1.000 P
# 2009 01 31 08 36 14.26  60.4870 -152.7853  4.94 -0.50 0.83 0.75 0.03   60327788
AVDFR    4.780  1.000 P
AVRDN    1.420  1.000 P
AVREF    2.570 -1.000 S
AVREF    1.440 -1.000 P
AVRSO    1.300 -1.000 P
# 2009 01 31 09 00 56.78  60.4963 -152.7580  0.13 0.30 0.40 0.78 0.09   60327813
AVDFR    2.350  1.000 P
AVNCT    2.180 -1.000 P
AVRDN    0.620  1.000 P
AVREF    1.270 -1.000 S
AVREF    0.900  1.000 P
AVRSO    0.880  1.000 P
# 2009 01 31 10 30 44.01  60.5052 -152.7643  0.66 0.90 0.45 0.42 0.06   60327858
AVDFR    2.130 -1.000 P
AVNCT    2.080 -1.000 P
AVRDN    0.630  1.000 P
AVREF    1.670 -1.000 S
AVREF    0.920  1.000 P
AVRSO    0.960  1.000 P
# 2009 01 31 11 48 13.73  60.5095 -152.7473  0.40 0.10 1.05 1.65 0.25   60327893
AVDFR    2.320  1.000 P
AVNCT    2.100 -1.000 P
AVRDN    0.410 -1.000 P
AVREF    1.480 -1.000 S
AVREF    0.540  1.000 P
AVRSO    0.890  1.000 P
# 2009 01 31 12 12 4.41  60.4967 -152.7793 -0.24 0.80 0.27 1.28 0.02   60327898
AVDFR    2.340  1.000 P
AVNCT    2.150 -1.000 P
AVRDN    0.700  1.000 P
AVREF    1.730 -1.000 S
AVREF    0.950  1.000 P
AVRSO    0.860  1.000 P
# 2009 01 31 13 35 2.00  60.5038 -152.7593 -2.06 -0.20 0.52 3.98 0.16   60327938
AVDFR    2.290 -1.000 P
AVNCT    2.190 -1.000 P
AVRDN    0.280  1.000 P
AVREF    1.440  1.000 S
AVREF    0.530  1.000 P
AVRSO    0.890  1.000 P
# 2009 01 31 15 11 1.03  60.4972 -152.7480  0.16 -0.20 0.60 1.51 0.15   60327978
AVDFR    2.450 -1.000 P
AVRDN    0.360  1.000 P
AVREF    1.260 -1.000 S
AVREF    0.640  1.000 P
AVRSO    0.880 -1.000 P
# 2009 01 31 15 26 30.61  60.4783 -152.7498  2.66 0.50 1.02 1.85 0.09   60327983
AVNCT    2.560 -1.000 P
AVRDN    1.000  1.000 P
AVREF    1.860 -1.000 S
AVREF    1.010 -1.000 P
AVRSO    0.880 -1.000 P
# 2009 01 31 17 31 14.03  60.4843 -152.7452 -1.65 0.50 1.82 22.10 0.28   60328073
AVDFR    2.780  1.000 P
AVNCT    2.810 -1.000 P
AVRDN    0.670  1.000 P
AVREF    1.290 -1.000 S
AVREF    0.050  1.000 P
AVRSO    0.480  1.000 P
# 2009 01 31 17 39 59.65  60.5077 -152.7628 -0.21 0.30 1.49 4.13 0.19   60328083
AVNCT    2.380 -1.000 P
AVRDN    0.160  1.000 P
AVREF    1.700 -1.000 S
AVREF    0.990  1.000 P
AVRSO    0.910 -1.000 P
# 2009 01 31 23 57 6.99  60.4972 -152.7457  0.50 0.80 0.37 0.68 0.08   60328308
AVNCT    2.390 -1.000 P
AVRDN    0.660  1.000 P
AVREF    1.230 -1.000 S
AVREF    0.820  1.000 P
AVRSO    0.760  1.000 P
# 2009 02 01 01 57 37.79  60.4780 -152.7305  3.20 0.70 0.79 0.84 0.09   60303973
AVNCT    2.550 -1.000 P
AVRDN    1.360  1.000 P
AVREF    1.770 -1.000 S
AVREF    0.930 -1.000 P
AVRSO    0.930  1.000 P
# 2009 02 01 02 04 59.05  60.4923 -152.7610  1.03 0.00 0.53 0.76 0.11   60303983
AVNCT    2.320 -1.000 P
AVRDN    0.640  1.000 P
AVREF    1.590 -1.000 S
AVREF    0.920  1.000 P
AVRSO    0.960  1.000 P
# 2009 02 01 02 19 44.21  60.4842 -152.7413  0.11 0.30 0.49 0.58 0.18   60304003
AVDFR    2.360  1.000 P
AVNCT    2.320  1.000 P
AVRDN    0.730  1.000 P
AVRDT    3.980  1.000 P
AVREF    0.930 -1.000 S
AVREF    0.710  1.000 P
AVRSO    0.670  1.000 P
# 2009 02 01 02 55 32.87  60.5102 -152.7682 -2.74 0.60 0.51 0.91 0.15   60304038
AVDFR    2.030  1.000 P
AVNCT    1.960 -1.000 P
AVRDN    0.440  1.000 P
AVRDT    4.300  0.200 P
AVREF    1.530 -1.000 S
AVREF    0.690  1.000 P
AVRSO    1.180 -1.000 P
# 2009 02 01 05 51 51.25  60.4940 -152.7478  2.71 0.60 0.47 0.79 0.07   60304138
AVDFR    2.200 -1.000 P
AVNCT    2.180 -1.000 P
AVRDN    0.950  1.000 P
AVREF    1.690 -1.000 S
AVREF    0.920  1.000 P
AVRSO    1.040  1.000 P
# 2009 02 01 06 42 10.43  60.4738 -152.7460 -0.56 -0.10 0.95 2.50 0.23   60304163
AVDFR    2.680  1.000 P
AVRDN    0.690  1.000 P
AVREF    1.110 -1.000 S
AVREF    0.810  1.000 P
AVRSO    0.160  1.000 P
# 2009 02 01 08 03 44.12  60.4352 -152.6580 -0.39 0.40 0.78 1.11 0.10   60304183
AVDFR    3.820  1.000 P
AVNCT    3.800 -1.000 P
AVRDN    2.020  1.000 P
AVREF    2.360 -1.000 S
AVREF    1.120  1.000 P
AVRSO    1.340  1.000 P
# 2009 02 01 12 44 18.07  60.4928 -152.7643  0.53 0.10 0.47 0.63 0.06   60304328
AVNCT    2.240 -1.000 P
AVRDN    0.730  1.000 P
AVREF    1.480 -1.000 S
AVREF    0.970  1.000 P
AVRSO    0.920  1.000 P
# 2009 02 01 14 08 28.38  60.4985 -152.7460  0.87 -0.20 0.50 0.49 0.13   60304378
AVDFR    2.250 -1.000 P
AVNCT    2.140 -1.000 P
AVRDN    0.580  1.000 P
AVREF    1.280 -1.000 S
AVREF    0.890  1.000 P
AVRSO    0.840  1.000 P
# 2009 02 01 14 08 42.40  60.5033 -152.7547  0.37 0.00 0.65 1.02 0.18   60304383
AVDFR    2.370  1.000 P
AVNCT    2.280 -1.000 P
AVRDN    0.450  1.000 P
AVREF    1.600 -1.000 S
AVREF    0.540  1.000 P
AVRSO    0.910  1.000 P
# 2009 02 01 14 35 38.28  60.5045 -152.7713 -1.77 0.70 0.42 2.08 0.12   60304393
AVDFR    2.280  1.000 P
AVILW    9.170 -0.200 P
AVINE    9.880  0.200 P
AVNCT    2.230 -1.000 P
AVRDN    0.330  1.000 P
AVRDT    5.560  1.000 P
AVREF    1.760  1.000 S
AVREF    0.960  1.000 P
AVRSO    0.880  1.000 P
# 2009 02 01 15 19 35.12  60.4952 -152.7580  0.50 0.40 0.45 0.63 0.07   60304433
AVDFR    2.740  1.000 P
AVNCT    2.260 -1.000 P
AVRDN    0.710  1.000 P
AVREF    1.340 -1.000 S
AVREF    0.970  1.000 P
AVRSO    0.890  1.000 P
# 2009 02 01 18 48 12.74  60.5058 -152.7418  0.72 0.30 0.61 0.38 0.14   60304603
AVDFR    2.110 -1.000 P
AVNCT    2.050 -1.000 P
AVRDN    0.520  1.000 P
AVREF    1.240 -1.000 S
AVREF    0.800  1.000 P
AVRSO    1.360  1.000 P
# 2009 02 01 18 49 12.46  60.4998 -152.7767  0.37 0.80 0.55 0.77 0.09   60304608
AVDFR    2.360  0.200 P
AVNCT    2.210 -1.000 P
AVRDN    0.640  1.000 P
AVREF    1.830 -1.000 S
AVREF    0.940  1.000 P
AVRSO    0.870  1.000 P
# 2009 02 01 18 54 56.20  60.4860 -152.7622  1.59 0.40 0.60 1.73 0.08   60304618
AVDFR    2.430  1.000 P
AVRDN    0.840  1.000 P
AVREF    1.690 -1.000 S
AVREF    0.930  1.000 P
AVRSO    0.850  1.000 P
# 2009 02 01 21 13 19.00  60.4970 -152.7373  2.44 -0.10 1.54 2.84 0.19   60304683
AVNCT    2.040 -1.000 P
AVRDN    1.030 -1.000 P
AVREF    1.580 -1.000 S
AVREF    0.740 -1.000 P
AVRSO    1.400 -1.000 P
# 2009 02 01 22 51 48.78  60.4948 -152.7465  0.59 0.20 0.56 0.69 0.17   60304723
AVDFR    2.550  1.000 P
AVNCT    2.120 -1.000 P
AVRDN    0.640  1.000 P
AVREF    1.110 -1.000 S
AVREF    0.880  1.000 P
AVRSO    1.050  1.000 P
# 2009 02 01 22 52 23.91  60.4997 -152.7793 -1.73 -0.10 0.66 8.45 0.08   60304728
AVDFR    2.210 -1.000 P
AVNCT    2.110 -1.000 P
AVRDN    0.620  1.000 P
AVREF    1.720  1.000 S
AVREF    0.970  1.000 P
AVRSO    1.000  1.000 P
# 2009 02 01 23 23 3.87  60.5172 -152.7317  3.37 0.10 1.21 0.92 0.16   60304733
AVDFR    3.390  1.000 P
AVNCT    2.300 -1.000 P
AVRDN    0.800  1.000 P
AVREF    2.280  1.000 S
AVREF    0.960 -1.000 P
AVRSO    1.710  1.000 P
# 2009 02 02 00 52 58.19  60.4870 -152.6792  5.20 -0.10 1.74 1.34 0.16   60304758
AVNCT    3.700  0.200 P
AVRDN    1.700  1.000 P
AVREF    2.250 -1.000 S
AVREF    0.970  1.000 P
AVRSO    1.480  1.000 P
# 2009 02 02 01 58 4.06  60.4950 -152.7610  1.11 0.10 0.46 0.68 0.10   60304778
AVDFR    2.780  1.000 P
AVNCT    2.160 -1.000 P
AVRDN    0.780  1.000 P
AVREF    1.770  1.000 S
AVREF    1.520 -1.000 S
AVREF    0.870  1.000 P
AVRSO    1.080  1.000 P
# 2009 02 02 01 58 11.67  60.5118 -152.7517  1.64 0.70 1.29 1.32 0.07   60304783
AVNCT    1.970 -1.000 P
AVRDN    0.700  1.000 P
AVREF    1.700 -1.000 S
AVREF    1.130  1.000 P
AVRSO    1.300 -1.000 P
# 2009 02 02 05 58 23.67  60.5020 -152.7503 -1.61 0.10 1.10 13.85 0.14   60304893
AVDFR    2.620  1.000 P
AVRDN    0.300 -1.000 P
AVREF    1.220 -1.000 S
AVREF    0.620 -1.000 P
AVRSO    0.800 -1.000 P
# 2009 02 02 07 47 11.75  60.4830 -152.7585  1.69 0.60 0.58 1.34 0.08   60304923
AVDFR    2.380  1.000 P
AVNCT    2.450  1.000 P
AVRDN    0.900  1.000 P
AVREF    1.740 -1.000 S
AVREF    0.880  1.000 P
AVRSO    0.820  1.000 P
# 2009 02 02 11 16 18.93  60.4963 -152.7633 -2.08 0.10 0.70 6.71 0.25   60304963
AVDFR    2.480  1.000 P
AVNCT    2.180  1.000 P
AVRDN    0.390  1.000 P
AVREF    1.390 -1.000 S
AVREF    0.650  1.000 P
AVRSO    0.800 -1.000 P
# 2009 02 02 12 40 49.47  60.5128 -152.7692  0.14 0.30 0.35 1.09 0.09   60304983
AVDFR    2.110 -1.000 P
AVNCT    1.930 -1.000 P
AVRDN    0.510  1.000 P
AVREF    1.770 -1.000 S
AVREF    0.990  1.000 P
AVRSO    1.160  1.000 P
# 2009 02 02 13 51 16.58  60.5007 -152.7670 -1.45 0.10 1.10 18.38 0.23   60305013
AVDFR    2.160  1.000 P
AVNCT    2.080  1.000 P
AVRDN    0.310  1.000 P
AVREF    1.600 -1.000 S
AVREF    0.820  1.000 P
AVRSO    0.750 -1.000 P
# 2009 02 02 14 01 37.96  60.4957 -152.7460  2.78 0.50 0.55 1.03 0.08   60305023
AVDFR    3.550  1.000 P
AVNCT    2.150 -1.000 P
AVRDN    1.080  1.000 P
AVREF    1.700 -1.000 S
AVREF    0.960 -1.000 P
AVRSO    1.200  1.000 P
# 2009 02 02 14 18 41.50  60.5027 -152.7662 -1.62 0.30 0.71 9.40 0.08   60305028
AVDFR    2.190 -1.000 P
AVNCT    2.160 -1.000 P
AVRDN    0.540  1.000 P
AVREF    1.450  1.000 S
AVREF    1.420  1.000 S
AVREF    0.850  1.000 P
AVRSO    0.840  1.000 P
# 2009 02 02 14 30 54.17  60.4992 -152.7488  0.95 0.30 0.53 0.45 0.12   60305033
AVDFR    2.260  1.000 P
AVNCT    2.100 -1.000 P
AVRDN    0.890  1.000 P
AVREF    1.330 -1.000 S
AVREF    0.820  1.000 P
AVRSO    1.030  1.000 P
# 2009 02 02 15 35 30.48  60.4990 -152.7843 -1.57 0.10 0.72 10.23 0.08   60305063
AVDFR    2.270 -1.000 P
AVNCT    2.180 -1.000 P
AVRDN    0.610  1.000 P
AVREF    1.870 -1.000 S
AVREF    0.890  1.000 P
AVRSO    0.870 -1.000 P
# 2009 02 02 16 03 17.53  60.4947 -152.7125  2.09 -0.30 1.07 1.27 0.20   60305078
AVDFR    2.300 -1.000 P
AVNCT    2.340  1.000 P
AVRDN    0.830  1.000 P
AVREF    1.480 -1.000 S
AVREF    0.370  1.000 P
AVRSO    1.310  1.000 P
# 2009 02 02 17 42 46.40  60.4863 -152.7713  1.40 0.60 1.45 1.05 0.31   60305118
AVDFR    1.900 -1.000 P
AVNCT    2.680 -1.000 P
AVRDN    0.390  1.000 P
AVREF    2.040 -1.000 S
AVREF    1.230  1.000 P
AVRSO    0.880  1.000 P
# 2009 02 02 18 29 49.54  60.4902 -152.7583  3.13 0.10 0.53 0.89 0.05   60305238
AVDFR    2.820  1.000 P
AVNCT    2.190 -1.000 P
AVRDN    1.160  1.000 P
AVREF    1.850 -1.000 S
AVREF    1.090  1.000 P
AVRSO    1.100  1.000 P
# 2009 02 02 18 41 10.35  60.4870 -152.7395 -2.96 1.30 0.63 0.94 0.31   60305268
AVDFR    2.560  1.000 P
AVNCT    2.560  1.000 P
AVRDN    0.580  1.000 P
AVRDT    4.940  0.200 P
AVREF    1.150 -1.000 S
AVREF   -0.100  1.000 P
AVRSO    0.800  1.000 P
# 2009 02 02 18 42 33.90  60.4917 -152.7493  0.46 0.30 0.54 0.60 0.10   60305278
AVDFR    2.380 -1.000 P
AVNCT    2.320 -1.000 P
AVRDN    0.620  1.000 P
AVREF    1.190 -1.000 S
AVREF    0.820  1.000 P
AVRSO    0.860 -1.000 P
# 2009 02 02 21 53 21.83  60.5100 -152.6178 -2.72 -0.40 13.75 8.54 0.19   60305358
AVNCT    3.630 -1.000 P
AVRDN    1.140 -1.000 P
AVREF    1.960 -1.000 S
AVREF    1.160  1.000 P
AVRSO    1.750 -1.000 P
# 2009 02 03 00 37 16.91  60.4815 -152.7567  1.69 0.30 0.76 1.54 0.08   60305498
AVNCT    2.500 -1.000 P
AVRDN    0.960  1.000 P
AVREF    1.740 -1.000 S
AVREF    0.830  1.000 P
AVRSO    0.790  1.000 P
# 2009 02 03 02 06 35.46  60.4928 -152.7568  0.17 0.50 0.34 0.43 0.06   60305548
AVDFR    2.310 -1.000 P
AVNCT    2.300  1.000 P
AVRDN    0.640  1.000 P
AVREF    1.290 -1.000 S
AVREF    0.860  1.000 P
AVRSO    0.790  1.000 P
# 2009 02 03 03 15 32.77  60.4972 -152.7530  0.54 -0.30 0.41 0.43 0.08   60305573
AVDFR    2.160 -1.000 P
AVNCT    2.280 -1.000 P
AVRDN    0.560  1.000 P
AVREF    1.390 -1.000 S
AVREF    1.250  1.000 P
AVRSO    1.030  1.000 P
# 2009 02 03 03 31 11.29  60.5107 -152.7883  2.69 0.40 0.75 1.28 0.06   60305588
AVDFR    3.160  1.000 P
AVRDN    0.950 -1.000 P
AVREF    2.290 -1.000 S
AVREF    1.370 -1.000 P
AVRSO    1.260 -1.000 P
# 2009 02 03 03 35 28.35  60.4632 -152.7338  5.16 0.50 1.84 0.98 0.12   60305593
AVNCT    2.930 -1.000 P
AVRDN    1.370  1.000 P
AVREF    2.470 -1.000 S
AVREF    1.420 -1.000 P
AVRSO    1.240 -1.000 P
# 2009 02 03 03 38 40.50  60.4643 -152.7785  2.54 0.80 1.56 1.29 0.09   60305598
AVNCT    2.550 -1.000 P
AVRDN    1.340  1.000 P
AVREF    2.310 -1.000 S
AVREF    1.150 -1.000 P
AVRSO    0.960 -1.000 P
# 2009 02 03 03 49 26.03  60.4743 -152.7252  2.80 0.20 1.27 1.02 0.17   60305613
AVDFR    2.610  1.000 P
AVNCT    2.590 -1.000 P
AVRDN    0.930  1.000 P
AVREF    1.560 -1.000 S
AVREF    0.980  1.000 P
AVRSO    0.950  1.000 P
# 2009 02 03 05 52 11.26  60.4953 -152.7558  0.80 0.30 0.43 0.43 0.08   60305653
AVDFR    2.170  1.000 P
AVNCT    2.230 -1.000 P
AVRDN    0.750  1.000 P
AVREF    1.360 -1.000 S
AVREF    1.000  1.000 P
AVRSO    0.920  1.000 P
# 2009 02 03 07 05 38.55  60.4718 -152.7315  3.94 0.60 0.68 0.52 0.02   60305673
AVNCT    2.710 -0.200 P
AVRDN    1.060  1.000 P
AVREF    1.980 -1.000 S
AVREF    1.140  1.000 P
AVRSO    1.060 -1.000 P
# 2009 02 03 09 54 47.25  60.4892 -152.7708  1.41 0.40 0.48 0.58 0.05   60305793
AVDFR    3.000  1.000 P
AVNCT    2.100 -0.200 P
AVRDN    1.030  1.000 P
AVREF    1.830 -1.000 S
AVREF    0.970  1.000 P
AVRSO    0.930  1.000 P
# 2009 02 03 10 30 47.55  60.4878 -152.7652  0.77 0.60 0.75 0.96 0.15   60305828
AVDFR    2.930  1.000 P
AVNCT    2.480 -1.000 P
AVRDN    0.650  1.000 P
AVREF    1.820 -1.000 S
AVREF    0.730  1.000 P
AVRSO    0.750  1.000 P
# 2009 02 03 13 27 20.52  60.4763 -152.7255  5.17 1.50 1.47 0.89 0.20   60305948
AVDFR    2.810  1.000 P
AVNCT    2.770 -1.000 P
AVRDN    1.040  1.000 P
AVREF    2.190 -1.000 S
AVREF    1.340  1.000 P
AVRSO    1.190  1.000 P
# 2009 02 03 15 03 12.68  60.4987 -152.7607  0.82 0.60 0.36 0.36 0.03   60306003
AVDFR    2.080  1.000 P
AVNCT    2.230 -1.000 P
AVRDN    0.680  1.000 P
AVREF    1.580 -1.000 S
AVREF    0.920  1.000 P
AVRSO    0.910  1.000 P
# 2009 02 03 16 07 11.28  60.5023 -152.7627 -0.28 0.30 0.45 1.71 0.11   60306028
AVNCT    2.160 -1.000 P
AVRDN    0.630  1.000 P
AVREF    1.300  1.000 S
AVREF    0.980 -1.000 P
AVRSO    0.830  1.000 P
# 2009 02 03 17 41 42.72  60.4950 -152.7625  0.59 0.30 0.38 0.44 0.06   60306058
AVDFR    2.280 -1.000 P
AVNCT    2.150 -1.000 P
AVRDN    0.720  1.000 P
AVREF    1.460 -1.000 S
AVREF    0.970  1.000 P
AVRSO    0.910  1.000 P
# 2009 02 04 01 48 9.09  60.4747 -152.7573  3.12 0.50 0.83 1.06 0.10   60306263
AVNCT    2.570 -1.000 P
AVRDN    1.050  1.000 P
AVREF    2.010 -1.000 S
AVREF    1.120 -1.000 P
AVRSO    1.010  1.000 P
# 2009 02 04 01 48 15.27  60.4678 -152.6922  2.72 0.60 1.86 1.04 0.20   60306268
AVNCT    2.690  1.000 P
AVRDN    1.310  1.000 P
AVREF    1.430 -1.000 S
AVREF    1.160 -1.000 P
# 2009 02 04 02 06 43.42  60.4997 -152.7763 -1.57 0.00 0.75 10.19 0.08   60306278
AVDFR    2.230 -1.000 P
AVNCT    2.160 -1.000 P
AVRDN    0.570  1.000 P
AVREF    1.660 -1.000 S
AVREF    1.000  1.000 P
AVRSO    0.980  1.000 P
