# 2009 01 27 09 53 46.70  60.5323 -152.8303  4.42 0.30 0.42 0.91 0.08   60323613
AVDFR    2.120  1.000 P
AVNCT    1.400  1.000 P
AVRDN    1.400  1.000 P
AVRDT    4.020  1.000 P
AVREF    3.330  1.000 S
AVREF    1.860  1.000 P
AVRSO    1.820  1.000 P
# 2009 01 27 09 59 17.88  60.5030 -152.7663  2.31 0.20 0.34 0.67 0.02   60323618
AVDFR    1.990  1.000 P
AVNCT    2.030 -1.000 P
AVRDN    0.850  1.000 P
AVREF    1.900 -1.000 S
AVREF    1.050  1.000 P
AVRSO    1.190 -1.000 P
# 2009 01 27 10 47 16.97  60.5088 -152.7258  0.22 0.00 1.26 1.60 0.36   60323638
AVDFR    2.560  1.000 P
AVNCT    1.940 -0.200 P
AVRDN    0.080  1.000 P
AVREF    0.980 -1.000 S
AVREF    0.600  1.000 P
AVRSO    0.920  1.000 P
# 2009 01 27 12 23 12.04  60.5085 -152.7583 -1.88 -0.40 1.11 6.57 0.22   60323663
AVDFR    2.090 -1.000 P
AVNCT    2.350 -1.000 P
AVRDN   -0.020  1.000 P
AVREF    1.580 -1.000 S
AVREF    0.520  1.000 P
AVRSO    0.970 -1.000 P
# 2009 01 27 13 52 28.59  60.4910 -152.7657  0.70 0.30 0.60 0.40 0.05   60323743
AVDFR    2.300 -1.000 P
AVNCT    2.230 -1.000 P
AVRDN    0.960  1.000 P
AVREF    0.870 -1.000 P
AVRSO    0.820  1.000 P
# 2009 01 27 14 11 50.42  60.5047 -152.7818  0.58 0.20 0.88 1.29 0.14   60323773
AVNCT    2.170 -1.000 P
AVRDN    0.700  1.000 P
AVREF    2.210 -1.000 S
AVREF    0.900  1.000 P
AVRSO    1.150  1.000 P
# 2009 01 27 15 03 24.53  60.4993 -152.7562 -2.98 -0.60 0.59 0.88 0.23   60323813
AVNCT    2.650 -1.000 P
AVRDN    0.290  1.000 P
AVREF    1.430 -1.000 S
AVREF    0.720  1.000 P
AVRSO    0.680  1.000 P
# 2009 01 27 16 20 17.15  60.5017 -152.7488  0.76 0.30 0.51 0.45 0.12   60323868
AVDFR    2.200 -1.000 P
AVNCT    2.130 -1.000 P
AVRDN    0.580  1.000 P
AVREF    1.270 -1.000 S
AVREF    0.880  1.000 P
AVRSO    0.840  1.000 P
# 2009 01 27 16 32 39.13  60.4932 -152.7818 -2.99 0.20 0.46 0.68 0.15   60323878
AVDFR    2.890  1.000 P
AVNCT    2.210 -1.000 P
AVRDN    0.700  1.000 P
AVREF    1.940  1.000 S
AVREF    0.900  1.000 P
AVRSO    0.830  1.000 P
# 2009 01 27 16 57 1.38  60.5017 -152.7467  0.92 0.10 0.49 0.53 0.08   60323893
AVDFR    2.610  1.000 P
AVNCT    2.260 -1.000 P
AVRDN    0.580  1.000 P
AVREF    1.360 -1.000 S
AVREF    0.990  1.000 P
AVRSO    0.960  1.000 P
# 2009 01 27 21 02 48.58  60.5137 -152.7723  3.97 0.90 1.16 1.34 0.16   60324043
AVNCT    2.020 -1.000 P
AVRDN    1.140  1.000 P
AVREF    2.700  1.000 S
AVREF    1.120 -1.000 P
AVRSO    1.510  1.000 P
# 2009 01 27 21 55 4.19  60.5302 -152.7020  0.62 -0.10 0.84 0.52 0.07   60324118
AVNCT    2.450 -1.000 P
AVRDN    0.640  1.000 P
AVREF    2.440  1.000 S
AVREF    1.020 -1.000 P
AVRSO    1.500  1.000 P
# 2009 01 28 00 31 11.17  60.4853 -152.7508  1.13 0.70 0.55 0.41 0.16   60324253
AVDFR    2.300  1.000 P
AVNCT    2.320 -1.000 P
AVRDN    0.720  1.000 P
AVRDT    3.800  1.000 P
AVREF    1.640  1.000 S
AVREF    1.150  1.000 S
AVREF    0.790  1.000 P
AVRSO    0.770  1.000 P
# 2009 01 28 00 59 22.92  60.4900 -152.7730  0.72 0.80 0.51 0.51 0.12   60324283
AVDFR    2.400  1.000 P
AVNCT    2.280 -1.000 P
AVRDN    0.790  1.000 P
AVRDT    3.860  0.200 P
AVREF    1.820 -1.000 S
AVREF    0.740  1.000 P
AVRSO    0.800  0.200 P
# 2009 01 28 01 00 25.65  60.4795 -152.7172  0.76 0.30 0.94 0.45 0.16   60324288
AVDFR    2.550 -1.000 P
AVNCT    2.540 -1.000 P
AVRDN    0.870  1.000 P
AVRDT    4.250  0.200 P
AVREF    1.000 -1.000 S
AVREF    0.450  1.000 P
AVRSO    0.900 -1.000 P
# 2009 01 28 01 21 14.12  60.4860 -152.7137  0.59 0.50 0.90 0.56 0.22   60324303
AVDFR    2.500 -1.000 P
AVNCT    2.680  1.000 P
AVRDN    0.620  1.000 P
AVREF    1.210 -1.000 S
AVREF    0.190  1.000 P
AVRSO    0.900  1.000 P
# 2009 01 28 01 31 57.85  60.4718 -152.7367  2.66 0.50 0.90 0.86 0.13   60324328
AVDFR    2.620  1.000 P
AVNCT    2.620 -1.000 P
AVRDN    0.990  1.000 P
AVREF    1.760  1.000 S
AVREF    0.930  1.000 P
AVRSO    1.080  1.000 P
# 2009 01 28 01 57 39.46  60.4940 -152.7357  1.85 1.10 1.10 1.56 0.17   60324343
AVDFR    2.330 -1.000 P
AVNCT    2.210  1.000 P
AVRDN    0.670  1.000 P
AVREF    1.490 -1.000 S
AVREF    0.610  1.000 P
AVRSO    1.260 -1.000 P
# 2009 01 28 01 58 39.15  60.5113 -152.7450  4.38 1.00 1.17 1.12 0.16   60324348
AVNCT    2.010 -1.000 P
AVRDN    1.160  1.000 P
AVREF    2.060 -1.000 S
AVREF    1.200  1.000 P
AVRSO    1.770  1.000 P
# 2009 01 28 02 29 0.89  60.4493 -152.7442  1.81 0.60 0.97 0.60 0.15   60324388
AVDFR    2.160  1.000 P
AVNCT    2.740 -1.000 P
AVRDN    1.560  1.000 P
AVRDT    4.150  1.000 P
AVREF    1.890 -1.000 S
AVREF    1.100  1.000 P
AVRSO    0.720  1.000 P
# 2009 01 28 02 44 36.98  60.5065 -152.7513  1.73 0.10 0.60 1.10 0.08   60324403
AVNCT    2.110 -1.000 P
AVRDN    0.680  1.000 P
AVREF    1.620 -1.000 S
AVREF    1.100  1.000 P
AVRSO    1.080  1.000 P
# 2009 01 28 03 00 0.82  60.4730 -152.7437  3.95 0.60 0.85 0.92 0.11   60324418
AVNCT    2.650 -1.000 P
AVRDN    1.190  1.000 P
AVREF    2.010 -1.000 S
AVREF    1.260 -1.000 P
AVRSO    0.890  1.000 P
# 2009 01 28 05 54 46.19  60.4848 -152.7442  1.93 0.50 0.60 1.07 0.08   60324558
AVDFR    2.380  1.000 P
AVNCT    2.220 -1.000 P
AVRDN    0.680  1.000 P
AVREF    1.470 -1.000 S
AVREF    0.840  1.000 P
AVRSO    0.890  1.000 P
# 2009 01 28 06 23 4.60  60.4945 -152.7560  2.17 0.50 0.80 1.86 0.20   60324588
AVDFR    2.470  1.000 P
AVNCT    2.260 -1.000 P
AVRDN    0.690  1.000 P
AVREF    1.850 -1.000 S
AVREF    0.740  1.000 P
AVRSO    0.880  1.000 P
# 2009 01 28 06 23 23.39  60.4830 -152.7325 -2.78 0.70 0.78 1.24 0.30   60324593
AVCKL   13.760  1.000 P
AVDFR    2.520  1.000 P
AVILW    8.590  1.000 P
AVINE    9.340  1.000 P
AVNCT    2.420  1.000 P
AVRDN    0.800  1.000 P
AVREF    0.930 -1.000 S
AVREF    0.040 -1.000 P
AVRSO    0.710  1.000 P
# 2009 01 28 07 29 33.02  60.5020 -152.7437  0.88 0.20 0.63 0.48 0.17   60324658
AVDFR    2.150 -1.000 P
AVNCT    2.220  1.000 P
AVRDN    0.250  1.000 P
AVREF    1.280 -1.000 S
AVREF    0.910  1.000 P
AVRSO    0.890  1.000 P
# 2009 01 28 08 05 42.57  60.5460 -152.7870  6.08 0.50 0.31 0.68 0.07   60324713
AVDFR    1.820  1.000 P
AVNCT    1.830  1.000 P
AVRDN    1.520  1.000 P
AVRDT    3.620  1.000 P
AVREF    3.430  1.000 S
AVREF    1.950  1.000 P
AVRSO    2.160  1.000 P
# 2009 01 28 09 56 55.32  60.4978 -152.7613  0.58 0.80 0.51 0.55 0.12   60324783
AVDFR    2.280 -1.000 P
AVNCT    2.160  1.000 P
AVRDN    0.500  1.000 P
AVREF    1.540 -1.000 S
AVREF    0.720  1.000 P
AVRSO    0.830  1.000 P
# 2009 01 28 10 05 43.91  60.4785 -152.7015  4.49 0.70 0.83 0.44 0.03   60324793
AVNCT    2.770 -1.000 P
AVRDN    1.440  1.000 P
AVREF    1.960 -1.000 S
AVREF    1.070  1.000 P
AVRSO    1.310 -1.000 P
# 2009 01 28 10 47 55.54  60.5028 -152.7605  0.18 0.50 1.02 2.90 0.36   60324818
AVDFR    2.430 -1.000 P
AVNCT    2.370 -1.000 P
AVRDN   -0.020  1.000 P
AVREF    1.680 -1.000 S
AVREF    0.490  1.000 P
AVRSO    0.590  1.000 P
# 2009 01 28 14 15 12.79  60.5018 -152.7133  3.98 0.80 1.60 1.36 0.22   60324958
AVNCT    2.290 -1.000 P
AVRDN    1.420  1.000 P
AVREF    1.800 -1.000 S
AVREF    0.810  1.000 P
AVRSO    1.830  1.000 P
# 2009 01 28 14 47 29.31  60.4845 -152.7823  0.92 1.10 0.59 0.56 0.08   60324993
AVDFR    2.270 -1.000 P
AVNCT    2.350 -1.000 P
AVRDN    1.090  1.000 P
AVREF    2.050 -1.000 S
AVREF    1.020  1.000 P
AVRSO    0.790  1.000 P
# 2009 01 28 14 57 44.38  60.4953 -152.7577  1.40 0.60 0.43 0.38 0.06   60325003
AVDFR    2.140 -1.000 P
AVNCT    2.110 -1.000 P
AVRDN    0.470  1.000 P
AVREF    1.580 -1.000 S
AVREF    1.060  0.200 P
AVRSO    1.000  1.000 P
# 2009 01 28 15 06 15.16  60.4803 -152.7588  2.49 1.10 0.53 0.92 0.05   60325013
AVNCT    2.340 -1.000 P
AVRDN    1.010  1.000 P
AVREF    1.760 -1.000 S
AVREF    1.060 -1.000 P
AVRSO    0.940  1.000 P
# 2009 01 28 15 21 5.06  60.4712 -152.7495  3.31 0.20 1.06 1.12 0.15   60325038
AVNCT    2.730 -1.000 P
AVRDN    1.060  1.000 P
AVREF    2.130 -1.000 S
AVREF    0.970 -1.000 P
AVRSO    1.080  1.000 P
# 2009 01 28 15 22 50.02  60.4793 -152.7560  1.87 0.30 0.76 1.48 0.11   60325043
AVDFR    2.830  1.000 P
AVNCT    2.570 -1.000 P
AVRDN    0.890  1.000 P
AVREF    1.780 -1.000 S
AVREF    0.880 -1.000 P
AVRSO    0.830  1.000 P
# 2009 01 28 16 47 22.39  60.5010 -152.7773  5.09 0.00 1.16 1.38 0.03   60325083
AVNCT    2.840  0.200 P
AVRDN    1.310 -1.000 P
AVREF    2.570 -1.000 S
AVREF    1.400 -1.000 P
AVRSO    1.460 -1.000 P
# 2009 01 28 16 49 11.02  60.4908 -152.7725  0.93 1.00 0.72 0.66 0.15   60325088
AVDFR    2.480 -1.000 P
AVNCT    1.990  1.000 P
AVRDN    0.870  1.000 P
AVREF    1.690 -1.000 S
AVREF    0.830  1.000 P
AVRSO    0.710  1.000 P
# 2009 01 28 16 57 36.73  60.4925 -152.7442  0.87 0.50 0.61 0.63 0.09   60325103
AVDFR    2.270 -1.000 P
AVNCT    2.360 -1.000 P
AVRDN    0.790 -1.000 P
AVREF    1.340 -1.000 S
AVREF    0.580  1.000 P
AVRSO    0.740  1.000 P
# 2009 01 28 17 34 16.46  60.4848 -152.7505  3.06 0.10 0.57 0.98 0.08   60325118
AVNCT    2.480 -1.000 P
AVRDN    0.980  1.000 P
AVREF    1.920 -1.000 S
AVREF    0.970 -1.000 P
AVRSO    1.040  1.000 P
# 2009 01 28 23 24 58.33  60.4918 -152.7920  0.11 -0.10 0.38 1.83 0.08   60325353
AVNCT    2.240 -1.000 P
AVRDN    0.800  1.000 P
AVREF    2.040 -1.000 S
AVREF    1.020 -1.000 P
AVRSO    0.920  1.000 P
# 2009 01 29 00 45 13.40  60.4915 -152.7765  0.23 0.10 0.44 0.86 0.07   60325413
AVNCT    2.310 -1.000 P
AVRDN    0.710  1.000 P
AVREF    1.700 -1.000 S
AVREF    0.920  1.000 P
AVRSO    0.790  1.000 P
# 2009 01 29 04 31 31.36  60.5057 -152.7405  5.04 0.60 0.90 0.79 0.09   60325548
AVNCT    2.300 -1.000 P
AVRDN    1.340  1.000 P
AVREF    2.340 -1.000 S
AVREF    1.210  1.000 P
AVRSO    1.420  1.000 P
# 2009 01 29 08 23 23.17  60.4970 -152.7690 -0.08 0.40 0.43 1.46 0.09   60325658
AVDFR    2.170  1.000 P
AVNCT    2.240 -1.000 P
AVRDN    0.700  1.000 P
AVREF    1.620  1.000 S
AVREF    0.830  1.000 P
AVRSO    1.040  1.000 P
# 2009 01 29 09 06 27.19  60.5047 -152.7642 -1.74 -0.30 0.99 10.13 0.13   60325688
AVNCT    2.010 -1.000 P
AVRDN    0.400  1.000 P
AVREF    1.350 -1.000 S
AVREF    1.000  1.000 P
AVRSO    1.140  1.000 P
# 2009 01 29 11 05 38.47  60.4757 -152.7372  3.61 0.70 0.86 0.92 0.10   60325783
AVNCT    2.700 -1.000 P
AVRDN    1.160  1.000 P
AVREF    1.990 -1.000 S
AVREF    0.930  1.000 P
AVRSO    1.100  1.000 P
# 2009 01 29 11 24 43.44  60.4783 -152.7717  1.66 0.30 0.99 2.97 0.14   60325803
AVNCT    2.500 -1.000 P
AVRDN    0.900  0.200 P
AVREF    2.030 -1.000 S
AVREF    0.910 -1.000 P
AVRSO    0.760 -1.000 P
# 2009 01 29 11 38 16.69  60.4915 -152.7463  0.60 0.10 0.39 0.50 0.11   60325818
AVDFR    2.270 -1.000 P
AVNCT    2.280  0.200 P
AVRDN    0.700  1.000 P
AVREF    1.180 -1.000 S
AVREF    0.980  1.000 P
AVRSO    0.700  1.000 P
# 2009 01 29 11 56 29.29  60.5185 -152.6660  2.61 0.50 2.51 1.32 0.12   60325863
AVDFR    3.060  0.200 P
AVNCT    2.550 -1.000 P
AVRDN    1.010 -1.000 P
AVREF    1.730 -1.000 S
AVREF    1.200 -1.000 P
AVRSO    1.780 -1.000 P
# 2009 01 29 12 28 29.15  60.5062 -152.7658  0.00 0.60 0.31 1.31 0.05   60325883
AVNCT    2.110 -1.000 P
AVRDN    0.580  1.000 P
AVREF    1.650 -1.000 S
AVREF    0.860  1.000 P
AVRSO    1.100  1.000 P
# 2009 01 29 12 32 42.79  60.4772 -152.7350  3.73 0.70 1.06 1.07 0.13   60325893
AVNCT    2.540 -1.000 P
AVRDN    1.120  1.000 P
AVREF    1.820 -1.000 S
AVREF    1.280  1.000 P
AVRSO    1.170  1.000 P
# 2009 01 29 13 46 54.10  60.5237 -152.6813  1.98 0.20 1.29 1.01 0.14   60325933
AVDFR    3.860  1.000 P
AVNCT    2.700 -1.000 P
AVRDN    0.740  1.000 P
AVREF    1.910 -1.000 S
AVREF    0.830  1.000 P
AVRSO    1.790  1.000 P
# 2009 01 29 13 53 46.27  60.4975 -152.7808 -1.43 0.30 0.66 8.26 0.08   60325963
AVNCT    2.210 -1.000 P
AVRDN    0.580  1.000 P
AVREF    1.820 -1.000 S
AVREF    0.860  1.000 P
AVRSO    0.810  1.000 P
# 2009 01 29 15 55 49.05  60.4832 -152.7635  2.76 0.20 0.62 1.25 0.12   60326033
AVNCT    2.530 -1.000 P
AVRDN    1.080  1.000 P
AVREF    2.070 -1.000 S
AVREF    0.970  1.000 P
AVRSO    0.860  1.000 P
# 2009 01 29 16 11 27.43  60.4932 -152.7832  0.31 0.20 0.73 1.07 0.16   60326048
AVDFR    2.350  1.000 P
AVNCT    2.350 -1.000 P
AVRDN    0.790  1.000 P
AVREF    2.030 -1.000 S
AVREF    0.850  1.000 P
AVRSO    0.600  1.000 P
# 2009 01 29 16 15 15.81  60.4835 -152.7507  3.34 0.20 0.74 1.20 0.13   60326053
AVNCT    2.580 -1.000 P
AVRDN    0.900  1.000 P
AVREF    2.010 -1.000 S
AVREF    1.010 -1.000 P
AVRSO    1.100  0.200 P
# 2009 01 29 16 18 40.19  60.4813 -152.7407  5.53 1.00 0.90 0.81 0.10   60326058
AVNCT    2.660 -1.000 P
AVRDN    1.380  1.000 P
AVREF    2.550  1.000 S
AVREF    1.220 -1.000 P
AVRSO    1.410  1.000 P
# 2009 01 29 16 24 3.85  60.5025 -152.7490 -1.55 0.20 1.24 17.43 0.20   60326063
AVDFR    2.380 -1.000 P
AVNCT    2.250 -1.000 P
AVRDN    0.160  1.000 P
AVREF    1.030 -1.000 S
AVREF    0.820  1.000 P
AVRSO    1.010  1.000 P
# 2009 01 29 16 42 26.00  60.4965 -152.7852 -1.89 0.40 0.60 7.46 0.06   60326083
AVNCT    2.170 -1.000 P
AVRDN    0.640  1.000 P
AVREF    1.830 -1.000 S
AVREF    0.700  1.000 P
AVRSO    0.870  1.000 P
# 2009 01 29 17 05 37.52  60.4955 -152.7570  0.34 0.00 0.35 0.56 0.01   60326093
AVNCT    2.330 -1.000 P
AVRDN    0.710  1.000 P
AVREF    1.420 -1.000 S
AVREF    0.780  1.000 P
AVRSO    0.850  1.000 P
# 2009 01 29 17 31 45.24  60.4915 -152.7568  0.85 0.50 0.53 0.58 0.13   60326108
AVDFR    2.300 -1.000 P
AVNCT    2.100 -1.000 P
AVRDN    1.010  1.000 P
AVREF    1.340 -1.000 S
AVREF    0.970  1.000 P
AVRSO    0.890  1.000 P
# 2009 01 29 19 14 38.87  60.4670 -152.7432  1.61 0.30 1.00 1.00 0.11   60326193
AVNCT    2.650 -1.000 P
AVRDN    1.080  1.000 P
AVREF    1.720 -1.000 S
AVREF    0.890 -1.000 P
AVRSO    0.840  1.000 P
# 2009 01 29 20 35 41.32  60.4938 -152.7298  0.51 0.00 0.43 0.61 0.10   60326253
AVDFR    2.760  1.000 P
AVNCT    2.490 -1.000 P
AVRDN    0.890  1.000 P
AVREF    1.000 -1.000 S
AVREF    0.640  1.000 P
AVRSO    0.730  1.000 P
# 2009 01 29 21 45 54.71  60.4870 -152.7460  1.07 0.60 0.54 0.70 0.05   60326328
AVNCT    2.400 -1.000 P
AVRDN    0.840  1.000 P
AVREF    1.320 -1.000 S
AVREF    0.840  1.000 P
AVRSO    0.810 -1.000 P
# 2009 01 29 22 07 2.36  60.4795 -152.7903  3.28 0.70 0.66 1.37 0.10   60326333
AVDFR    3.190  1.000 P
AVNCT    2.160 -1.000 P
AVRDN    1.100  1.000 P
AVREF    2.270 -1.000 S
AVREF    1.340 -1.000 P
AVRSO    1.170  1.000 P
# 2009 01 29 22 56 57.95  60.5080 -152.7217  1.77 0.50 0.51 0.72 0.11   60326368
AVDFR    1.820 -1.000 P
AVNCT    2.090  1.000 P
AVRDN    0.750  1.000 P
AVREF    1.350 -1.000 S
AVREF    0.930  1.000 P
AVRSO    1.470  0.200 P
# 2009 01 29 23 16 18.20  60.4920 -152.7278  0.30 0.40 0.44 0.40 0.07   60326403
AVDFR    2.300 -1.000 P
AVRDN    0.670  1.000 P
AVREF    1.000 -1.000 S
AVREF    0.460  1.000 P
AVRSO    0.890 -1.000 P
# 2009 01 29 23 44 41.18  60.4775 -152.7642  4.53 0.50 1.15 1.18 0.16   60326448
AVDFR    2.680  1.000 P
AVNCT    2.630 -1.000 P
AVRDN    1.100  1.000 P
AVREF    2.400 -1.000 S
AVREF    1.300  1.000 P
AVRSO    1.070  1.000 P
# 2009 01 30 00 13 11.27  60.4847 -152.7837  0.62 0.30 0.60 0.53 0.12   60326483
AVDFR    2.490  1.000 P
AVNCT    2.330 -1.000 P
AVRDN    0.810  1.000 P
AVRDT    3.930  1.000 P
AVREF    2.050  1.000 S
AVREF    0.910  1.000 P
AVRSO    0.760  1.000 P
# 2009 01 30 00 18 56.96  60.4765 -152.7807 -1.19 0.30 0.52 1.25 0.13   60326488
AVDFR    2.570  1.000 P
AVNCT    2.590 -1.000 P
AVRDN    0.980  1.000 P
AVRDT    4.230 -1.000 P
AVREF    1.860 -1.000 S
AVREF    1.080  1.000 P
AVRSO    0.230  1.000 P
# 2009 01 30 01 52 40.83  60.4643 -152.7165  3.86 0.60 1.26 0.66 0.14   60326558
AVNCT    2.750 -1.000 P
AVRDN    1.240  1.000 P
AVREF    1.870 -1.000 S
AVREF    1.260 -1.000 P
AVRSO    1.210  1.000 P
# 2009 01 30 02 13 53.49  60.4795 -152.6988  6.03 0.90 1.72 1.03 0.11   60326568
AVNCT    2.980 -1.000 P
AVRDN    1.440  1.000 P
AVREF    2.350 -1.000 S
AVREF    1.450 -1.000 P
AVRSO    1.340 -1.000 P
# 2009 01 30 03 22 40.20  60.4855 -152.7212  1.38 0.80 0.82 0.46 0.18   60326623
AVDFR    2.320  1.000 P
AVNCT    2.420 -1.000 P
AVRDN    0.870  1.000 P
AVREF    0.950 -1.000 S
AVREF    0.920  1.000 P
AVRSO    0.790  1.000 P
# 2009 01 30 03 25 54.63  60.5177 -152.7375  0.68 0.70 0.93 0.55 0.19   60326628
AVDFR    2.060 -1.000 P
AVNCT    2.040 -1.000 P
AVRDN    0.360  1.000 P
AVREF    1.650 -1.000 S
AVREF    0.550  1.000 P
AVRSO    1.310  1.000 P
# 2009 01 30 03 27 5.37  60.4943 -152.7660  0.96 0.30 0.50 0.68 0.07   60326633
AVNCT    2.240 -1.000 P
AVRDN    0.660  1.000 P
AVREF    1.670 -1.000 S
AVREF    1.280  1.000 P
AVRSO    0.910  1.000 P
# 2009 01 30 05 59 45.35  60.4808 -152.7547 -3.00 0.60 0.63 0.82 0.32   60326673
AVDFR    2.930  1.000 P
AVILW    9.720  0.200 P
AVNCT    2.340  1.000 P
AVRDN    1.350  1.000 P
AVRDT    5.310  0.200 P
AVREF    1.530 -1.000 S
AVREF    0.450  1.000 P
AVRSO    0.710  1.000 P
# 2009 01 30 06 24 30.97  60.4767 -152.7013  4.23 0.10 1.08 1.00 0.17   60326688
AVNCT    2.770  1.000 P
AVRDN    1.170  1.000 P
AVREF    1.990 -1.000 S
AVREF    1.330  1.000 P
AVRSO    1.110  1.000 P
# 2009 01 30 06 53 37.97  60.4912 -152.9352  0.69 0.30 0.84 0.37 0.06   60326703
AVDFR    3.120  1.000 P
AVNCT    1.700 -1.000 P
AVRDN    2.200  1.000 P
AVREF    4.480  1.000 S
AVREF    2.550  1.000 P
AVRSO    2.110  1.000 P
# 2009 01 30 07 20 37.16  60.5083 -152.7350 -1.50 0.20 0.77 10.94 0.09   60326713
AVDFR    1.880 -1.000 P
AVRDN    0.220  1.000 P
AVREF    1.210 -1.000 S
AVREF    0.500  1.000 P
AVRSO    1.130 -1.000 P
# 2009 01 30 08 27 35.32  60.4972 -152.7577  0.39 0.00 0.34 0.43 0.06   60326763
AVDFR    2.210 -1.000 P
AVNCT    2.220 -1.000 P
AVRDN    0.640  1.000 P
AVREF    1.350 -1.000 S
AVREF    0.920  1.000 P
AVRSO    0.900  0.200 P
# 2009 01 30 08 41 34.39  60.4937 -152.7727  0.86 0.90 0.50 0.56 0.08   60326778
AVDFR    2.290 -1.000 P
AVNCT    2.220 -1.000 P
AVRDN    0.780  1.000 P
AVREF    1.810 -1.000 S
AVREF    0.840  1.000 P
AVRSO    0.190  1.000 P
# 2009 01 30 09 51 1.20  60.4890 -152.6980  3.76 0.00 1.55 0.92 0.25   60326828
AVDFR    2.530 -1.000 P
AVNCT    2.490  1.000 P
AVRDN    0.820  1.000 P
AVREF    1.860 -1.000 S
AVREF    0.910  1.000 P
AVRSO    1.390 -1.000 P
# 2009 01 30 10 04 48.70  60.4915 -152.7815 -3.00 0.80 0.88 0.99 0.27   60326853
AVDFR    2.500  1.000 P
AVNCT    2.780 -1.000 P
AVRDN    0.930  1.000 P
AVRDT    4.690  1.000 P
AVREF    2.120 -1.000 S
AVREF    1.050  1.000 P
AVRSO    0.520  1.000 P
# 2009 01 30 10 05 29.08  60.4807 -152.7250  0.25 0.00 0.61 0.50 0.12   60326858
AVDFR    2.430 -1.000 P
AVNCT    2.780  1.000 P
AVRDN    0.680  1.000 P
AVREF    0.990 -1.000 S
AVREF    0.480  1.000 P
AVRSO    0.700 -1.000 P
# 2009 01 30 11 44 36.87  60.4957 -152.7865  0.34 0.30 0.45 0.78 0.11   60326948
AVDFR    2.420 -1.000 P
AVNCT    2.110 -1.000 P
AVRDN    0.740  1.000 P
AVREF    1.940  1.000 S
AVREF    0.850  1.000 P
# 2009 01 30 11 48 37.80  60.4828 -152.7672  3.23 0.60 0.81 1.26 0.16   60326953
AVDFR    2.650  1.000 P
AVNCT    2.410 -1.000 P
AVRDN    1.050  1.000 P
AVREF    2.200 -1.000 S
AVREF    0.910  1.000 P
AVRSO    0.930  1.000 P
# 2009 01 30 13 45 12.11  60.4767 -152.7207  0.96 0.10 0.99 0.53 0.18   60326998
AVDFR    2.640 -1.000 P
AVNCT    2.570  1.000 P
AVRDN    0.900  1.000 P
AVREF    1.210 -1.000 S
AVREF    0.530  1.000 P
AVRSO    0.930 -1.000 P
# 2009 01 30 15 00 25.48  60.4888 -152.7625  0.79 0.10 0.49 0.38 0.12   60327023
AVDFR    2.320  1.000 P
AVNCT    2.320 -1.000 P
AVRDN    0.730  1.000 P
AVRDT    3.850  1.000 P
AVREF    1.600  1.000 S
AVREF    0.760  1.000 P
AVRSO    0.660  1.000 P
# 2009 01 30 15 36 19.68  60.4875 -152.7793  0.24 0.10 0.56 0.74 0.10   60327033
AVDFR    2.410 -1.000 P
AVNCT    2.380 -1.000 P
AVRDN    0.790  1.000 P
AVREF    1.860 -1.000 S
AVREF    0.830  1.000 P
AVRSO    0.730  1.000 P
# 2009 01 30 16 10 55.03  60.4953 -152.7797 -3.00 1.20 0.61 0.87 0.21   60327053
AVDFR    2.440  1.000 P
AVNCT    2.340 -1.000 P
AVRDN    0.770  1.000 P
AVRDT    5.150  1.000 P
AVREF    1.880 -1.000 S
AVREF    0.750 -1.000 P
AVRSO    1.240  1.000 P
# 2009 01 30 17 34 12.64  60.4895 -152.7958  5.59 1.10 1.10 1.75 0.17   60327068
AVNCT    1.920 -1.000 P
AVRDN    1.660  1.000 P
AVREF    2.590 -1.000 S
AVREF    1.650 -1.000 P
AVRSO    1.600  1.000 P
