# 2009 02 24 03 50 25.26  60.4625 -152.6823  4.30 0.20 2.39 1.74 0.30   60312688
AVRDJH    5.630 -1.000 S
AVRDJH    2.690  1.000 P
AVRDN    1.300  1.000 P
AVREF    2.230 -1.000 S
AVREF    1.260 -1.000 P
AVRSO    1.700  1.000 P
# 2009 02 24 03 59 7.68  60.4923 -152.7382 -0.38 0.40 0.35 1.43 0.07   60312693
AVNCT    2.580  1.000 P
AVRDJH    4.050  1.000 S
AVRDJH    2.350  1.000 P
AVRDN    0.280  1.000 P
AVREF    1.020 -1.000 S
AVREF    0.380  1.000 P
AVRSO    0.740  1.000 P
# 2009 02 24 07 25 17.21  60.4690 -152.7055 -0.18 -0.60 1.55 0.80 0.14   60312733
AVNCT    2.810  0.200 P
AVRDJH    4.910 -1.000 S
AVRDJH    3.080  1.000 P
AVRDN    1.370  1.000 P
AVREF    1.000 -1.000 S
AVREF    0.400 -1.000 P
# 2009 02 24 08 24 30.92  60.4928 -152.7267  3.99 0.70 1.27 1.02 0.17   60312738
AVNCT    3.710  0.200 P
AVRDJH    3.750 -1.000 S
AVRDJH    2.460  1.000 P
AVRDN    1.130  1.000 P
AVREF    2.000 -1.000 S
AVREF    0.730  1.000 P
AVRSO    1.350 -1.000 P
# 2009 02 24 13 16 16.48  60.4855 -152.7397 -0.98 0.30 0.78 4.98 0.16   60312768
AVDFR    2.630 -1.000 P
AVNCT    1.690  0.200 P
AVRDJH    4.390 -1.000 S
AVRDJH    2.210  1.000 P
AVRDN    0.720  1.000 P
AVREF    1.000 -1.000 S
AVREF    0.320 -1.000 P
AVRSO    0.650 -1.000 P
# 2009 02 24 13 26 13.26  60.4650 -152.7175  3.57 0.40 2.34 1.77 0.44   60312798
AVDFR    3.380  1.000 P
AVRDJH    5.110 -1.000 S
AVRDJH    2.720  1.000 P
AVRDN    0.670  1.000 P
AVREF    1.950 -1.000 S
AVREF    1.130  1.000 P
AVRSO    0.960  1.000 P
# 2009 02 24 21 23 28.53  60.4755 -152.8222  0.30 0.90 1.15 1.24 0.15   60312858
AVNCT    3.210  0.200 P
AVRDJH    4.290 -1.000 S
AVRDJH    2.760  1.000 P
AVRDN    1.190  1.000 P
AVREF    2.570 -1.000 S
AVREF    1.450  1.000 P
AVRSO    0.760  1.000 P
# 2009 02 25 07 01 42.52  60.4555 -152.6728  2.45 0.20 1.23 1.41 0.14   60312918
AVNCT    3.750  0.200 P
AVRDJH    5.480 -1.000 S
AVRDN    1.380  1.000 P
AVREF    1.790 -1.000 S
AVREF    1.160 -1.000 P
AVRSO    1.180 -1.000 P
# 2009 02 25 07 11 23.97  60.4868 -152.7763  0.50 0.60 0.50 0.86 0.08   60312933
AVNCT    2.410 -0.200 P
AVRDN    0.850  1.000 P
AVREF    1.850 -1.000 S
AVREF    0.880  1.000 P
AVRSO    0.790  1.000 P
# 2009 02 25 08 51 22.77  60.5032 -152.6392  3.58 0.40 4.53 2.55 0.27   60312948
AVRDJH    4.780 -1.000 S
AVRDJH    2.440  0.200 P
AVRDN    0.970  1.000 P
AVREF    2.150 -1.000 S
AVREF    1.050 -1.000 P
AVRSO    1.840 -1.000 P
# 2009 02 25 14 26 24.93  60.4673 -152.7220  5.15 0.20 1.42 0.96 0.17   60313063
AVRDJH    4.960 -1.000 S
AVRDJH    2.900  1.000 P
AVRDN    1.280  1.000 P
AVREF    2.480 -1.000 S
AVREF    1.270 -1.000 P
AVRSO    1.260 -1.000 P
# 2009 02 25 14 36 0.34  60.4647 -152.7480  4.53 1.40 0.60 0.63 0.06   60313083
AVDFR    3.050  0.200 P
AVNCT    2.660 -1.000 P
AVRDJH    4.640 -1.000 S
AVRDJH    2.740  0.200 P
AVRDN    0.860  1.000 P
AVREF    2.260 -1.000 S
AVREF    1.280 -1.000 P
AVRSO    1.200  1.000 P
# 2009 02 25 14 36 15.64  60.4230 -152.7615  3.34 0.80 1.94 1.24 0.20   60313088
AVRDJH    5.990 -1.000 S
AVRDJH    3.270  1.000 P
AVRDN    1.770  1.000 P
AVREF    2.950 -1.000 S
AVREF    1.890  1.000 P
AVRSO    1.460  1.000 P
# 2009 02 25 14 40 5.44  60.4575 -152.7878 -2.57 1.00 0.86 2.81 0.11   60313093
AVNCT    2.950 -1.000 P
AVRDJH    5.140 -1.000 S
AVRDJH    2.810  1.000 P
AVRDN    1.390  1.000 P
AVREF    2.300 -1.000 S
AVREF    1.260 -1.000 P
AVRSO   -0.470  1.000 P
# 2009 02 25 19 25 20.18  60.4827 -152.7262  4.53 1.10 0.81 1.11 0.19   60313113
AVRDJH    2.760  1.000 P
AVRDN    1.200  1.000 P
AVRDWB    2.920 -1.000 S
AVRDWB    1.270  1.000 P
AVREF    2.070 -1.000 S
AVREF    1.250  1.000 P
AVRSO    1.100  1.000 P
# 2009 02 25 19 31 3.35  60.4872 -152.7800 -1.98 0.80 0.65 5.51 0.18   60313128
AVRDJH    2.230 -1.000 P
AVRDN    0.760  1.000 P
AVRDWB    0.940  1.000 S
AVRDWB    1.000  1.000 S
AVRDWB    0.410  1.000 P
AVREF    1.550 -1.000 S
AVREF    0.790  1.000 P
AVRSO    0.690  0.200 P
# 2009 02 25 19 33 43.26  60.4490 -152.7607 -0.89 0.60 1.26 1.44 0.20   60313138
AVRDJH    2.910 -1.000 P
AVRDN    1.370  1.000 P
AVRDWB    2.110 -1.000 S
AVRDWB    1.450  1.000 P
AVREF    1.930  1.000 S
AVREF    1.400  1.000 P
AVRSO    0.150 -1.000 P
# 2009 02 25 20 32 36.97  60.4570 -152.6745  0.93 0.60 1.01 0.50 0.10   60313153
AVRDJH    2.970 -1.000 P
AVRDN    1.510  1.000 P
AVREF    1.470 -1.000 S
AVREF    1.020 -1.000 P
AVRSO    0.980  1.000 P
# 2009 02 25 20 48 52.70  60.4833 -152.7188  5.08 1.30 1.82 0.86 0.10   60313163
AVRDJH    4.210 -1.000 S
AVRDJH    2.640 -1.000 P
AVRDN    0.950  1.000 P
AVREF    2.160 -1.000 S
AVREF    1.120 -1.000 P
AVRSO    1.340 -1.000 P
# 2009 02 25 21 38 27.16  60.4588 -152.7417  4.09 1.20 0.64 0.50 0.06   60313173
AVNCT    2.870  1.000 P
AVRDJH    4.880  1.000 S
AVRDJH    2.680  1.000 P
AVRDN    1.170  1.000 P
AVREF    2.360 -1.000 S
AVREF    1.220 -1.000 P
AVRSO    1.090  1.000 P
# 2009 02 25 22 46 4.30  60.4592 -152.7775 -1.71 1.00 1.15 2.07 0.21   60313178
AVDFR    2.920  1.000 P
AVNCT    2.850  1.000 P
AVRDJH    4.830  1.000 S
AVRDJH    2.710  1.000 P
AVRDN    1.270  1.000 P
AVRDT    4.430 -1.000 P
AVRDWB    1.650  1.000 S
AVRDWB    0.820  1.000 P
AVREF    2.170  1.000 S
AVREF    1.300  1.000 P
AVRSO   -0.580  1.000 P
# 2009 02 25 22 46 31.65  60.4905 -152.7668  0.29 0.30 0.40 1.35 0.05   60313183
AVRDJH    4.880  1.000 S
AVRDJH    2.310 -1.000 P
AVRDN    0.760  1.000 P
AVRDWB    1.610 -1.000 S
AVRDWB    0.860  1.000 P
AVREF    1.580 -1.000 S
AVREF    0.830  1.000 P
AVRSO    0.680  1.000 P
# 2009 02 25 23 36 49.56  60.4885 -152.7647 -0.10 0.70 0.30 1.56 0.06   60313193
AVDFR    2.420  1.000 P
AVRDJH    4.190  1.000 S
AVRDJH    2.260  1.000 P
AVRDN    0.720  1.000 P
AVRDWB    1.570 -1.000 S
AVRDWB    0.870  1.000 P
AVREF    1.470 -1.000 S
AVREF    0.820  1.000 P
AVRSO    0.750  1.000 P
# 2009 02 25 23 40 23.35  60.4607 -152.7488  6.07 1.40 1.00 0.85 0.12   60313198
AVRDJH    2.790 -1.000 P
AVRDN    1.500  1.000 P
AVRDWB    2.910 -1.000 S
AVRDWB    1.640  1.000 P
AVREF    2.610 -1.000 S
AVREF    1.590  1.000 P
AVRSO    1.540  1.000 P
# 2009 02 25 23 40 42.61  60.5048 -152.7645 -1.78 0.50 0.69 8.26 0.26   60313203
AVRDJH    2.170 -1.000 P
AVRDN   -0.780  1.000 P
AVRDWB    1.630 -1.000 S
AVRDWB    0.360  1.000 P
AVREF    1.410  1.000 S
AVREF    0.650  1.000 P
AVRSO    1.260  1.000 P
# 2009 02 26 02 10 52.97  60.5063 -152.7740 -0.12 0.10 0.35 1.64 0.05   60313243
AVNCT    2.090 -1.000 P
AVRDN    0.570 -1.000 P
AVRDWB    1.600 -1.000 S
AVRDWB    0.760  1.000 P
AVREF    1.710 -1.000 S
AVREF    1.000  1.000 P
AVRSO    1.130  1.000 P
# 2009 02 26 02 41 14.46  60.4705 -152.7648  3.43 0.00 0.68 1.33 0.08   60313248
AVRDN    1.250  1.000 P
AVRDWB    2.110 -1.000 S
AVRDWB    1.260 -1.000 P
AVREF    2.060 -1.000 S
AVREF    1.160  1.000 P
AVRSO    1.070 -1.000 P
# 2009 02 26 02 53 35.42  60.5070 -152.7820 -0.11 0.50 0.73 2.62 0.22   60313258
AVNCT    2.130 -1.000 P
AVRDN    0.610  1.000 P
AVRDWB    1.400 -1.000 S
AVRDWB    0.680  1.000 P
AVREF    1.870 -1.000 S
AVREF    0.730  1.000 P
AVRSO    1.500  1.000 P
# 2009 02 26 02 54 6.62  60.4765 -152.7612  5.08 0.50 0.82 0.70 0.06   60313263
AVRDN    1.310  1.000 P
AVRDWB    2.550 -1.000 S
AVRDWB    1.400  1.000 P
AVREF    2.460 -1.000 S
AVREF    1.420  1.000 P
AVRSO    1.280 -1.000 P
# 2009 02 26 03 03 23.08  60.5013 -152.6807  8.51 1.00 1.22 0.69 0.11   60313268
AVRDN    1.640  1.000 P
AVRDT    3.230 -1.000 P
AVRDWB    4.030  1.000 S
AVRDWB    2.180  1.000 P
AVREF    3.020 -1.000 S
AVREF    1.680  0.200 P
AVRSO    2.230  1.000 P
# 2009 02 26 03 17 17.32  60.4493 -152.7385  3.79 0.30 1.94 3.17 0.39   60313283
AVRDJH    5.820 -1.000 S
AVRDJH    2.860  1.000 P
AVRDN    1.040  1.000 P
AVRDWB    2.390 -1.000 S
AVRDWB    1.430  1.000 P
AVREF    2.090 -1.000 S
AVREF    1.290  1.000 P
AVRSO    1.520 -1.000 P
# 2009 02 26 04 15 47.33  60.5012 -152.7618  3.53 0.40 0.51 1.03 0.09   60313333
AVRDN    0.810  1.000 P
AVRDWB    2.230 -1.000 S
AVRDWB    1.300  1.000 P
AVREF    2.130  1.000 S
AVREF    1.280  1.000 P
AVRSO    1.260  1.000 P
# 2009 02 26 04 39 27.39  60.4775 -152.7315  5.15 -0.10 1.20 0.95 0.05   60313338
AVRDN    1.370 -1.000 P
AVRDWB    2.840 -1.000 S
AVRDWB    2.020  1.000 P
AVREF    2.210 -1.000 S
AVREF    1.310 -1.000 P
AVRSO    1.230 -1.000 P
# 2009 02 26 04 50 39.15  60.4935 -152.7868  2.00 0.10 1.21 2.77 0.16   60313343
AVRDWB    1.480 -1.000 S
AVRDWB    0.990  1.000 P
AVREF    2.050 -1.000 S
AVREF    1.020 -1.000 P
AVRSO    1.350  1.000 P
# 2009 02 26 05 00 36.18  60.4807 -152.7595  3.03 0.60 0.64 1.16 0.02   60313353
AVRDN    1.160 -1.000 P
AVRDWB    2.090 -1.000 S
AVRDWB    1.140  1.000 P
AVREF    1.900 -1.000 S
AVREF    1.130  1.000 P
AVRSO    0.980 -1.000 P
# 2009 02 26 05 02 36.93  60.4907 -152.7645  2.70 0.20 0.47 1.33 0.11   60313358
AVRDN    1.060  1.000 P
AVRDWB    1.820 -1.000 S
AVRDWB    1.160  1.000 P
AVREF    1.750 -1.000 S
AVREF    1.030  1.000 P
AVRSO    1.000  1.000 P
# 2009 02 26 05 06 20.53  60.4890 -152.7768 -0.11 0.40 0.54 1.94 0.15   60313373
AVNCT    2.490 -1.000 P
AVRDN    0.570  1.000 P
AVRDWB    1.350 -1.000 S
AVRDWB    0.790  1.000 P
AVREF    1.800 -1.000 S
AVREF    0.800  1.000 P
AVRSO    0.710  0.200 P
# 2009 02 26 05 15 26.00  60.4837 -152.7637  4.07 1.00 0.82 1.38 0.17   60313383
AVRDN    1.380  1.000 P
AVRDWB    2.040 -1.000 S
AVRDWB    1.310 -1.000 P
AVREF    2.220  1.000 S
AVREF    0.960  1.000 P
AVRSO    1.430  1.000 P
# 2009 02 26 05 21 51.20  60.4970 -152.7622  0.81 1.00 0.48 1.53 0.07   60313393
AVRDN    1.400  1.000 P
AVRDWB    1.740 -1.000 S
AVRDWB    1.120  1.000 P
AVREF    1.580 -1.000 S
AVREF    0.910 -1.000 P
AVRSO    0.790  1.000 P
# 2009 02 26 05 25 0.99  60.4925 -152.7642  0.52 0.60 0.49 0.61 0.03   60313408
AVRDJH    4.390  1.000 S
AVRDJH    2.200 -1.000 P
AVRDN    0.830 -1.000 P
AVRDWB    1.650 -1.000 S
AVRDWB    0.950  1.000 P
AVREF    1.550 -1.000 S
AVREF    0.820  1.000 P
AVRSO    0.880 -1.000 P
# 2009 02 26 05 41 33.67  60.4477 -152.8000  4.47 0.40 1.50 2.54 0.22   60313418
AVRDN    1.530  1.000 P
AVRDWB    2.270 -1.000 S
AVRDWB    1.500 -1.000 P
AVREF    2.760 -1.000 S
AVREF    1.540  1.000 P
AVRSO    1.430 -1.000 P
# 2009 02 26 05 50 49.29  60.5125 -152.7320  4.41 0.90 0.89 1.02 0.13   60313428
AVRDN    1.120  1.000 P
AVRDWB    2.640 -1.000 S
AVRDWB    1.660  1.000 P
AVREF    2.270 -1.000 S
AVREF    1.030 -1.000 P
AVRSO    1.660  1.000 P
# 2009 02 26 05 59 48.77  60.4742 -152.7457  1.22 0.10 0.78 2.16 0.21   60313433
AVRDN    0.910  1.000 P
AVRDWB    1.950 -1.000 S
AVRDWB    1.240 -1.000 P
AVREF    1.320 -1.000 S
AVREF    0.770  1.000 P
AVRSO    0.940 -1.000 P
# 2009 02 26 06 12 42.83  60.4885 -152.7552  3.21 0.60 0.42 0.91 0.06   60313438
AVRDN    1.110  1.000 P
AVRDWB    2.210  1.000 S
AVRDWB    2.080  1.000 S
AVRDWB    1.200  1.000 P
AVREF    1.820 -1.000 S
AVREF    1.130  1.000 P
AVRSO    1.030  1.000 P
# 2009 02 26 06 59 7.57  60.4850 -152.7698  2.45 0.30 0.79 1.60 0.07   60313448
AVRDN    1.020 -1.000 P
AVRDWB    1.790 -1.000 S
AVRDWB    1.170  1.000 P
AVREF    1.980 -1.000 S
AVREF    1.050 -1.000 P
AVRSO    0.900 -1.000 P
# 2009 02 26 07 20 32.82  60.4882 -152.7682  1.95 0.10 0.42 1.61 0.04   60313453
AVRDN    0.930 -1.000 P
AVRDWB    1.750 -1.000 S
AVRDWB    1.050  1.000 P
AVREF    1.810 -1.000 S
AVREF    1.040  1.000 P
AVRSO    0.940 -1.000 P
# 2009 02 26 07 27 55.54  60.4993 -152.7547  2.83 0.90 0.63 1.71 0.14   60313468
AVRDN    0.770  1.000 P
AVRDWB    2.030 -1.000 S
AVRDWB    1.510  1.000 P
AVREF    1.900 -1.000 S
AVREF    0.930 -1.000 P
AVRSO    1.280  1.000 P
# 2009 02 26 07 29 40.43  60.4798 -152.7372 -0.28 0.50 1.13 1.68 0.29   60313473
AVDFR    2.800  0.200 P
AVNCT    2.740 -1.000 P
AVRDN    1.190  1.000 P
AVRDWB    1.900 -1.000 S
AVRDWB    1.260  1.000 P
AVREF    1.220 -1.000 S
AVREF    0.010  1.000 P
AVRSO    0.860 -1.000 P
# 2009 02 26 07 29 57.28  60.4850 -152.7673  0.17 0.90 0.44 0.47 0.04   60313478
AVNCT    2.370 -1.000 P
AVRDJH    2.480  0.200 P
AVRDN    0.850  1.000 P
AVRDWB    1.550 -1.000 S
AVRDWB    0.900  1.000 P
AVREF    1.570 -1.000 S
AVREF    0.830  1.000 P
AVRSO    0.630 -1.000 P
# 2009 02 26 07 32 12.37  60.4717 -152.7213 -0.76 0.40 1.01 4.11 0.24   60313488
AVNCT    4.100  1.000 P
AVRDN    1.440  1.000 P
AVRDWB    2.060 -1.000 S
AVRDWB    1.350 -1.000 P
AVREF    0.900 -1.000 S
AVREF    0.220 -1.000 P
AVRSO    0.810 -1.000 P
# 2009 02 26 07 32 17.41  60.4578 -152.7333  3.06 1.30 1.36 1.66 0.21   60313493
AVRDJH    5.090 -1.000 S
AVRDJH    2.470  1.000 P
AVRDN    1.700  1.000 P
AVRDWB    2.480 -1.000 S
AVRDWB    1.750 -1.000 P
AVREF    2.050 -1.000 S
AVREF    0.980  1.000 P
# 2009 02 26 07 38 20.48  60.4950 -152.7772  3.92 0.60 0.96 0.83 0.07   60313498
AVRDN    1.190 -1.000 P
AVRDWB    2.030 -1.000 S
AVRDWB    1.310  1.000 P
AVREF    2.340 -1.000 S
AVREF    1.230  1.000 P
AVRSO    1.320 -1.000 P
# 2009 02 26 07 50 1.75  60.4902 -152.7603  0.53 0.40 0.86 2.39 0.16   60313508
AVRDN    0.960 -1.000 P
AVRDWB    1.640 -1.000 S
AVRDWB    0.980  1.000 P
AVREF    1.510 -1.000 S
AVREF    0.580  1.000 P
AVRSO    1.070 -1.000 P
# 2009 02 26 07 52 54.58  60.4845 -152.7598  2.11 0.60 0.31 1.03 0.03   60313518
AVRDN    0.990  1.000 P
AVRDWB    1.960 -1.000 S
AVRDWB    1.080  1.000 P
AVREF    1.760  1.000 S
AVREF    1.000  1.000 P
AVRSO    0.940  1.000 P
# 2009 02 26 07 53 6.22  60.4952 -152.7698  0.57 0.80 0.43 0.64 0.17   60313523
AVDFR    2.370  0.200 P
AVNCT    2.210  1.000 P
AVRDJH    4.570  1.000 S
AVRDJH    2.360  1.000 P
AVRDN    0.610  1.000 P
AVRDWB    1.640 -1.000 S
AVRDWB    0.770  1.000 P
AVREF    1.760 -1.000 S
AVREF    0.660  1.000 P
AVRSO    1.200  1.000 P
# 2009 02 26 07 53 51.12  60.4953 -152.7822  2.53 0.70 1.01 1.65 0.09   60313528
AVRDN    0.890 -1.000 P
AVRDWB    1.680 -1.000 S
AVRDWB    1.150  1.000 P
AVREF    2.190 -1.000 S
AVREF    1.140  1.000 P
AVRSO    1.020 -1.000 P
# 2009 02 26 07 54 54.98  60.4817 -152.7690  1.11 0.20 0.37 1.06 0.04   60313533
AVRDN    0.990  1.000 P
AVRDWB    1.660 -1.000 S
AVRDWB    1.030  1.000 P
AVREF    1.740 -1.000 S
AVREF    0.960  1.000 P
AVRSO    0.760 -1.000 P
# 2009 02 26 07 55 21.96  60.4938 -152.7915  4.77 0.10 1.43 1.02 0.08   60313538
AVRDN    1.270 -1.000 P
AVRDWB    2.090 -1.000 S
AVRDWB    1.340  1.000 P
AVREF    2.670 -1.000 S
AVREF    1.370  1.000 P
AVRSO    1.330 -1.000 P
# 2009 02 26 07 58 40.01  60.4898 -152.7672  0.33 0.80 0.41 0.57 0.04   60313548
AVNCT    2.370 -1.000 P
AVRDN    0.760 -1.000 P
AVRDWB    1.610  1.000 S
AVRDWB    1.570  1.000 S
AVRDWB    0.890  1.000 P
AVREF    1.620 -1.000 S
AVREF    0.840  1.000 P
AVRSO    0.730 -1.000 P
# 2009 02 26 08 05 39.94  60.4833 -152.7742  3.72 0.10 1.05 1.45 0.09   60313563
AVRDN    1.130 -1.000 P
AVRDWB    1.970 -1.000 S
AVRDWB    1.280 -1.000 P
AVREF    2.310 -1.000 S
AVREF    1.220  1.000 P
AVRSO    1.050 -1.000 P
# 2009 02 26 08 05 45.98  60.4935 -152.7677  0.31 0.80 0.68 1.36 0.22   60313568
AVNCT    2.350 -1.000 P
AVRDJH    2.240  1.000 P
AVRDN    0.660 -1.000 P
AVRDWB    1.470 -1.000 S
AVRDWB    1.280  1.000 P
AVREF    1.830 -1.000 S
AVREF    0.610  1.000 P
AVRSO    0.650  1.000 P
# 2009 02 26 08 06 3.46  60.4672 -152.7552  3.27 0.80 1.22 1.98 0.28   60313573
AVNCT    2.630  1.000 P
AVRDJH    4.920 -1.000 S
AVRDJH    2.670  1.000 P
AVRDN    0.940  1.000 P
AVRDWB    2.100 -1.000 S
AVRDWB    1.440  1.000 P
AVREF    2.230 -1.000 S
AVREF    1.000  1.000 P
AVRSO    1.370  1.000 P
# 2009 02 26 08 08 4.64  60.4583 -152.7580  2.88 0.30 1.89 2.35 0.20   60313578
AVRDN    1.450  1.000 P
AVRDWB    2.170 -1.000 S
AVRDWB    1.590  1.000 P
AVREF    2.300 -1.000 S
AVREF    0.950  1.000 P
AVRSO    0.860 -1.000 P
# 2009 02 26 08 11 38.01  60.4787 -152.7703  4.17 0.30 1.18 1.05 0.11   60313583
AVRDN    1.220 -1.000 P
AVRDWB    2.150 -1.000 S
AVRDWB    1.370  1.000 P
AVREF    2.470  1.000 S
AVREF    2.160  1.000 S
AVREF    1.260  1.000 P
AVRSO    1.080 -1.000 P
# 2009 02 26 08 22 23.47  60.4775 -152.7708 -0.55 0.10 0.50 2.96 0.13   60313613
AVRDN    1.150  1.000 P
AVRDWB    1.600 -1.000 S
AVRDWB    0.610 -1.000 P
AVREF    1.500 -1.000 S
AVRSO    0.450 -1.000 P
# 2009 02 26 08 39 25.88  60.4918 -152.7752  3.95 0.00 0.80 1.40 0.12   60313623
AVRDN    1.240  1.000 P
AVRDWB    2.030 -1.000 S
AVRDWB    1.310 -1.000 P
AVREF    2.450 -1.000 S
AVREF    1.030  1.000 P
AVRSO    1.190 -1.000 P
# 2009 02 26 08 58 32.56  60.4882 -152.7602  1.42 0.70 0.26 0.75 0.03   60313628
AVRDN    1.010  1.000 P
AVRDWB    1.920 -1.000 S
AVRDWB    1.030  1.000 P
AVREF    1.680  1.000 S
AVREF    0.910  1.000 P
AVRSO    0.850  1.000 P
# 2009 02 26 09 09 52.94  60.4983 -152.7728  0.89 0.20 0.50 1.30 0.04   60313643
AVRDN    0.740 -1.000 P
AVRDWB    1.650 -1.000 S
AVRDWB    0.940  1.000 P
AVREF    1.790 -1.000 S
AVREF    1.070  1.000 P
AVRSO    0.930 -1.000 P
# 2009 02 26 09 10 47.32  60.4927 -152.7700  2.81 1.00 0.39 1.01 0.06   60313648
AVNCT    2.670  1.000 P
AVRDN    1.020  1.000 P
AVRDWB    1.860 -1.000 S
AVRDWB    1.150  1.000 P
AVREF    1.930  1.000 S
AVREF    1.130  1.000 P
AVRSO    0.990  1.000 P
# 2009 02 26 09 11 53.54  60.4733 -152.7785  5.15 0.60 0.63 0.91 0.05   60313653
AVRDN    1.460  1.000 P
AVRDWB    2.350 -1.000 S
AVRDWB    1.420  1.000 P
AVREF    2.620 -1.000 S
AVREF    1.410  1.000 P
AVRSO    1.290 -1.000 P
# 2009 02 26 09 18 30.50  60.4535 -152.7813  4.13 1.30 1.48 1.77 0.25   60313658
AVNCT    2.920  1.000 P
AVRDN    1.340  1.000 P
AVRDWB    2.340 -1.000 S
AVRDWB    1.200  1.000 P
AVREF    2.500 -1.000 S
AVREF    1.680  1.000 P
AVRSO    1.460 -1.000 P
# 2009 02 26 09 19 56.72  60.4813 -152.7767  3.24 0.90 1.01 1.32 0.08   60313663
AVRDN    1.150 -1.000 P
AVRDWB    1.880 -1.000 S
AVRDWB    1.220  1.000 P
AVREF    2.220 -1.000 S
AVREF    1.140  1.000 P
AVRSO    1.000 -1.000 P
# 2009 02 26 09 20 29.97  60.4607 -152.7620  2.43 1.10 0.90 1.62 0.15   60313668
AVNCT    2.750  1.000 P
AVRDN    1.190  1.000 P
AVRDWB    2.000 -1.000 S
AVRDWB    1.240  1.000 P
AVREF    2.000 -1.000 S
AVREF    1.130  1.000 P
AVRSO    0.980 -1.000 P
# 2009 02 26 09 21 33.69  60.4740 -152.7570  4.59 0.30 0.60 0.86 0.08   60313678
AVNCT    3.520  1.000 P
AVRDN    1.540  1.000 P
AVRDWB    2.520 -1.000 S
AVRDWB    1.310  1.000 P
AVREF    2.370  1.000 S
AVREF    1.280  1.000 P
AVRSO    1.160  1.000 P
# 2009 02 26 09 33 1.88  60.5042 -152.7635  1.27 0.30 0.53 1.14 0.02   60313688
AVRDN    1.600  1.000 P
AVRDWB    1.920 -1.000 S
AVRDWB    1.070 -1.000 P
AVREF    1.790 -1.000 S
AVREF    0.980 -1.000 P
AVRSO    1.170  1.000 P
# 2009 02 26 09 45 12.49  60.5147 -152.7852  1.26 0.00 0.51 0.87 0.05   60313703
AVRDN    0.780 -1.000 P
AVRDWB    1.800 -1.000 S
AVRDWB    1.050  1.000 P
AVREF    2.340 -1.000 S
AVREF    1.210  1.000 P
AVRSO    1.320  1.000 P
# 2009 02 26 09 57 20.03  60.4583 -152.7910  2.09 0.10 1.40 2.09 0.19   60313728
AVRDJH    2.910  1.000 P
AVRDN    0.590  1.000 P
AVRDWB    1.750 -1.000 S
AVRDWB    1.110 -1.000 P
AVREF    2.570 -1.000 S
AVREF    1.050  1.000 P
AVRSO    0.940 -1.000 P
# 2009 02 26 10 10 15.63  60.4737 -152.7822  4.18 0.70 0.66 0.87 0.07   60313738
AVRDN    1.320  1.000 P
AVRDWB    2.090 -1.000 S
AVRDWB    1.340  1.000 P
AVREF    2.530  1.000 S
AVREF    2.380  1.000 S
AVREF    1.380  1.000 P
AVRSO    1.930  1.000 P
# 2009 02 26 10 16 43.93  60.4760 -152.7260  6.99 -0.10 1.79 0.92 0.10   60313753
AVRDN    1.600 -1.000 P
AVRDWB    3.370 -1.000 S
AVRDWB    1.730  1.000 P
AVREF    2.740  1.000 S
AVREF    1.690  1.000 P
AVRSO    1.530 -1.000 P
# 2009 02 26 10 43 6.88  60.5082 -152.7798  2.15 0.90 0.99 2.10 0.10   60313768
AVRDN    0.920 -1.000 P
AVRDWB    1.790 -1.000 S
AVRDWB    1.050 -1.000 P
AVREF    2.140 -1.000 S
AVREF    1.060  1.000 P
AVRSO    1.460  1.000 P
# 2009 02 26 10 44 6.93  60.5148 -152.7308  0.38 0.90 0.61 0.92 0.25   60313793
AVDFR    2.000  1.000 P
AVNCT    1.900  1.000 P
AVRDJH    1.930  1.000 P
AVRDN    0.270 -1.000 P
AVRDT    3.650 -1.000 P
AVRDWB    2.790 -1.000 S
AVRDWB    1.310  1.000 P
AVREF    1.470 -1.000 S
AVREF    0.330  1.000 P
AVRSO    1.430  1.000 P
