# 2009 02 18 21 55 11.96  60.4993 -152.7667 -0.20 0.70 0.34 0.62 0.10   60310663
AVDFR    2.340  1.000 P
AVILW    8.790 -1.000 P
AVINE    8.650  0.200 P
AVNCT    2.320 -1.000 P
AVRDE    2.610  1.000 P
AVRDJH    3.450  1.000 S
AVRDJH    2.080  1.000 P
AVRDN    0.640  1.000 P
AVRDT    3.780  1.000 P
AVREF    1.530 -1.000 S
AVREF    0.720  1.000 P
# 2009 02 18 22 00 17.79  60.4645 -152.7103  4.98 0.40 0.89 0.40 0.02   60310678
AVRDJH    4.900 -0.200 S
AVRDJH    2.780 -1.000 P
AVRDN    1.180  1.000 P
AVREF    2.260 -1.000 S
AVREF    1.240 -1.000 P
AVRSO    1.300 -1.000 P
# 2009 02 19 00 26 48.16  60.4777 -152.7640  1.89 0.00 1.62 2.86 0.31   60310693
AVDFR    2.730  1.000 P
AVRDJH    2.670  1.000 P
AVRDN    0.510  1.000 P
AVREF    2.020 -1.000 S
AVREF    0.730  1.000 P
AVRSO    0.760  1.000 P
# 2009 02 19 00 26 53.40  60.4888 -152.7608  0.99 0.20 0.59 0.51 0.05   60310698
AVDFR    2.320  0.200 P
AVNCT    2.270 -1.000 P
AVRDJH    2.260 -1.000 P
AVRDN    0.550  1.000 P
AVREF    1.590 -1.000 S
AVREF    0.790  1.000 P
AVRSO    0.900 -0.200 P
# 2009 02 19 00 29 29.70  60.4893 -152.7590  1.73 0.50 0.67 2.05 0.15   60310708
AVNCT    2.390  1.000 P
AVRDJH    2.370  1.000 P
AVRDN    0.720  1.000 P
AVREF    1.660  1.000 S
AVREF    0.840  1.000 P
AVRSO    0.700  1.000 P
# 2009 02 19 00 29 47.02  60.5042 -152.7380  0.68 0.10 1.13 0.75 0.28   60310718
AVDFR    2.070 -1.000 P
AVRDJH    2.230  1.000 P
AVRDN    0.300  1.000 P
AVREF    1.500 -1.000 S
AVREF    0.500  1.000 P
AVRSO    0.590  1.000 P
# 2009 02 19 01 59 35.54  60.4385 -152.7807 -0.48 0.40 0.87 0.55 0.08   60310748
AVDFR    3.260  1.000 P
AVNCT    3.200  1.000 P
AVRDJH    5.740 -1.000 S
AVRDJH    3.180  1.000 P
AVRDN    1.710  1.000 P
AVREF    2.620 -1.000 S
AVREF    1.540  1.000 P
AVRSO    0.630 -1.000 P
# 2009 02 19 02 09 44.76  60.4878 -152.7720  0.10 0.60 0.33 0.57 0.06   60310763
AVDFR    2.430 -1.000 P
AVNCT    2.390  1.000 P
AVRDJH    4.700  1.000 S
AVRDJH    2.280  1.000 P
AVRDN    0.810  1.000 P
AVREF    1.660 -1.000 S
AVREF    0.820  1.000 P
AVRSO    0.780  1.000 P
# 2009 02 19 02 35 24.00  60.4820 -152.7560  2.18 0.20 0.56 1.11 0.10   60310783
AVDFR    2.340  1.000 P
AVNCT    2.380  1.000 P
AVRDJH    4.200  1.000 S
AVRDJH    2.330  1.000 P
AVRDN    0.930  1.000 P
AVREF    1.840 -1.000 S
AVREF    0.860  1.000 P
AVRSO    0.920  1.000 P
# 2009 02 19 04 51 29.89  60.4548 -152.6912  4.79 0.90 1.70 0.90 0.17   60310823
AVNCT    3.020  0.200 P
AVRDJH    2.950 -1.000 P
AVRDN    1.410  1.000 P
AVREF    2.210 -1.000 S
AVREF    1.440 -1.000 P
AVRSO    1.510  1.000 P
# 2009 02 19 05 08 22.24  60.4672 -152.7443  3.96 0.70 0.78 0.75 0.13   60310828
AVDFR    2.720  1.000 P
AVNCT    2.750  1.000 P
AVRDJH    4.550  1.000 S
AVRDJH    2.720  1.000 P
AVRDN    1.160  1.000 P
AVREF    2.120  1.000 S
AVREF    1.000  1.000 P
AVRSO    1.170  1.000 P
# 2009 02 19 06 14 17.59  60.4658 -152.7432  3.61 0.90 0.66 0.58 0.02   60310853
AVNCT    2.670  1.000 P
AVRDJH    5.120  1.000 S
AVRDJH    2.600  1.000 P
AVRDN    1.040  1.000 P
AVREF    2.050 -1.000 S
AVREF    1.170 -1.000 P
AVRSO    0.990 -1.000 P
# 2009 02 19 06 27 38.22  60.5027 -152.7772  0.05 -0.10 0.31 0.53 0.05   60310858
AVDFR    2.150  1.000 P
AVNCT    2.100 -1.000 P
AVRDE    2.570 -1.000 P
AVRDJH    3.970  0.200 S
AVRDJH    2.030  1.000 P
AVRDN    0.600  1.000 P
AVREF    1.890  1.000 S
AVREF    0.940  1.000 P
AVRSO    1.000 -1.000 P
# 2009 02 19 07 27 51.68  60.4933 -152.7535  0.86 0.40 0.56 0.51 0.13   60310868
AVDFR    2.230  1.000 P
AVNCT    2.220  1.000 P
AVRDJH    3.960  1.000 S
AVRDJH    2.140  1.000 P
AVRDN    0.610  1.000 P
AVREF    1.540 -1.000 S
AVREF    0.600  1.000 P
AVRSO    1.050  1.000 P
# 2009 02 19 09 41 35.68  60.5067 -152.7470  0.95 0.40 0.50 0.27 0.09   60310893
AVDFR    1.960  1.000 P
AVNCT    2.060  1.000 P
AVRDE    2.560  1.000 P
AVRDJH    3.530  1.000 S
AVRDJH    2.080  1.000 P
AVRDN    0.520  1.000 P
AVREF    1.520 -1.000 S
AVREF    0.830  1.000 P
AVRSO    1.000  1.000 P
# 2009 02 19 11 04 39.45  60.4908 -152.7405  2.16 0.30 0.41 0.92 0.01   60310903
AVNCT    2.340 -1.000 P
AVRDN    0.960  1.000 P
AVREF    1.540 -1.000 S
AVREF    0.850 -1.000 P
AVRSO    0.680  1.000 P
# 2009 02 19 23 20 49.14  60.4905 -152.7678  0.55 -0.10 0.45 0.41 0.06   60310948
AVDFR    2.310 -1.000 P
AVRDJH    4.440  1.000 S
AVRDJH    2.300  1.000 P
AVRDN    0.780  1.000 P
AVREF    1.650 -1.000 S
AVREF    0.790  1.000 P
AVRSO    0.760  1.000 P
# 2009 02 19 23 30 46.59  60.4910 -152.7922  3.76 1.00 0.69 1.28 0.08   60310958
AVRDJH    2.860  1.000 P
AVRDN    1.370  1.000 P
AVREF    2.480  1.000 S
AVREF    1.370  1.000 P
AVRSO    1.130 -1.000 P
# 2009 02 20 00 05 16.38  60.4725 -152.7357  2.56 1.10 0.47 0.62 0.04   60310978
AVDFR    2.500  1.000 P
AVRDJH    4.410 -1.000 S
AVRDJH    2.440  1.000 P
AVRDN    0.900  1.000 P
AVREF    1.690 -1.000 S
AVREF    0.930  1.000 P
AVRSO    0.910  1.000 P
# 2009 02 20 00 05 20.09  60.5147 -152.6975 -0.79 0.00 1.26 2.79 0.23   60310983
AVDFR    1.900 -1.000 P
AVRDJH    3.840  1.000 S
AVRDJH    1.810  1.000 P
AVRDN    0.230  1.000 P
AVRDT    3.310 -1.000 P
AVREF    1.190 -1.000 S
AVREF    0.310  1.000 P
AVRSO    1.600  1.000 P
# 2009 02 20 00 06 5.37  60.4708 -152.6525  1.92 -0.20 1.16 0.99 0.18   60310993
AVDFR    2.650  1.000 P
AVRDJH    5.210 -1.000 S
AVRDJH    2.660  1.000 P
AVRDN    1.190  1.000 P
AVREF    1.570 -1.000 S
AVREF    1.000  1.000 P
AVRSO    1.420 -1.000 P
# 2009 02 20 00 12 59.31  60.4897 -152.7063  4.30 1.00 1.42 1.00 0.17   60310998
AVDFR    2.060  1.000 P
AVRDJH    2.650  1.000 P
AVRDN    0.840  1.000 P
AVREF    2.080 -1.000 S
AVREF    0.910  1.000 P
AVRSO    1.440  1.000 P
# 2009 02 20 00 17 7.75  60.4832 -152.7417  0.22 0.30 0.55 0.48 0.13   60311003
AVDFR    2.620  1.000 P
AVRDJH    4.120  1.000 S
AVRDJH    2.330  1.000 P
AVRDN    0.960  1.000 P
AVREF    1.070 -1.000 S
AVREF    0.560  1.000 P
AVRSO    0.710  1.000 P
# 2009 02 20 00 32 25.73  60.4862 -152.7643 -1.56 0.40 1.90 21.69 0.33   60311008
AVDFR    2.870  1.000 P
AVRDJH    2.730  0.200 P
AVRDN    0.160  1.000 P
AVREF    1.460 -1.000 S
AVREF    0.620 -1.000 P
AVRSO    0.310  1.000 P
# 2009 02 20 00 42 25.51  60.4810 -152.7115  4.88 0.50 0.97 0.69 0.09   60311018
AVDFR    2.430  1.000 P
AVRDJH    4.310 -1.000 S
AVRDJH    2.520 -1.000 P
AVRDN    0.980  1.000 P
AVREF    2.050 -1.000 S
AVREF    1.030  1.000 P
# 2009 02 20 05 25 13.19  60.4497 -152.7327  3.58 0.00 0.89 0.61 0.09   60311058
AVRDJH    5.190 -1.000 S
AVRDJH    2.810  1.000 P
AVRDN    1.200  1.000 P
AVREF    2.330 -1.000 S
AVREF    1.220 -1.000 P
AVRSO    1.230  1.000 P
# 2009 02 20 08 49 49.58  60.4930 -152.6833  3.01 0.00 2.35 1.48 0.28   60311088
AVDFR    2.180 -1.000 P
AVRDJH    4.520 -1.000 S
AVRDJH    2.000  1.000 P
AVRDN    0.160  1.000 P
AVREF    1.740 -1.000 S
AVREF    0.610  1.000 P
AVRSO    1.470 -1.000 P
# 2009 02 20 09 26 57.21  60.4707 -152.7247  2.04 0.10 0.52 0.68 0.07   60311103
AVDFR    2.430  1.000 P
AVRDJH    4.650  1.000 S
AVRDJH    2.390  1.000 P
AVRDN    0.760  1.000 P
AVREF    1.490 -1.000 S
AVREF    0.900  1.000 P
AVRSO    0.850 -1.000 P
# 2009 02 20 11 52 22.66  60.4950 -152.7603  0.76 0.60 0.59 0.41 0.12   60311138
AVDFR    2.200 -1.000 P
AVRDJH    4.390  1.000 S
AVRDJH    2.230 -1.000 P
AVRDN    0.600  1.000 P
AVREF    1.630 -1.000 S
AVREF    0.690  1.000 P
AVRSO    0.700  0.200 P
# 2009 02 20 15 05 17.96  60.4757 -152.7443  4.25 1.20 1.13 0.64 0.13   60311183
AVDFR    2.680  1.000 P
AVRDJH    2.280  1.000 P
AVRDN    1.160  1.000 P
AVREF    1.970 -1.000 S
AVREF    1.210  1.000 P
AVRSO    1.140  1.000 P
# 2009 02 20 15 29 25.95  60.4782 -152.7832 -0.26 0.00 0.44 0.64 0.05   60311198
AVDFR    2.610 -1.000 P
AVRDJH    4.730  1.000 S
AVRDJH    2.560 -1.000 P
AVRDN    1.040  1.000 P
AVREF    1.860 -1.000 S
AVREF    1.050  1.000 P
AVRSO   -0.390  1.000 P
# 2009 02 20 15 39 23.99  60.4823 -152.7962  0.79 1.10 0.90 0.65 0.11   60311208
AVDFR    2.530 -1.000 P
AVRDN    0.980  1.000 P
AVREF    2.180 -1.000 S
AVREF    1.030  1.000 P
AVRSO    0.960  1.000 P
# 2009 02 20 15 39 54.76  60.4782 -152.7340  4.25 1.30 1.04 0.75 0.16   60311213
AVDFR    2.610  1.000 P
AVRDJH    4.230 -1.000 S
AVRDJH    2.600  1.000 P
AVRDN    1.010  1.000 P
AVREF    2.010 -1.000 S
AVREF    1.030  1.000 P
AVRSO    1.090 -1.000 P
# 2009 02 20 15 42 38.27  60.4847 -152.7323  1.92 0.10 0.83 1.32 0.13   60311238
AVDFR    2.450  1.000 P
AVRDN    0.830  1.000 P
AVREF    1.490 -1.000 S
AVREF    0.650  1.000 P
AVRSO    0.980  1.000 P
# 2009 02 20 15 44 1.43  60.4655 -152.7392  3.11 0.00 0.81 0.71 0.09   60311248
AVDFR    2.600  1.000 P
AVRDJH    4.610 -1.000 S
AVRDJH    2.570  1.000 P
AVRDN    1.020  1.000 P
AVREF    1.980 -1.000 S
AVREF    0.930  1.000 P
AVRSO    1.040 -1.000 P
# 2009 02 20 16 19 34.40  60.4910 -152.7620  1.01 0.80 0.51 0.37 0.07   60311263
AVDFR    2.190  1.000 P
AVRDJH    2.280  1.000 P
AVRDN    0.740  1.000 P
AVREF    1.680 -1.000 S
AVREF    0.830  1.000 P
AVRSO    0.870  1.000 P
# 2009 02 20 16 45 11.38  60.4672 -152.7395  4.64 0.80 1.36 0.84 0.15   60311273
AVRDJH    2.930 -1.000 P
AVRDN    1.230  1.000 P
AVREF    2.300 -1.000 S
AVREF    1.270 -1.000 P
AVRSO    1.100 -1.000 P
# 2009 02 20 22 26 27.63  60.4873 -152.7600 -2.81 0.70 0.86 1.01 0.30   60311368
AVDFR    3.740  1.000 P
AVRDJH    4.080 -1.000 S
AVRDN    0.370  1.000 P
AVREF    1.410 -1.000 S
AVREF    0.320  1.000 P
AVRSO    0.300 -1.000 P
# 2009 02 21 02 05 27.99  60.5143 -152.7308 -0.47 -0.10 0.97 1.88 0.22   60311393
AVDFR    2.120 -0.200 P
AVRDN    0.100  1.000 P
AVREF    1.510 -1.000 S
AVREF    0.450  1.000 P
AVRSO    1.480  1.000 P
# 2009 02 21 02 50 59.16  60.4557 -152.7240  4.40 0.80 1.76 1.27 0.15   60311403
AVDFR    3.440  0.200 P
AVRDN    1.870  1.000 P
AVREF    2.420 -1.000 S
AVREF    1.040  1.000 P
AVRSO    1.180 -1.000 P
# 2009 02 21 04 40 25.24  60.4260 -152.6885  3.42 0.50 1.71 1.77 0.22   60311428
AVDFR    3.300  1.000 P
AVRDJH    6.310 -1.000 S
AVRDJH    3.250  1.000 P
AVRDN    1.730  1.000 P
AVREF    2.600 -1.000 S
AVREF    1.720  1.000 P
AVRSO    1.550 -1.000 P
# 2009 02 21 05 47 24.09  60.4978 -152.7805 -0.15 0.50 0.38 0.77 0.10   60311443
AVDFR    2.190  1.000 P
AVRDE    2.660 -1.000 P
AVRDJH    3.830  1.000 S
AVRDJH    2.130  1.000 P
AVRDN    0.690  1.000 P
AVREF    1.750  1.000 S
AVREF    0.980  1.000 P
AVRSO    0.810  1.000 P
# 2009 02 21 08 40 35.08  60.5030 -152.7340  0.26 0.10 0.45 0.73 0.09   60311473
AVDFR    2.010  1.000 P
AVRDJH    3.840  1.000 S
AVRDJH    1.960  1.000 P
AVRDN    0.520  1.000 P
AVREF    1.080 -1.000 S
AVREF    0.820  1.000 P
AVRSO    0.930  1.000 P
# 2009 02 22 04 47 24.80  60.4730 -152.7493  1.73 0.10 0.89 1.82 0.12   60311668
AVDFR    2.690  0.200 P
AVNCT    2.470  1.000 P
AVRDJH    4.550  1.000 S
AVRDJH    2.380  1.000 P
AVRDN    0.780  1.000 P
AVREF    1.720 -1.000 S
AVREF    0.880 -1.000 P
AVRSO    0.760 -1.000 P
# 2009 02 22 04 51 8.57  60.4860 -152.7252  4.01 0.10 1.31 0.93 0.08   60311703
AVNCT    2.430  1.000 P
AVRDJH    4.220  1.000 S
AVRDJH    2.390 -1.000 P
AVRDN    0.680  1.000 P
AVREF    1.910 -1.000 S
AVREF    0.910  1.000 P
AVRSO    1.290 -1.000 P
# 2009 02 22 04 51 39.28  60.4732 -152.7333  3.37 0.10 1.00 1.02 0.16   60311713
AVNCT    2.670  1.000 P
AVRDJH    4.590  1.000 S
AVRDJH    2.510  1.000 P
AVRDN    0.960  1.000 P
AVREF    1.900 -1.000 S
AVREF    1.070  1.000 P
AVRSO    1.290  1.000 P
# 2009 02 22 04 59 27.75  60.4693 -152.7295  2.66 0.70 0.99 1.05 0.19   60311718
AVDFR    2.740  1.000 P
AVNCT    2.650  1.000 P
AVRDJH    4.440  1.000 S
AVRDJH    2.530  1.000 P
AVRDN    0.990  1.000 P
AVREF    1.550 -1.000 S
AVREF    1.090  1.000 P
AVRSO    1.040  1.000 P
# 2009 02 22 05 07 47.31  60.4648 -152.7988 -0.44 0.20 1.16 3.36 0.27   60311733
AVNCT    2.900  1.000 P
AVRDJH    5.440  1.000 S
AVRDJH    2.820  1.000 P
AVRDN    1.320  1.000 P
AVREF    2.120  1.000 S
AVREF    1.320  1.000 P
AVRSO    0.160  1.000 P
# 2009 02 22 07 52 43.86  60.4562 -152.7445  1.57 1.10 1.22 1.07 0.22   60311773
AVNCT    2.920  1.000 P
AVRDJH    4.890 -1.000 S
AVRDJH    2.910  1.000 P
AVRDN    1.280  1.000 P
AVREF    1.880 -1.000 S
AVREF    1.370  1.000 P
AVRSO    0.350  1.000 P
# 2009 02 22 10 10 4.69  60.4630 -152.7122  4.46 1.30 1.68 0.92 0.23   60311818
AVNCT    2.970  1.000 P
AVRDJH    5.020 -1.000 S
AVRDJH    3.030  1.000 P
AVRDN    1.490  1.000 P
AVREF    2.230 -1.000 S
AVREF    1.270  1.000 P
AVRSO    0.770  1.000 P
# 2009 02 22 10 15 28.87  60.4608 -152.7800  2.54 0.50 1.01 1.72 0.16   60311833
AVDFR    2.750  1.000 P
AVNCT    2.350  1.000 P
AVRDE    2.910  1.000 P
AVRDJH    4.850 -1.000 S
AVRDJH    2.560  1.000 P
AVRDN    1.260  1.000 P
AVRDT    4.290  1.000 P
AVREF    2.130 -1.000 S
AVREF    1.340  1.000 P
AVRSO    1.080 -1.000 P
# 2009 02 22 10 16 9.35  60.4840 -152.7648  3.79 0.80 1.23 1.43 0.19   60311838
AVNCT    3.840  1.000 P
AVRDJH    3.830 -1.000 S
AVRDJH    2.630  1.000 P
AVRDN    1.030  1.000 P
AVREF    2.220 -1.000 S
AVREF    1.080 -1.000 P
AVRSO    1.050  1.000 P
# 2009 02 22 10 16 32.47  60.4473 -152.6580  6.69 0.60 1.81 0.89 0.16   60311843
AVNCT    3.710 -1.000 P
AVRDJH    5.740 -1.000 S
AVRDJH    3.320  1.000 P
AVRDN    1.750  1.000 P
AVREF    3.050  1.000 S
AVREF    1.720 -1.000 P
AVRSO    2.500  1.000 P
# 2009 02 22 10 17 47.45  60.4790 -152.7438  3.18 0.80 0.69 0.85 0.11   60311853
AVNCT    2.580  0.200 P
AVRDJH    2.560  1.000 P
AVRDN    1.020  1.000 P
AVREF    1.920 -1.000 S
AVREF    1.040 -1.000 P
AVRSO    0.930  1.000 P
# 2009 02 22 10 21 21.81  60.4742 -152.7188  4.54 0.30 1.59 1.10 0.23   60311863
AVDFR    1.680  0.200 P
AVNCT    2.860  1.000 P
AVRDJH    5.020  1.000 S
AVRDJH    2.540  1.000 P
AVRDN    1.370  1.000 P
AVREF    2.310 -1.000 S
AVREF    1.050  1.000 P
AVRSO    1.130  1.000 P
# 2009 02 22 10 22 48.12  60.4750 -152.7767 -0.34 0.40 0.41 0.73 0.09   60311878
AVDFR    2.630 -1.000 P
AVNCT    2.520 -1.000 P
AVRDE    3.130  0.200 P
AVRDJH    4.660 -1.000 S
AVRDJH    2.510  1.000 P
AVRDN    1.010  1.000 P
AVRDT    4.060  0.200 P
AVRED    1.710  0.200 P
AVREF    1.770 -1.000 S
AVREF    1.110  1.000 P
# 2009 02 22 10 23 23.57  60.4677 -152.7535  3.19 0.90 0.81 1.15 0.04   60311883
AVNCT    2.620  1.000 P
AVRDJH    2.510 -1.000 P
AVRDN    1.060  1.000 P
AVREF    2.060 -1.000 S
AVREF    1.120 -1.000 P
AVRSO    0.920 -1.000 P
# 2009 02 22 10 26 18.83  60.4713 -152.7288  5.29 1.30 1.55 1.19 0.10   60311893
AVNCT    2.870  1.000 P
AVRDJH    4.460 -1.000 S
AVRDJH    2.710  1.000 P
AVRDN    1.090  1.000 P
AVREF    2.350 -1.000 S
AVREF    1.240 -1.000 P
AVRSO    1.190 -1.000 P
# 2009 02 22 10 29 36.26  60.4967 -152.6863  5.31 1.40 1.46 0.89 0.16   60311908
AVNCT    2.700  1.000 P
AVRDJH    2.630  0.200 P
AVRDN    1.080  1.000 P
AVREF    2.150 -1.000 S
AVREF    1.230  1.000 P
AVRSO    1.790  1.000 P
# 2009 02 22 10 35 22.14  60.4728 -152.7842 -0.28 0.30 0.49 0.96 0.13   60311928
AVDFR    2.770 -1.000 P
AVNCT    2.660  1.000 P
AVRDJH    4.640  1.000 S
AVRDJH    2.550  1.000 P
AVRDN    0.990  1.000 P
AVREF    1.920 -1.000 S
AVREF    1.120  1.000 P
AVRSO    0.270  1.000 P
# 2009 02 22 10 52 8.39  60.5117 -152.7080  1.61 0.40 1.95 1.01 0.17   60311958
AVNCT    2.190  1.000 P
AVRDJH    4.890  1.000 S
AVRDJH    2.190 -1.000 P
AVRDN    0.480  1.000 P
AVREF    1.480 -1.000 S
AVREF    0.670  1.000 P
AVRSO    1.520 -1.000 P
# 2009 02 22 11 14 8.62  60.5073 -152.7435  1.08 0.40 1.13 0.46 0.12   60311983
AVNCT    1.470  0.200 P
AVRDJH    2.040 -1.000 P
AVRDN    0.520  1.000 P
AVREF    1.650 -1.000 S
AVREF    0.660  1.000 P
AVRSO    1.220 -1.000 P
# 2009 02 22 11 15 35.20  60.5003 -152.6277  1.92 0.20 1.08 1.61 0.15   60311993
AVDFR    2.940  0.200 P
AVRDJH    4.810  1.000 S
AVRDJH    2.460  1.000 P
AVRDN    1.190  1.000 P
AVRED    3.980 -1.000 S
AVREF    1.770 -1.000 S
AVREF    0.990 -1.000 P
# 2009 02 22 13 32 11.08  60.4468 -152.7217  5.18 0.50 1.77 1.22 0.18   60312108
AVDFR    3.110  1.000 P
AVNCT    3.060  1.000 P
AVRDJH    5.290 -1.000 S
AVRDJH    2.950  1.000 P
AVRDN    1.480  1.000 P
AVREF    2.370 -1.000 S
AVREF    1.560  1.000 P
AVRSO    1.400 -1.000 P
# 2009 02 22 13 35 10.20  60.5008 -152.7393  2.76 0.70 1.60 1.61 0.12   60312123
AVNCT    2.460 -1.000 P
AVRDN    0.770  1.000 P
AVREF    1.890 -1.000 S
AVREF    0.930 -1.000 P
AVRSO    1.090 -1.000 P
# 2009 02 22 14 39 33.45  60.4878 -152.7852  0.54 0.90 0.98 1.46 0.14   60312163
AVNCT    2.480  1.000 P
AVRDJH    2.440  1.000 P
AVRDN    0.870 -1.000 P
AVREF    1.920  1.000 S
AVREF    0.950  1.000 P
AVRSO    0.520  1.000 P
# 2009 02 22 14 39 50.96  60.4953 -152.7292  0.17 0.80 0.58 0.87 0.08   60312173
AVDFR    2.790  0.200 P
AVNCT    2.460 -1.000 P
AVRDJH    2.420 -1.000 P
AVRDN    0.610  1.000 P
AVREF    0.910 -1.000 S
AVREF    0.540  1.000 P
AVRSO    0.820  1.000 P
# 2009 02 22 15 05 14.10  60.4830 -152.6427 -0.74 0.40 0.91 1.47 0.16   60312188
AVNCT    3.100 -1.000 P
AVRDJH    5.460  1.000 S
AVRDJH    3.050  1.000 P
AVRDN    1.490  1.000 P
AVREF    0.910  1.000 S
AVREF    0.390  1.000 P
AVRSO    1.430  1.000 P
# 2009 02 22 15 09 24.27  60.4777 -152.7803 -0.15 1.00 0.39 0.74 0.09   60312193
AVDFR    2.620 -1.000 P
AVNCT    2.570  1.000 P
AVRDJH    4.360  1.000 S
AVRDJH    2.530  1.000 P
AVRDN    0.910  1.000 P
AVREF    1.810 -1.000 S
AVREF    1.030  1.000 P
AVRSO    0.570  1.000 P
# 2009 02 22 15 11 39.73  60.4723 -152.6923  4.74 0.80 1.80 0.78 0.16   60312203
AVDFR    2.390  1.000 P
AVNCT    2.780  1.000 P
AVRDJH    4.770 -1.000 S
AVRDJH    2.800  1.000 P
AVRDN    1.210  1.000 P
AVREF    1.880 -1.000 S
AVREF    1.280  1.000 P
AVRSO    1.400 -1.000 P
# 2009 02 22 15 30 17.27  60.4808 -152.7490  2.62 0.30 0.77 1.32 0.15   60312208
AVNCT    2.540  1.000 P
AVRDJH    4.150  1.000 S
AVRDJH    2.490  1.000 P
AVRDN    0.950  1.000 P
AVREF    1.850 -1.000 S
AVREF    1.020 -1.000 P
AVRSO    0.620  1.000 P
# 2009 02 22 16 43 31.02  60.4630 -152.7195  3.40 0.60 0.98 0.72 0.14   60312223
AVNCT    2.910  1.000 P
AVRDJH    4.680  1.000 S
AVRDJH    2.550  1.000 P
AVRDN    0.770  1.000 P
AVREF    1.960 -1.000 S
AVREF    0.940 -1.000 P
AVRSO    1.240  1.000 P
# 2009 02 23 01 15 28.33  60.4792 -152.7380  2.98 0.70 0.67 0.90 0.10   60312353
AVNCT    2.560  1.000 P
AVRDJH    4.300  1.000 S
AVRDJH    2.490  1.000 P
AVRDN    0.930  1.000 P
AVREF    1.810 -1.000 S
AVREF    0.950 -1.000 P
AVRSO    0.870  1.000 P
# 2009 02 23 02 18 12.36  60.4620 -152.7480  4.39 1.30 0.78 0.67 0.09   60312378
AVNCT    2.770  1.000 P
AVRDJH    4.620  1.000 S
AVRDJH    2.690  1.000 P
AVRDN    1.150  1.000 P
AVREF    2.320 -1.000 S
AVREF    1.210  1.000 P
AVRSO    1.190  1.000 P
# 2009 02 23 03 44 51.29  60.4900 -152.7567  0.92 0.00 0.57 0.38 0.12   60312388
AVRDE    2.610 -1.000 P
AVRDJH    2.240 -1.000 P
AVRDN    0.690  1.000 P
AVREF    1.600 -1.000 S
AVREF    0.680  1.000 P
AVRSO    0.780  1.000 P
# 2009 02 23 11 57 55.70  60.4963 -152.7442  0.98 0.20 0.52 0.67 0.13   60312458
AVRDJH    4.270  1.000 S
AVRDJH    2.150 -1.000 P
AVRDN    0.620  1.000 P
AVREF    1.450 -1.000 S
AVREF    0.590  1.000 P
AVRSO    1.110  1.000 P
# 2009 02 23 12 11 14.96  60.4755 -152.6845  1.78 -0.10 1.34 0.70 0.16   60312473
AVRDJH    4.930  1.000 S
AVRDJH    2.810  0.200 P
AVRDN    1.180  1.000 P
AVREF    1.360 -1.000 S
AVREF    0.570  1.000 P
AVRSO    1.160  1.000 P
# 2009 02 23 16 38 22.60  60.4817 -152.7602  2.44 0.40 0.70 1.23 0.11   60312573
AVRDJH    2.450 -1.000 P
AVRDN    0.940  1.000 P
AVREF    1.960 -1.000 S
AVREF    0.930 -1.000 P
AVRSO    0.970  1.000 P
# 2009 02 23 16 38 42.16  60.4792 -152.7465  3.19 0.60 0.77 1.01 0.10   60312578
AVNCT    2.620 -1.000 P
AVRDN    1.000  1.000 P
AVREF    1.900 -1.000 S
AVREF    1.070 -1.000 P
AVRSO    1.010  1.000 P
# 2009 02 24 03 47 12.41  60.4960 -152.7312 -1.14 0.00 1.08 9.68 0.37   60312678
AVNCT    3.170  1.000 P
AVRDJH    2.020  1.000 P
AVRDN    0.040  1.000 P
AVREF    1.080 -1.000 S
AVREF   -0.060  1.000 P
AVRSO    0.740  1.000 P
# 2009 02 24 03 47 21.83  60.4877 -152.7317  0.57 0.30 0.78 0.70 0.06   60312683
AVNCT    2.550  0.200 P
AVRDJH    4.100 -1.000 S
AVRDJH    2.380  1.000 P
AVRDN    0.900 -1.000 P
AVREF    0.970  1.000 S
AVREF    0.670  1.000 P
AVRSO    0.830  1.000 P
