# 2008 12 04 10 20 13.19  60.4985 -153.1402  6.31 0.80 0.30 1.22 0.06   60366313
AVBGL   15.120  1.000 P
AVBKG   12.650  1.000 P
AVCGL   17.470  1.000 P
AVCKL   14.180  1.000 P
AVCKN   15.280  1.000 P
AVCKT   14.800  1.000 P
AVCP2   16.340  1.000 P
AVILW    8.150  1.000 P
AVINE    8.070  1.000 P
AVNCG   18.350  1.000 P
AVNCT    2.550  1.000 P
AVRDN    3.910  1.000 P
AVRDT    6.720  1.000 P
AVRED    3.840  1.000 P
AVREF    7.630  1.000 S
AVREF    7.580  1.000 S
AVREF    4.330  1.000 P
AVRSO    3.960  1.000 P
AVSPU   15.190  1.000 P
# 2008 12 06 08 29 35.42  60.5077 -152.7752  3.48 0.50 0.66 0.96 0.07   60366638
AVRDN    1.050  1.000 P
AVRED    1.940  1.000 P
AVREF    2.260 -1.000 S
AVREF    1.270  1.000 P
AVRSO    1.180  1.000 P
# 2008 12 08 15 45 40.59  60.4983 -152.7037  4.08 0.00 1.15 0.94 0.12   60367453
AVRDN    1.280  1.000 P
AVRED    3.350 -1.000 S
AVRED    2.010  1.000 P
AVREF    1.940 -1.000 S
AVREF    0.950 -1.000 P
AVRSO    1.140  1.000 P
# 2008 12 12 17 17 55.19  60.4837 -152.6600 28.96 0.70 1.79 1.10 0.30   60368748
AVBGL   14.110  1.000 P
AVCKL   13.000  1.000 P
AVCRP   25.550  1.000 S
AVDFR    4.640  1.000 P
AVIVE    9.910  1.000 P
AVRDN    4.360  1.000 P
AVRDT    5.020  1.000 P
AVREF    8.380  1.000 S
AVRSO    4.730  1.000 P
# 2008 12 13 07 07 43.96  60.5383 -152.6108 11.45 1.90 0.29 0.23 0.09   60368998
AVAUH   23.120  1.000 P
AVAUSE   22.800  1.000 P
AVAUW   22.860  1.000 P
AVBGL   13.280  1.000 P
AVBGR    4.800  1.000 P
AVBKG   10.160  1.000 P
AVCGL   14.810  1.000 P
AVCKL   12.100  1.000 P
AVCKN   13.080  1.000 P
AVCKT   12.350  1.000 P
AVCP2   13.360  1.000 P
AVCRP   12.120  1.000 P
AVDFR    2.470  1.000 P
AVILI    8.950  1.000 P
AVILS   11.250  1.000 P
AVILW    9.890  1.000 P
AVINE    9.580  1.000 P
AVIVE   10.080  1.000 P
AVNCG   15.960  1.000 P
AVNCT    3.620  1.000 P
AVOPT   17.460  1.000 P
AVRDN    2.550  1.000 P
AVRDT    2.840  1.000 P
AVRED    5.870  1.000 S
AVRED    3.320  1.000 P
AVREF    4.460  1.000 S
AVREF    2.520  1.000 P
AVRSO    2.990  1.000 P
AVSPBG   12.220  1.000 P
AVSPCG   13.550  1.000 P
AVSPCR   21.450  1.000 S
AVSPCR   12.330  1.000 P
AVSPNW   14.710  1.000 P
AVSPU   12.420  1.000 P
AVSPWE   13.360  1.000 P
AVSTLK   18.540  1.000 P
# 2008 12 15 06 35 15.12  60.4870 -152.7240 31.60 1.20 1.24 0.76 0.20   60369773
AVBGL   14.530  1.000 P
AVCKL   13.360  1.000 P
AVCKT   14.250  0.200 P
AVDFR    5.020  1.000 P
AVILW    9.880  1.000 P
AVINE    7.940  1.000 P
AVNCT    5.360  1.000 P
AVRDN    4.840  1.000 P
AVREF    9.020  1.000 S
AVREF    5.080  1.000 P
AVRSO    5.420  0.200 P
# 2008 12 16 23 25 28.79  60.5238 -152.7280  4.98 -0.10 1.01 0.78 0.06   60370133
AVRDN    1.140  1.000 P
AVREF    2.440 -1.000 S
AVREF    1.450  1.000 P
AVRSO    1.760  1.000 P
# 2008 12 18 00 20 44.25  60.5178 -152.7238  5.48 0.20 0.34 0.43 0.03   60370463
AVDFR    2.280  1.000 P
AVNCT    2.340 -1.000 P
AVRDN    1.180  1.000 P
AVRDT    4.100  1.000 P
AVRED    3.870  1.000 S
AVRED    2.220  1.000 P
AVREF    2.460  1.000 S
AVREF    1.390  1.000 P
AVRSO    1.740  1.000 P
# 2008 12 19 10 03 3.81  60.4903 -152.7392 31.62 0.50 1.81 0.58 0.10   60370813
AVBGL   14.830  1.000 P
AVCKL   13.410  1.000 P
AVDFR    5.430  1.000 P
AVNCG   17.240  1.000 P
AVRDN    5.070  1.000 P
AVRDT    5.770  1.000 P
AVRED    9.220  1.000 S
AVRED    5.280  1.000 P
AVREF    9.160  1.000 S
AVREF    5.070  1.000 P
AVRSO    5.000  1.000 P
# 2008 12 19 10 03 11.04  60.4805 -152.7185 31.00 0.90 0.92 0.61 0.15   60370818
AVBGL   14.510  1.000 P
AVCKL   13.490  1.000 P
AVDFR    5.040  1.000 P
AVRDN    4.890  1.000 P
AVRDT    5.980  1.000 P
AVRED    9.060 -1.000 S
AVRED    5.050  1.000 P
AVREF    9.010  1.000 S
AVREF    5.000  1.000 P
AVSPU   14.010  1.000 P
# 2008 12 20 22 28 26.44  60.4975 -152.7563  2.99 0.20 0.62 0.95 0.09   60371248
AVRDN    1.070  1.000 P
AVRED    1.710  1.000 P
AVREF    1.850 -1.000 S
AVREF    1.120  1.000 P
AVRSO    1.010  1.000 P
# 2008 12 21 16 36 4.70  60.5467 -152.6553  5.99 0.40 0.32 0.58 0.06   60371428
AVDFR    1.530  1.000 P
AVNCT    2.760  1.000 P
AVRDN    1.590  1.000 P
AVRDT    2.690  1.000 P
AVRED    4.970  1.000 S
AVRED    2.790  1.000 P
AVREF    3.160  1.000 S
AVREF    1.750  1.000 P
# 2008 12 21 21 13 58.13  60.4818 -152.7693 30.63 1.50 2.18 1.52 0.32   60371478
AVDFR    4.990  1.000 P
AVNCT    5.670  1.000 P
AVRDN    4.670  1.000 P
AVRDT    5.620  1.000 P
AVRED    8.880  1.000 S
AVRED    5.520  0.200 P
AVREF    8.800  1.000 S
AVREF    4.820  1.000 P
AVRSO    4.920  1.000 P
# 2008 12 27 11 04 33.94  60.6953 -152.8087 25.95 1.80 3.86 1.43 0.04   60372943
AVRDN    5.300 -1.000 P
AVRED   11.280 -1.000 S
AVREF   10.160 -1.000 S
AVREF    5.610  1.000 P
AVRSO    5.700  0.200 P
# 2009 01 02 08 27 8.23  60.5445 -152.5233  9.73 1.30 0.30 0.34 0.13   60316158
AKSLK   19.810  1.000 P
AVBGL   13.140  1.000 P
AVBGR    4.340  1.000 P
AVBKG    9.880  1.000 P
AVCGL   14.840  1.000 P
AVCKL   11.900  1.000 P
AVCKN   12.840  1.000 P
AVCKT   12.220  1.000 P
AVCP2   13.000  1.000 P
AVCRP   13.240  1.000 P
AVDFR    2.550  1.000 P
AVILI    9.430  1.000 P
AVILS   11.790  1.000 P
AVILW   10.410  1.000 P
AVINE    9.990  1.000 P
AVIVS   11.030  1.000 P
AVNCG   15.770  1.000 P
AVNCT    4.140  1.000 P
AVRDN    2.760  1.000 P
AVRDT    2.180  1.000 P
AVRED    6.440  1.000 S
AVRED    3.600  1.000 P
AVREF    4.780  1.000 S
AVREF    4.690  1.000 S
AVREF    2.670  1.000 P
AVRSO    3.300  1.000 P
AVSPU   12.020  1.000 P
# 2009 01 12 01 18 41.43  60.5530 -152.5243  8.85 0.70 0.35 0.56 0.06   60319793
AVBGR    4.180  1.000 P
AVCKL   11.720  1.000 P
AVDFR    2.410  1.000 P
AVNCT    4.000  1.000 P
AVRDN    2.640  1.000 P
AVRDT    1.990  1.000 P
AVREF    4.650  1.000 S
AVREF    2.580  1.000 P
AVRSO    3.210  1.000 P
# 2009 01 12 07 40 48.43  60.5052 -152.7498 32.25 1.50 2.06 1.26 0.36   60319853
AVCKL   13.400  1.000 P
AVDFR    5.150  1.000 P
AVINE    9.800  1.000 P
AVIVE    9.470  1.000 P
AVNCT    5.670  1.000 P
AVRDN    4.950  1.000 P
AVRDT    6.350  1.000 P
AVREF    9.640  1.000 S
AVREF    5.820  0.200 P
AVRSO    5.260  0.200 P
# 2009 01 19 09 07 31.42  60.4750 -152.7480  4.91 0.40 1.17 1.53 0.27   60321193
AVDFR    2.550  1.000 P
AVNCT    2.670  1.000 P
AVRDN    1.120  1.000 P
AVREF    2.480  1.000 S
AVREF    1.110  1.000 P
AVRSO    1.160  1.000 P
# 2009 01 21 13 14 49.44  60.3172 -152.6628  9.65 0.50 1.06 1.72 0.08   60321538
AVDFR    5.260  1.000 P
AVILW    6.580  1.000 P
AVINE    6.080  1.000 P
AVIVE    6.540  1.000 P
AVNCT    5.380  1.000 P
AVRDN    4.210  1.000 P
AVREF    6.570  1.000 S
AVREF    3.740  1.000 P
AVRSO    3.520  1.000 P
# 2009 01 23 03 15 4.20  60.5262 -152.6192 10.33 -0.50 0.48 0.65 0.05   60321978
AVDFR    2.260  1.000 P
AVNCT    3.390  1.000 P
AVRDT    2.800  1.000 P
AVREF    4.020  1.000 S
AVRSO    2.700  1.000 P
# 2009 01 23 09 08 22.06  60.5645 -152.8698 29.90 1.60 2.03 1.01 0.24   60322033
AVDFR    4.720  1.000 P
AVILW   10.580  1.000 P
AVIVE   10.870  1.000 P
AVNCT    4.790  1.000 P
AVRDN    4.890  1.000 P
AVRDT    5.760  1.000 P
AVREF    9.060  1.000 S
AVREF    5.350  1.000 P
AVRSO    5.200  1.000 P
# 2009 01 24 20 26 23.55  60.4937 -152.7767 -0.06 -0.30 0.46 2.06 0.14   60322348
AVDFR    2.430  1.000 P
AVNCT    2.290  1.000 P
AVRDN    0.660  1.000 P
AVREF    1.510  1.000 S
AVREF    0.830  1.000 P
AVRSO    0.710  1.000 P
# 2009 01 25 10 47 46.40  60.4607 -152.6770  0.36 0.30 0.90 0.53 0.11   60322468
AVDFR    2.940 -1.000 P
AVNCT    3.080  0.200 P
AVRDN    1.490  1.000 P
AVREF    1.450 -1.000 S
AVREF    0.630  1.000 P
AVRSO    0.920 -1.000 P
# 2009 01 25 11 34 52.96  60.4837 -152.7453  4.43 0.80 0.90 1.04 0.11   60322488
AVDFR    2.790  0.200 P
AVNCT    2.580 -1.000 P
AVRDN    1.090  1.000 P
AVREF    2.230 -1.000 S
AVREF    1.150 -1.000 P
# 2009 01 25 12 14 6.41  60.4762 -152.7497  4.22 0.90 1.99 1.82 0.17   60322523
AVDFR    2.690  1.000 P
AVNCT    2.660 -1.000 P
AVRDN    1.060  1.000 P
AVREF    2.230 -1.000 S
AVREF    1.090 -1.000 P
AVRSO    1.160  1.000 P
# 2009 01 25 12 14 31.20  60.4795 -152.7685  0.91 0.20 0.65 0.46 0.15   60322528
AVDFR    2.360  1.000 P
AVNCT    2.390 -1.000 P
AVRDN    1.100  1.000 P
AVRDT    4.120  1.000 P
AVREF    1.760  1.000 S
AVREF    0.750  1.000 P
AVRSO    0.500  1.000 P
# 2009 01 25 12 14 56.62  60.4843 -152.7382  4.22 0.80 1.77 1.84 0.14   60322533
AVDFR    3.080  1.000 P
AVNCT    2.660 -1.000 P
AVRDN    1.020  1.000 P
AVREF    2.150 -1.000 S
AVREF    1.100 -1.000 P
AVRSO    1.100 -1.000 P
# 2009 01 25 12 16 7.41  60.5022 -152.7307  2.51 0.40 1.00 1.48 0.25   60322543
AVDFR    2.270 -1.000 P
AVNCT    2.150 -1.000 P
AVRDN    0.590  1.000 P
AVREF    1.650 -1.000 S
AVREF    0.560  1.000 P
AVRSO    1.260  1.000 P
# 2009 01 25 12 16 37.05  60.4897 -152.7520  1.98 0.70 0.85 1.85 0.15   60322548
AVDFR    2.330 -1.000 P
AVNCT    2.260 -1.000 P
AVRDN    0.700  1.000 P
AVREF    1.660 -1.000 S
AVREF    0.770  1.000 P
AVRSO    1.130 -1.000 P
# 2009 01 25 13 48 43.63  60.4855 -152.7760 -1.40 1.10 1.00 7.68 0.06   60322558
AVDFR    2.430  1.000 P
AVNCT    2.420 -1.000 P
AVRDN    0.820  1.000 P
AVREF    1.640 -1.000 S
AVREF    0.880 -1.000 P
AVRSO   -0.020  1.000 P
# 2009 01 25 13 57 35.68  60.4942 -152.7088  3.22 0.60 1.15 0.94 0.22   60322568
AVDFR    2.250 -1.000 P
AVNCT    2.370  1.000 P
AVRDN    0.720  1.000 P
AVREF    1.840 -1.000 S
AVREF    0.710  1.000 P
AVRSO    1.270 -1.000 P
# 2009 01 25 13 58 53.65  60.4608 -152.7577  3.50 0.70 1.10 1.90 0.21   60322583
AVDFR    2.800  1.000 P
AVNCT    2.740  1.000 P
AVRDN    1.160  1.000 P
AVREF    2.410 -1.000 S
AVREF    1.230  1.000 P
AVRSO    1.000 -1.000 P
# 2009 01 25 14 06 16.79  60.4803 -152.7658  2.76 0.70 1.52 2.29 0.14   60322613
AVDFR    3.080  1.000 P
AVNCT    2.540 -1.000 P
AVRDN    0.990 -1.000 P
AVREF    2.150 -1.000 S
AVREF    1.060 -1.000 P
AVRSO    0.900  1.000 P
# 2009 01 25 14 17 30.79  60.4995 -152.7625 -2.94 0.60 0.53 0.90 0.11   60322633
AVDFR    2.340  1.000 P
AVNCT    2.330 -1.000 P
AVRDN    0.640  1.000 P
AVRDT    4.140  0.200 P
AVREF    1.600 -1.000 S
AVREF    0.650 -1.000 P
AVRSO    0.980 -1.000 P
# 2009 01 25 14 42 15.55  60.4630 -152.7607  4.21 0.80 1.44 1.18 0.20   60322658
AVDFR    2.800  1.000 P
AVNCT    2.890 -1.000 P
AVRDN    1.150  1.000 P
AVREF    2.450 -1.000 S
AVREF    1.370  1.000 P
AVRSO    0.780  1.000 P
# 2009 01 25 15 05 0.97  60.4673 -152.6792  3.58 0.40 2.32 0.93 0.15   60322668
AVDFR    3.420  1.000 P
AVNCT    3.120 -1.000 P
AVRDN    1.390  1.000 P
AVREF    1.980 -1.000 S
AVREF    0.880 -1.000 P
AVRSO    1.440 -1.000 P
# 2009 01 25 15 09 34.59  60.4807 -152.7608  0.98 0.50 0.65 0.61 0.13   60322678
AVDFR    2.510  1.000 P
AVNCT    2.480 -1.000 P
AVRDN    0.860  1.000 P
AVREF    1.630 -1.000 S
AVREF    0.860  1.000 P
AVRSO    0.580  1.000 P
# 2009 01 25 15 19 19.87  60.4965 -152.7210  3.64 1.10 0.81 0.74 0.08   60322693
AVDFR    2.610  1.000 P
AVNCT    2.600 -1.000 P
AVRDN    0.930  1.000 P
AVREF    1.780 -1.000 S
AVREF    1.070  1.000 P
AVRSO    1.190  1.000 P
# 2009 01 25 15 19 45.43  60.4917 -152.7705  1.88 0.80 1.05 2.97 0.15   60322698
AVDFR    2.380  1.000 P
AVNCT    2.270 -1.000 P
AVRDN    0.770 -1.000 P
AVREF    1.960 -1.000 S
AVREF    0.900  1.000 P
AVRSO    0.820  1.000 P
# 2009 01 25 15 25 25.24  60.4630 -152.7423  3.80 0.70 1.30 0.70 0.03   60322703
AVDFR    2.640  1.000 P
AVNCT    2.670 -1.000 P
AVRDN    1.070  1.000 P
AVREF    2.120 -1.000 S
AVREF    1.150 -1.000 P
AVRSO    1.070 -1.000 P
# 2009 01 25 17 13 37.02  60.4943 -152.7247  1.27 -0.90 0.91 0.40 0.21   60322753
AVDFR    2.220  1.000 P
AVNCT    2.160  1.000 P
AVRDN    0.530  1.000 P
AVREF    1.050 -1.000 S
AVREF    0.640  1.000 P
AVRSO    1.280 -1.000 P
# 2009 01 25 17 29 30.86  60.4960 -152.7725 -2.95 -0.30 1.06 1.76 0.35   60322768
AVDFR    3.040  1.000 P
AVNCT    2.540 -1.000 P
AVRDN    0.420  1.000 P
AVRDT    4.720  1.000 P
AVREF    1.690 -1.000 S
AVREF    0.600  1.000 P
AVRSO    0.500 -1.000 P
# 2009 01 25 17 53 48.95  60.4485 -152.6935  4.44 0.60 1.90 2.61 0.42   60322788
AVDFR    3.040  1.000 P
AVNCT    2.980  1.000 P
AVRDN    1.300  1.000 P
AVREF    2.670 -1.000 S
AVREF    1.490  1.000 P
AVRSO    1.430 -1.000 P
# 2009 01 25 18 14 32.06  60.4677 -152.6928  3.26 0.40 1.36 0.97 0.26   60322813
AVDFR    2.760  1.000 P
AVNCT    2.630  1.000 P
AVRDN    1.170  1.000 P
AVREF    1.900 -1.000 S
AVREF    1.040  1.000 P
AVRSO    1.140  1.000 P
# 2009 01 25 18 16 32.51  60.4895 -152.7075  4.52 0.70 1.69 2.08 0.30   60322818
AVDFR    2.610  1.000 P
AVNCT    2.730  1.000 P
AVRDN    0.750  1.000 P
AVREF    2.160 -1.000 S
AVREF    0.870  1.000 P
AVRSO    1.610  1.000 P
# 2009 01 25 18 26 37.11  60.4990 -152.7630  0.62 0.30 1.04 1.37 0.23   60322833
AVDFR    2.430 -1.000 P
AVNCT    2.080  1.000 P
AVRDN    0.710 -1.000 P
AVREF    1.720 -1.000 S
AVREF    0.440  1.000 P
AVRSO    1.020  1.000 P
# 2009 01 25 19 15 46.27  60.4698 -152.7347  4.37 0.40 1.40 0.86 0.06   60322868
AVDFR    2.990  1.000 P
AVNCT    2.760 -1.000 P
AVRDN    1.350  1.000 P
AVREF    2.170 -1.000 S
AVREF    1.150 -1.000 P
AVRSO    1.220  1.000 P
# 2009 01 25 19 28 42.05  60.4902 -152.7615 -3.00 0.80 0.42 0.61 0.15   60322888
AVDFR    3.680  1.000 P
AVNCT    2.370  1.000 P
AVRDN    0.710  1.000 P
AVREF    1.580 -1.000 S
AVREF    0.690 -1.000 P
AVRSO    0.830  1.000 P
# 2009 01 25 19 31 48.19  60.4865 -152.7547 -0.47 0.20 1.02 4.13 0.32   60322893
AVDFR    2.890  1.000 P
AVNCT    2.380  1.000 P
AVRDN    0.530  1.000 P
AVREF    1.390 -1.000 S
AVREF    0.310  1.000 P
AVRSO    0.300  1.000 P
# 2009 01 25 20 04 7.66  60.4815 -152.7275  0.70 0.60 0.64 0.52 0.16   60322903
AVDFR    2.420 -1.000 P
AVNCT    2.460  1.000 P
AVRDN    0.820  1.000 P
AVREF    0.870 -1.000 S
AVREF    0.880  1.000 P
AVRSO    0.680  1.000 P
# 2009 01 25 20 19 3.29  60.4893 -152.7428 -3.00 0.10 0.61 0.96 0.27   60322918
AVDFR    2.500  1.000 P
AVNCT    3.170  1.000 P
AVRDN    0.720  1.000 P
AVREF    1.370 -1.000 S
AVREF    0.710  1.000 P
AVRSO    1.030 -1.000 P
# 2009 01 25 20 25 10.79  60.5038 -152.7643 -1.76 0.30 1.17 16.63 0.26   60322923
AVDFR    2.570 -1.000 P
AVNCT    2.170 -1.000 P
AVRDN    0.130 -1.000 P
AVREF    1.650 -1.000 S
AVREF    0.480  1.000 P
AVRSO    0.880  1.000 P
# 2009 01 25 20 27 5.80  60.4600 -152.7403  3.62 1.20 1.29 0.52 0.03   60322933
AVDFR    2.650  1.000 P
AVNCT    2.750 -1.000 P
AVRDN    1.130  1.000 P
AVREF    2.160 -1.000 S
AVREF    1.160 -1.000 P
AVRSO    1.050 -1.000 P
# 2009 01 25 20 37 32.29  60.4913 -152.7500  1.88 0.60 0.90 1.83 0.06   60322948
AVDFR    2.320  0.200 P
AVRDN    0.850 -1.000 P
AVREF    1.600 -1.000 S
AVREF    0.830 -1.000 P
AVRSO    0.940 -1.000 P
# 2009 01 25 20 47 39.85  60.4700 -152.7688  3.75 0.90 1.80 2.07 0.29   60322958
AVDFR    2.760  1.000 P
AVNCT    2.640 -1.000 P
AVRDN    1.000  1.000 P
AVREF    2.330 -1.000 S
AVREF    1.110  1.000 P
AVRSO    1.020  1.000 P
# 2009 01 25 21 15 25.13  60.4718 -152.8048 -0.41 1.00 0.97 1.20 0.22   60322998
AVDFR    2.810  1.000 P
AVNCT    2.820 -1.000 P
AVRDN    1.000  1.000 P
AVRDT    4.330 -1.000 P
AVREF    2.380 -1.000 S
AVREF    1.180  1.000 P
AVRSO    0.330  1.000 P
# 2009 01 25 21 56 2.66  60.4937 -152.7020 -1.63 -0.20 0.98 13.64 0.19   60323018
AVDFR    2.520 -1.000 P
AVNCT    2.940  0.200 P
AVRDN    0.520  1.000 P
AVREF    0.260 -1.000 S
AVREF   -0.110  1.000 P
AVRSO    1.000  1.000 P
# 2009 01 25 22 45 26.09  60.4765 -152.7352  4.45 0.60 0.92 0.87 0.10   60323048
AVDFR    3.150  1.000 P
AVNCT    2.800 -1.000 P
AVRDN    1.220  1.000 P
AVREF    2.180 -1.000 S
AVREF    1.160 -1.000 P
AVRSO    1.140  1.000 P
# 2009 01 25 22 50 2.34  60.4932 -152.7650  0.17 0.80 0.73 1.17 0.19   60323053
AVDFR    2.620 -1.000 P
AVNCT    2.040 -1.000 P
AVRDN    0.660  1.000 P
AVREF    1.350  1.000 S
AVREF    0.690  1.000 P
AVRSO    1.070 -1.000 P
# 2009 01 25 22 51 6.82  60.4628 -152.7567 -1.60 1.80 1.22 1.04 0.52   60323058
AVBKG   10.820  1.000 P
AVCKL   14.000  1.000 P
AVCRP   15.670  1.000 P
AVDFR    3.530  1.000 P
AVILI    8.660  1.000 P
AVILS   12.080  1.000 P
AVILW    7.650  1.000 P
AVINE    8.690  1.000 P
AVNCG   18.130  1.000 P
AVNCT    2.690  1.000 P
AVRDN    1.230  1.000 P
AVREF    1.650  1.000 S
AVREF    0.800  1.000 P
AVRSO   -0.560 -1.000 P
# 2009 01 25 23 07 15.22  60.4718 -152.7578  3.35 0.40 1.25 1.32 0.18   60323068
AVDFR    2.730  1.000 P
AVNCT    2.670 -1.000 P
AVRDN    1.010  1.000 P
AVREF    2.240 -1.000 S
AVREF    1.010  1.000 P
AVRSO    0.990 -1.000 P
# 2009 01 26 11 52 40.39  60.4873 -152.7530 -2.98 1.30 0.53 0.76 0.28   60323223
AVBKG   12.220  1.000 P
AVDFR    2.510  1.000 P
AVILW    9.280  0.200 P
AVINE    9.480  1.000 P
AVNCT    2.990  1.000 P
AVRDN    0.970  1.000 P
AVRDT    3.670  1.000 P
AVREF    1.790 -1.000 S
AVREF    0.670  1.000 P
AVRSO    0.640  1.000 P
# 2009 01 26 19 17 11.98  60.4765 -152.7622 -0.73 0.60 0.62 0.87 0.26   60323363
AVDFR    2.310  1.000 P
AVINE    8.470  0.200 P
AVNCT    2.730 -1.000 P
AVRDN    0.950  1.000 P
AVRDT    3.690  1.000 P
AVREF    1.610 -1.000 S
AVREF    0.500  1.000 P
AVRSO    0.140  1.000 P
# 2009 01 26 23 29 27.36  60.4930 -152.7180  1.36 0.00 0.79 0.45 0.19   60323418
AVDFR    2.420 -1.000 P
AVNCT    2.190  1.000 P
AVRDN    0.660  1.000 P
AVREF    1.170 -1.000 S
AVREF    0.490  1.000 P
AVRSO    1.230  1.000 P
# 2009 01 26 23 53 52.56  60.4773 -152.7565  2.82 0.20 0.79 1.24 0.11   60323433
AVNCT    2.590 -1.000 P
AVRDN    1.030  1.000 P
AVREF    1.990 -1.000 S
AVREF    1.000 -1.000 P
AVRSO    0.980  1.000 P
# 2009 01 27 00 33 52.92  60.4880 -152.7785  0.12 0.80 0.55 0.82 0.11   60323438
AVDFR    2.420  1.000 P
AVNCT    2.370 -1.000 P
AVRDN    0.720  1.000 P
AVREF    1.790 -1.000 S
AVREF    0.850  1.000 P
AVRSO    0.760  1.000 P
# 2009 01 27 01 25 7.20  60.4852 -152.7392 -2.97 2.20 1.02 1.40 0.53   60323448
AVBKG   12.620  1.000 P
AVCKL   14.520  1.000 P
AVDFR    3.030  1.000 P
AVILW    9.830  1.000 P
AVINE    9.490  1.000 P
AVNCT    2.440  1.000 P
AVRDN    0.310  1.000 P
AVRDT    4.610  1.000 P
AVREF    0.950 -1.000 S
AVREF   -0.100  1.000 P
AVRSO   -0.170  1.000 P
# 2009 01 27 01 26 52.57  60.4750 -152.7378  3.10 0.70 0.70 0.71 0.08   60323458
AVDFR    2.500 -1.000 P
AVNCT    2.510 -1.000 P
AVRDN    0.830  1.000 P
AVREF    1.760 -1.000 S
AVREF    0.980  1.000 P
AVRSO    0.870  1.000 P
# 2009 01 27 01 26 52.74  60.4875 -152.7637  1.93 0.80 0.65 1.47 0.15   60323453
AVDFR    2.390  1.000 P
AVNCT    2.340  1.000 P
AVRDN    0.750  1.000 P
AVREF    1.890 -1.000 S
AVREF    0.800  1.000 P
AVRSO    0.720  1.000 P
# 2009 01 27 02 41 13.84  60.4830 -152.6462  2.43 -0.30 1.02 0.64 0.06   60323468
AVDFR    3.500  1.000 P
AVNCT    2.980  1.000 P
AVRDN    1.520  1.000 P
AVREF    1.600 -1.000 S
AVREF    0.890 -1.000 P
AVRSO    1.430 -1.000 P
# 2009 01 27 03 11 52.52  60.5032 -152.7663  2.37 0.10 0.35 0.68 0.03   60323483
AVDFR    1.990  1.000 P
AVNCT    2.050 -1.000 P
AVRDN    0.860  1.000 P
AVREF    1.910  1.000 S
AVREF    1.050  1.000 P
AVRSO    1.200  1.000 P
# 2009 01 27 04 00 4.85  60.4755 -152.7718  2.40 0.90 1.02 1.61 0.17   60323488
AVDFR    2.440  1.000 P
AVNCT    2.520 -1.000 P
AVRDN    0.880  1.000 P
AVREF    2.170 -1.000 S
AVREF    1.000  1.000 P
AVRSO    0.730  1.000 P
# 2009 01 27 04 57 2.88  60.4880 -152.7755  5.09 0.40 0.79 0.72 0.01   60323518
AVDFR    3.170  1.000 P
AVNCT    2.870  1.000 P
AVRDN    1.330 -1.000 P
AVREF    2.500 -1.000 S
AVREF    1.400 -1.000 P
AVRSO    1.360 -1.000 P
# 2009 01 27 05 08 25.20  60.4877 -152.7743  1.19 0.00 0.54 0.71 0.08   60323523
AVDFR    2.860  1.000 P
AVNCT    2.280 -1.000 P
AVRDN    0.830  1.000 P
AVREF    1.840 -1.000 S
AVREF    1.010  1.000 P
AVRSO    0.790  1.000 P
# 2009 01 27 05 11 47.18  60.4957 -152.7632  2.35 0.70 0.53 1.13 0.11   60323528
AVDFR    2.290  1.000 P
AVNCT    2.070 -1.000 P
AVRDN    0.780  1.000 P
AVREF    1.750 -1.000 S
AVREF    1.010  1.000 P
AVRSO    1.110  1.000 P
# 2009 01 27 06 18 6.10  60.5030 -152.7525  2.97 0.50 0.40 0.56 0.08   60323553
AVDFR    2.030  1.000 P
AVNCT    2.070 -1.000 P
AVRDN    0.890  1.000 P
AVRDT    3.550  1.000 P
AVREF    1.950  1.000 S
AVREF    1.090  1.000 P
AVRSO    1.230  1.000 P
