<?xml version='1.0' encoding='utf-8'?>
<q:quakeml xmlns="http://quakeml.org/xmlns/bed/1.2" xmlns:q="http://quakeml.org/xmlns/quakeml/1.2">
  <eventParameters publicID="smi:local/a1c8fb13-dc61-4abd-89a3-84950a403dac">
    <event publicID="smi:local/event/71850380">
      <preferredOriginID>smi:local/origin/71850380</preferredOriginID>
      <preferredMagnitudeID>smi:local/magnitude/71850380</preferredMagnitudeID>
      <origin publicID="smi:local/origin/71850380">
        <time>
          <value>2012-10-01T00:49:16.250000Z</value>
        </time>
        <latitude>
          <value>37.654333333333334</value>
        </latitude>
        <longitude>
          <value>-119.02033333333334</value>
        </longitude>
        <depth>
          <value>0.58</value>
        </depth>
        <quality>
          <standardError>0.06</standardError>
        </quality>
        <comment id="smi:local/a1ddf25c-2112-445d-ba16-cb5ce915a57a">
          <text>CLUSTER 0 CORE EVENT; IN PEC, REDPY DETECTION TIME = 2012-10-01T00:49:16.495000Z</text>
        </comment>
        <arrival publicID="smi:local/435d70e6-c4d2-43ee-9924-47705d4d61bf">
          <pickID>smi:local/None</pickID>
          <phase>P</phase>
          <azimuth>111.0</azimuth>
          <distance>13.9</distance>
          <takeoffAngle>
            <value>89.0</value>
          </takeoffAngle>
          <timeResidual>-0.01</timeResidual>
          <timeWeight>0.2</timeWeight>
        </arrival>
        <arrival publicID="smi:local/c9b699fb-d1d1-4068-b97b-3b49b2a4300b">
          <pickID>smi:local/None</pickID>
          <phase>S</phase>
          <azimuth>208.0</azimuth>
          <distance>1.4000000000000001</distance>
          <takeoffAngle>
            <value>154.0</value>
          </takeoffAngle>
          <timeResidual>-0.25</timeResidual>
          <timeWeight>0.5</timeWeight>
        </arrival>
        <arrival publicID="smi:local/d2455319-d47b-42d8-b9ad-0e2ddcc9c0d2">
          <pickID>smi:local/None</pickID>
          <phase>P</phase>
          <azimuth>208.0</azimuth>
          <distance>1.4000000000000001</distance>
          <takeoffAngle>
            <value>154.0</value>
          </takeoffAngle>
          <timeResidual>-0.03</timeResidual>
          <timeWeight>1.0</timeWeight>
        </arrival>
        <arrival publicID="smi:local/7b9fe838-f62e-4c15-bd49-384f71655895">
          <pickID>smi:local/None</pickID>
          <phase>P</phase>
          <azimuth>342.0</azimuth>
          <distance>6.4</distance>
          <takeoffAngle>
            <value>102.0</value>
          </takeoffAngle>
          <timeResidual>0.11</timeResidual>
          <timeWeight>0.2</timeWeight>
        </arrival>
        <arrival publicID="smi:local/4e954562-c947-4adb-9728-f7510102ac05">
          <pickID>smi:local/None</pickID>
          <phase>S</phase>
          <azimuth>60.0</azimuth>
          <distance>0.8</distance>
          <takeoffAngle>
            <value>164.0</value>
          </takeoffAngle>
          <timeResidual>0.07</timeResidual>
          <timeWeight>-1.0</timeWeight>
        </arrival>
        <arrival publicID="smi:local/29da4684-14bd-4d33-bd3c-405f1bfbdd17">
          <pickID>smi:local/None</pickID>
          <phase>P</phase>
          <azimuth>60.0</azimuth>
          <distance>0.8</distance>
          <takeoffAngle>
            <value>164.0</value>
          </takeoffAngle>
          <timeResidual>-0.02</timeResidual>
          <timeWeight>1.0</timeWeight>
        </arrival>
        <arrival publicID="smi:local/60b9dd3a-365a-46cf-a2d4-b8581bd199e4">
          <pickID>smi:local/None</pickID>
          <phase>P</phase>
          <azimuth>106.0</azimuth>
          <distance>10.8</distance>
          <takeoffAngle>
            <value>92.0</value>
          </takeoffAngle>
          <timeResidual>0.14</timeResidual>
          <timeWeight>0.2</timeWeight>
        </arrival>
        <arrival publicID="smi:local/96fd1c13-ce29-4d05-8d81-000f29314e30">
          <pickID>smi:local/None</pickID>
          <phase>P</phase>
          <azimuth>269.0</azimuth>
          <distance>3.6</distance>
          <takeoffAngle>
            <value>122.0</value>
          </takeoffAngle>
          <timeResidual>-0.08</timeResidual>
          <timeWeight>1.0</timeWeight>
        </arrival>
        <arrival publicID="smi:local/f86cc43c-c21b-4704-8e9e-b4b37145e5bb">
          <pickID>smi:local/None</pickID>
          <phase>P</phase>
          <azimuth>173.0</azimuth>
          <distance>2.0</distance>
          <takeoffAngle>
            <value>145.0</value>
          </takeoffAngle>
          <timeResidual>0.22</timeResidual>
          <timeWeight>0.2</timeWeight>
        </arrival>
        <arrival publicID="smi:local/a36555dd-54ec-4415-8d0c-1d5fe8b249a3">
          <pickID>smi:local/None</pickID>
          <phase>P</phase>
          <azimuth>74.0</azimuth>
          <distance>4.0</distance>
          <takeoffAngle>
            <value>118.0</value>
          </takeoffAngle>
          <timeResidual>-0.01</timeResidual>
          <timeWeight>-1.0</timeWeight>
        </arrival>
        <arrival publicID="smi:local/61d0e835-1c03-4c19-8fc4-748fba2780ec">
          <pickID>smi:local/None</pickID>
          <phase>P</phase>
          <azimuth>81.0</azimuth>
          <distance>3.7</distance>
          <takeoffAngle>
            <value>121.0</value>
          </takeoffAngle>
          <timeResidual>-0.09</timeResidual>
          <timeWeight>0.5</timeWeight>
        </arrival>
        <arrival publicID="smi:local/5ff9b49b-7830-4c55-8214-7faeeaf215c0">
          <pickID>smi:local/None</pickID>
          <phase>P</phase>
          <azimuth>188.0</azimuth>
          <distance>5.0</distance>
          <takeoffAngle>
            <value>110.0</value>
          </takeoffAngle>
          <timeResidual>-0.03</timeResidual>
          <timeWeight>0.2</timeWeight>
        </arrival>
        <arrival publicID="smi:local/022dd469-33b4-4014-b022-d8b76064151f">
          <pickID>smi:local/None</pickID>
          <phase>P</phase>
          <azimuth>200.0</azimuth>
          <distance>2.8000000000000003</distance>
          <takeoffAngle>
            <value>132.0</value>
          </takeoffAngle>
          <timeResidual>0.04</timeResidual>
          <timeWeight>1.0</timeWeight>
        </arrival>
        <arrival publicID="smi:local/0c2c2921-9ded-473f-8007-95ac0ed19f44">
          <pickID>smi:local/None</pickID>
          <phase>P</phase>
          <azimuth>208.0</azimuth>
          <distance>7.1000000000000005</distance>
          <takeoffAngle>
            <value>100.0</value>
          </takeoffAngle>
          <timeResidual>0.06</timeResidual>
          <timeWeight>1.0</timeWeight>
        </arrival>
      </origin>
      <magnitude publicID="smi:local/magnitude/71850380">
        <mag>
          <value>0.49</value>
        </mag>
      </magnitude>
      <pick publicID="smi:local/fe4ecfce-0cec-4d09-ac50-1d30554fe9e4">
        <time>
          <value>2012-10-01T00:49:19.070000Z</value>
        </time>
        <waveformID networkCode="NC" stationCode="MCM" locationCode="02" channelCode="EHZ"></waveformID>
        <phaseHint>P</phaseHint>
      </pick>
      <pick publicID="smi:local/438d01dd-4583-41f9-9814-9458dc625f0b">
        <time>
          <value>2012-10-01T00:49:17.580000Z</value>
        </time>
        <waveformID networkCode="NC" stationCode="MCY" locationCode="" channelCode="EHN"></waveformID>
        <phaseHint>S</phaseHint>
      </pick>
      <pick publicID="smi:local/ffd4c285-285b-41c4-8471-bd68021f35f8">
        <time>
          <value>2012-10-01T00:49:17.110000Z</value>
        </time>
        <waveformID networkCode="NC" stationCode="MCY" locationCode="" channelCode="EHZ"></waveformID>
        <phaseHint>P</phaseHint>
      </pick>
      <pick publicID="smi:local/7190f082-5624-4229-8b1f-f16742e5a5b2">
        <time>
          <value>2012-10-01T00:49:17.810000Z</value>
        </time>
        <waveformID networkCode="NC" stationCode="MDC" locationCode="02" channelCode="EHZ"></waveformID>
        <phaseHint>P</phaseHint>
      </pick>
      <pick publicID="smi:local/ee95a2ba-b2be-44ee-89b8-fe3caf930ffa">
        <time>
          <value>2012-10-01T00:49:17.830000Z</value>
        </time>
        <waveformID networkCode="NC" stationCode="MDY" locationCode="" channelCode="HHE"></waveformID>
        <phaseHint>S</phaseHint>
      </pick>
      <pick publicID="smi:local/9c7a072d-6664-40b2-b820-6aad3f203e43">
        <time>
          <value>2012-10-01T00:49:17.080000Z</value>
        </time>
        <waveformID networkCode="NC" stationCode="MDY" locationCode="" channelCode="HHZ"></waveformID>
        <phaseHint>P</phaseHint>
      </pick>
      <pick publicID="smi:local/2beaf2b9-a993-4c53-bca7-c9d5a6f4a1f0">
        <time>
          <value>2012-10-01T00:49:18.790000Z</value>
        </time>
        <waveformID networkCode="NC" stationCode="MGPB" locationCode="" channelCode="EHZ"></waveformID>
        <phaseHint>P</phaseHint>
      </pick>
      <pick publicID="smi:local/bf914ed6-51b1-43c5-ac3f-2e800608e49c">
        <time>
          <value>2012-10-01T00:49:17.320000Z</value>
        </time>
        <waveformID networkCode="NC" stationCode="MINS" locationCode="" channelCode="HHZ"></waveformID>
        <phaseHint>P</phaseHint>
      </pick>
      <pick publicID="smi:local/c12b7b11-a878-4a70-a75c-0af2d301ace9">
        <time>
          <value>2012-10-01T00:49:17.400000Z</value>
        </time>
        <waveformID networkCode="NC" stationCode="MLI" locationCode="" channelCode="HHZ"></waveformID>
        <phaseHint>P</phaseHint>
      </pick>
      <pick publicID="smi:local/ab7d8e16-bfae-48fe-94ec-1d6dc257efba">
        <time>
          <value>2012-10-01T00:49:17.580000Z</value>
        </time>
        <waveformID networkCode="NC" stationCode="MLK" locationCode="" channelCode="EHZ"></waveformID>
        <phaseHint>P</phaseHint>
      </pick>
      <pick publicID="smi:local/902f6014-fe6b-44e1-991b-4eab75fae126">
        <time>
          <value>2012-10-01T00:49:17.440000Z</value>
        </time>
        <waveformID networkCode="NC" stationCode="MMLB" locationCode="" channelCode="HHZ"></waveformID>
        <phaseHint>P</phaseHint>
      </pick>
      <pick publicID="smi:local/ac2fb8cf-038a-4e36-b60d-6ef23bb15a05">
        <time>
          <value>2012-10-01T00:49:17.420000Z</value>
        </time>
        <waveformID networkCode="NC" stationCode="MMP" locationCode="" channelCode="EHZ"></waveformID>
        <phaseHint>P</phaseHint>
      </pick>
      <pick publicID="smi:local/8813d939-41a8-4c7a-a959-9a8336c501f5">
        <time>
          <value>2012-10-01T00:49:17.380000Z</value>
        </time>
        <waveformID networkCode="NC" stationCode="MMS" locationCode="" channelCode="EHZ"></waveformID>
        <phaseHint>P</phaseHint>
      </pick>
      <pick publicID="smi:local/4e7475c9-7804-4935-88b6-33c0e5cd783f">
        <time>
          <value>2012-10-01T00:49:17.950000Z</value>
        </time>
        <waveformID networkCode="NC" stationCode="MRD" locationCode="02" channelCode="EHZ"></waveformID>
        <phaseHint>P</phaseHint>
      </pick>
    </event>
    <event publicID="smi:local/event/71850485">
      <preferredOriginID>smi:local/origin/71850485</preferredOriginID>
      <preferredMagnitudeID>smi:local/magnitude/71850485</preferredMagnitudeID>
      <origin publicID="smi:local/origin/71850485">
        <time>
          <value>2012-10-01T04:23:12.180000Z</value>
        </time>
        <latitude>
          <value>37.652166666666666</value>
        </latitude>
        <longitude>
          <value>-119.02366666666667</value>
        </longitude>
        <depth>
          <value>-0.43</value>
        </depth>
        <quality>
          <standardError>0.06</standardError>
        </quality>
        <comment id="smi:local/71db751b-069c-4d48-85ce-edd03397be7c">
          <text>CLUSTER 1 CORE EVENT; IN PEC, REDPY DETECTION TIME = 2012-10-01T04:23:12.945000Z</text>
        </comment>
        <arrival publicID="smi:local/0e137ca8-08c4-4f75-807d-70fef9ffee7a">
          <pickID>smi:local/None</pickID>
          <phase>S</phase>
          <azimuth>201.0</azimuth>
          <distance>1.1</distance>
          <takeoffAngle>
            <value>152.0</value>
          </takeoffAngle>
          <timeResidual>0.01</timeResidual>
          <timeWeight>0.5</timeWeight>
        </arrival>
        <arrival publicID="smi:local/be4fda10-230e-4b17-b836-c7fdce4c5de5">
          <pickID>smi:local/None</pickID>
          <phase>P</phase>
          <azimuth>201.0</azimuth>
          <distance>1.1</distance>
          <takeoffAngle>
            <value>152.0</value>
          </takeoffAngle>
          <timeResidual>0.05</timeResidual>
          <timeWeight>0.5</timeWeight>
        </arrival>
        <arrival publicID="smi:local/272cae62-d6e6-4f89-b486-c054ce7c20f4">
          <pickID>smi:local/None</pickID>
          <phase>P</phase>
          <azimuth>345.0</azimuth>
          <distance>6.6000000000000005</distance>
          <takeoffAngle>
            <value>71.0</value>
          </takeoffAngle>
          <timeResidual>0.07</timeResidual>
          <timeWeight>0.5</timeWeight>
        </arrival>
        <arrival publicID="smi:local/09603899-350a-4372-b70c-f8cfd41d5a85">
          <pickID>smi:local/None</pickID>
          <phase>S</phase>
          <azimuth>73.0</azimuth>
          <distance>10.600000000000001</distance>
          <takeoffAngle>
            <value>70.0</value>
          </takeoffAngle>
          <timeResidual>-0.6</timeResidual>
          <timeWeight>1.0</timeWeight>
        </arrival>
        <arrival publicID="smi:local/29694916-21ce-46eb-9ddb-943c7be499bc">
          <pickID>smi:local/None</pickID>
          <phase>S</phase>
          <azimuth>245.0</azimuth>
          <distance>5.4</distance>
          <takeoffAngle>
            <value>77.0</value>
          </takeoffAngle>
          <timeResidual>0.0</timeResidual>
          <timeWeight>1.0</timeWeight>
        </arrival>
        <arrival publicID="smi:local/7c30ad2c-1ba8-46f4-a438-2bb4dcab1e99">
          <pickID>smi:local/None</pickID>
          <phase>P</phase>
          <azimuth>245.0</azimuth>
          <distance>5.4</distance>
          <takeoffAngle>
            <value>77.0</value>
          </takeoffAngle>
          <timeResidual>0.07</timeResidual>
          <timeWeight>1.0</timeWeight>
        </arrival>
        <arrival publicID="smi:local/9e659639-0668-4347-8055-4ab8fdaab1e9">
          <pickID>smi:local/None</pickID>
          <phase>S</phase>
          <azimuth>57.0</azimuth>
          <distance>1.2000000000000002</distance>
          <takeoffAngle>
            <value>150.0</value>
          </takeoffAngle>
          <timeResidual>0.19</timeResidual>
          <timeWeight>0.2</timeWeight>
        </arrival>
        <arrival publicID="smi:local/ed677a35-cca2-41e3-82ef-e670785802b3">
          <pickID>smi:local/None</pickID>
          <phase>P</phase>
          <azimuth>57.0</azimuth>
          <distance>1.2000000000000002</distance>
          <takeoffAngle>
            <value>150.0</value>
          </takeoffAngle>
          <timeResidual>0.01</timeResidual>
          <timeWeight>-1.0</timeWeight>
        </arrival>
        <arrival publicID="smi:local/4af11311-326d-4e56-8f8d-4762c4381c2e">
          <pickID>smi:local/None</pickID>
          <phase>P</phase>
          <azimuth>105.0</azimuth>
          <distance>11.0</distance>
          <takeoffAngle>
            <value>70.0</value>
          </takeoffAngle>
          <timeResidual>0.02</timeResidual>
          <timeWeight>0.5</timeWeight>
        </arrival>
        <arrival publicID="smi:local/fec6a140-ac10-4d6f-9f3b-112535bec985">
          <pickID>smi:local/None</pickID>
          <phase>P</phase>
          <azimuth>273.0</azimuth>
          <distance>3.3000000000000003</distance>
          <takeoffAngle>
            <value>110.0</value>
          </takeoffAngle>
          <timeResidual>-0.08</timeResidual>
          <timeWeight>1.0</timeWeight>
        </arrival>
        <arrival publicID="smi:local/9b5b8289-9555-4045-a641-46f60596b531">
          <pickID>smi:local/None</pickID>
          <phase>P</phase>
          <azimuth>163.0</azimuth>
          <distance>1.8</distance>
          <takeoffAngle>
            <value>137.0</value>
          </takeoffAngle>
          <timeResidual>0.21</timeResidual>
          <timeWeight>0.2</timeWeight>
        </arrival>
        <arrival publicID="smi:local/4330419b-03d1-4970-a2a8-dc29e11f1339">
          <pickID>smi:local/None</pickID>
          <phase>P</phase>
          <azimuth>72.0</azimuth>
          <distance>4.4</distance>
          <takeoffAngle>
            <value>100.0</value>
          </takeoffAngle>
          <timeResidual>-0.11</timeResidual>
          <timeWeight>0.5</timeWeight>
        </arrival>
        <arrival publicID="smi:local/20bacf91-3f0c-4696-9a86-501b8585a84f">
          <pickID>smi:local/None</pickID>
          <phase>P</phase>
          <azimuth>78.0</azimuth>
          <distance>4.0</distance>
          <takeoffAngle>
            <value>99.0</value>
          </takeoffAngle>
          <timeResidual>-0.14</timeResidual>
          <timeWeight>0.2</timeWeight>
        </arrival>
        <arrival publicID="smi:local/c847b807-f726-475e-a2cd-5da2d98342e2">
          <pickID>smi:local/None</pickID>
          <phase>P</phase>
          <azimuth>185.0</azimuth>
          <distance>4.7</distance>
          <takeoffAngle>
            <value>100.0</value>
          </takeoffAngle>
          <timeResidual>0.16</timeResidual>
          <timeWeight>0.2</timeWeight>
        </arrival>
        <arrival publicID="smi:local/9a549a04-3cf7-4c97-ae0e-63d8798516cf">
          <pickID>smi:local/None</pickID>
          <phase>P</phase>
          <azimuth>196.0</azimuth>
          <distance>2.5</distance>
          <takeoffAngle>
            <value>121.0</value>
          </takeoffAngle>
          <timeResidual>0.1</timeResidual>
          <timeWeight>0.2</timeWeight>
        </arrival>
        <arrival publicID="smi:local/f9549c33-59f0-4219-aea7-290c0e2d94d6">
          <pickID>smi:local/None</pickID>
          <phase>P</phase>
          <azimuth>177.0</azimuth>
          <distance>4.4</distance>
          <takeoffAngle>
            <value>100.0</value>
          </takeoffAngle>
          <timeResidual>0.16</timeResidual>
          <timeWeight>0.2</timeWeight>
        </arrival>
        <arrival publicID="smi:local/ac83cdfa-9d57-4879-b36c-1a0d693149fd">
          <pickID>smi:local/None</pickID>
          <phase>P</phase>
          <azimuth>207.0</azimuth>
          <distance>6.800000000000001</distance>
          <takeoffAngle>
            <value>70.0</value>
          </takeoffAngle>
          <timeResidual>0.02</timeResidual>
          <timeWeight>1.0</timeWeight>
        </arrival>
      </origin>
      <magnitude publicID="smi:local/magnitude/71850485">
        <mag>
          <value>0.24</value>
        </mag>
      </magnitude>
      <pick publicID="smi:local/f1cdf492-4272-4df3-b5ba-422d22b8c05b">
        <time>
          <value>2012-10-01T04:23:13.440000Z</value>
        </time>
        <waveformID networkCode="NC" stationCode="MCY" locationCode="" channelCode="EHN"></waveformID>
        <phaseHint>S</phaseHint>
      </pick>
      <pick publicID="smi:local/d5276443-33c2-4323-8dcd-a7900f91551e">
        <time>
          <value>2012-10-01T04:23:12.930000Z</value>
        </time>
        <waveformID networkCode="NC" stationCode="MCY" locationCode="" channelCode="EHZ"></waveformID>
        <phaseHint>P</phaseHint>
      </pick>
      <pick publicID="smi:local/9a069a33-dd05-48fa-a8f2-c6f518dad636">
        <time>
          <value>2012-10-01T04:23:13.720000Z</value>
        </time>
        <waveformID networkCode="NC" stationCode="MDC" locationCode="02" channelCode="EHZ"></waveformID>
        <phaseHint>P</phaseHint>
      </pick>
