<?xml version='1.0' encoding='utf-8'?>
<q:quakeml xmlns="http://quakeml.org/xmlns/bed/1.2" xmlns:q="http://quakeml.org/xmlns/quakeml/1.2">
  <eventParameters publicID="smi:local/9d11b7ac-edd6-49eb-a29a-d436f7b43237">
    <event publicID="smi:local/1d274a31-983f-481b-a9ea-33acfffb18f1">
      <origin publicID="smi:local/310ce66f-0b9e-4ec9-8690-a4d23ba2bae4">
        <time>
          <value>2013-01-26T14:03:11.445000Z</value>
        </time>
        <latitude/>
        <longitude/>
        <comment id="smi:local/230be53d-9069-45cf-adb2-6879c858bf00">
          <text>ORPHAN EVENT; NOT IN PEC</text>
        </comment>
      </origin>
    </event>
    <event publicID="smi:local/bd36633e-f6a1-4d46-9a54-15e0060eba51">
      <origin publicID="smi:local/9c37c4ac-4dbd-4825-8e8c-0d487615031a">
        <time>
          <value>2013-01-26T17:50:17.695000Z</value>
        </time>
        <latitude/>
        <longitude/>
        <comment id="smi:local/81cf369f-07c6-4b88-b3ac-d5d4ba8aa677">
          <text>ORPHAN EVENT; NOT IN PEC</text>
        </comment>
      </origin>
    </event>
    <event publicID="smi:local/f4224c7c-3299-42a2-b7f7-11f9e236c75d">
      <origin publicID="smi:local/27be2413-aae3-48a4-bb25-35f99c25df51">
        <time>
          <value>2013-01-26T18:14:14.665000Z</value>
        </time>
        <latitude/>
        <longitude/>
        <comment id="smi:local/64ae49ee-9fd1-40c6-b9df-3474870a2c04">
          <text>ORPHAN EVENT; NOT IN PEC</text>
        </comment>
      </origin>
    </event>
    <event publicID="smi:local/04c7a1d1-9e00-4e14-a2a8-0eb52a31a55c">
      <origin publicID="smi:local/d2cb1d70-3bd9-42cd-9c55-32c0864a00b9">
        <time>
          <value>2013-01-26T22:01:31.605000Z</value>
        </time>
        <latitude/>
        <longitude/>
        <comment id="smi:local/65409dc5-a997-4d6b-b959-023f931cd762">
          <text>ORPHAN EVENT; NOT IN PEC</text>
        </comment>
      </origin>
    </event>
    <event publicID="smi:local/e795f46e-d9b7-4ab9-b748-19e8f4248954">
      <origin publicID="smi:local/8048e163-be76-4b35-8033-3e141948ea42">
        <time>
          <value>2013-01-27T00:00:04.195000Z</value>
        </time>
        <latitude/>
        <longitude/>
        <comment id="smi:local/ed9648b2-1f9a-4ae2-98c2-3e25688cb966">
          <text>ORPHAN EVENT; NOT IN PEC</text>
        </comment>
      </origin>
    </event>
    <event publicID="smi:local/38f88447-a6f0-4295-9e3e-95f6eca21bf4">
      <origin publicID="smi:local/dea9ed5c-9cf9-48b6-b505-9b1fdb572a12">
        <time>
          <value>2013-01-27T01:56:28.385000Z</value>
        </time>
        <latitude/>
        <longitude/>
        <comment id="smi:local/e83642d1-2d8f-44db-910b-654a249a175f">
          <text>ORPHAN EVENT; NOT IN PEC</text>
        </comment>
      </origin>
    </event>
    <event publicID="smi:local/44b7c605-732e-4d02-898e-53f0b1335f4c">
      <origin publicID="smi:local/1cb3cc75-9974-44e1-9cce-e8e9ee18f759">
        <time>
          <value>2013-01-27T17:11:06.225000Z</value>
        </time>
        <latitude/>
        <longitude/>
        <comment id="smi:local/d8688f41-26c6-43d7-99c0-06ad795a46db">
          <text>ORPHAN EVENT; NOT IN PEC</text>
        </comment>
      </origin>
    </event>
    <event publicID="smi:local/f51ca50e-321c-46d2-87c3-21e2b7a99d2b">
      <origin publicID="smi:local/76a76d54-cb83-434e-af9d-acd0edefcbac">
        <time>
          <value>2013-01-27T19:04:16.665000Z</value>
        </time>
        <latitude/>
        <longitude/>
        <comment id="smi:local/914c5885-eb18-4cb5-a8b4-55f4786dc710">
          <text>ORPHAN EVENT; NOT IN PEC</text>
        </comment>
      </origin>
    </event>
    <event publicID="smi:local/f8867b47-18cb-4be3-9f54-7edac814841b">
      <origin publicID="smi:local/e6f49f53-fd05-4216-996c-ef0367d86f01">
        <time>
          <value>2013-01-27T19:04:28.205000Z</value>
        </time>
        <latitude/>
        <longitude/>
        <comment id="smi:local/ffb9f609-812c-48ec-adf7-d03e65b5d758">
          <text>ORPHAN EVENT; NOT IN PEC</text>
        </comment>
      </origin>
    </event>
    <event publicID="smi:local/90914ec5-6055-4a75-b15b-187ecab41012">
      <origin publicID="smi:local/b0c2a46f-48b3-4ea4-8e4d-2fc284c6cb96">
        <time>
          <value>2013-01-27T19:30:00.285000Z</value>
        </time>
        <latitude/>
        <longitude/>
        <comment id="smi:local/3d437f0a-6371-4e77-bf06-3e10fa34ea51">
          <text>ORPHAN EVENT; NOT IN PEC</text>
        </comment>
      </origin>
    </event>
    <event publicID="smi:local/dab93644-4b70-4cf3-9dd2-7f123e1d4451">
      <origin publicID="smi:local/1afd69e7-6c8d-4d09-80f8-0a5af856ae80">
        <time>
          <value>2013-01-27T19:33:05.935000Z</value>
        </time>
        <latitude/>
        <longitude/>
        <comment id="smi:local/5b146fde-5ef0-44fa-abca-404bb344f12a">
          <text>ORPHAN EVENT; NOT IN PEC</text>
        </comment>
      </origin>
    </event>
    <event publicID="smi:local/7bf01be3-c4e0-4cfc-9503-4a0d4f9cc2da">
      <origin publicID="smi:local/c9af6e09-6497-4f35-9862-84adc6f3615c">
        <time>
          <value>2013-01-27T20:23:06.705000Z</value>
        </time>
        <latitude/>
        <longitude/>
        <comment id="smi:local/be997279-eea5-4507-aa4c-ab18ac44b66b">
          <text>ORPHAN EVENT; NOT IN PEC</text>
        </comment>
      </origin>
    </event>
    <event publicID="smi:local/event/71930466">
      <preferredOriginID>smi:local/origin/71930466</preferredOriginID>
      <preferredMagnitudeID>smi:local/magnitude/71930466</preferredMagnitudeID>
      <origin publicID="smi:local/origin/71930466">
        <time>
          <value>2013-01-27T21:00:19.820000Z</value>
        </time>
        <latitude>
          <value>37.589666666666666</value>
        </latitude>
        <longitude>
          <value>-119.003</value>
        </longitude>
        <depth>
          <value>1.98</value>
        </depth>
        <quality>
          <standardError>0.06</standardError>
        </quality>
        <comment id="smi:local/7ba65fa3-7ada-426e-961f-f2fac5eeeda7">
          <text>ORPHAN EVENT; IN PEC, ORPHAN DETECTION TIME = 2013-01-27T21:00:20.795000Z</text>
        </comment>
        <arrival publicID="smi:local/f61f97a7-cb86-4118-a2be-29b0b852e9c2">
          <pickID>smi:local/None</pickID>
          <phase>S</phase>
          <azimuth>305.0</azimuth>
          <distance>8.200000000000001</distance>
          <takeoffAngle>
            <value>106.0</value>
          </takeoffAngle>
          <timeResidual>0.06</timeResidual>
          <timeWeight>0.2</timeWeight>
        </arrival>
        <arrival publicID="smi:local/27a595a2-b3eb-4681-821e-4c179b88e4cd">
          <pickID>smi:local/None</pickID>
          <phase>P</phase>
          <azimuth>305.0</azimuth>
          <distance>8.200000000000001</distance>
          <takeoffAngle>
            <value>106.0</value>
          </takeoffAngle>
          <timeResidual>0.07</timeResidual>
          <timeWeight>1.0</timeWeight>
        </arrival>
        <arrival publicID="smi:local/2f30b4d7-1341-4873-b472-7808f0a4f5bb">
          <pickID>smi:local/None</pickID>
          <phase>P</phase>
          <azimuth>324.0</azimuth>
          <distance>8.8</distance>
          <takeoffAngle>
            <value>104.0</value>
          </takeoffAngle>
          <timeResidual>-0.06</timeResidual>
          <timeWeight>-1.0</timeWeight>
        </arrival>
        <arrival publicID="smi:local/c82e110c-5636-40b8-89e2-a0d07239bbcf">
          <pickID>smi:local/None</pickID>
          <phase>P</phase>
          <azimuth>327.0</azimuth>
          <distance>3.0</distance>
          <takeoffAngle>
            <value>140.0</value>
          </takeoffAngle>
          <timeResidual>0.06</timeResidual>
          <timeWeight>1.0</timeWeight>
        </arrival>
        <arrival publicID="smi:local/08776d7c-3667-424f-b124-d96790b9ab0f">
          <pickID>smi:local/None</pickID>
          <phase>P</phase>
          <azimuth>280.0</azimuth>
          <distance>5.0</distance>
          <takeoffAngle>
            <value>122.0</value>
          </takeoffAngle>
          <timeResidual>-0.05</timeResidual>
          <timeWeight>-1.0</timeWeight>
        </arrival>
        <arrival publicID="smi:local/2b6c0d48-7a05-43ba-a3c1-c7b6999ddbef">
          <pickID>smi:local/None</pickID>
          <phase>S</phase>
          <azimuth>4.0</azimuth>
          <distance>2.6</distance>
          <takeoffAngle>
            <value>144.0</value>
          </takeoffAngle>
          <timeResidual>-0.05</timeResidual>
          <timeWeight>-0.5</timeWeight>
        </arrival>
        <arrival publicID="smi:local/59ef6f80-bc0f-48c4-b80e-e51f18ee5379">
          <pickID>smi:local/None</pickID>
          <phase>P</phase>
          <azimuth>4.0</azimuth>
          <distance>2.6</distance>
          <takeoffAngle>
            <value>144.0</value>
          </takeoffAngle>
          <timeResidual>-0.01</timeResidual>
          <timeWeight>0.5</timeWeight>
        </arrival>
      </origin>
      <magnitude publicID="smi:local/magnitude/71930466">
        <mag>
          <value>-0.18</value>
        </mag>
      </magnitude>
      <pick publicID="smi:local/7c04a069-732d-4371-9fa4-0eb9098e92c7">
        <time>
          <value>2013-01-27T21:00:23.070000Z</value>
        </time>
        <waveformID networkCode="NC" stationCode="MDPB" locationCode="" channelCode="HHE"></waveformID>
        <phaseHint>S</phaseHint>
      </pick>
      <pick publicID="smi:local/5240b2c1-b166-4db9-bf4a-f10cc7370aef">
        <time>
          <value>2013-01-27T21:00:21.680000Z</value>
        </time>
        <waveformID networkCode="NC" stationCode="MDPB" locationCode="" channelCode="HHZ"></waveformID>
        <phaseHint>P</phaseHint>
      </pick>
      <pick publicID="smi:local/025fd4c6-606e-4e19-b4c7-d6be96a1fc99">
        <time>
          <value>2013-01-27T21:00:21.830000Z</value>
        </time>
        <waveformID networkCode="NC" stationCode="MINS" locationCode="" channelCode="HHZ"></waveformID>
        <phaseHint>P</phaseHint>
      </pick>
      <pick publicID="smi:local/3d028622-6a22-4953-a237-80d5b7bfa733">
        <time>
          <value>2013-01-27T21:00:20.900000Z</value>
        </time>
        <waveformID networkCode="NC" stationCode="MQ1P" locationCode="" channelCode="EHZ"></waveformID>
        <phaseHint>P</phaseHint>
      </pick>
      <pick publicID="smi:local/df92927e-822b-4fdb-bbf4-513882b1e691">
        <time>
          <value>2013-01-27T21:00:21.120000Z</value>
        </time>
        <waveformID networkCode="NC" stationCode="MRD" locationCode="02" channelCode="EHZ"></waveformID>
        <phaseHint>P</phaseHint>
      </pick>
      <pick publicID="smi:local/aa2db369-6e5f-4b03-a599-c90acfb31127">
        <time>
          <value>2013-01-27T21:00:21.530000Z</value>
        </time>
        <waveformID networkCode="NN" stationCode="OMMB" locationCode="" channelCode="HHN"></waveformID>
        <phaseHint>S</phaseHint>
      </pick>
      <pick publicID="smi:local/031e4850-7f41-4a9f-a42d-64d87eab669e">
        <time>
          <value>2013-01-27T21:00:20.800000Z</value>
        </time>
        <waveformID networkCode="NN" stationCode="OMMB" locationCode="" channelCode="HHZ"></waveformID>
        <phaseHint>P</phaseHint>
      </pick>
    </event>
    <event publicID="smi:local/1e54246c-e258-4a23-b211-9331c33238a7">
      <origin publicID="smi:local/1549b55d-8f1e-4ccf-8ba7-afcf752634c3">
        <time>
          <value>2013-01-27T22:10:23.865000Z</value>
        </time>
        <latitude/>
        <longitude/>
        <comment id="smi:local/6c2cb26a-bf6b-4699-baa7-1a46af37526f">
          <text>ORPHAN EVENT; NOT IN PEC</text>
        </comment>
      </origin>
    </event>
    <event publicID="smi:local/68a87ae5-511d-47dd-8e97-5595bcb9d939">
      <origin publicID="smi:local/925717aa-e380-4129-a602-4905f5b257a9">
        <time>
          <value>2013-01-28T00:55:10.315000Z</value>
        </time>
        <latitude/>
        <longitude/>
        <comment id="smi:local/70a2b5a3-9d76-4c3c-b722-fb3e737e6996">
          <text>ORPHAN EVENT; NOT IN PEC</text>
        </comment>
      </origin>
    </event>
    <event publicID="smi:local/8a40192b-e505-4a1e-a236-2ab28f21d057">
      <origin publicID="smi:local/c6cbd66d-0af2-4866-8da0-f3ca280af24e">
        <time>
          <value>2013-01-28T02:16:16.615000Z</value>
        </time>
        <latitude/>
        <longitude/>
        <comment id="smi:local/1204f6fa-2d26-4796-ac1a-f0b00a8142f0">
          <text>ORPHAN EVENT; NOT IN PEC</text>
        </comment>
      </origin>
    </event>
    <event publicID="smi:local/c1251cb4-99c7-44a9-882b-62ad5d91588f">
      <origin publicID="smi:local/2ab575d1-eeab-4a16-b2a8-0e58c7af1b52">
        <time>
          <value>2013-01-28T02:17:10.455000Z</value>
        </time>
        <latitude/>
        <longitude/>
        <comment id="smi:local/54752c1b-c48c-4ba1-b731-4c3fa50e03c6">
          <text>ORPHAN EVENT; NOT IN PEC</text>
        </comment>
      </origin>
    </event>
    <event publicID="smi:local/b0791672-36e7-4041-a980-0b3e4df25e42">
      <origin publicID="smi:local/ae8e8d20-ffb1-418c-92f3-1ca8fc8947a1">
        <time>
          <value>2013-01-28T02:19:20.545000Z</value>
        </time>
        <latitude/>
        <longitude/>
        <comment id="smi:local/edef53e5-849c-4de5-b6f6-87c623076804">
          <text>ORPHAN EVENT; NOT IN PEC</text>
        </comment>
      </origin>
    </event>
    <event publicID="smi:local/80d2a780-bf90-4be3-a690-62320b2689b9">
      <origin publicID="smi:local/1eb8601d-d9a4-41c2-852e-d30cb8b06cfc">
        <time>
          <value>2013-01-28T03:11:20.475000Z</value>
        </time>
        <latitude/>
        <longitude/>
        <comment id="smi:local/5bb85bd5-8371-4d8d-bc09-42b221ae6122">
          <text>ORPHAN EVENT; NOT IN PEC</text>
        </comment>
      </origin>
    </event>
    <event publicID="smi:local/3cc30ad1-6245-4aac-98ea-9f9ebb8d6c0d">
      <origin publicID="smi:local/a3dcccb3-2b8f-4b5d-a240-d6134feadf8f">
        <time>
          <value>2013-01-28T03:14:02.145000Z</value>
        </time>
        <latitude/>
        <longitude/>
        <comment id="smi:local/ca0bf0b1-b047-4382-a66f-643204ccad8b">
          <text>ORPHAN EVENT; NOT IN PEC</text>
        </comment>
      </origin>
    </event>
    <event publicID="smi:local/a3fd6ca7-468d-4e0a-85e0-28e8b17e9231">
      <origin publicID="smi:local/2223a2cc-838a-42d3-bb11-5520504ca1e8">
        <time>
          <value>2013-01-28T03:15:01.215000Z</value>
        </time>
        <latitude/>
        <longitude/>
        <comment id="smi:local/131bce4d-73d2-4b39-b262-2cd7bd6af210">
          <text>ORPHAN EVENT; NOT IN PEC</text>
        </comment>
      </origin>
    </event>
    <event publicID="smi:local/360dd3ad-c3f7-4397-8409-8deae1dfc326">
      <origin publicID="smi:local/c6824b62-b93b-4e4c-a9b4-8d7ca986a76e">
        <time>
          <value>2013-01-28T03:15:20.405000Z</value>
        </time>
        <latitude/>
        <longitude/>
        <comment id="smi:local/87b7575c-5ee0-4e3b-8515-e7eb7e1173f1">
          <text>ORPHAN EVENT; NOT IN PEC</text>
        </comment>
      </origin>
    </event>
    <event publicID="smi:local/ca126f1d-e7d3-4cfa-951e-6f3babb69eb2">
      <origin publicID="smi:local/8d1f22e4-7b4e-4010-ba8c-cf441d7014c7">
        <time>
          <value>2013-01-28T03:17:14.775000Z</value>
        </time>
        <latitude/>
        <longitude/>
        <comment id="smi:local/cc412f25-b132-4dc1-baea-15d2b9978702">
          <text>ORPHAN EVENT; NOT IN PEC</text>
        </comment>
      </origin>
    </event>
    <event publicID="smi:local/37ee8155-b12c-4639-9118-5d9fcb9d8efb">
      <origin publicID="smi:local/59324c65-2606-457d-beca-240518529ff3">
        <time>
          <value>2013-01-28T03:17:24.605000Z</value>
        </time>
        <latitude/>
        <longitude/>
        <comment id="smi:local/50f222a4-2148-472d-af4e-1f3ba1fbc864">
          <text>ORPHAN EVENT; NOT IN PEC</text>
        </comment>
      </origin>
    </event>
    <event publicID="smi:local/91efb6af-d008-434f-a69e-b63dd75a4969">
      <origin publicID="smi:local/46f4e303-9c48-4b0c-9b74-9eaa22564987">
        <time>
          <value>2013-01-28T03:19:24.495000Z</value>
        </time>
        <latitude/>
        <longitude/>
        <comment id="smi:local/373ced43-ae79-4a17-8f9b-8d500c501108">
          <text>ORPHAN EVENT; NOT IN PEC</text>
        </comment>
      </origin>
    </event>
    <event publicID="smi:local/b50c4734-f0a1-4317-bda8-4b2b87887319">
      <origin publicID="smi:local/f527a99d-1954-4411-a2e1-2c55b711298e">
        <time>
          <value>2013-01-28T03:24:56.175000Z</value>
        </time>
        <latitude/>
        <longitude/>
        <comment id="smi:local/a8c47fa8-d7cd-483f-9379-69666112caff">
          <text>ORPHAN EVENT; NOT IN PEC</text>
        </comment>
      </origin>
    </event>
    <event publicID="smi:local/d5e3533f-f666-43b2-a7fc-f056e916bf72">
      <origin publicID="smi:local/9146ce77-fd94-49f4-8f9b-07eb6a2c8238">
        <time>
          <value>2013-01-28T03:25:51.055000Z</value>
        </time>
        <latitude/>
        <longitude/>
        <comment id="smi:local/74c8b347-1735-4f71-bf8a-79bb9a88c302">
          <text>ORPHAN EVENT; NOT IN PEC</text>
        </comment>
      </origin>
    </event>
    <event publicID="smi:local/090f8fb5-00a1-41e7-bd86-7694a48bb7c0">
      <origin publicID="smi:local/64b74bec-4a35-4c79-bfca-554269bed4bd">
        <time>
          <value>2013-01-28T03:31:21.175000Z</value>
        </time>
        <latitude/>
        <longitude/>
        <comment id="smi:local/fc4ae94a-885c-4749-9388-4b08e08b915f">
          <text>ORPHAN EVENT; NOT IN PEC</text>
        </comment>
      </origin>
    </event>
    <event publicID="smi:local/f16e0b36-fdca-439b-8aa6-28c82bf7df19">
      <origin publicID="smi:local/eb5a81bc-456e-405c-b363-727207b8674f">
        <time>
          <value>2013-01-28T03:32:05.485000Z</value>
        </time>
        <latitude/>
        <longitude/>
        <comment id="smi:local/644e18f9-db41-496b-b785-452c969dee16">
          <text>ORPHAN EVENT; NOT IN PEC</text>
        </comment>
      </origin>
    </event>
    <event publicID="smi:local/4a035295-7a71-47b3-9f9c-91ad440862c6">
      <origin publicID="smi:local/3e12596c-fe46-4112-8bb3-b7e4e570424c">
        <time>
          <value>2013-01-28T03:33:32.745000Z</value>
        </time>
        <latitude/>
        <longitude/>
        <comment id="smi:local/4bfc1988-44c3-4ab1-8bbe-8f0ece4aabbf">
          <text>ORPHAN EVENT; NOT IN PEC</text>
        </comment>
      </origin>
    </event>
    <event publicID="smi:local/415ea85c-a94d-44a4-83d4-64b9181bf9ae">
      <origin publicID="smi:local/50579ff5-c83f-4d49-a2a9-637dfb3dccb7">
        <time>
          <value>2013-01-28T03:34:55.565000Z</value>
        </time>
        <latitude/>
        <longitude/>
        <comment id="smi:local/98c538f9-4575-4af0-b457-a0fa85ecfccc">
          <text>ORPHAN EVENT; NOT IN PEC</text>
        </comment>
      </origin>
    </event>
    <event publicID="smi:local/9efcc6a5-7159-494c-8d9b-da2157085ea8">
      <origin publicID="smi:local/c8b44c18-ce31-4f81-8e88-040b57dfb7fe">
        <time>
          <value>2013-01-28T03:42:53.735000Z</value>
        </time>
        <latitude/>
        <longitude/>
        <comment id="smi:local/a7a6e9bc-9cab-4cb3-8cf8-3791f89ac850">
          <text>ORPHAN EVENT; NOT IN PEC</text>
        </comment>
      </origin>
    </event>
    <event publicID="smi:local/event/71930031">
      <preferredOriginID>smi:local/origin/71930031</preferredOriginID>
      <preferredMagnitudeID>smi:local/magnitude/71930031</preferredMagnitudeID>
      <origin publicID="smi:local/origin/71930031">
        <time>
          <value>2013-01-28T03:43:30.420000Z</value>
        </time>
        <latitude>
