<?xml version='1.0' encoding='utf-8'?>
<q:quakeml xmlns="http://quakeml.org/xmlns/bed/1.2" xmlns:q="http://quakeml.org/xmlns/quakeml/1.2">
  <eventParameters publicID="smi:local/3232d480-e3e4-4f93-8d58-f74654506a9f">
    <event publicID="smi:local/event/71850365">
      <preferredOriginID>smi:local/origin/71850365</preferredOriginID>
      <preferredMagnitudeID>smi:local/magnitude/71850365</preferredMagnitudeID>
      <origin publicID="smi:local/origin/71850365">
        <time>
          <value>2012-10-01T00:29:59.500000Z</value>
        </time>
        <latitude>
          <value>37.654</value>
        </latitude>
        <longitude>
          <value>-119.01966666666667</value>
        </longitude>
        <depth>
          <value>0.14</value>
        </depth>
        <quality>
          <standardError>0.08</standardError>
        </quality>
        <comment id="smi:local/0316ecfb-e114-4084-9d21-6e4ca31d6b2d">
          <text>CLUSTER 0 EVENT; IN PEC, REDPY DETECTION TIME = 2012-10-01T00:29:59.715000Z</text>
        </comment>
        <arrival publicID="smi:local/81245fb9-93a1-4ba7-89c8-9cb27933dafb">
          <pickID>smi:local/None</pickID>
          <phase>P</phase>
          <azimuth>99.0</azimuth>
          <distance>16.400000000000002</distance>
          <takeoffAngle>
            <value>83.0</value>
          </takeoffAngle>
          <timeResidual>0.08</timeResidual>
          <timeWeight>1.0</timeWeight>
        </arrival>
        <arrival publicID="smi:local/e8455c77-cbd3-4037-abb3-57f3f84ff4f3">
          <pickID>smi:local/None</pickID>
          <phase>P</phase>
          <azimuth>95.0</azimuth>
          <distance>10.9</distance>
          <takeoffAngle>
            <value>87.0</value>
          </takeoffAngle>
          <timeResidual>0.04</timeResidual>
          <timeWeight>1.0</timeWeight>
        </arrival>
        <arrival publicID="smi:local/ab5d713e-96da-4a93-973b-dada57da656a">
          <pickID>smi:local/None</pickID>
          <phase>P</phase>
          <azimuth>111.0</azimuth>
          <distance>13.8</distance>
          <takeoffAngle>
            <value>86.0</value>
          </takeoffAngle>
          <timeResidual>-0.02</timeResidual>
          <timeWeight>1.0</timeWeight>
        </arrival>
        <arrival publicID="smi:local/056deae9-9eed-4cf4-9f01-86bc4b181021">
          <pickID>smi:local/None</pickID>
          <phase>P</phase>
          <azimuth>89.0</azimuth>
          <distance>10.0</distance>
          <takeoffAngle>
            <value>88.0</value>
          </takeoffAngle>
          <timeResidual>0.04</timeResidual>
          <timeWeight>1.0</timeWeight>
        </arrival>
        <arrival publicID="smi:local/df7d82d6-2bac-469f-bbf0-98a95562324f">
          <pickID>smi:local/None</pickID>
          <phase>P</phase>
          <azimuth>113.0</azimuth>
          <distance>18.2</distance>
          <takeoffAngle>
            <value>82.0</value>
          </takeoffAngle>
          <timeResidual>-0.09</timeResidual>
          <timeWeight>1.0</timeWeight>
        </arrival>
        <arrival publicID="smi:local/6537c74b-55eb-4275-a3f6-9e9980c27a9e">
          <pickID>smi:local/None</pickID>
          <phase>S</phase>
          <azimuth>211.0</azimuth>
          <distance>1.4000000000000001</distance>
          <takeoffAngle>
            <value>150.0</value>
          </takeoffAngle>
          <timeResidual>-0.15</timeResidual>
          <timeWeight>1.0</timeWeight>
        </arrival>
        <arrival publicID="smi:local/1ed403aa-a86f-4551-b376-9b17831ee48b">
          <pickID>smi:local/None</pickID>
          <phase>P</phase>
          <azimuth>211.0</azimuth>
          <distance>1.4000000000000001</distance>
          <takeoffAngle>
            <value>150.0</value>
          </takeoffAngle>
          <timeResidual>-0.01</timeResidual>
          <timeWeight>1.0</timeWeight>
        </arrival>
        <arrival publicID="smi:local/9fdf6bff-7832-442e-ac2a-cb2e2c2beb3f">
          <pickID>smi:local/None</pickID>
          <phase>P</phase>
          <azimuth>342.0</azimuth>
          <distance>6.5</distance>
          <takeoffAngle>
            <value>95.0</value>
          </takeoffAngle>
          <timeResidual>0.02</timeResidual>
          <timeWeight>1.0</timeWeight>
        </arrival>
        <arrival publicID="smi:local/03c550d6-dfaf-4b8c-a807-f168de2f1744">
          <pickID>smi:local/None</pickID>
          <phase>S</phase>
          <azimuth>73.0</azimuth>
          <distance>10.200000000000001</distance>
          <takeoffAngle>
            <value>88.0</value>
          </takeoffAngle>
          <timeResidual>-0.46</timeResidual>
          <timeWeight>1.0</timeWeight>
        </arrival>
        <arrival publicID="smi:local/57d2e986-b3e6-4d4a-b1bb-75ce5b882f95">
          <pickID>smi:local/None</pickID>
          <phase>P</phase>
          <azimuth>96.0</azimuth>
          <distance>16.3</distance>
          <takeoffAngle>
            <value>83.0</value>
          </takeoffAngle>
          <timeResidual>0.04</timeResidual>
          <timeWeight>1.0</timeWeight>
        </arrival>
        <arrival publicID="smi:local/b9a4a0b4-2728-41a9-8a7e-9cdd9e91d54e">
          <pickID>smi:local/None</pickID>
          <phase>P</phase>
          <azimuth>55.0</azimuth>
          <distance>0.8</distance>
          <takeoffAngle>
            <value>161.0</value>
          </takeoffAngle>
          <timeResidual>0.01</timeResidual>
          <timeWeight>1.0</timeWeight>
        </arrival>
        <arrival publicID="smi:local/90aafe07-adb7-4b13-aadb-4c2122ea8496">
          <pickID>smi:local/None</pickID>
          <phase>P</phase>
          <azimuth>79.0</azimuth>
          <distance>7.2</distance>
          <takeoffAngle>
            <value>92.0</value>
          </takeoffAngle>
          <timeResidual>0.01</timeResidual>
          <timeWeight>1.0</timeWeight>
        </arrival>
        <arrival publicID="smi:local/1ecc9b75-165a-498c-9f1a-cedd6c9c95ac">
          <pickID>smi:local/None</pickID>
          <phase>P</phase>
          <azimuth>106.0</azimuth>
          <distance>10.700000000000001</distance>
          <takeoffAngle>
            <value>87.0</value>
          </takeoffAngle>
          <timeResidual>0.1</timeResidual>
          <timeWeight>0.5</timeWeight>
        </arrival>
        <arrival publicID="smi:local/bed3a52f-ad3b-4551-a27f-56fe7dba4d5d">
          <pickID>smi:local/None</pickID>
          <phase>P</phase>
          <azimuth>269.0</azimuth>
          <distance>3.6</distance>
          <takeoffAngle>
            <value>113.0</value>
          </takeoffAngle>
          <timeResidual>-0.1</timeResidual>
          <timeWeight>1.0</timeWeight>
        </arrival>
        <arrival publicID="smi:local/b8bc3d3e-7192-409f-8d10-44e8b9c6f2b1">
          <pickID>smi:local/None</pickID>
          <phase>P</phase>
          <azimuth>116.0</azimuth>
          <distance>10.3</distance>
          <takeoffAngle>
            <value>88.0</value>
          </takeoffAngle>
          <timeResidual>-0.01</timeResidual>
          <timeWeight>1.0</timeWeight>
        </arrival>
        <arrival publicID="smi:local/37d5c5a0-0c33-4b74-9a25-20cf4c0ad84e">
          <pickID>smi:local/None</pickID>
          <phase>P</phase>
          <azimuth>81.0</azimuth>
          <distance>18.2</distance>
          <takeoffAngle>
            <value>82.0</value>
          </takeoffAngle>
          <timeResidual>-0.06</timeResidual>
          <timeWeight>0.5</timeWeight>
        </arrival>
        <arrival publicID="smi:local/2e13b1ed-6840-4fdb-a0ad-c2117079f99b">
          <pickID>smi:local/None</pickID>
          <phase>S</phase>
          <azimuth>175.0</azimuth>
          <distance>1.9000000000000001</distance>
          <takeoffAngle>
            <value>140.0</value>
          </takeoffAngle>
          <timeResidual>0.12</timeResidual>
          <timeWeight>0.5</timeWeight>
        </arrival>
        <arrival publicID="smi:local/77a8bb3b-6680-4c04-827b-4ab6ca6f8c4c">
          <pickID>smi:local/None</pickID>
          <phase>P</phase>
          <azimuth>175.0</azimuth>
          <distance>1.9000000000000001</distance>
          <takeoffAngle>
            <value>140.0</value>
          </takeoffAngle>
          <timeResidual>0.13</timeResidual>
          <timeWeight>1.0</timeWeight>
        </arrival>
        <arrival publicID="smi:local/e684aa61-2b6c-41f5-a7e7-5d70c92725b2">
          <pickID>smi:local/None</pickID>
          <phase>P</phase>
          <azimuth>73.0</azimuth>
          <distance>4.0</distance>
          <takeoffAngle>
            <value>110.0</value>
          </takeoffAngle>
          <timeResidual>-0.02</timeResidual>
          <timeWeight>0.5</timeWeight>
        </arrival>
        <arrival publicID="smi:local/57af523d-292d-42b4-9cd9-8db0822dbd77">
          <pickID>smi:local/None</pickID>
          <phase>P</phase>
          <azimuth>81.0</azimuth>
          <distance>3.6</distance>
          <takeoffAngle>
            <value>114.0</value>
          </takeoffAngle>
          <timeResidual>-0.05</timeResidual>
          <timeWeight>1.0</timeWeight>
        </arrival>
        <arrival publicID="smi:local/9755f3e0-8c77-47c4-8d06-cda3d1fa1d6b">
          <pickID>smi:local/None</pickID>
          <phase>P</phase>
          <azimuth>189.0</azimuth>
          <distance>5.0</distance>
          <takeoffAngle>
            <value>103.0</value>
          </takeoffAngle>
          <timeResidual>0.09</timeResidual>
          <timeWeight>1.0</timeWeight>
        </arrival>
        <arrival publicID="smi:local/65f07db1-967e-49a4-941c-e0ebc9874c72">
          <pickID>smi:local/None</pickID>
          <phase>P</phase>
          <azimuth>202.0</azimuth>
          <distance>2.8000000000000003</distance>
          <takeoffAngle>
            <value>125.0</value>
          </takeoffAngle>
          <timeResidual>0.05</timeResidual>
          <timeWeight>1.0</timeWeight>
        </arrival>
        <arrival publicID="smi:local/98aa60ac-5b96-406c-be3e-d69be0ff75ac">
          <pickID>smi:local/None</pickID>
          <phase>P</phase>
          <azimuth>204.0</azimuth>
          <distance>34.0</distance>
          <takeoffAngle>
            <value>72.0</value>
          </takeoffAngle>
          <timeResidual>-0.08</timeResidual>
          <timeWeight>0.2</timeWeight>
        </arrival>
        <arrival publicID="smi:local/a26a9afd-9c39-4537-bdbd-719629912701">
          <pickID>smi:local/None</pickID>
          <phase>P</phase>
          <azimuth>181.0</azimuth>
          <distance>4.6000000000000005</distance>
          <takeoffAngle>
            <value>106.0</value>
          </takeoffAngle>
          <timeResidual>0.12</timeResidual>
          <timeWeight>0.5</timeWeight>
        </arrival>
        <arrival publicID="smi:local/f476634a-1a60-469e-929a-c0e76ff1c3cf">
          <pickID>smi:local/None</pickID>
          <phase>P</phase>
          <azimuth>208.0</azimuth>
          <distance>7.1000000000000005</distance>
          <takeoffAngle>
            <value>93.0</value>
          </takeoffAngle>
          <timeResidual>0.02</timeResidual>
          <timeWeight>1.0</timeWeight>
        </arrival>
        <arrival publicID="smi:local/ee77144e-37aa-4a98-a694-852b693065e1">
          <pickID>smi:local/None</pickID>
          <phase>P</phase>
          <azimuth>80.0</azimuth>
          <distance>39.900000000000006</distance>
          <takeoffAngle>
            <value>69.0</value>
          </takeoffAngle>
          <timeResidual>0.01</timeResidual>
          <timeWeight>0.2</timeWeight>
        </arrival>
        <arrival publicID="smi:local/e91cd8a5-bc52-4f09-9ef8-9ce4c7d749a6">
          <pickID>smi:local/None</pickID>
          <phase>P</phase>
          <azimuth>93.0</azimuth>
          <distance>32.1</distance>
          <takeoffAngle>
            <value>73.0</value>
          </takeoffAngle>
          <timeResidual>0.0</timeResidual>
          <timeWeight>1.0</timeWeight>
        </arrival>
        <arrival publicID="smi:local/49de462a-4b14-4f2c-810e-b7576b2eba99">
          <pickID>smi:local/None</pickID>
          <phase>P</phase>
          <azimuth>125.0</azimuth>
          <distance>32.1</distance>
          <takeoffAngle>
            <value>73.0</value>
          </takeoffAngle>
          <timeResidual>-0.21</timeResidual>
          <timeWeight>1.0</timeWeight>
        </arrival>
        <arrival publicID="smi:local/bbeb3629-df2f-4466-96d2-e237e8520e48">
          <pickID>smi:local/None</pickID>
          <phase>P</phase>
          <azimuth>137.0</azimuth>
          <distance>43.400000000000006</distance>
          <takeoffAngle>
            <value>67.0</value>
          </takeoffAngle>
          <timeResidual>-0.13</timeResidual>
          <timeWeight>0.5</timeWeight>
        </arrival>
      </origin>
      <magnitude publicID="smi:local/magnitude/71850365">
        <mag>
          <value>1.34</value>
        </mag>
      </magnitude>
      <pick publicID="smi:local/59397394-c8b4-46d6-b5e6-c904867be069">
        <time>
          <value>2012-10-01T00:30:02.980000Z</value>
        </time>
        <waveformID networkCode="CI" stationCode="MLAC" locationCode="" channelCode="HHZ"></waveformID>
        <phaseHint>P</phaseHint>
      </pick>
      <pick publicID="smi:local/31c524fa-be5e-43c3-8632-cdcf664eccc7">
        <time>
          <value>2012-10-01T00:30:02.000000Z</value>
        </time>
        <waveformID networkCode="NC" stationCode="MCB" locationCode="" channelCode="HHZ"></waveformID>
        <phaseHint>P</phaseHint>
      </pick>
      <pick publicID="smi:local/69b8a14c-2711-4f79-9641-aa73c025179d">
        <time>
          <value>2012-10-01T00:30:02.300000Z</value>
        </time>
        <waveformID networkCode="NC" stationCode="MCM" locationCode="02" channelCode="EHZ"></waveformID>
        <phaseHint>P</phaseHint>
      </pick>
      <pick publicID="smi:local/2a8560d5-34bd-41be-8296-ba149fc59183">
        <time>
          <value>2012-10-01T00:30:01.830000Z</value>
        </time>
        <waveformID networkCode="NC" stationCode="MCS" locationCode="" channelCode="EHZ"></waveformID>
        <phaseHint>P</phaseHint>
      </pick>
      <pick publicID="smi:local/9bbcbcd0-014a-4cb1-b6ba-d42cfa180b5f">
        <time>
          <value>2012-10-01T00:30:03.020000Z</value>
        </time>
        <waveformID networkCode="NC" stationCode="MCV" locationCode="" channelCode="EHZ"></waveformID>
        <phaseHint>P</phaseHint>
      </pick>
      <pick publicID="smi:local/add7dd14-45b5-44ed-a2c5-bd06efe141d0">
        <time>
          <value>2012-10-01T00:30:00.810000Z</value>
        </time>
        <waveformID networkCode="NC" stationCode="MCY" locationCode="" channelCode="EHN"></waveformID>
        <phaseHint>S</phaseHint>
      </pick>
      <pick publicID="smi:local/99675966-80e0-4411-b247-4f349269cfa2">
        <time>
          <value>2012-10-01T00:30:00.310000Z</value>
        </time>
        <waveformID networkCode="NC" stationCode="MCY" locationCode="" channelCode="EHZ"></waveformID>
        <phaseHint>P</phaseHint>
      </pick>
      <pick publicID="smi:local/809b686e-daf6-48a4-8e39-89f10d493f70">
        <time>
          <value>2012-10-01T00:30:00.960000Z</value>
        </time>
        <waveformID networkCode="NC" stationCode="MDC" locationCode="02" channelCode="EHZ"></waveformID>
        <phaseHint>P</phaseHint>
      </pick>
      <pick publicID="smi:local/4bb3ae4b-0cbb-41e8-a2ad-e843b9aec304">
        <time>
          <value>2012-10-01T00:30:02.650000Z</value>
        </time>
        <waveformID networkCode="NC" stationCode="MDH1" locationCode="" channelCode="DP1"></waveformID>
        <phaseHint>S</phaseHint>
      </pick>
      <pick publicID="smi:local/f051381f-7b8b-43f1-a3be-cc6c9a5005b4">
        <time>
          <value>2012-10-01T00:30:03.020000Z</value>
        </time>
        <waveformID networkCode="NC" stationCode="MDR" locationCode="02" channelCode="EHZ"></waveformID>
        <phaseHint>P</phaseHint>
      </pick>
      <pick publicID="smi:local/28aaf817-723a-4377-900f-5f84440627c7">
        <time>
          <value>2012-10-01T00:30:00.280000Z</value>
        </time>
        <waveformID networkCode="NC" stationCode="MDY" locationCode="" channelCode="HHZ"></waveformID>
        <phaseHint>P</phaseHint>
      </pick>
      <pick publicID="smi:local/d571a62f-e687-42a6-90bf-dcede6d94b16">
        <time>
          <value>2012-10-01T00:30:01.280000Z</value>
        </time>
        <waveformID networkCode="NC" stationCode="MEM" locationCode="" channelCode="EHZ"></waveformID>
        <phaseHint>P</phaseHint>
      </pick>
      <pick publicID="smi:local/72ed1aa9-ffd3-45bc-b706-7c387fe38918">
        <time>
          <value>2012-10-01T00:30:01.990000Z</value>
        </time>
        <waveformID networkCode="NC" stationCode="MGPB" locationCode="" channelCode="EHZ"></waveformID>
        <phaseHint>P</phaseHint>
      </pick>
      <pick publicID="smi:local/3a1ab14b-f56f-4a0e-928f-3d2264b6cb33">
        <time>
          <value>2012-10-01T00:30:00.520000Z</value>
        </time>
        <waveformID networkCode="NC" stationCode="MINS" locationCode="" channelCode="HHZ"></waveformID>
        <phaseHint>P</phaseHint>
      </pick>
      <pick publicID="smi:local/a68d42fa-7f14-43a6-a501-c7af6665a1e4">
        <time>
          <value>2012-10-01T00:30:01.690000Z</value>
        </time>
        <waveformID networkCode="NC" stationCode="MLC" locationCode="" channelCode="EHZ"></waveformID>
        <phaseHint>P</phaseHint>
      </pick>
      <pick publicID="smi:local/668d921e-5315-40b7-8947-1f87e746734f">
        <time>
          <value>2012-10-01T00:30:03.390000Z</value>
        </time>
        <waveformID networkCode="NC" stationCode="MLH" locationCode="" channelCode="EHZ"></waveformID>
        <phaseHint>P</phaseHint>
      </pick>
      <pick publicID="smi:local/69a08f54-c6b2-4adf-916a-db4f6fe7662e">
        <time>
          <value>2012-10-01T00:30:01.150000Z</value>
        </time>
        <waveformID networkCode="NC" stationCode="MLI" locationCode="" channelCode="HHE"></waveformID>
        <phaseHint>S</phaseHint>
      </pick>
      <pick publicID="smi:local/d26e13fe-2beb-4680-9829-e935cf525e26">
        <time>
          <value>2012-10-01T00:30:00.490000Z</value>
        </time>
        <waveformID networkCode="NC" stationCode="MLI" locationCode="" channelCode="HHZ"></waveformID>
        <phaseHint>P</phaseHint>
      </pick>
      <pick publicID="smi:local/dc19fb31-936c-4a49-8f89-351115ca6520">
        <time>
          <value>2012-10-01T00:30:00.780000Z</value>
        </time>
        <waveformID networkCode="NC" stationCode="MLK" locationCode="" channelCode="EHZ"></waveformID>
        <phaseHint>P</phaseHint>
      </pick>
      <pick publicID="smi:local/4d5d4017-b9a2-4863-b76f-3d68957b08f2">
        <time>
          <value>2012-10-01T00:30:00.680000Z</value>
        </time>
        <waveformID networkCode="NC" stationCode="MMLB" locationCode="" channelCode="HHZ"></waveformID>
        <phaseHint>P</phaseHint>
      </pick>
      <pick publicID="smi:local/73e470cc-4fe0-4741-abc6-29f7b4ab26d6">
        <time>
          <value>2012-10-01T00:30:00.760000Z</value>
        </time>
        <waveformID networkCode="NC" stationCode="MMP" locationCode="" channelCode="EHZ"></waveformID>
        <phaseHint>P</phaseHint>
      </pick>
      <pick publicID="smi:local/84755652-f80f-4d8b-9e5d-04cc5234d608">
        <time>
          <value>2012-10-01T00:30:00.590000Z</value>
        </time>
        <waveformID networkCode="NC" stationCode="MMS" locationCode="" channelCode="EHZ"></waveformID>
        <phaseHint>P</phaseHint>
      </pick>
      <pick publicID="smi:local/6f171e07-9198-4873-8309-63b225e16c00">
        <time>
          <value>2012-10-01T00:30:05.700000Z</value>
        </time>
        <waveformID networkCode="NC" stationCode="MMT" locationCode="" channelCode="EHZ"></waveformID>
