<?xml version='1.0' encoding='utf-8'?>
<q:quakeml xmlns="http://quakeml.org/xmlns/bed/1.2" xmlns:q="http://quakeml.org/xmlns/quakeml/1.2">
  <eventParameters publicID="smi:local/423b24ba-ba3e-483f-8bb7-3cf892db2dae">
    <event publicID="smi:local/2021_07_12t10_15_31_20210712T101531.880000">
      <comment id="smi:local/7c03988a-f99a-4c9f-8327-7f75f13af898">
        <text>Template: 2021_07_12t10_15_31</text>
      </comment>
      <comment id="smi:local/60c1b5cf-c53c-4c3f-9186-d46453bb9484">
        <text>threshold=2.4000000953674316</text>
      </comment>
      <comment id="smi:local/b34210cc-2bd3-4cd0-a946-e0c49113ebc7">
        <text>detect_val=3.999999523162842</text>
      </comment>
      <comment id="smi:local/147021a2-eefa-4f15-9eca-247482578ecd">
        <text>channels used: ('GSCK', 'BHZ') ('GSIG', 'BHZ') ('GSMY', 'BHZ') ('GSSP', 'BHZ')</text>
      </comment>
      <creationInfo>
        <author>EQcorrscan</author>
        <creationTime>2021-08-01T08:25:18.150220Z</creationTime>
      </creationInfo>
      <pick publicID="smi:local/9ef4ac43-5a9a-4938-ba43-3943f431e9e2">
        <time>
          <value>2021-07-12T10:15:33.540000Z</value>
        </time>
        <waveformID networkCode="AV" stationCode="GSCK" locationCode="" channelCode="BHZ"></waveformID>
      </pick>
      <pick publicID="smi:local/c3781f23-ba5c-4924-97b2-3dac1d344fd8">
        <time>
          <value>2021-07-12T10:15:35.220000Z</value>
        </time>
        <waveformID networkCode="AV" stationCode="GSIG" locationCode="" channelCode="BHZ"></waveformID>
      </pick>
      <pick publicID="smi:local/8bb08796-76dd-477f-82c1-25aca35da05d">
        <time>
          <value>2021-07-12T10:15:35.060000Z</value>
        </time>
        <waveformID networkCode="AV" stationCode="GSMY" locationCode="" channelCode="BHZ"></waveformID>
      </pick>
      <pick publicID="smi:local/b0627a8a-63fa-4c55-a6bb-c87ffb228c64">
        <time>
          <value>2021-07-12T10:15:32.880000Z</value>
        </time>
        <waveformID networkCode="AV" stationCode="GSSP" locationCode="" channelCode="BHZ"></waveformID>
      </pick>
    </event>
    <event publicID="smi:local/2021_07_12t10_15_31_20210712T101359.340000">
      <comment id="smi:local/32a5697f-7887-4c81-84f2-e7da11312aba">
        <text>Template: 2021_07_12t10_15_31</text>
      </comment>
      <comment id="smi:local/40660321-16a7-41cd-a3ca-be4976e696d5">
        <text>threshold=2.4000000953674316</text>
      </comment>
      <comment id="smi:local/d53769c5-d472-4596-bed8-fb053861ce25">
        <text>detect_val=3.4536919593811035</text>
      </comment>
      <comment id="smi:local/1e0eed30-9f85-4c31-ab00-2b56cbf56ed9">
        <text>channels used: ('GSCK', 'BHZ') ('GSIG', 'BHZ') ('GSMY', 'BHZ') ('GSSP', 'BHZ')</text>
      </comment>
      <creationInfo>
        <author>EQcorrscan</author>
        <creationTime>2021-08-01T08:25:18.143117Z</creationTime>
      </creationInfo>
      <pick publicID="smi:local/b5ffb312-93fb-4fbe-9a79-6a28674ad967">
        <time>
          <value>2021-07-12T10:14:01.000000Z</value>
        </time>
        <waveformID networkCode="AV" stationCode="GSCK" locationCode="" channelCode="BHZ"></waveformID>
      </pick>
      <pick publicID="smi:local/23f3238f-3cc6-4273-87d0-baca2ff9bfaa">
        <time>
          <value>2021-07-12T10:14:02.680000Z</value>
        </time>
        <waveformID networkCode="AV" stationCode="GSIG" locationCode="" channelCode="BHZ"></waveformID>
      </pick>
      <pick publicID="smi:local/51ad69d7-a0de-4d75-b621-220b2d349871">
        <time>
          <value>2021-07-12T10:14:02.520000Z</value>
        </time>
        <waveformID networkCode="AV" stationCode="GSMY" locationCode="" channelCode="BHZ"></waveformID>
      </pick>
      <pick publicID="smi:local/8026673f-1c60-4a1b-a665-5c4e6533aeac">
        <time>
          <value>2021-07-12T10:14:00.340000Z</value>
        </time>
        <waveformID networkCode="AV" stationCode="GSSP" locationCode="" channelCode="BHZ"></waveformID>
      </pick>
    </event>
    <event publicID="smi:local/2021_06_23t11_52_52_20210623T115252.320000">
      <comment id="smi:local/8785d1b4-aab3-45ca-85d7-2b0e0934c3fc">
        <text>Template: 2021_06_23t11_52_52</text>
      </comment>
      <comment id="smi:local/3e92c5f0-3a08-443b-a138-f3952e113e3f">
        <text>threshold=4.800000190734863</text>
      </comment>
      <comment id="smi:local/93544f36-474f-4df7-ad6a-4a3af534067c">
        <text>detect_val=7.999999046325684</text>
      </comment>
      <comment id="smi:local/b81c3ca3-bc8c-4f07-85c1-2cc7e9faf917">
        <text>channels used: ('GSCK', 'BHN') ('GSCK', 'BHZ') ('GSIG', 'BHE') ('GSIG', 'BHZ') ('GSMY', 'BHE') ('GSMY', 'BHZ') ('GSTR', 'BHN') ('GSTR', 'BHZ')</text>
      </comment>
      <creationInfo>
        <author>EQcorrscan</author>
        <creationTime>2021-08-01T03:10:25.408744Z</creationTime>
      </creationInfo>
      <pick publicID="smi:local/ac074a64-7b92-45a0-9ff3-0280e98b2bae">
        <time>
          <value>2021-06-23T11:52:55.280000Z</value>
        </time>
        <waveformID networkCode="AV" stationCode="GSCK" locationCode="" channelCode="BHN"></waveformID>
      </pick>
      <pick publicID="smi:local/dfa6f33d-3d8b-4550-b950-b1ccd485d385">
        <time>
          <value>2021-06-23T11:52:53.780000Z</value>
        </time>
        <waveformID networkCode="AV" stationCode="GSCK" locationCode="" channelCode="BHZ"></waveformID>
      </pick>
      <pick publicID="smi:local/8991f081-c408-4e30-96b6-eb8d7ab3dc38">
        <time>
          <value>2021-06-23T11:52:57.600000Z</value>
        </time>
        <waveformID networkCode="AV" stationCode="GSIG" locationCode="" channelCode="BHE"></waveformID>
      </pick>
      <pick publicID="smi:local/5b9c5e93-0293-4465-9f7a-2e7637797392">
        <time>
          <value>2021-06-23T11:52:55.000000Z</value>
        </time>
        <waveformID networkCode="AV" stationCode="GSIG" locationCode="" channelCode="BHZ"></waveformID>
      </pick>
      <pick publicID="smi:local/685d84f2-0f6b-4a5b-b388-f39a23bf65f7">
        <time>
          <value>2021-06-23T11:52:54.360000Z</value>
        </time>
        <waveformID networkCode="AV" stationCode="GSMY" locationCode="" channelCode="BHE"></waveformID>
      </pick>
      <pick publicID="smi:local/1ab12be0-a41d-4e76-9639-a2ddc243872f">
        <time>
          <value>2021-06-23T11:52:53.320000Z</value>
        </time>
        <waveformID networkCode="AV" stationCode="GSMY" locationCode="" channelCode="BHZ"></waveformID>
      </pick>
      <pick publicID="smi:local/695bd111-d776-422b-bd69-03cb09914a2f">
        <time>
          <value>2021-06-23T11:52:54.680000Z</value>
        </time>
        <waveformID networkCode="AV" stationCode="GSTR" locationCode="" channelCode="BHN"></waveformID>
      </pick>
      <pick publicID="smi:local/a3b7043f-f54b-4b9e-9847-6ab15f32c1eb">
        <time>
          <value>2021-06-23T11:52:53.320000Z</value>
        </time>
        <waveformID networkCode="AV" stationCode="GSTR" locationCode="" channelCode="BHZ"></waveformID>
      </pick>
    </event>
    <event publicID="smi:local/2021_06_23t11_52_52_20210714T094952.280000">
      <comment id="smi:local/38ff1324-2c1d-4422-9155-773e1450864e">
        <text>Template: 2021_06_23t11_52_52</text>
      </comment>
      <comment id="smi:local/6bedf601-d7ab-4875-8007-60bbd3ee4d42">
        <text>threshold=4.800000190734863</text>
      </comment>
      <comment id="smi:local/67927baa-12bb-44e9-9fdd-75094564879e">
        <text>detect_val=5.33933162689209</text>
      </comment>
      <comment id="smi:local/7aa25bdf-9b1b-4877-af3f-aa4a8ba42c3d">
        <text>channels used: ('GSCK', 'BHN') ('GSCK', 'BHZ') ('GSIG', 'BHE') ('GSIG', 'BHZ') ('GSMY', 'BHE') ('GSMY', 'BHZ') ('GSTR', 'BHN') ('GSTR', 'BHZ')</text>
      </comment>
      <creationInfo>
        <author>EQcorrscan</author>
        <creationTime>2021-08-01T08:52:58.552787Z</creationTime>
      </creationInfo>
      <pick publicID="smi:local/9607d864-6078-43ec-9e3a-2fb6cb6291d7">
        <time>
          <value>2021-07-14T09:49:55.240000Z</value>
        </time>
        <waveformID networkCode="AV" stationCode="GSCK" locationCode="" channelCode="BHN"></waveformID>
      </pick>
      <pick publicID="smi:local/6c2a6228-3fe2-42b0-88f1-37f7538e3e82">
        <time>
          <value>2021-07-14T09:49:53.740000Z</value>
        </time>
        <waveformID networkCode="AV" stationCode="GSCK" locationCode="" channelCode="BHZ"></waveformID>
      </pick>
      <pick publicID="smi:local/35d3f941-12d0-48f8-8b2a-3e3a28253249">
        <time>
          <value>2021-07-14T09:49:57.560000Z</value>
        </time>
        <waveformID networkCode="AV" stationCode="GSIG" locationCode="" channelCode="BHE"></waveformID>
      </pick>
      <pick publicID="smi:local/ed9fa194-d25b-4628-aad4-f059b2a0d484">
        <time>
          <value>2021-07-14T09:49:54.960000Z</value>
        </time>
        <waveformID networkCode="AV" stationCode="GSIG" locationCode="" channelCode="BHZ"></waveformID>
      </pick>
      <pick publicID="smi:local/0be26a9e-3e86-46cc-aa85-bcbe467c34fa">
        <time>
          <value>2021-07-14T09:49:54.320000Z</value>
        </time>
        <waveformID networkCode="AV" stationCode="GSMY" locationCode="" channelCode="BHE"></waveformID>
      </pick>
      <pick publicID="smi:local/d16c79dc-21c0-4ac5-89fe-cea75f189a16">
        <time>
          <value>2021-07-14T09:49:53.280000Z</value>
        </time>
        <waveformID networkCode="AV" stationCode="GSMY" locationCode="" channelCode="BHZ"></waveformID>
      </pick>
      <pick publicID="smi:local/e2cd1848-9cb6-447e-bbe3-23a7b68c39c7">
        <time>
          <value>2021-07-14T09:49:54.640000Z</value>
        </time>
        <waveformID networkCode="AV" stationCode="GSTR" locationCode="" channelCode="BHN"></waveformID>
      </pick>
      <pick publicID="smi:local/3a5803f4-6538-448a-8bee-2af319344ed6">
        <time>
          <value>2021-07-14T09:49:53.280000Z</value>
        </time>
        <waveformID networkCode="AV" stationCode="GSTR" locationCode="" channelCode="BHZ"></waveformID>
      </pick>
    </event>
    <event publicID="smi:local/2021_06_23t11_52_52_20210724T084202.960000">
      <comment id="smi:local/8852d769-3f9f-49ea-a06a-584e35bf4e58">
        <text>Template: 2021_06_23t11_52_52</text>
      </comment>
      <comment id="smi:local/068f6a66-9c37-4a8d-ad85-c7dada26e15f">
        <text>threshold=4.800000190734863</text>
      </comment>
      <comment id="smi:local/03c07d29-cacf-41d0-a02b-9e988d9063e5">
        <text>detect_val=4.991698265075684</text>
      </comment>
      <comment id="smi:local/f3aaf55b-8771-4015-8504-df5d1e67fd5a">
        <text>channels used: ('GSCK', 'BHN') ('GSCK', 'BHZ') ('GSIG', 'BHE') ('GSIG', 'BHZ') ('GSMY', 'BHE') ('GSMY', 'BHZ') ('GSTR', 'BHN') ('GSTR', 'BHZ')</text>
      </comment>
      <creationInfo>
        <author>EQcorrscan</author>
        <creationTime>2021-08-01T11:49:53.705753Z</creationTime>
      </creationInfo>
      <pick publicID="smi:local/68c0c00a-075c-4654-a40c-ca136d6247ce">
        <time>
          <value>2021-07-24T08:42:05.920000Z</value>
        </time>
        <waveformID networkCode="AV" stationCode="GSCK" locationCode="" channelCode="BHN"></waveformID>
      </pick>
      <pick publicID="smi:local/5873a567-2e12-46e1-9094-3ef4b9635618">
        <time>
          <value>2021-07-24T08:42:04.420000Z</value>
        </time>
        <waveformID networkCode="AV" stationCode="GSCK" locationCode="" channelCode="BHZ"></waveformID>
      </pick>
      <pick publicID="smi:local/4fe13c3e-14af-4ec0-ab55-2e62857c7f09">
        <time>
          <value>2021-07-24T08:42:08.240000Z</value>
        </time>
        <waveformID networkCode="AV" stationCode="GSIG" locationCode="" channelCode="BHE"></waveformID>
      </pick>
      <pick publicID="smi:local/008b8d3f-3292-485e-93a7-cf4bd0345eb2">
        <time>
          <value>2021-07-24T08:42:05.640000Z</value>
        </time>
        <waveformID networkCode="AV" stationCode="GSIG" locationCode="" channelCode="BHZ"></waveformID>
      </pick>
      <pick publicID="smi:local/eff53b68-2e47-4ce6-9eea-cc988eac235c">
        <time>
          <value>2021-07-24T08:42:05.000000Z</value>
        </time>
        <waveformID networkCode="AV" stationCode="GSMY" locationCode="" channelCode="BHE"></waveformID>
      </pick>
      <pick publicID="smi:local/8670a07d-e098-495e-b9b1-db31ea585d0a">
        <time>
          <value>2021-07-24T08:42:03.960000Z</value>
        </time>
        <waveformID networkCode="AV" stationCode="GSMY" locationCode="" channelCode="BHZ"></waveformID>
      </pick>
      <pick publicID="smi:local/13d39b99-4768-4b8f-b838-22542cbce49d">
        <time>
          <value>2021-07-24T08:42:05.320000Z</value>
        </time>
        <waveformID networkCode="AV" stationCode="GSTR" locationCode="" channelCode="BHN"></waveformID>
      </pick>
      <pick publicID="smi:local/d928bd00-6798-4a5b-8fa4-a231c2189fdd">
        <time>
          <value>2021-07-24T08:42:03.960000Z</value>
        </time>
        <waveformID networkCode="AV" stationCode="GSTR" locationCode="" channelCode="BHZ"></waveformID>
      </pick>
    </event>
    <event publicID="smi:local/2021_07_18t10_34_28_20210718T103428.320000">
      <comment id="smi:local/cac16d7e-1c7a-4156-9197-fc98eeb86c64">
        <text>Template: 2021_07_18t10_34_28</text>
      </comment>
      <comment id="smi:local/4e35b6bc-ba25-4c36-9c86-5f8d0a2b489b">
        <text>threshold=4.199999809265137</text>
      </comment>
      <comment id="smi:local/7b160d44-4a98-4b92-9bd1-3736e2dc2479">
        <text>detect_val=6.999999523162842</text>
      </comment>
      <comment id="smi:local/49d168a3-f72e-4590-95e2-ab4345519ccc">
        <text>channels used: ('GSCK', 'BHN') ('GSCK', 'BHZ') ('GSIG', 'BHN') ('GSIG', 'BHZ') ('GSMY', 'BHZ') ('GSTR', 'BHN') ('GSTR', 'BHZ')</text>
      </comment>
      <creationInfo>
        <author>EQcorrscan</author>
        <creationTime>2021-08-01T10:04:38.289618Z</creationTime>
      </creationInfo>
      <pick publicID="smi:local/f7a47af0-de2e-41c3-b74d-8aee1fbba04e">
        <time>
          <value>2021-07-18T10:34:31.040000Z</value>
        </time>
        <waveformID networkCode="AV" stationCode="GSCK" locationCode="" channelCode="BHN"></waveformID>
      </pick>
      <pick publicID="smi:local/434b939b-7ad8-47eb-8f4f-031c3764a322">
        <time>
          <value>2021-07-18T10:34:29.400000Z</value>
        </time>
        <waveformID networkCode="AV" stationCode="GSCK" locationCode="" channelCode="BHZ"></waveformID>
      </pick>
      <pick publicID="smi:local/23f6ef2e-92b9-45aa-9f1b-cf8558bedfbc">
        <time>
          <value>2021-07-18T10:34:32.640000Z</value>
        </time>
        <waveformID networkCode="AV" stationCode="GSIG" locationCode="" channelCode="BHN"></waveformID>
      </pick>
      <pick publicID="smi:local/9175170c-cfdf-45c1-bb87-7ef087f4f79c">
        <time>
          <value>2021-07-18T10:34:30.360000Z</value>
        </time>
        <waveformID networkCode="AV" stationCode="GSIG" locationCode="" channelCode="BHZ"></waveformID>
      </pick>
      <pick publicID="smi:local/ec318ef6-885d-43f6-88bf-6abb9254e6af">
        <time>
          <value>2021-07-18T10:34:29.320000Z</value>
        </time>
        <waveformID networkCode="AV" stationCode="GSMY" locationCode="" channelCode="BHZ"></waveformID>
      </pick>
      <pick publicID="smi:local/4edd03b9-623b-4110-914d-1718e723382a">
        <time>
          <value>2021-07-18T10:34:32.160000Z</value>
        </time>
        <waveformID networkCode="AV" stationCode="GSTR" locationCode="" channelCode="BHN"></waveformID>
      </pick>
      <pick publicID="smi:local/04e77f8d-6cbf-4d30-961d-5e4bc958e4c9">
        <time>
          <value>2021-07-18T10:34:29.900000Z</value>
        </time>
        <waveformID networkCode="AV" stationCode="GSTR" locationCode="" channelCode="BHZ"></waveformID>
      </pick>
    </event>
    <event publicID="smi:local/2021_06_23t01_23_45_20210623T012345.380000">
      <comment id="smi:local/400d1198-b329-414a-82e6-f2cc1e2a9dd5">
        <text>Template: 2021_06_23t01_23_45</text>
      </comment>
      <comment id="smi:local/32ba1736-10a9-4c41-aa24-ffa07c2fc556">
        <text>threshold=3.5999999046325684</text>
      </comment>
      <comment id="smi:local/d803adfa-88e7-4930-9da5-6dc9d847ca5e">
        <text>detect_val=6.0</text>
      </comment>
      <comment id="smi:local/b90ed196-29ea-400f-997d-a6fab8c8a81e">
        <text>channels used: ('GSCK', 'BHZ') ('GSIG', 'BHZ') ('GSMY', 'BHE') ('GSMY', 'BHZ') ('GSTR', 'BHN') ('GSTR', 'BHZ')</text>
      </comment>
      <creationInfo>
        <author>EQcorrscan</author>
        <creationTime>2021-08-01T03:10:25.323793Z</creationTime>
      </creationInfo>
      <pick publicID="smi:local/ff53e014-89d0-426d-a146-450b8c0d054c">
        <time>
          <value>2021-06-23T01:23:46.960000Z</value>
        </time>
        <waveformID networkCode="AV" stationCode="GSCK" locationCode="" channelCode="BHZ"></waveformID>
      </pick>
      <pick publicID="smi:local/533f9ea1-c35d-42e4-99df-3c564154d674">
        <time>
          <value>2021-06-23T01:23:48.080000Z</value>
        </time>
        <waveformID networkCode="AV" stationCode="GSIG" locationCode="" channelCode="BHZ"></waveformID>
      </pick>
      <pick publicID="smi:local/4bf6a8d6-1a88-4bcf-ab00-f46e5a8963ad">
        <time>
          <value>2021-06-23T01:23:46.760000Z</value>
        </time>
        <waveformID networkCode="AV" stationCode="GSMY" locationCode="" channelCode="BHE"></waveformID>
      </pick>
      <pick publicID="smi:local/eb24c166-2159-490e-bd0c-63cd7c8af154">
        <time>
          <value>2021-06-23T01:23:46.440000Z</value>
        </time>
        <waveformID networkCode="AV" stationCode="GSMY" locationCode="" channelCode="BHZ"></waveformID>
      </pick>
      <pick publicID="smi:local/bb512294-87a5-471e-8d39-d505ecac9616">
        <time>
          <value>2021-06-23T01:23:47.700000Z</value>
        </time>
        <waveformID networkCode="AV" stationCode="GSTR" locationCode="" channelCode="BHN"></waveformID>
      </pick>
      <pick publicID="smi:local/e8292c07-84e0-4d46-bf97-3567c63e4d35">
        <time>
          <value>2021-06-23T01:23:46.380000Z</value>
        </time>
        <waveformID networkCode="AV" stationCode="GSTR" locationCode="" channelCode="BHZ"></waveformID>
      </pick>
    </event>
    <event publicID="smi:local/2021_06_12t16_30_32_20210612T163032.640000">
      <comment id="smi:local/0d059ebd-3cf4-4126-9d0f-f5a24508f6ef">
        <text>Template: 2021_06_12t16_30_32</text>
      </comment>
      <comment id="smi:local/f32fb88f-8156-49e0-bd63-c55c0e3ffa1c">
        <text>threshold=4.199999809265137</text>
      </comment>
      <comment id="smi:local/a8cfdc21-2ff9-4f06-80bc-0c195fb9cc28">
        <text>detect_val=6.999999523162842</text>
      </comment>
      <comment id="smi:local/25c3378c-1755-4c3e-848f-f108faf55804">
        <text>channels used: ('GSCK', 'BHN') ('GSCK', 'BHZ') ('GSIG', 'BHE') ('GSIG', 'BHZ') ('GSMY', 'BHE') ('GSMY', 'BHZ') ('GSSP', 'BHZ')</text>
      </comment>
      <creationInfo>
        <author>EQcorrscan</author>
        <creationTime>2021-08-01T00:06:36.875958Z</creationTime>
      </creationInfo>
      <pick publicID="smi:local/775f1e13-611d-4c8d-8312-ada99ce744f5">
        <time>
          <value>2021-06-12T16:30:35.840000Z</value>
        </time>
        <waveformID networkCode="AV" stationCode="GSCK" locationCode="" channelCode="BHN"></waveformID>
      </pick>
      <pick publicID="smi:local/a00f7007-b480-4d70-8c97-404cf41bb675">
        <time>
          <value>2021-06-12T16:30:34.160000Z</value>
        </time>
        <waveformID networkCode="AV" stationCode="GSCK" locationCode="" channelCode="BHZ"></waveformID>
      </pick>
      <pick publicID="smi:local/905b1497-5ddb-4de4-b9c1-7dbacccb230e">
