<?xml version='1.0' encoding='utf-8'?>
<q:quakeml xmlns="http://quakeml.org/xmlns/bed/1.2" xmlns:q="http://quakeml.org/xmlns/quakeml/1.2">
  <eventParameters publicID="smi:local/7291f4db-3a4c-4fa2-bac3-48004fafadcf">
    <event publicID="smi:local/2009_03_20t12_20_02_20090320T122002.561000">
      <comment id="smi:local/0d8cd763-cff8-42f2-af15-ad53733ae9dd">
        <text>Template: 2009_03_20t12_20_02</text>
      </comment>
      <comment id="smi:local/a519188a-e81c-478c-8f90-392797111a5c">
        <text>threshold=3.5999999046325684</text>
      </comment>
      <comment id="smi:local/d1421797-89ef-440f-8394-4ccaea2d4acc">
        <text>detect_val=5.999999523162842</text>
      </comment>
      <comment id="smi:local/1d8d5ecd-00ce-4dcf-a3c3-d7b140493a6c">
        <text>channels used: ('RDN', 'EHZ') ('RDWB', 'BHN') ('RDWB', 'BHZ') ('REF', 'EHN') ('REF', 'EHZ') ('RSO', 'EHZ')</text>
      </comment>
      <creationInfo>
        <author>EQcorrscan</author>
        <creationTime>2021-07-16T23:01:03.320294Z</creationTime>
      </creationInfo>
      <pick publicID="smi:local/046dd1a1-7152-44c7-83d6-508f1d09449d">
        <time>
          <value>2009-03-20T12:20:03.800000Z</value>
        </time>
        <waveformID networkCode="AV" stationCode="RDN" locationCode="" channelCode="EHZ"></waveformID>
      </pick>
      <pick publicID="smi:local/a8135fb8-71dc-4a35-aeff-7710cb43113a">
        <time>
          <value>2009-03-20T12:20:04.200000Z</value>
        </time>
        <waveformID networkCode="AV" stationCode="RDWB" locationCode="" channelCode="BHN"></waveformID>
      </pick>
      <pick publicID="smi:local/d9a49521-01bb-4116-ada4-afb95f625f47">
        <time>
          <value>2009-03-20T12:20:03.680000Z</value>
        </time>
        <waveformID networkCode="AV" stationCode="RDWB" locationCode="" channelCode="BHZ"></waveformID>
      </pick>
      <pick publicID="smi:local/bda75587-1d75-4803-9284-2c8f1197422c">
        <time>
          <value>2009-03-20T12:20:04.480000Z</value>
        </time>
        <waveformID networkCode="AV" stationCode="REF" locationCode="" channelCode="EHN"></waveformID>
      </pick>
      <pick publicID="smi:local/7072bf98-6ab8-4ba4-9275-0d2fbf7d5ec2">
        <time>
          <value>2009-03-20T12:20:03.660000Z</value>
        </time>
        <waveformID networkCode="AV" stationCode="REF" locationCode="" channelCode="EHZ"></waveformID>
      </pick>
      <pick publicID="smi:local/a6e37a0d-fe2c-45ff-bd24-37060a127efe">
        <time>
          <value>2009-03-20T12:20:03.561000Z</value>
        </time>
        <waveformID networkCode="AV" stationCode="RSO" locationCode="" channelCode="EHZ"></waveformID>
      </pick>
    </event>
    <event publicID="smi:local/2009_03_20t22_32_48_20090320T223248.861000">
      <comment id="smi:local/bf6fd601-8000-420f-9dce-a7dabf65a4c4">
        <text>Template: 2009_03_20t22_32_48</text>
      </comment>
      <comment id="smi:local/1909fcf3-85b5-49c0-bbd3-f85013d24e66">
        <text>threshold=3.5999999046325684</text>
      </comment>
      <comment id="smi:local/6c1d13fe-cae3-4beb-b64e-5cbc302674f3">
        <text>detect_val=5.999999046325684</text>
      </comment>
      <comment id="smi:local/d053233d-46f5-4313-a429-679a800a9fbb">
        <text>channels used: ('RDN', 'EHZ') ('RDWB', 'BHN') ('RDWB', 'BHZ') ('REF', 'EHE') ('REF', 'EHZ') ('RSO', 'EHZ')</text>
      </comment>
      <creationInfo>
        <author>EQcorrscan</author>
        <creationTime>2021-07-16T23:01:03.502704Z</creationTime>
      </creationInfo>
      <pick publicID="smi:local/c8c203ee-9bba-4fa0-b06c-6ee64b05addb">
        <time>
          <value>2009-03-20T22:32:50.020000Z</value>
        </time>
        <waveformID networkCode="AV" stationCode="RDN" locationCode="" channelCode="EHZ"></waveformID>
      </pick>
      <pick publicID="smi:local/95f58ce6-a1c2-478b-b7a1-392e50e2448e">
        <time>
          <value>2009-03-20T22:32:50.720000Z</value>
        </time>
        <waveformID networkCode="AV" stationCode="RDWB" locationCode="" channelCode="BHN"></waveformID>
      </pick>
      <pick publicID="smi:local/519b7432-8aec-42e4-a489-a84f2f993031">
        <time>
          <value>2009-03-20T22:32:50.040000Z</value>
        </time>
        <waveformID networkCode="AV" stationCode="RDWB" locationCode="" channelCode="BHZ"></waveformID>
      </pick>
      <pick publicID="smi:local/4e07fe99-d83f-4104-9bac-5c3eebf03bd5">
        <time>
          <value>2009-03-20T22:32:51.500000Z</value>
        </time>
        <waveformID networkCode="AV" stationCode="REF" locationCode="" channelCode="EHE"></waveformID>
      </pick>
      <pick publicID="smi:local/3a2bd302-8f5e-4d6e-938b-3ed8f7ab9c9f">
        <time>
          <value>2009-03-20T22:32:50.060000Z</value>
        </time>
        <waveformID networkCode="AV" stationCode="REF" locationCode="" channelCode="EHZ"></waveformID>
      </pick>
      <pick publicID="smi:local/196492ec-6621-4c45-9371-1b5b1277ab18">
        <time>
          <value>2009-03-20T22:32:49.861000Z</value>
        </time>
        <waveformID networkCode="AV" stationCode="RSO" locationCode="" channelCode="EHZ"></waveformID>
      </pick>
    </event>
    <event publicID="smi:local/2009_03_20t17_59_41_20090320T175941.841000">
      <comment id="smi:local/79df02ac-9159-463c-8658-b50d7d353939">
        <text>Template: 2009_03_20t17_59_41</text>
      </comment>
      <comment id="smi:local/2f685650-e5e4-4047-85a3-de255638c5e2">
        <text>threshold=3.0</text>
      </comment>
      <comment id="smi:local/25395045-9502-4225-b955-ede3f3789b24">
        <text>detect_val=4.999999046325684</text>
      </comment>
      <comment id="smi:local/38486fb8-a828-42a4-a82f-006a5c875938">
        <text>channels used: ('DFR', 'EHZ') ('NCT', 'EHZ') ('RDWB', 'BHN') ('RDWB', 'BHZ') ('RSO', 'EHZ')</text>
      </comment>
      <creationInfo>
        <author>EQcorrscan</author>
        <creationTime>2021-07-16T23:01:03.347160Z</creationTime>
      </creationInfo>
      <pick publicID="smi:local/c8345c03-5dbf-4cd2-85af-abc8899aecf5">
        <time>
          <value>2009-03-20T17:59:45.001000Z</value>
        </time>
        <waveformID networkCode="AV" stationCode="DFR" locationCode="" channelCode="EHZ"></waveformID>
      </pick>
      <pick publicID="smi:local/ea3a76ec-4b68-4e1b-9657-391fb16b193d">
        <time>
          <value>2009-03-20T17:59:44.701000Z</value>
        </time>
        <waveformID networkCode="AV" stationCode="NCT" locationCode="" channelCode="EHZ"></waveformID>
      </pick>
      <pick publicID="smi:local/0e47e317-54c1-48c6-9c68-81961beda458">
        <time>
          <value>2009-03-20T17:59:43.960000Z</value>
        </time>
        <waveformID networkCode="AV" stationCode="RDWB" locationCode="" channelCode="BHN"></waveformID>
      </pick>
      <pick publicID="smi:local/34a7d3c5-0a6b-4e41-a646-25e679961f43">
        <time>
          <value>2009-03-20T17:59:42.940000Z</value>
        </time>
        <waveformID networkCode="AV" stationCode="RDWB" locationCode="" channelCode="BHZ"></waveformID>
      </pick>
      <pick publicID="smi:local/5a22046e-bf82-4f8b-bcb3-68c080635fbc">
        <time>
          <value>2009-03-20T17:59:42.841000Z</value>
        </time>
        <waveformID networkCode="AV" stationCode="RSO" locationCode="" channelCode="EHZ"></waveformID>
      </pick>
    </event>
    <event publicID="smi:local/2009_03_20t17_59_41_20090320T175642.161000">
      <comment id="smi:local/86f39229-3e94-4f63-acda-4ec695062cfb">
        <text>Template: 2009_03_20t17_59_41</text>
      </comment>
      <comment id="smi:local/a5a20b79-4059-44dd-b81b-ff35e94832f3">
        <text>threshold=3.0</text>
      </comment>
      <comment id="smi:local/2ee87f8d-9766-4a5a-a951-184cfa596abc">
        <text>detect_val=3.23726224899292</text>
      </comment>
      <comment id="smi:local/a2eebd3e-c04d-4ac7-9d5a-2126f43b43f3">
        <text>channels used: ('DFR', 'EHZ') ('NCT', 'EHZ') ('RDWB', 'BHN') ('RDWB', 'BHZ') ('RSO', 'EHZ')</text>
      </comment>
      <creationInfo>
        <author>EQcorrscan</author>
        <creationTime>2021-07-16T23:01:03.345596Z</creationTime>
      </creationInfo>
      <pick publicID="smi:local/b45645f5-43d4-46d4-b360-b8269286f16c">
        <time>
          <value>2009-03-20T17:56:45.321000Z</value>
        </time>
        <waveformID networkCode="AV" stationCode="DFR" locationCode="" channelCode="EHZ"></waveformID>
      </pick>
      <pick publicID="smi:local/30990e32-8e31-4bb5-87a5-afb45e321078">
        <time>
          <value>2009-03-20T17:56:45.021000Z</value>
        </time>
        <waveformID networkCode="AV" stationCode="NCT" locationCode="" channelCode="EHZ"></waveformID>
      </pick>
      <pick publicID="smi:local/518491e6-46aa-4e64-ae69-895a664e3ab1">
        <time>
          <value>2009-03-20T17:56:44.280000Z</value>
        </time>
        <waveformID networkCode="AV" stationCode="RDWB" locationCode="" channelCode="BHN"></waveformID>
      </pick>
      <pick publicID="smi:local/67cdc9fa-3182-463d-95be-b28f0fa71b69">
        <time>
          <value>2009-03-20T17:56:43.260000Z</value>
        </time>
        <waveformID networkCode="AV" stationCode="RDWB" locationCode="" channelCode="BHZ"></waveformID>
      </pick>
      <pick publicID="smi:local/53df9f4b-5b23-47b6-92cb-7c8fb6268f9f">
        <time>
          <value>2009-03-20T17:56:43.161000Z</value>
        </time>
        <waveformID networkCode="AV" stationCode="RSO" locationCode="" channelCode="EHZ"></waveformID>
      </pick>
    </event>
    <event publicID="smi:local/2009_03_20t20_35_10_20090320T203510.061000">
      <comment id="smi:local/298fdb21-985d-4956-b4fb-43fff9113d63">
        <text>Template: 2009_03_20t20_35_10</text>
      </comment>
      <comment id="smi:local/f39f9f91-a051-4674-95ad-9f56be2b6668">
        <text>threshold=3.5999999046325684</text>
      </comment>
      <comment id="smi:local/c0a96b47-bb27-43ea-b29b-f1985f02a3dd">
        <text>detect_val=5.999999523162842</text>
      </comment>
      <comment id="smi:local/66c14155-6b31-46af-bf4e-11ac7161e889">
        <text>channels used: ('RDN', 'EHZ') ('RDWB', 'BHE') ('RDWB', 'BHZ') ('REF', 'EHE') ('REF', 'EHZ') ('RSO', 'EHZ')</text>
      </comment>
      <creationInfo>
        <author>EQcorrscan</author>
        <creationTime>2021-07-16T23:01:03.368679Z</creationTime>
      </creationInfo>
      <pick publicID="smi:local/fcd49100-374b-49c0-9cf1-e0f558cd4b3d">
        <time>
          <value>2009-03-20T20:35:11.300000Z</value>
        </time>
        <waveformID networkCode="AV" stationCode="RDN" locationCode="" channelCode="EHZ"></waveformID>
      </pick>
      <pick publicID="smi:local/1e956a65-a47e-4684-9fe2-aeb314c42e49">
        <time>
          <value>2009-03-20T20:35:12.220000Z</value>
        </time>
        <waveformID networkCode="AV" stationCode="RDWB" locationCode="" channelCode="BHE"></waveformID>
      </pick>
      <pick publicID="smi:local/de262f78-58e3-4a15-acb6-39e7991a34ff">
        <time>
          <value>2009-03-20T20:35:11.140000Z</value>
        </time>
        <waveformID networkCode="AV" stationCode="RDWB" locationCode="" channelCode="BHZ"></waveformID>
      </pick>
      <pick publicID="smi:local/84948c46-edbc-400d-aadb-152128e7bc72">
        <time>
          <value>2009-03-20T20:35:12.400000Z</value>
        </time>
        <waveformID networkCode="AV" stationCode="REF" locationCode="" channelCode="EHE"></waveformID>
      </pick>
      <pick publicID="smi:local/ff4c43ca-2b87-4e40-83cb-cdd819fb6cac">
        <time>
          <value>2009-03-20T20:35:11.220000Z</value>
        </time>
        <waveformID networkCode="AV" stationCode="REF" locationCode="" channelCode="EHZ"></waveformID>
      </pick>
      <pick publicID="smi:local/cdba7a77-5c29-46d7-99ac-f155f77c025a">
        <time>
          <value>2009-03-20T20:35:11.061000Z</value>
        </time>
        <waveformID networkCode="AV" stationCode="RSO" locationCode="" channelCode="EHZ"></waveformID>
      </pick>
    </event>
    <event publicID="smi:local/2009_03_20t07_48_53_20090320T074853.021000">
      <comment id="smi:local/67e24570-4433-4b5e-8443-c20e0ac58ca8">
        <text>Template: 2009_03_20t07_48_53</text>
      </comment>
      <comment id="smi:local/b6bb809e-ca7c-4b81-9246-993a611a2f04">
        <text>threshold=6.0</text>
      </comment>
      <comment id="smi:local/a9e11335-e677-4f8f-91ca-16172ea27600">
        <text>detect_val=9.999999046325684</text>
      </comment>
      <comment id="smi:local/ea1dabaa-c533-4325-9f8f-e35575bf74da">
        <text>channels used: ('DFR', 'EHZ') ('NCT', 'EHZ') ('RDE', 'EHZ') ('RDJH', 'BHN') ('RDJH', 'BHZ') ('RDN', 'EHZ') ('RDWB', 'BHN') ('RDWB', 'BHZ') ('REF', 'EHN') ('REF', 'EHZ')</text>
      </comment>
      <creationInfo>
        <author>EQcorrscan</author>
        <creationTime>2021-07-16T23:01:03.314390Z</creationTime>
      </creationInfo>
      <pick publicID="smi:local/e06a73ef-6513-4432-b379-982677661da8">
        <time>
          <value>2009-03-20T07:48:56.482000Z</value>
        </time>
        <waveformID networkCode="AV" stationCode="DFR" locationCode="" channelCode="EHZ"></waveformID>
      </pick>
      <pick publicID="smi:local/b9dc3a6e-f758-476d-8c3a-95c68aab44bc">
        <time>
          <value>2009-03-20T07:48:56.342000Z</value>
        </time>
        <waveformID networkCode="AV" stationCode="NCT" locationCode="" channelCode="EHZ"></waveformID>
      </pick>
      <pick publicID="smi:local/ab13a82c-7e0c-4ebb-a367-d3e7231fc14f">
        <time>
          <value>2009-03-20T07:48:56.682000Z</value>
        </time>
        <waveformID networkCode="AV" stationCode="RDE" locationCode="" channelCode="EHZ"></waveformID>
      </pick>
      <pick publicID="smi:local/b9547893-2067-4297-9a5d-f8cfc30e6881">
        <time>
          <value>2009-03-20T07:48:58.461000Z</value>
        </time>
        <waveformID networkCode="AV" stationCode="RDJH" locationCode="" channelCode="BHN"></waveformID>
      </pick>
      <pick publicID="smi:local/48884de9-e60c-4e04-908f-febeec783e84">
        <time>
          <value>2009-03-20T07:48:56.461000Z</value>
        </time>
        <waveformID networkCode="AV" stationCode="RDJH" locationCode="" channelCode="BHZ"></waveformID>
      </pick>
      <pick publicID="smi:local/46a496d8-40db-4521-877d-fb0c02d5cc84">
        <time>
          <value>2009-03-20T07:48:54.981000Z</value>
        </time>
        <waveformID networkCode="AV" stationCode="RDN" locationCode="" channelCode="EHZ"></waveformID>
      </pick>
      <pick publicID="smi:local/7c447f86-a6ec-4286-8c9c-887c25b98436">
        <time>
          <value>2009-03-20T07:48:55.721000Z</value>
        </time>
        <waveformID networkCode="AV" stationCode="RDWB" locationCode="" channelCode="BHN"></waveformID>
      </pick>
      <pick publicID="smi:local/d8948f9b-236a-4f85-967a-66516111efcb">
        <time>
          <value>2009-03-20T07:48:55.081000Z</value>
        </time>
        <waveformID networkCode="AV" stationCode="RDWB" locationCode="" channelCode="BHZ"></waveformID>
      </pick>
      <pick publicID="smi:local/84e2a413-7fa8-49b9-b24b-1eb587c39629">
        <time>
          <value>2009-03-20T07:48:55.741000Z</value>
        </time>
        <waveformID networkCode="AV" stationCode="REF" locationCode="" channelCode="EHN"></waveformID>
      </pick>
      <pick publicID="smi:local/1e85c95d-483c-47df-b66d-49a6625805a0">
        <time>
          <value>2009-03-20T07:48:54.021000Z</value>
        </time>
        <waveformID networkCode="AV" stationCode="REF" locationCode="" channelCode="EHZ"></waveformID>
      </pick>
    </event>
    <event publicID="smi:local/2009_03_20t20_36_50_20090320T203650.521000">
      <comment id="smi:local/fe4af2ae-d118-4ff0-8154-9e6472f92a69">
        <text>Template: 2009_03_20t20_36_50</text>
      </comment>
      <comment id="smi:local/5dcbd0e5-78b9-428e-b6a9-9c9b0e0549fb">
        <text>threshold=4.800000190734863</text>
      </comment>
      <comment id="smi:local/bce85070-b6de-43a7-9c69-a6df4570b4c7">
        <text>detect_val=7.999998569488525</text>
      </comment>
      <comment id="smi:local/9106d7e0-6b41-4709-9a2b-97a584ba7342">
        <text>channels used: ('NCT', 'EHZ') ('RDJH', 'BHE') ('RDN', 'EHZ') ('RDWB', 'BHN') ('RDWB', 'BHZ') ('REF', 'EHN') ('REF', 'EHZ') ('RSO', 'EHZ')</text>
      </comment>
      <creationInfo>
        <author>EQcorrscan</author>
        <creationTime>2021-07-16T23:01:03.420016Z</creationTime>
      </creationInfo>
      <pick publicID="smi:local/970c7f15-f5eb-406c-b706-8ba0b0edea0d">
        <time>
          <value>2009-03-20T20:36:54.001000Z</value>
        </time>
        <waveformID networkCode="AV" stationCode="NCT" locationCode="" channelCode="EHZ"></waveformID>
      </pick>
      <pick publicID="smi:local/e03deec0-7369-48fe-9bc2-605a0c5a6292">
        <time>
          <value>2009-03-20T20:36:55.280000Z</value>
        </time>
        <waveformID networkCode="AV" stationCode="RDJH" locationCode="" channelCode="BHE"></waveformID>
      </pick>
      <pick publicID="smi:local/0dfcd2fd-e3e7-4ff1-a2b8-7b58a457d087">
        <time>
          <value>2009-03-20T20:36:51.540000Z</value>
        </time>
        <waveformID networkCode="AV" stationCode="RDN" locationCode="" channelCode="EHZ"></waveformID>
      </pick>
      <pick publicID="smi:local/f434ddd9-f6a4-4da9-b8b3-a0fee38ce26c">
        <time>
          <value>2009-03-20T20:36:52.660000Z</value>
        </time>
        <waveformID networkCode="AV" stationCode="RDWB" locationCode="" channelCode="BHN"></waveformID>
      </pick>
      <pick publicID="smi:local/e8ac9b8c-fb16-4356-a6d9-1f18824b8a03">
        <time>
          <value>2009-03-20T20:36:51.680000Z</value>
        </time>
        <waveformID networkCode="AV" stationCode="RDWB" locationCode="" channelCode="BHZ"></waveformID>
      </pick>
      <pick publicID="smi:local/03d9098d-06fc-48d1-999d-c33ffde4dd5e">
        <time>
          <value>2009-03-20T20:36:52.300000Z</value>
        </time>
        <waveformID networkCode="AV" stationCode="REF" locationCode="" channelCode="EHN"></waveformID>
      </pick>
      <pick publicID="smi:local/8ec16b49-1d30-400b-a9b1-aa4939159786">
        <time>
          <value>2009-03-20T20:36:51.680000Z</value>
        </time>
        <waveformID networkCode="AV" stationCode="REF" locationCode="" channelCode="EHZ"></waveformID>
      </pick>
      <pick publicID="smi:local/5473fdae-3c08-4128-bb5f-8471b0a88831">
        <time>
          <value>2009-03-20T20:36:51.521000Z</value>
        </time>
        <waveformID networkCode="AV" stationCode="RSO" locationCode="" channelCode="EHZ"></waveformID>
      </pick>
    </event>
    <event publicID="smi:local/2009_03_20t20_36_50_20090320T210044.841000">
      <comment id="smi:local/65c4d983-7e2f-42fa-920b-147bdf56c214">
        <text>Template: 2009_03_20t20_36_50</text>
      </comment>
      <comment id="smi:local/9895321b-6239-45da-a0fd-ec9071d91d15">
        <text>threshold=4.800000190734863</text>
      </comment>
      <comment id="smi:local/2b65ddab-af8c-47aa-bfd6-58c3ab9012d6">
        <text>detect_val=7.633127212524414</text>
      </comment>
      <comment id="smi:local/bb849abb-b9a9-4888-83ab-2dd103529af6">
        <text>channels used: ('NCT', 'EHZ') ('RDJH', 'BHE') ('RDN', 'EHZ') ('RDWB', 'BHN') ('RDWB', 'BHZ') ('REF', 'EHN') ('REF', 'EHZ') ('RSO', 'EHZ')</text>
      </comment>
      <creationInfo>
        <author>EQcorrscan</author>
        <creationTime>2021-07-16T23:01:03.421989Z</creationTime>
      </creationInfo>
      <pick publicID="smi:local/1b09309f-19fd-4797-9d80-03219077c914">
        <time>
          <value>2009-03-20T21:00:48.321000Z</value>
        </time>
        <waveformID networkCode="AV" stationCode="NCT" locationCode="" channelCode="EHZ"></waveformID>
      </pick>
      <pick publicID="smi:local/549cdda9-769e-4bd6-8257-edffc7311168">
        <time>
