<?xml version='1.0' encoding='utf-8'?>
<q:quakeml xmlns="http://quakeml.org/xmlns/bed/1.2" xmlns:q="http://quakeml.org/xmlns/quakeml/1.2">
  <eventParameters publicID="smi:local/ed2f2fde-e97e-49cd-9828-c96d0f6642f8">
    <event publicID="smi:local/2012_10_01t14_19_22_20121001T141922.710000">
      <comment id="smi:local/daf21ae9-781f-4900-95e8-e98b47f8d25b">
        <text>Template: 2012_10_01t14_19_22</text>
      </comment>
      <comment id="smi:local/4a458414-c943-4040-b6be-6718e9db0bc3">
        <text>threshold=4.199999809265137</text>
      </comment>
      <comment id="smi:local/48952a0f-1966-4f76-a165-e1a2451ac4a0">
        <text>detect_val=5.999999046325684</text>
      </comment>
      <comment id="smi:local/07b9b4c5-6021-412a-bb44-f1f7033a48f0">
        <text>channels used: ('ST11', 'HHN') ('ST11', 'HHZ') ('ST12', 'HHN') ('ST12', 'HHZ') ('ST13', 'HHN') ('ST13', 'HHZ')</text>
      </comment>
      <comment id="smi:local/3ca88ea8-4f5b-4e68-87b0-6aa45d746d07">
        <text>FI=0.31361</text>
      </comment>
      <comment id="smi:local/6ab7a2b4-d8ea-488c-892e-907da761ee24">
        <text>FI=0.31361</text>
      </comment>
      <creationInfo>
        <author>EQcorrscan</author>
        <creationTime>2023-07-14T11:49:29.632282Z</creationTime>
      </creationInfo>
      <origin publicID="smi:local/4efb76ba-1c6b-4f68-957c-c3275874ccee">
        <time>
          <value>2012-10-01T14:19:22.055000Z</value>
        </time>
        <latitude>
          <value>35.656259</value>
        </latitude>
        <longitude>
          <value>-98.257838</value>
        </longitude>
        <depth>
          <value>4.785665</value>
        </depth>
      </origin>
      <pick publicID="smi:local/ac0b97ce-4736-4ca9-a3f5-5c447022d82a">
        <time>
          <value>2012-10-01T14:19:25.780000Z</value>
        </time>
        <waveformID networkCode="JP" stationCode="ST11" locationCode="00" channelCode="HHN"></waveformID>
        <phaseHint>S</phaseHint>
      </pick>
      <pick publicID="smi:local/bcda6ca3-9abe-49f6-a08a-2261dd451f0d">
        <time>
          <value>2012-10-01T14:19:24.180000Z</value>
        </time>
        <waveformID networkCode="JP" stationCode="ST11" locationCode="00" channelCode="HHZ"></waveformID>
        <phaseHint>P</phaseHint>
      </pick>
      <pick publicID="smi:local/1882d0db-8cba-47b4-b6a1-e8e7e2160b00">
        <time>
          <value>2012-10-01T14:19:25.320000Z</value>
        </time>
        <waveformID networkCode="JP" stationCode="ST12" locationCode="00" channelCode="HHN"></waveformID>
        <phaseHint>S</phaseHint>
      </pick>
      <pick publicID="smi:local/572e583c-5726-45c5-96ac-d04d877e69b5">
        <time>
          <value>2012-10-01T14:19:24.030000Z</value>
        </time>
        <waveformID networkCode="JP" stationCode="ST12" locationCode="00" channelCode="HHZ"></waveformID>
        <phaseHint>P</phaseHint>
      </pick>
      <pick publicID="smi:local/5fc02c95-ddfb-4ebe-aaf0-13177490c263">
        <time>
          <value>2012-10-01T14:19:25.040000Z</value>
        </time>
        <waveformID networkCode="JP" stationCode="ST13" locationCode="00" channelCode="HHN"></waveformID>
        <phaseHint>S</phaseHint>
      </pick>
      <pick publicID="smi:local/3d4c1729-6423-47f3-9c80-87d540707dfd">
        <time>
          <value>2012-10-01T14:19:23.710000Z</value>
        </time>
        <waveformID networkCode="JP" stationCode="ST13" locationCode="00" channelCode="HHZ"></waveformID>
        <phaseHint>P</phaseHint>
      </pick>
    </event>
    <event publicID="smi:local/2012_10_01t12_31_21_20121001T123121.500000">
      <comment id="smi:local/8e52cbc1-9b21-4952-a65a-79d54601122f">
        <text>Template: 2012_10_01t12_31_21</text>
      </comment>
      <comment id="smi:local/b6fd29f2-888a-4ffd-8323-3576fd73b558">
        <text>threshold=6.300000190734863</text>
      </comment>
      <comment id="smi:local/02061fcf-67be-460e-a75d-7042c922e1e0">
        <text>detect_val=8.999998092651367</text>
      </comment>
      <comment id="smi:local/36e1de8b-7398-4514-a6e6-d90c5c914ef2">
        <text>channels used: ('ST10', 'HHZ') ('ST11', 'HHN') ('ST11', 'HHZ') ('ST12', 'HHN') ('ST12', 'HHZ') ('ST13', 'HHN') ('ST13', 'HHZ') ('ST14', 'HHZ') ('ST15', 'HHZ')</text>
      </comment>
      <comment id="smi:local/8c37a357-ee4c-45fb-93cb-d76f91726686">
        <text>FI=0.81109</text>
      </comment>
      <comment id="smi:local/19b157f3-2247-468f-aad8-4da8673b8668">
        <text>FI=0.81109</text>
      </comment>
      <creationInfo>
        <author>EQcorrscan</author>
        <creationTime>2023-07-14T11:49:29.701297Z</creationTime>
      </creationInfo>
      <origin publicID="smi:local/f0cc72a0-a70c-42d0-826f-b109afaf4dcb">
        <time>
          <value>2012-10-01T12:31:20.822000Z</value>
        </time>
        <latitude>
          <value>35.655656</value>
        </latitude>
        <longitude>
          <value>-98.260835</value>
        </longitude>
        <depth>
          <value>5.238902</value>
        </depth>
      </origin>
      <pick publicID="smi:local/a2c2166a-80de-4b92-803d-d57a6410dea1">
        <time>
          <value>2012-10-01T12:31:22.500000Z</value>
        </time>
        <waveformID networkCode="JP" stationCode="ST10" locationCode="00" channelCode="HHZ"></waveformID>
        <phaseHint>P</phaseHint>
      </pick>
      <pick publicID="smi:local/02c163fd-3122-4bc8-933a-199ce7471087">
        <time>
          <value>2012-10-01T12:31:23.900000Z</value>
        </time>
        <waveformID networkCode="JP" stationCode="ST11" locationCode="00" channelCode="HHN"></waveformID>
        <phaseHint>S</phaseHint>
      </pick>
      <pick publicID="smi:local/851f0d40-8d68-487e-bce8-4223ef240d96">
        <time>
          <value>2012-10-01T12:31:22.990000Z</value>
        </time>
        <waveformID networkCode="JP" stationCode="ST11" locationCode="00" channelCode="HHZ"></waveformID>
        <phaseHint>P</phaseHint>
      </pick>
      <pick publicID="smi:local/fb13f706-43e1-4606-a44c-3de899be51f9">
        <time>
          <value>2012-10-01T12:31:23.920000Z</value>
        </time>
        <waveformID networkCode="JP" stationCode="ST12" locationCode="00" channelCode="HHN"></waveformID>
        <phaseHint>S</phaseHint>
      </pick>
      <pick publicID="smi:local/f27a867e-d5d7-4a0f-9669-a68d80f5e35b">
        <time>
          <value>2012-10-01T12:31:22.710000Z</value>
        </time>
        <waveformID networkCode="JP" stationCode="ST12" locationCode="00" channelCode="HHZ"></waveformID>
        <phaseHint>P</phaseHint>
      </pick>
      <pick publicID="smi:local/ae5e1b69-f535-4e0d-85c6-d72f61e7b722">
        <time>
          <value>2012-10-01T12:31:24.340000Z</value>
        </time>
        <waveformID networkCode="JP" stationCode="ST13" locationCode="00" channelCode="HHN"></waveformID>
        <phaseHint>S</phaseHint>
      </pick>
      <pick publicID="smi:local/d0bc9e99-11c5-4b0f-8d60-b6bf43591cea">
        <time>
          <value>2012-10-01T12:31:22.530000Z</value>
        </time>
        <waveformID networkCode="JP" stationCode="ST13" locationCode="00" channelCode="HHZ"></waveformID>
        <phaseHint>P</phaseHint>
      </pick>
      <pick publicID="smi:local/40177016-8c27-43b0-9de2-29ff229438b2">
        <time>
          <value>2012-10-01T12:31:22.550000Z</value>
        </time>
        <waveformID networkCode="JP" stationCode="ST14" locationCode="00" channelCode="HHZ"></waveformID>
        <phaseHint>P</phaseHint>
      </pick>
      <pick publicID="smi:local/c7f1c170-2d40-4bb0-8227-a3a2a14dd7b3">
        <time>
          <value>2012-10-01T12:31:22.790000Z</value>
        </time>
        <waveformID networkCode="JP" stationCode="ST15" locationCode="00" channelCode="HHZ"></waveformID>
        <phaseHint>P</phaseHint>
      </pick>
    </event>
    <event publicID="smi:local/2012_09_15t09_06_20_20120915T090620.270000">
      <comment id="smi:local/867f98b4-6997-4bb7-bc53-041dcdde2ff8">
        <text>Template: 2012_09_15t09_06_20</text>
      </comment>
      <comment id="smi:local/4dad7a73-df0f-4997-a08c-f7e3f62fa270">
        <text>threshold=3.5</text>
      </comment>
      <comment id="smi:local/45af8723-085b-49eb-9439-8cb0109b083e">
        <text>detect_val=4.999999046325684</text>
      </comment>
      <comment id="smi:local/0168145d-7001-465b-ab2f-9d6e5c49e14f">
        <text>channels used: ('ST10', 'HHN') ('ST10', 'HHZ') ('ST11', 'HHN') ('ST11', 'HHZ') ('ST12', 'HHN')</text>
      </comment>
      <comment id="smi:local/0c8dd227-dacd-47e6-9576-50eb59612006">
        <text>FI=None</text>
      </comment>
      <comment id="smi:local/69f439c2-638a-4c81-89fd-84bc058ba501">
        <text>FI=None</text>
      </comment>
      <creationInfo>
        <author>EQcorrscan</author>
        <creationTime>2023-07-14T11:31:17.121185Z</creationTime>
      </creationInfo>
      <origin publicID="smi:local/1b5fa537-12ad-452f-a5c6-06723af44c7c">
        <time>
          <value>2012-09-15T09:06:19.488000Z</value>
        </time>
        <latitude>
          <value>35.653443</value>
        </latitude>
        <longitude>
          <value>-98.259189</value>
        </longitude>
        <depth>
          <value>5.961583</value>
        </depth>
      </origin>
      <pick publicID="smi:local/3e24a54a-24b7-4590-b448-fdd174728a46">
        <time>
          <value>2012-09-15T09:06:22.630000Z</value>
        </time>
        <waveformID networkCode="JP" stationCode="ST10" locationCode="00" channelCode="HHN"></waveformID>
        <phaseHint>S</phaseHint>
      </pick>
      <pick publicID="smi:local/c612fa0f-64b2-4268-81a4-fd74f480845a">
        <time>
          <value>2012-09-15T09:06:21.270000Z</value>
        </time>
        <waveformID networkCode="JP" stationCode="ST10" locationCode="00" channelCode="HHZ"></waveformID>
        <phaseHint>P</phaseHint>
      </pick>
      <pick publicID="smi:local/fd83cf04-d81e-4d9e-91cd-606730064ebc">
        <time>
          <value>2012-09-15T09:06:23.450000Z</value>
        </time>
        <waveformID networkCode="JP" stationCode="ST11" locationCode="00" channelCode="HHN"></waveformID>
        <phaseHint>S</phaseHint>
      </pick>
      <pick publicID="smi:local/14a72dce-792c-4879-a44d-18c246aecbd8">
        <time>
          <value>2012-09-15T09:06:21.500000Z</value>
        </time>
        <waveformID networkCode="JP" stationCode="ST11" locationCode="00" channelCode="HHZ"></waveformID>
        <phaseHint>P</phaseHint>
      </pick>
      <pick publicID="smi:local/c9382c2f-3728-47c8-82f2-06510da614f2">
        <time>
          <value>2012-09-15T09:06:22.990000Z</value>
        </time>
        <waveformID networkCode="JP" stationCode="ST12" locationCode="00" channelCode="HHN"></waveformID>
        <phaseHint>S</phaseHint>
      </pick>
    </event>
    <event publicID="smi:local/2012_09_15t22_01_48_20120915T220148.960000">
      <comment id="smi:local/a6035953-a117-4dd8-af24-0d30bd5f9081">
        <text>Template: 2012_09_15t22_01_48</text>
      </comment>
      <comment id="smi:local/cdb627a8-bab9-42de-9c6d-c29bc50f3b8f">
        <text>threshold=5.599999904632568</text>
      </comment>
      <comment id="smi:local/d471fb7c-de1c-46a1-926c-481de44d8837">
        <text>detect_val=7.999999046325684</text>
      </comment>
      <comment id="smi:local/1a4956bc-4719-4125-8678-f52c8c68e6b2">
        <text>channels used: ('ST10', 'HHN') ('ST10', 'HHZ') ('ST12', 'HHN') ('ST12', 'HHZ') ('ST13', 'HHN') ('ST13', 'HHZ') ('ST14', 'HHN') ('ST14', 'HHZ')</text>
      </comment>
      <comment id="smi:local/7cf1101b-3932-415f-ba04-4fcca02887a2">
        <text>FI=0.59563</text>
      </comment>
      <comment id="smi:local/12c4a590-8f61-4a65-b7aa-89d0a51b6a18">
        <text>FI=0.59563</text>
      </comment>
      <creationInfo>
        <author>EQcorrscan</author>
        <creationTime>2023-07-14T11:31:17.042303Z</creationTime>
      </creationInfo>
      <origin publicID="smi:local/fd5fd4c9-f52e-4d37-97d7-9ee4d22e8a7d">
        <time>
          <value>2012-09-15T22:01:48.261000Z</value>
        </time>
        <latitude>
          <value>35.652417</value>
        </latitude>
        <longitude>
          <value>-98.26104</value>
        </longitude>
        <depth>
          <value>5.198669</value>
        </depth>
      </origin>
      <pick publicID="smi:local/4154345a-a39f-4860-97a0-ffc9b190da6e">
        <time>
          <value>2012-09-15T22:01:51.250000Z</value>
        </time>
        <waveformID networkCode="JP" stationCode="ST10" locationCode="00" channelCode="HHN"></waveformID>
        <phaseHint>S</phaseHint>
      </pick>
      <pick publicID="smi:local/6b798cd2-f3c0-40a7-b7d9-742ce226541c">
        <time>
          <value>2012-09-15T22:01:49.960000Z</value>
        </time>
        <waveformID networkCode="JP" stationCode="ST10" locationCode="00" channelCode="HHZ"></waveformID>
        <phaseHint>P</phaseHint>
      </pick>
      <pick publicID="smi:local/7fd80e9f-f949-4451-af7e-f4f4086dfe6c">
        <time>
          <value>2012-09-15T22:01:51.600000Z</value>
        </time>
        <waveformID networkCode="JP" stationCode="ST12" locationCode="00" channelCode="HHN"></waveformID>
        <phaseHint>S</phaseHint>
      </pick>
      <pick publicID="smi:local/d84d404c-5fb8-4261-97e2-aa95865234e7">
        <time>
          <value>2012-09-15T22:01:50.490000Z</value>
        </time>
        <waveformID networkCode="JP" stationCode="ST12" locationCode="00" channelCode="HHZ"></waveformID>
        <phaseHint>P</phaseHint>
      </pick>
      <pick publicID="smi:local/37d4e82e-b05a-439c-b866-30c6c595f984">
        <time>
          <value>2012-09-15T22:01:51.390000Z</value>
        </time>
        <waveformID networkCode="JP" stationCode="ST13" locationCode="00" channelCode="HHN"></waveformID>
        <phaseHint>S</phaseHint>
      </pick>
      <pick publicID="smi:local/783e4300-fbfb-4ac7-a31d-820df2ac9b1a">
        <time>
          <value>2012-09-15T22:01:50.020000Z</value>
        </time>
        <waveformID networkCode="JP" stationCode="ST13" locationCode="00" channelCode="HHZ"></waveformID>
        <phaseHint>P</phaseHint>
      </pick>
      <pick publicID="smi:local/ec2c77bf-4e49-4bb5-b2e9-b04356f01f8e">
        <time>
          <value>2012-09-15T22:01:51.430000Z</value>
        </time>
        <waveformID networkCode="JP" stationCode="ST14" locationCode="00" channelCode="HHN"></waveformID>
        <phaseHint>S</phaseHint>
      </pick>
      <pick publicID="smi:local/34516c50-0f4a-457c-8cea-fb0e1d1fe82e">
        <time>
          <value>2012-09-15T22:01:50.040000Z</value>
        </time>
        <waveformID networkCode="JP" stationCode="ST14" locationCode="00" channelCode="HHZ"></waveformID>
        <phaseHint>P</phaseHint>
      </pick>
    </event>
    <event publicID="smi:local/2012_09_15t22_01_48_20120915T105435.940000">
      <comment id="smi:local/a719f6bf-aa11-4464-93ed-c6e1768855ef">
        <text>Template: 2012_09_15t22_01_48</text>
      </comment>
      <comment id="smi:local/bae3c633-cac0-46a3-abcf-c9ecaf082bc2">
        <text>threshold=5.599999904632568</text>
      </comment>
      <comment id="smi:local/6916c889-addf-44d7-9784-3bbf2b492d0c">
        <text>detect_val=6.44650411605835</text>
      </comment>
      <comment id="smi:local/9c066683-7cc0-491d-8200-db3fb64e0fe7">
        <text>channels used: ('ST10', 'HHN') ('ST10', 'HHZ') ('ST12', 'HHN') ('ST12', 'HHZ') ('ST13', 'HHN') ('ST13', 'HHZ') ('ST14', 'HHN') ('ST14', 'HHZ')</text>
      </comment>
      <comment id="smi:local/69ce7dd5-89fe-4129-8415-f417b2f9f2fb">
        <text>FI=0.91601</text>
      </comment>
      <comment id="smi:local/6750b9e7-5099-4397-9002-65125b896bbb">
        <text>FI=0.91601</text>
      </comment>
      <creationInfo>
        <author>EQcorrscan</author>
        <creationTime>2023-07-14T11:31:17.039256Z</creationTime>
      </creationInfo>
      <origin publicID="smi:local/2c7d196b-3624-4158-9c54-49e98cc32415">
        <time>
          <value>2012-09-15T10:54:35.241000Z</value>
        </time>
        <latitude>
          <value>35.652417</value>
        </latitude>
        <longitude>
          <value>-98.26104</value>
        </longitude>
        <depth>
          <value>5.198669</value>
        </depth>
      </origin>
      <pick publicID="smi:local/0a8bd9c0-dd61-424a-be93-cdf85c6e275c">
        <time>
          <value>2012-09-15T10:54:38.230000Z</value>
        </time>
        <waveformID networkCode="JP" stationCode="ST10" locationCode="00" channelCode="HHN"></waveformID>
        <phaseHint>S</phaseHint>
      </pick>
      <pick publicID="smi:local/db2c20df-1853-44b1-aebf-82d34495fa59">
        <time>
          <value>2012-09-15T10:54:36.940000Z</value>
        </time>
        <waveformID networkCode="JP" stationCode="ST10" locationCode="00" channelCode="HHZ"></waveformID>
        <phaseHint>P</phaseHint>
      </pick>
      <pick publicID="smi:local/f6d88083-25fb-4101-882c-48cb4ee5b9e0">
        <time>
          <value>2012-09-15T10:54:38.580000Z</value>
        </time>
        <waveformID networkCode="JP" stationCode="ST12" locationCode="00" channelCode="HHN"></waveformID>
        <phaseHint>S</phaseHint>
      </pick>
      <pick publicID="smi:local/6e2305e3-5e3a-4b9e-ac37-20b5735c5838">
        <time>
          <value>2012-09-15T10:54:37.470000Z</value>
        </time>
        <waveformID networkCode="JP" stationCode="ST12" locationCode="00" channelCode="HHZ"></waveformID>
        <phaseHint>P</phaseHint>
      </pick>
      <pick publicID="smi:local/4c546d3f-beee-4e51-b167-ec3411af458a">
        <time>
          <value>2012-09-15T10:54:38.370000Z</value>
        </time>
        <waveformID networkCode="JP" stationCode="ST13" locationCode="00" channelCode="HHN"></waveformID>
        <phaseHint>S</phaseHint>
      </pick>
      <pick publicID="smi:local/10be9107-c637-45fc-a2e3-dba122adc657">
        <time>
          <value>2012-09-15T10:54:37.000000Z</value>
        </time>
        <waveformID networkCode="JP" stationCode="ST13" locationCode="00" channelCode="HHZ"></waveformID>
        <phaseHint>P</phaseHint>
      </pick>
      <pick publicID="smi:local/7e2bb47e-b426-4171-8474-9b171466e8c3">
        <time>
          <value>2012-09-15T10:54:38.410000Z</value>
        </time>
        <waveformID networkCode="JP" stationCode="ST14" locationCode="00" channelCode="HHN"></waveformID>
        <phaseHint>S</phaseHint>
      </pick>
      <pick publicID="smi:local/8da8cf0a-cdab-4fdd-a8d9-445030615ec1">
        <time>
          <value>2012-09-15T10:54:37.020000Z</value>
        </time>
        <waveformID networkCode="JP" stationCode="ST14" locationCode="00" channelCode="HHZ"></waveformID>
        <phaseHint>P</phaseHint>
      </pick>
    </event>
    <event publicID="smi:local/2012_09_15t22_01_48_20120915T142609.200000">
      <comment id="smi:local/1ca3aba0-4ff7-4b14-8c97-a6f13be1ba7c">
        <text>Template: 2012_09_15t22_01_48</text>
      </comment>
      <comment id="smi:local/9b3e4382-7a5d-477c-b17f-0057293838e4">
        <text>threshold=5.599999904632568</text>
      </comment>
      <comment id="smi:local/9e9e4f86-4bba-42f8-8024-e9fc8eac03e6">
        <text>detect_val=6.409247875213623</text>
      </comment>
      <comment id="smi:local/c3cb991f-7602-4a64-abe7-883b5c51b61e">
        <text>channels used: ('ST10', 'HHN') ('ST10', 'HHZ') ('ST12', 'HHN') ('ST12', 'HHZ') ('ST13', 'HHN') ('ST13', 'HHZ') ('ST14', 'HHN') ('ST14', 'HHZ')</text>
      </comment>
      <comment id="smi:local/48e94978-5117-4fa7-8cdf-a1ba64a11db9">
        <text>FI=0.83108</text>
      </comment>
      <comment id="smi:local/5a861d91-f028-4a00-acb2-a16e1580f857">
        <text>FI=0.83108</text>
      </comment>
      <creationInfo>
        <author>EQcorrscan</author>
        <creationTime>2023-07-14T11:31:17.040526Z</creationTime>
      </creationInfo>
      <origin publicID="smi:local/d402c293-1473-4e3d-97c8-5607487cd2f5">
        <time>
