<?xml version='1.0' encoding='utf-8'?>
<q:quakeml xmlns="http://quakeml.org/xmlns/bed/1.2" xmlns:q="http://quakeml.org/xmlns/quakeml/1.2">
  <eventParameters publicID="smi:local/ff372f6f-7f96-4e20-a33d-ada569a818d3">
    <event publicID="smi:local/f758f67f-ec9c-4d77-8dbc-0f47bb783f43">
      <origin publicID="smi:local/94ce08f0-c33b-4ce9-8705-86a274ee5360">
        <time>
          <value>2005-05-11T08:15:15.180000Z</value>
        </time>
        <latitude/>
        <longitude/>
        <comment id="smi:local/86556f60-6905-4df2-b7fc-65bab73721af">
          <text>CLUSTER 0 CORE EVENT; NOT IN PEC</text>
        </comment>
      </origin>
      <pick publicID="smi:local/5b0fb027-5816-421e-9e13-425eecf76e99">
        <time>
          <value>2005-05-11T08:15:14.750000Z</value>
        </time>
        <waveformID networkCode="AV" stationCode="AUE" locationCode="" channelCode="EHZ"></waveformID>
        <phaseHint>P</phaseHint>
        <comment id="smi:local/83f25950-b3d6-490a-a8e5-8011f0dd105a">
          <text>DERIVED FROM REDPY STA/LTA</text>
        </comment>
      </pick>
      <pick publicID="smi:local/359c42ba-b6c1-41cd-a959-561741845a53">
        <time>
          <value>2005-05-11T08:15:15.380000Z</value>
        </time>
        <waveformID networkCode="AV" stationCode="AUI" locationCode="" channelCode="EHZ"></waveformID>
        <phaseHint>P</phaseHint>
        <comment id="smi:local/a59bca2e-3f41-41f4-8efd-583165a187b4">
          <text>DERIVED FROM REDPY STA/LTA</text>
        </comment>
      </pick>
      <pick publicID="smi:local/c957f777-27b4-4aa7-82a6-155a471101cf">
        <time>
          <value>2005-05-11T08:15:15.220000Z</value>
        </time>
        <waveformID networkCode="AV" stationCode="AUP" locationCode="" channelCode="EHZ"></waveformID>
        <phaseHint>P</phaseHint>
        <comment id="smi:local/93fc782d-ed6e-4d69-918c-45388363ca5a">
          <text>DERIVED FROM REDPY STA/LTA</text>
        </comment>
      </pick>
      <pick publicID="smi:local/08cd569a-d07b-4497-9f44-9ed10c8ae625">
        <time>
          <value>2005-05-11T08:15:15.310000Z</value>
        </time>
        <waveformID networkCode="AV" stationCode="AUS" locationCode="" channelCode="EHZ"></waveformID>
        <phaseHint>P</phaseHint>
        <comment id="smi:local/881d661a-2793-405f-98c1-84e1b8004bf4">
          <text>DERIVED FROM REDPY STA/LTA</text>
        </comment>
      </pick>
      <pick publicID="smi:local/265cb600-ff28-4584-bb45-9f5e68804625">
        <time>
          <value>2005-05-11T08:15:15.550000Z</value>
        </time>
        <waveformID networkCode="AV" stationCode="AUW" locationCode="" channelCode="EHZ"></waveformID>
        <phaseHint>P</phaseHint>
        <comment id="smi:local/775c07d4-3645-46bb-a023-d1375c59429c">
          <text>DERIVED FROM REDPY STA/LTA</text>
        </comment>
      </pick>
    </event>
    <event publicID="smi:local/4cc2d46a-cdd5-46ae-bfe0-d3950c6b323c">
      <origin publicID="smi:local/d5263918-5f7a-46e3-93e3-554f41e69b57">
        <time>
          <value>2005-05-09T02:45:21.740000Z</value>
        </time>
        <latitude/>
        <longitude/>
        <comment id="smi:local/63ebfc81-0f97-4e5b-b40b-2f43f4add77e">
          <text>CLUSTER 1 CORE EVENT; NOT IN PEC</text>
        </comment>
      </origin>
      <pick publicID="smi:local/512bd3c7-6e76-4eeb-8946-c099a1384cb7">
        <time>
          <value>2005-05-09T02:45:23.280000Z</value>
        </time>
        <waveformID networkCode="AV" stationCode="AUH" locationCode="" channelCode="EHZ"></waveformID>
        <phaseHint>P</phaseHint>
        <comment id="smi:local/fc04b3c2-0455-4c80-8382-93a15fc82ef6">
          <text>DERIVED FROM REDPY STA/LTA</text>
        </comment>
      </pick>
      <pick publicID="smi:local/d63d5489-9140-45eb-8d28-6aacaa5f1709">
        <time>
          <value>2005-05-09T02:45:21.750000Z</value>
        </time>
        <waveformID networkCode="AV" stationCode="AUP" locationCode="" channelCode="EHZ"></waveformID>
        <phaseHint>P</phaseHint>
        <comment id="smi:local/fbfe2de9-5315-47f9-827f-4223ede974e6">
          <text>DERIVED FROM REDPY STA/LTA</text>
        </comment>
      </pick>
      <pick publicID="smi:local/eb649da5-8929-4120-836c-d260215d8d3a">
        <time>
          <value>2005-05-09T02:45:21.730000Z</value>
        </time>
        <waveformID networkCode="AV" stationCode="AUS" locationCode="" channelCode="EHZ"></waveformID>
        <phaseHint>P</phaseHint>
        <comment id="smi:local/40887fce-f88a-42c4-9ba5-d474a0842bbb">
          <text>DERIVED FROM REDPY STA/LTA</text>
        </comment>
      </pick>
      <pick publicID="smi:local/837593ad-1540-4fc2-bbfc-3ce1f3508eda">
        <time>
          <value>2005-05-09T02:45:22.960000Z</value>
        </time>
        <waveformID networkCode="AV" stationCode="AUW" locationCode="" channelCode="EHZ"></waveformID>
        <phaseHint>P</phaseHint>
        <comment id="smi:local/bc13c1f5-7e50-44f8-a329-fc2feee6e08a">
          <text>DERIVED FROM REDPY STA/LTA</text>
        </comment>
      </pick>
    </event>
    <event publicID="smi:local/event/61029178">
      <preferredOriginID>smi:local/origin/61029178</preferredOriginID>
      <preferredMagnitudeID>smi:local/magnitude/61029178</preferredMagnitudeID>
      <origin publicID="smi:local/origin/61029178">
        <time>
          <value>2005-05-10T02:41:45.360000Z</value>
        </time>
        <latitude>
          <value>59.3585</value>
        </latitude>
        <longitude>
          <value>-153.4275</value>
        </longitude>
        <depth>
          <value>-0.12</value>
        </depth>
        <quality>
          <standardError>0.04</standardError>
        </quality>
        <comment id="smi:local/a9c2ea6c-9871-4d0a-9d64-8bbc0131d47b">
          <text>CLUSTER 2 CORE EVENT; IN PEC, REDPY DETECTION TIME = 2005-05-10T02:41:45.870000Z</text>
        </comment>
        <arrival publicID="smi:local/b0ca5023-ffbc-4bd2-a399-54ddb9dbaf3e">
          <pickID>smi:local/None</pickID>
          <phase>P</phase>
          <azimuth>63.0</azimuth>
          <distance>3.2</distance>
          <takeoffAngle>
            <value>49.0</value>
          </takeoffAngle>
          <timeResidual>0.07</timeResidual>
          <timeWeight>-1.0</timeWeight>
        </arrival>
        <arrival publicID="smi:local/e56001db-4a15-45b9-b737-94e88a109fdc">
          <pickID>smi:local/None</pickID>
          <phase>S</phase>
          <azimuth>182.0</azimuth>
          <distance>2.7</distance>
          <takeoffAngle>
            <value>49.0</value>
          </takeoffAngle>
          <timeResidual>-0.04</timeResidual>
          <timeWeight>-1.0</timeWeight>
        </arrival>
        <arrival publicID="smi:local/2820cf82-dfb6-4281-b91b-f97c50d48c53">
          <pickID>smi:local/None</pickID>
          <phase>P</phase>
          <azimuth>182.0</azimuth>
          <distance>2.7</distance>
          <takeoffAngle>
            <value>49.0</value>
          </takeoffAngle>
          <timeResidual>-0.01</timeResidual>
          <timeWeight>1.0</timeWeight>
        </arrival>
        <arrival publicID="smi:local/b0b513d0-924a-430e-a61a-105ecf152714">
          <pickID>smi:local/None</pickID>
          <phase>S</phase>
          <azimuth>347.0</azimuth>
          <distance>2.6</distance>
          <takeoffAngle>
            <value>49.0</value>
          </takeoffAngle>
          <timeResidual>0.0</timeResidual>
          <timeWeight>1.0</timeWeight>
        </arrival>
        <arrival publicID="smi:local/c37d6e94-8081-49d2-842e-cb4a814fc12d">
          <pickID>smi:local/None</pickID>
          <phase>P</phase>
          <azimuth>347.0</azimuth>
          <distance>2.6</distance>
          <takeoffAngle>
            <value>49.0</value>
          </takeoffAngle>
          <timeResidual>-0.02</timeResidual>
          <timeWeight>1.0</timeWeight>
        </arrival>
        <arrival publicID="smi:local/d12c0c50-026e-4f49-bda8-1c7255247e7d">
          <pickID>smi:local/None</pickID>
          <phase>P</phase>
          <azimuth>30.0</azimuth>
          <distance>0.5</distance>
          <takeoffAngle>
            <value>147.0</value>
          </takeoffAngle>
          <timeResidual>0.06</timeResidual>
          <timeWeight>1.0</timeWeight>
        </arrival>
        <arrival publicID="smi:local/bf13771d-df01-4755-86e4-68ff0c099e9a">
          <pickID>smi:local/None</pickID>
          <phase>P</phase>
          <azimuth>319.0</azimuth>
          <distance>0.5</distance>
          <takeoffAngle>
            <value>151.0</value>
          </takeoffAngle>
          <timeResidual>0.02</timeResidual>
          <timeWeight>1.0</timeWeight>
        </arrival>
        <arrival publicID="smi:local/fadc8ef7-fb90-4ed8-b11b-138b1a45cc75">
          <pickID>smi:local/None</pickID>
          <phase>P</phase>
          <azimuth>286.0</azimuth>
          <distance>0.30000000000000004</distance>
          <takeoffAngle>
            <value>162.0</value>
          </takeoffAngle>
          <timeResidual>0.03</timeResidual>
          <timeWeight>1.0</timeWeight>
        </arrival>
        <arrival publicID="smi:local/301d9c91-ad53-495b-ab41-e87f5f4f842f">
          <pickID>smi:local/None</pickID>
          <phase>P</phase>
          <azimuth>295.0</azimuth>
          <distance>2.8000000000000003</distance>
          <takeoffAngle>
            <value>49.0</value>
          </takeoffAngle>
          <timeResidual>0.0</timeResidual>
          <timeWeight>1.0</timeWeight>
        </arrival>
      </origin>
      <magnitude publicID="smi:local/magnitude/61029178">
        <mag>
          <value>-0.6</value>
        </mag>
      </magnitude>
      <pick publicID="smi:local/4e293b26-0e96-49b5-9c12-27c0233f02d7">
        <time>
          <value>2005-05-10T02:41:46.430000Z</value>
        </time>
        <waveformID networkCode="AV" stationCode="AUE" locationCode="" channelCode="EHZ"></waveformID>
        <phaseHint>P</phaseHint>
      </pick>
      <pick publicID="smi:local/5c94657b-f816-4f82-93b7-7928ccf37779">
        <time>
          <value>2005-05-10T02:41:46.890000Z</value>
        </time>
        <waveformID networkCode="AV" stationCode="AUI" locationCode="" channelCode="EHN"></waveformID>
        <phaseHint>S</phaseHint>
      </pick>
      <pick publicID="smi:local/3191bb6e-2f7d-4f9a-9ede-ba78dd1b0f4e">
        <time>
          <value>2005-05-10T02:41:46.230000Z</value>
        </time>
        <waveformID networkCode="AV" stationCode="AUI" locationCode="" channelCode="EHZ"></waveformID>
        <phaseHint>P</phaseHint>
      </pick>
      <pick publicID="smi:local/8aa6c4aa-a356-493b-a274-a2b59f2e1276">
        <time>
          <value>2005-05-10T02:41:46.940000Z</value>
        </time>
        <waveformID networkCode="AV" stationCode="AUL" locationCode="" channelCode="BHN"></waveformID>
        <phaseHint>S</phaseHint>
      </pick>
      <pick publicID="smi:local/c9c90640-2c33-467c-84df-b6a1172f412c">
        <time>
          <value>2005-05-10T02:41:46.230000Z</value>
        </time>
        <waveformID networkCode="AV" stationCode="AUL" locationCode="" channelCode="BHZ"></waveformID>
        <phaseHint>P</phaseHint>
      </pick>
      <pick publicID="smi:local/179bfecb-afd5-4148-bf13-f4cedc49ef71">
        <time>
          <value>2005-05-10T02:41:45.850000Z</value>
        </time>
        <waveformID networkCode="AV" stationCode="AUP" locationCode="" channelCode="EHZ"></waveformID>
        <phaseHint>P</phaseHint>
      </pick>
      <pick publicID="smi:local/d5e0e073-1061-4c0f-bbbc-bafc4c63100d">
        <time>
          <value>2005-05-10T02:41:45.890000Z</value>
        </time>
        <waveformID networkCode="AV" stationCode="AUR" locationCode="" channelCode="EHZ"></waveformID>
        <phaseHint>P</phaseHint>
      </pick>
      <pick publicID="smi:local/cf98e858-8f34-466d-8024-fec64424ef05">
        <time>
          <value>2005-05-10T02:41:45.870000Z</value>
        </time>
        <waveformID networkCode="AV" stationCode="AUS" locationCode="" channelCode="EHZ"></waveformID>
        <phaseHint>P</phaseHint>
      </pick>
      <pick publicID="smi:local/55b7f797-0d24-4cea-a79e-7ab9ecf793de">
        <time>
          <value>2005-05-10T02:41:46.290000Z</value>
        </time>
        <waveformID networkCode="AV" stationCode="AUW" locationCode="" channelCode="EHZ"></waveformID>
        <phaseHint>P</phaseHint>
      </pick>
    </event>
    <event publicID="smi:local/01e28598-79fd-4f08-82db-73390426b842">
      <origin publicID="smi:local/03379580-4ad5-4767-9eae-fe6473245658">
        <time>
          <value>2005-05-19T10:30:39.810000Z</value>
        </time>
        <latitude/>
        <longitude/>
        <comment id="smi:local/8b447bfc-4c08-46ac-b871-2ee05f09f370">
          <text>CLUSTER 3 CORE EVENT; NOT IN PEC</text>
        </comment>
      </origin>
      <pick publicID="smi:local/9ae117e7-c82f-4ac8-a173-7ba3d638aa32">
        <time>
          <value>2005-05-19T10:30:44.610000Z</value>
        </time>
        <waveformID networkCode="AV" stationCode="AUE" locationCode="" channelCode="EHZ"></waveformID>
        <phaseHint>P</phaseHint>
        <comment id="smi:local/fce98555-0f7c-45a2-992b-565774ddeea0">
          <text>DERIVED FROM REDPY STA/LTA</text>
        </comment>
      </pick>
      <pick publicID="smi:local/3b76bea3-cf1e-4afa-972c-a69e05aa3aa8">
        <time>
          <value>2005-05-19T10:30:41.170000Z</value>
        </time>
        <waveformID networkCode="AV" stationCode="AUH" locationCode="" channelCode="EHZ"></waveformID>
        <phaseHint>P</phaseHint>
        <comment id="smi:local/5bd2d25d-d9b4-44c8-a196-0fba56c3274d">
          <text>DERIVED FROM REDPY STA/LTA</text>
        </comment>
      </pick>
      <pick publicID="smi:local/285335d2-70e1-40cf-ba13-6a160487a246">
        <time>
          <value>2005-05-19T10:30:42.640000Z</value>
        </time>
        <waveformID networkCode="AV" stationCode="AUI" locationCode="" channelCode="EHZ"></waveformID>
        <phaseHint>P</phaseHint>
        <comment id="smi:local/38500a45-02f2-47c1-92cf-f539b3cee24b">
          <text>DERIVED FROM REDPY STA/LTA</text>
        </comment>
      </pick>
      <pick publicID="smi:local/80d06eed-1daf-47b9-a78c-f6c8ffdbbcdd">
        <time>
          <value>2005-05-19T10:30:40.770000Z</value>
        </time>
        <waveformID networkCode="AV" stationCode="AUP" locationCode="" channelCode="EHZ"></waveformID>
        <phaseHint>P</phaseHint>
        <comment id="smi:local/18cb86d9-ab54-49e3-8ae0-9fedfea478f1">
          <text>DERIVED FROM REDPY STA/LTA</text>
        </comment>
      </pick>
      <pick publicID="smi:local/73311190-d047-4b4a-ba4b-59ae70c77a2c">
        <time>
          <value>2005-05-19T10:30:40.990000Z</value>
        </time>
        <waveformID networkCode="AV" stationCode="AUS" locationCode="" channelCode="EHZ"></waveformID>
        <phaseHint>P</phaseHint>
        <comment id="smi:local/6e102cbc-9ea2-4795-80da-374a6d688b91">
          <text>DERIVED FROM REDPY STA/LTA</text>
        </comment>
      </pick>
      <pick publicID="smi:local/6193435a-1168-4532-8058-04654aa6e28f">
        <time>
          <value>2005-05-19T10:30:42.050000Z</value>
        </time>
        <waveformID networkCode="AV" stationCode="AUW" locationCode="" channelCode="EHZ"></waveformID>
        <phaseHint>P</phaseHint>
        <comment id="smi:local/1e03b219-026d-4881-a653-c1882342f013">
          <text>DERIVED FROM REDPY STA/LTA</text>
        </comment>
      </pick>
    </event>
    <event publicID="smi:local/55c55924-1b3c-454c-bfcc-c8c4c984bbaa">
      <origin publicID="smi:local/36a440c0-7da5-41f9-9bf6-739bd189149c">
        <time>
          <value>2005-05-20T12:40:23.810000Z</value>
        </time>
        <latitude/>
        <longitude/>
        <comment id="smi:local/4613f837-3748-4200-961e-612be7de4273">
          <text>CLUSTER 4 CORE EVENT; NOT IN PEC</text>
        </comment>
      </origin>
      <pick publicID="smi:local/aff0abd8-6ce8-4535-a103-e23dea63313f">
        <time>
          <value>2005-05-20T12:40:23.610000Z</value>
        </time>
        <waveformID networkCode="AV" stationCode="AUE" locationCode="" channelCode="EHZ"></waveformID>
        <phaseHint>P</phaseHint>
        <comment id="smi:local/56347585-3202-4dc9-94db-586017f83f2b">
          <text>DERIVED FROM REDPY STA/LTA</text>
        </comment>
      </pick>
      <pick publicID="smi:local/db593bff-4f7e-4c68-8e70-693ee6fbd3ab">
        <time>
          <value>2005-05-20T12:40:24.100000Z</value>
        </time>
        <waveformID networkCode="AV" stationCode="AUH" locationCode="" channelCode="EHZ"></waveformID>
        <phaseHint>P</phaseHint>
        <comment id="smi:local/3e262b12-c9c9-4cc2-9f6a-fa9e3dd4ba26">
          <text>DERIVED FROM REDPY STA/LTA</text>
        </comment>
      </pick>
      <pick publicID="smi:local/9e3760bf-089f-4da2-95cc-4a0d38133b91">
        <time>
          <value>2005-05-20T12:40:23.860000Z</value>
        </time>
        <waveformID networkCode="AV" stationCode="AUI" locationCode="" channelCode="EHZ"></waveformID>
        <phaseHint>P</phaseHint>
        <comment id="smi:local/249b0b21-812d-4216-ba92-98e598b1920e">
          <text>DERIVED FROM REDPY STA/LTA</text>
        </comment>
      </pick>
      <pick publicID="smi:local/f6d9a7a6-3b16-4de7-a333-e86ed043ceae">
        <time>
          <value>2005-05-20T12:40:23.830000Z</value>
        </time>
        <waveformID networkCode="AV" stationCode="AUP" locationCode="" channelCode="EHZ"></waveformID>
        <phaseHint>P</phaseHint>
        <comment id="smi:local/ab81deb5-8a22-4a0d-8a49-c2ac85b89e41">
          <text>DERIVED FROM REDPY STA/LTA</text>
        </comment>
      </pick>
      <pick publicID="smi:local/8339bf11-8f8d-4a8f-8d19-68ab3420eb3e">
        <time>
          <value>2005-05-20T12:40:23.920000Z</value>
        </time>
        <waveformID networkCode="AV" stationCode="AUS" locationCode="" channelCode="EHZ"></waveformID>
        <phaseHint>P</phaseHint>
        <comment id="smi:local/e4f3749b-09e2-4ef3-aae3-616fb0a16b40">
          <text>DERIVED FROM REDPY STA/LTA</text>
        </comment>
      </pick>
      <pick publicID="smi:local/74be4bd3-ba31-40cc-8205-ef3490b3c77f">
        <time>
          <value>2005-05-20T12:40:24.100000Z</value>
        </time>
        <waveformID networkCode="AV" stationCode="AUW" locationCode="" channelCode="EHZ"></waveformID>
        <phaseHint>P</phaseHint>
        <comment id="smi:local/12cdb881-9988-4bea-90f7-167bbf059721">
          <text>DERIVED FROM REDPY STA/LTA</text>
        </comment>
      </pick>
    </event>
    <event publicID="smi:local/32fe1c77-fe37-4481-83bb-de244f6e298a">
      <origin publicID="smi:local/cc042bdb-e5e7-445e-8f3f-61f1cbfc28f8">
        <time>
          <value>2005-05-26T12:06:14.600000Z</value>
        </time>
        <latitude/>
        <longitude/>
        <comment id="smi:local/48cb9091-8bab-4118-a70d-8de51c6033fd">
          <text>CLUSTER 5 CORE EVENT; NOT IN PEC</text>
        </comment>
      </origin>
      <pick publicID="smi:local/27fc5666-dbd2-4a79-96bd-07b7b9e4b2ea">
        <time>
          <value>2005-05-26T12:06:15.700000Z</value>
        </time>
        <waveformID networkCode="AV" stationCode="AUE" locationCode="" channelCode="EHZ"></waveformID>
        <phaseHint>P</phaseHint>
      </pick>
      <pick publicID="smi:local/009fea1f-18d3-4f85-ab58-3cc4a6e2c6d1">
        <time>
          <value>2005-05-26T12:06:14.860000Z</value>
        </time>
        <waveformID networkCode="AV" stationCode="AUH" locationCode="" channelCode="EHZ"></waveformID>
        <phaseHint>P</phaseHint>
      </pick>
      <pick publicID="smi:local/5db62e6f-1b42-4c14-81ed-e58c84983729">
        <time>
          <value>2005-05-26T12:06:14.600000Z</value>
        </time>
        <waveformID networkCode="AV" stationCode="AUP" locationCode="" channelCode="EHZ"></waveformID>
