<?xml version='1.0' encoding='utf-8'?>
<q:quakeml xmlns="http://quakeml.org/xmlns/bed/1.2" xmlns:q="http://quakeml.org/xmlns/quakeml/1.2">
  <eventParameters publicID="smi:local/61e66bf1-e276-4378-b80f-faf7906bbb17">
    <event publicID="smi:local/f758f67f-ec9c-4d77-8dbc-0f47bb783f43">
      <origin publicID="smi:local/94ce08f0-c33b-4ce9-8705-86a274ee5360">
        <time>
          <value>2005-05-11T08:15:15.180000Z</value>
        </time>
        <latitude/>
        <longitude/>
        <comment id="smi:local/86556f60-6905-4df2-b7fc-65bab73721af">
          <text>CLUSTER 0 CORE EVENT; NOT IN PEC</text>
        </comment>
      </origin>
    </event>
    <event publicID="smi:local/4cc2d46a-cdd5-46ae-bfe0-d3950c6b323c">
      <origin publicID="smi:local/d5263918-5f7a-46e3-93e3-554f41e69b57">
        <time>
          <value>2005-05-09T02:45:21.740000Z</value>
        </time>
        <latitude/>
        <longitude/>
        <comment id="smi:local/63ebfc81-0f97-4e5b-b40b-2f43f4add77e">
          <text>CLUSTER 1 CORE EVENT; NOT IN PEC</text>
        </comment>
      </origin>
    </event>
    <event publicID="smi:local/event/61029178">
      <preferredOriginID>smi:local/origin/61029178</preferredOriginID>
      <preferredMagnitudeID>smi:local/magnitude/61029178</preferredMagnitudeID>
      <origin publicID="smi:local/origin/61029178">
        <time>
          <value>2005-05-10T02:41:45.360000Z</value>
        </time>
        <latitude>
          <value>59.3585</value>
        </latitude>
        <longitude>
          <value>-153.4275</value>
        </longitude>
        <depth>
          <value>-0.12</value>
        </depth>
        <quality>
          <standardError>0.04</standardError>
        </quality>
        <comment id="smi:local/a9c2ea6c-9871-4d0a-9d64-8bbc0131d47b">
          <text>CLUSTER 2 CORE EVENT; IN PEC, REDPY DETECTION TIME = 2005-05-10T02:41:45.870000Z</text>
        </comment>
        <arrival publicID="smi:local/b0ca5023-ffbc-4bd2-a399-54ddb9dbaf3e">
          <pickID>smi:local/None</pickID>
          <phase>P</phase>
          <azimuth>63.0</azimuth>
          <distance>3.2</distance>
          <takeoffAngle>
            <value>49.0</value>
          </takeoffAngle>
          <timeResidual>0.07</timeResidual>
          <timeWeight>-1.0</timeWeight>
        </arrival>
        <arrival publicID="smi:local/e56001db-4a15-45b9-b737-94e88a109fdc">
          <pickID>smi:local/None</pickID>
          <phase>S</phase>
          <azimuth>182.0</azimuth>
          <distance>2.7</distance>
          <takeoffAngle>
            <value>49.0</value>
          </takeoffAngle>
          <timeResidual>-0.04</timeResidual>
          <timeWeight>-1.0</timeWeight>
        </arrival>
        <arrival publicID="smi:local/2820cf82-dfb6-4281-b91b-f97c50d48c53">
          <pickID>smi:local/None</pickID>
          <phase>P</phase>
          <azimuth>182.0</azimuth>
          <distance>2.7</distance>
          <takeoffAngle>
            <value>49.0</value>
          </takeoffAngle>
          <timeResidual>-0.01</timeResidual>
          <timeWeight>1.0</timeWeight>
        </arrival>
        <arrival publicID="smi:local/b0b513d0-924a-430e-a61a-105ecf152714">
          <pickID>smi:local/None</pickID>
          <phase>S</phase>
          <azimuth>347.0</azimuth>
          <distance>2.6</distance>
          <takeoffAngle>
            <value>49.0</value>
          </takeoffAngle>
          <timeResidual>0.0</timeResidual>
          <timeWeight>1.0</timeWeight>
        </arrival>
        <arrival publicID="smi:local/c37d6e94-8081-49d2-842e-cb4a814fc12d">
          <pickID>smi:local/None</pickID>
          <phase>P</phase>
          <azimuth>347.0</azimuth>
          <distance>2.6</distance>
          <takeoffAngle>
            <value>49.0</value>
          </takeoffAngle>
          <timeResidual>-0.02</timeResidual>
          <timeWeight>1.0</timeWeight>
        </arrival>
        <arrival publicID="smi:local/d12c0c50-026e-4f49-bda8-1c7255247e7d">
          <pickID>smi:local/None</pickID>
          <phase>P</phase>
          <azimuth>30.0</azimuth>
          <distance>0.5</distance>
          <takeoffAngle>
            <value>147.0</value>
          </takeoffAngle>
          <timeResidual>0.06</timeResidual>
          <timeWeight>1.0</timeWeight>
        </arrival>
        <arrival publicID="smi:local/bf13771d-df01-4755-86e4-68ff0c099e9a">
          <pickID>smi:local/None</pickID>
          <phase>P</phase>
          <azimuth>319.0</azimuth>
          <distance>0.5</distance>
          <takeoffAngle>
            <value>151.0</value>
          </takeoffAngle>
          <timeResidual>0.02</timeResidual>
          <timeWeight>1.0</timeWeight>
        </arrival>
        <arrival publicID="smi:local/fadc8ef7-fb90-4ed8-b11b-138b1a45cc75">
          <pickID>smi:local/None</pickID>
          <phase>P</phase>
          <azimuth>286.0</azimuth>
          <distance>0.30000000000000004</distance>
          <takeoffAngle>
            <value>162.0</value>
          </takeoffAngle>
          <timeResidual>0.03</timeResidual>
          <timeWeight>1.0</timeWeight>
        </arrival>
        <arrival publicID="smi:local/301d9c91-ad53-495b-ab41-e87f5f4f842f">
          <pickID>smi:local/None</pickID>
          <phase>P</phase>
          <azimuth>295.0</azimuth>
          <distance>2.8000000000000003</distance>
          <takeoffAngle>
            <value>49.0</value>
          </takeoffAngle>
          <timeResidual>0.0</timeResidual>
          <timeWeight>1.0</timeWeight>
        </arrival>
      </origin>
      <magnitude publicID="smi:local/magnitude/61029178">
        <mag>
          <value>-0.6</value>
        </mag>
      </magnitude>
      <pick publicID="smi:local/4e293b26-0e96-49b5-9c12-27c0233f02d7">
        <time>
          <value>2005-05-10T02:41:46.430000Z</value>
        </time>
        <waveformID networkCode="AV" stationCode="AUE" locationCode="" channelCode="EHZ"></waveformID>
        <phaseHint>P</phaseHint>
      </pick>
      <pick publicID="smi:local/5c94657b-f816-4f82-93b7-7928ccf37779">
        <time>
          <value>2005-05-10T02:41:46.890000Z</value>
        </time>
        <waveformID networkCode="AV" stationCode="AUI" locationCode="" channelCode="EHN"></waveformID>
        <phaseHint>S</phaseHint>
      </pick>
      <pick publicID="smi:local/3191bb6e-2f7d-4f9a-9ede-ba78dd1b0f4e">
        <time>
          <value>2005-05-10T02:41:46.230000Z</value>
        </time>
        <waveformID networkCode="AV" stationCode="AUI" locationCode="" channelCode="EHZ"></waveformID>
        <phaseHint>P</phaseHint>
      </pick>
      <pick publicID="smi:local/8aa6c4aa-a356-493b-a274-a2b59f2e1276">
        <time>
          <value>2005-05-10T02:41:46.940000Z</value>
        </time>
        <waveformID networkCode="AV" stationCode="AUL" locationCode="" channelCode="BHN"></waveformID>
        <phaseHint>S</phaseHint>
      </pick>
      <pick publicID="smi:local/c9c90640-2c33-467c-84df-b6a1172f412c">
        <time>
          <value>2005-05-10T02:41:46.230000Z</value>
        </time>
        <waveformID networkCode="AV" stationCode="AUL" locationCode="" channelCode="BHZ"></waveformID>
        <phaseHint>P</phaseHint>
      </pick>
      <pick publicID="smi:local/179bfecb-afd5-4148-bf13-f4cedc49ef71">
        <time>
          <value>2005-05-10T02:41:45.850000Z</value>
        </time>
        <waveformID networkCode="AV" stationCode="AUP" locationCode="" channelCode="EHZ"></waveformID>
        <phaseHint>P</phaseHint>
      </pick>
      <pick publicID="smi:local/d5e0e073-1061-4c0f-bbbc-bafc4c63100d">
        <time>
          <value>2005-05-10T02:41:45.890000Z</value>
        </time>
        <waveformID networkCode="AV" stationCode="AUR" locationCode="" channelCode="EHZ"></waveformID>
        <phaseHint>P</phaseHint>
      </pick>
      <pick publicID="smi:local/cf98e858-8f34-466d-8024-fec64424ef05">
        <time>
          <value>2005-05-10T02:41:45.870000Z</value>
        </time>
        <waveformID networkCode="AV" stationCode="AUS" locationCode="" channelCode="EHZ"></waveformID>
        <phaseHint>P</phaseHint>
      </pick>
      <pick publicID="smi:local/55b7f797-0d24-4cea-a79e-7ab9ecf793de">
        <time>
          <value>2005-05-10T02:41:46.290000Z</value>
        </time>
        <waveformID networkCode="AV" stationCode="AUW" locationCode="" channelCode="EHZ"></waveformID>
        <phaseHint>P</phaseHint>
      </pick>
    </event>
    <event publicID="smi:local/01e28598-79fd-4f08-82db-73390426b842">
      <origin publicID="smi:local/03379580-4ad5-4767-9eae-fe6473245658">
        <time>
          <value>2005-05-19T10:30:39.810000Z</value>
        </time>
        <latitude/>
        <longitude/>
        <comment id="smi:local/8b447bfc-4c08-46ac-b871-2ee05f09f370">
          <text>CLUSTER 3 CORE EVENT; NOT IN PEC</text>
        </comment>
      </origin>
    </event>
    <event publicID="smi:local/55c55924-1b3c-454c-bfcc-c8c4c984bbaa">
      <origin publicID="smi:local/36a440c0-7da5-41f9-9bf6-739bd189149c">
        <time>
          <value>2005-05-20T12:40:23.810000Z</value>
        </time>
        <latitude/>
        <longitude/>
        <comment id="smi:local/4613f837-3748-4200-961e-612be7de4273">
          <text>CLUSTER 4 CORE EVENT; NOT IN PEC</text>
        </comment>
      </origin>
    </event>
    <event publicID="smi:local/32fe1c77-fe37-4481-83bb-de244f6e298a">
      <origin publicID="smi:local/cc042bdb-e5e7-445e-8f3f-61f1cbfc28f8">
        <time>
          <value>2005-05-26T12:06:14.600000Z</value>
        </time>
        <latitude/>
        <longitude/>
        <comment id="smi:local/48cb9091-8bab-4118-a70d-8de51c6033fd">
          <text>CLUSTER 5 CORE EVENT; NOT IN PEC</text>
        </comment>
      </origin>
    </event>
    <event publicID="smi:local/2540b6eb-63a9-4a28-b8a4-b51dc9b0abb3">
      <origin publicID="smi:local/ded941f5-5a54-4bf1-96fd-f8e80a1fa646">
        <time>
          <value>2005-06-03T23:13:05.500000Z</value>
        </time>
        <latitude/>
        <longitude/>
        <comment id="smi:local/98431e09-75e8-41d9-9922-12daae1c20ec">
          <text>CLUSTER 6 CORE EVENT; NOT IN PEC</text>
        </comment>
      </origin>
    </event>
    <event publicID="smi:local/852b7f73-b45a-485f-a541-0a942961b544">
      <origin publicID="smi:local/e2eb47b5-f79c-4b0a-bcc9-fc189790e405">
        <time>
          <value>2005-06-25T18:11:17.510000Z</value>
        </time>
        <latitude/>
        <longitude/>
        <comment id="smi:local/bdd81ee0-69cb-4a7d-9b7e-a2cb991a8eb7">
          <text>CLUSTER 7 CORE EVENT; NOT IN PEC</text>
        </comment>
      </origin>
    </event>
    <event publicID="smi:local/8af88e32-60eb-4cd9-af18-d9b881004964">
      <origin publicID="smi:local/faadcace-2266-4cd0-85b4-5b470b9422ae">
        <time>
          <value>2005-07-14T08:19:33.340000Z</value>
        </time>
        <latitude/>
        <longitude/>
        <comment id="smi:local/023a7c6d-0358-4ae0-9f94-79273be6f862">
          <text>CLUSTER 8 CORE EVENT; NOT IN PEC</text>
        </comment>
      </origin>
    </event>
    <event publicID="smi:local/event/61863728">
      <preferredOriginID>smi:local/origin/61863728</preferredOriginID>
      <preferredMagnitudeID>smi:local/magnitude/61863728</preferredMagnitudeID>
      <origin publicID="smi:local/origin/61863728">
        <time>
          <value>2005-07-27T06:11:23.930000Z</value>
        </time>
        <latitude>
          <value>59.360166666666665</value>
        </latitude>
        <longitude>
          <value>-153.42566666666667</value>
        </longitude>
        <depth>
          <value>-0.59</value>
        </depth>
        <quality>
          <standardError>0.06</standardError>
        </quality>
        <comment id="smi:local/647879b6-d1ea-4f63-9849-0d9c1959d735">
          <text>CLUSTER 9 CORE EVENT; IN PEC, REDPY DETECTION TIME = 2005-07-27T06:11:24.430000Z</text>
        </comment>
        <arrival publicID="smi:local/c9e46208-a3d1-4155-a4be-dd6b46e7ca8f">
          <pickID>smi:local/None</pickID>
          <phase>P</phase>
          <azimuth>66.0</azimuth>
          <distance>3.0</distance>
          <takeoffAngle>
            <value>42.0</value>
          </takeoffAngle>
          <timeResidual>0.07</timeResidual>
          <timeWeight>-1.0</timeWeight>
        </arrival>
        <arrival publicID="smi:local/93cb0ed0-e272-4f53-a075-2584109b6cbf">
          <pickID>smi:local/None</pickID>
          <phase>P</phase>
          <azimuth>286.0</azimuth>
          <distance>1.2000000000000002</distance>
          <takeoffAngle>
            <value>104.0</value>
          </takeoffAngle>
          <timeResidual>0.03</timeResidual>
          <timeWeight>1.0</timeWeight>
        </arrival>
        <arrival publicID="smi:local/5ee5a440-adee-4f5e-9974-3b41cc777a3e">
          <pickID>smi:local/None</pickID>
          <phase>S</phase>
          <azimuth>184.0</azimuth>
          <distance>2.9000000000000004</distance>
          <takeoffAngle>
            <value>42.0</value>
          </takeoffAngle>
          <timeResidual>-0.03</timeResidual>
          <timeWeight>-0.5</timeWeight>
        </arrival>
        <arrival publicID="smi:local/7588658d-741b-44a6-b8e7-cdff4af08409">
          <pickID>smi:local/None</pickID>
          <phase>P</phase>
          <azimuth>184.0</azimuth>
          <distance>2.9000000000000004</distance>
          <takeoffAngle>
            <value>42.0</value>
          </takeoffAngle>
          <timeResidual>-0.08</timeResidual>
          <timeWeight>0.5</timeWeight>
        </arrival>
        <arrival publicID="smi:local/302d0075-b88e-42f2-b949-99608cf4a636">
          <pickID>smi:local/None</pickID>
          <phase>S</phase>
          <azimuth>343.0</azimuth>
          <distance>2.5</distance>
          <takeoffAngle>
            <value>42.0</value>
          </takeoffAngle>
          <timeResidual>0.02</timeResidual>
          <timeWeight>-1.0</timeWeight>
        </arrival>
        <arrival publicID="smi:local/ff4569a8-d628-4a0c-8f8a-2eca86384673">
          <pickID>smi:local/None</pickID>
          <phase>P</phase>
          <azimuth>343.0</azimuth>
          <distance>2.5</distance>
          <takeoffAngle>
            <value>42.0</value>
          </takeoffAngle>
          <timeResidual>-0.02</timeResidual>
          <timeWeight>1.0</timeWeight>
        </arrival>
        <arrival publicID="smi:local/0a57698e-d1d5-4ec0-933e-1e1d070ffca5">
          <pickID>smi:local/None</pickID>
          <phase>P</phase>
          <azimuth>295.0</azimuth>
          <distance>0.5</distance>
          <takeoffAngle>
            <value>141.0</value>
          </takeoffAngle>
          <timeResidual>-0.05</timeResidual>
          <timeWeight>1.0</timeWeight>
        </arrival>
        <arrival publicID="smi:local/3cce4376-3833-4937-81f1-d553be6fa6f9">
          <pickID>smi:local/None</pickID>
          <phase>P</phase>
          <azimuth>256.0</azimuth>
          <distance>0.4</distance>
          <takeoffAngle>
            <value>146.0</value>
          </takeoffAngle>
          <timeResidual>0.03</timeResidual>
          <timeWeight>1.0</timeWeight>
        </arrival>
        <arrival publicID="smi:local/ef96f376-0b7a-452f-b04e-19c3245a1572">
          <pickID>smi:local/None</pickID>
          <phase>P</phase>
          <azimuth>291.0</azimuth>
          <distance>2.9000000000000004</distance>
          <takeoffAngle>
            <value>42.0</value>
          </takeoffAngle>
          <timeResidual>-0.04</timeResidual>
          <timeWeight>1.0</timeWeight>
        </arrival>
      </origin>
      <magnitude publicID="smi:local/magnitude/61863728">
        <mag>
          <value>-0.1</value>
        </mag>
      </magnitude>
      <pick publicID="smi:local/677f90a2-7970-4708-afa2-20e0d2248308">
        <time>
          <value>2005-07-27T06:11:25.080000Z</value>
        </time>
        <waveformID networkCode="AV" stationCode="AUE" locationCode="" channelCode="EHZ"></waveformID>
        <phaseHint>P</phaseHint>
      </pick>
      <pick publicID="smi:local/92115b0d-47df-4f58-b070-0937ed67e4af">
        <time>
          <value>2005-07-27T06:11:24.480000Z</value>
        </time>
        <waveformID networkCode="AV" stationCode="AUH" locationCode="" channelCode="EHZ"></waveformID>
        <phaseHint>P</phaseHint>
      </pick>
      <pick publicID="smi:local/ccf27257-c25b-4c1e-9801-596a65556461">
        <time>
          <value>2005-07-27T06:11:25.790000Z</value>
        </time>
        <waveformID networkCode="AV" stationCode="AUI" locationCode="" channelCode="EHN"></waveformID>
        <phaseHint>S</phaseHint>
      </pick>
      <pick publicID="smi:local/c20c164c-29c9-41fa-97cf-05572a340d6c">
        <time>
          <value>2005-07-27T06:11:24.910000Z</value>
        </time>
        <waveformID networkCode="AV" stationCode="AUI" locationCode="" channelCode="EHZ"></waveformID>
        <phaseHint>P</phaseHint>
      </pick>
      <pick publicID="smi:local/ede999bc-f272-4b7c-ab3d-856fbad9bfa9">
        <time>
          <value>2005-07-27T06:11:25.680000Z</value>
        </time>
        <waveformID networkCode="AV" stationCode="AUL" locationCode="" channelCode="BHE"></waveformID>
        <phaseHint>S</phaseHint>
      </pick>
      <pick publicID="smi:local/c50ecd53-2818-45e7-8183-ab5b98942d05">
        <time>
          <value>2005-07-27T06:11:24.880000Z</value>
        </time>
        <waveformID networkCode="AV" stationCode="AUL" locationCode="" channelCode="BHZ"></waveformID>
        <phaseHint>P</phaseHint>
      </pick>
      <pick publicID="smi:local/33f4f608-52f1-4104-a54f-ad2dbb4f6a65">
        <time>
          <value>2005-07-27T06:11:24.230000Z</value>
        </time>
        <waveformID networkCode="AV" stationCode="AUR" locationCode="" channelCode="EHZ"></waveformID>
        <phaseHint>P</phaseHint>
      </pick>
      <pick publicID="smi:local/cf487648-5a4f-4dfb-b1a8-13b9f2aaa52e">
        <time>
          <value>2005-07-27T06:11:24.280000Z</value>
        </time>
        <waveformID networkCode="AV" stationCode="AUS" locationCode="" channelCode="EHZ"></waveformID>
        <phaseHint>P</phaseHint>
      </pick>
      <pick publicID="smi:local/49300f75-fa8d-43c6-a46d-ca69311d59ca">
        <time>
          <value>2005-07-27T06:11:24.950000Z</value>
        </time>
        <waveformID networkCode="AV" stationCode="AUW" locationCode="" channelCode="EHZ"></waveformID>
        <phaseHint>P</phaseHint>
      </pick>
    </event>
    <event publicID="smi:local/7512a0c6-f388-433c-a6a3-af837d7c3b1b">
      <origin publicID="smi:local/0023eea9-806b-4a69-8564-2d6a13cb5937">
        <time>
          <value>2005-08-05T21:45:38.510000Z</value>
        </time>
        <latitude/>
        <longitude/>
        <comment id="smi:local/220d0e66-6064-4a56-bc90-0e316daa5c12">
          <text>CLUSTER 10 CORE EVENT; NOT IN PEC</text>
        </comment>
      </origin>
    </event>
    <event publicID="smi:local/43a2734b-551f-4c34-b74a-f2e7af4c5d73">
      <origin publicID="smi:local/37c0c20a-6833-4cad-b06f-79025600ee00">
        <time>
          <value>2005-08-09T12:21:51.840000Z</value>
        </time>
        <latitude/>
        <longitude/>
        <comment id="smi:local/f40ea690-f57f-43ee-a8df-5cc94e282d4b">
          <text>CLUSTER 11 CORE EVENT; NOT IN PEC</text>
        </comment>
      </origin>
    </event>
    <event publicID="smi:local/b3e728e3-f759-456b-91b2-d6d8cf6e55b6">
      <origin publicID="smi:local/983e8354-24b5-45b8-bf63-fb7003fe9efb">
        <time>
          <value>2005-09-17T20:17:54.010000Z</value>
        </time>
        <latitude/>
        <longitude/>
        <comment id="smi:local/fd3d2bc9-1ed5-496e-a6bf-f84247d04e45">
          <text>CLUSTER 12 CORE EVENT; NOT IN PEC</text>
        </comment>
      </origin>
    </event>
    <event publicID="smi:local/f6a566f4-9172-424a-a07b-9077cb032756">
