<?xml version='1.0' encoding='utf-8'?>
<q:quakeml xmlns="http://quakeml.org/xmlns/bed/1.2" xmlns:q="http://quakeml.org/xmlns/quakeml/1.2">
  <eventParameters publicID="smi:local/408b579f-34ab-4206-b100-3db0997a657c">
    <event publicID="smi:local/dcc2b675-9478-498d-b48b-1e3bf4fc3277">
      <origin publicID="smi:local/29b126ef-78a4-45e8-aa64-3a824507a39e">
        <time>
          <value>2005-05-08T06:37:59.530000Z</value>
        </time>
        <latitude/>
        <longitude/>
        <comment id="smi:local/575361ba-1524-4606-a112-ecd44f92bb3f">
          <text>CLUSTER 0 EVENT; NOT IN PEC</text>
        </comment>
      </origin>
    </event>
    <event publicID="smi:local/f758f67f-ec9c-4d77-8dbc-0f47bb783f43">
      <origin publicID="smi:local/94ce08f0-c33b-4ce9-8705-86a274ee5360">
        <time>
          <value>2005-05-11T08:15:15.180000Z</value>
        </time>
        <latitude/>
        <longitude/>
        <comment id="smi:local/86556f60-6905-4df2-b7fc-65bab73721af">
          <text>CLUSTER 0 CORE EVENT; NOT IN PEC</text>
        </comment>
      </origin>
    </event>
    <event publicID="smi:local/d5d6965f-56ba-4969-b331-8a8496ee7746">
      <origin publicID="smi:local/c43ba799-14d3-4a19-9b1f-959146a45ce9">
        <time>
          <value>2005-05-09T01:39:44.070000Z</value>
        </time>
        <latitude/>
        <longitude/>
        <comment id="smi:local/00c72563-4cd4-48fc-9974-5cc272712294">
          <text>CLUSTER 1 EVENT; NOT IN PEC</text>
        </comment>
      </origin>
    </event>
    <event publicID="smi:local/4cc2d46a-cdd5-46ae-bfe0-d3950c6b323c">
      <origin publicID="smi:local/d5263918-5f7a-46e3-93e3-554f41e69b57">
        <time>
          <value>2005-05-09T02:45:21.740000Z</value>
        </time>
        <latitude/>
        <longitude/>
        <comment id="smi:local/63ebfc81-0f97-4e5b-b40b-2f43f4add77e">
          <text>CLUSTER 1 CORE EVENT; NOT IN PEC</text>
        </comment>
      </origin>
    </event>
    <event publicID="smi:local/c3910ad5-8061-4463-b71c-c42ff02a3db2">
      <origin publicID="smi:local/b9c65085-7b33-44cc-b139-b72d690be9ff">
        <time>
          <value>2005-05-09T18:27:01.000000Z</value>
        </time>
        <latitude/>
        <longitude/>
        <comment id="smi:local/347e877b-dc21-4558-9d6a-705d168f1a66">
          <text>CLUSTER 2 EVENT; NOT IN PEC</text>
        </comment>
      </origin>
    </event>
    <event publicID="smi:local/event/61029178">
      <preferredOriginID>smi:local/origin/61029178</preferredOriginID>
      <preferredMagnitudeID>smi:local/magnitude/61029178</preferredMagnitudeID>
      <origin publicID="smi:local/origin/61029178">
        <time>
          <value>2005-05-10T02:41:45.360000Z</value>
        </time>
        <latitude>
          <value>59.3585</value>
        </latitude>
        <longitude>
          <value>-153.4275</value>
        </longitude>
        <depth>
          <value>-0.12</value>
        </depth>
        <quality>
          <standardError>0.04</standardError>
        </quality>
        <comment id="smi:local/a9c2ea6c-9871-4d0a-9d64-8bbc0131d47b">
          <text>CLUSTER 2 CORE EVENT; IN PEC, REDPY DETECTION TIME = 2005-05-10T02:41:45.870000Z</text>
        </comment>
        <arrival publicID="smi:local/b0ca5023-ffbc-4bd2-a399-54ddb9dbaf3e">
          <pickID>smi:local/None</pickID>
          <phase>P</phase>
          <azimuth>63.0</azimuth>
          <distance>3.2</distance>
          <takeoffAngle>
            <value>49.0</value>
          </takeoffAngle>
          <timeResidual>0.07</timeResidual>
          <timeWeight>-1.0</timeWeight>
        </arrival>
        <arrival publicID="smi:local/e56001db-4a15-45b9-b737-94e88a109fdc">
          <pickID>smi:local/None</pickID>
          <phase>S</phase>
          <azimuth>182.0</azimuth>
          <distance>2.7</distance>
          <takeoffAngle>
            <value>49.0</value>
          </takeoffAngle>
          <timeResidual>-0.04</timeResidual>
          <timeWeight>-1.0</timeWeight>
        </arrival>
        <arrival publicID="smi:local/2820cf82-dfb6-4281-b91b-f97c50d48c53">
          <pickID>smi:local/None</pickID>
          <phase>P</phase>
          <azimuth>182.0</azimuth>
          <distance>2.7</distance>
          <takeoffAngle>
            <value>49.0</value>
          </takeoffAngle>
          <timeResidual>-0.01</timeResidual>
          <timeWeight>1.0</timeWeight>
        </arrival>
        <arrival publicID="smi:local/b0b513d0-924a-430e-a61a-105ecf152714">
          <pickID>smi:local/None</pickID>
          <phase>S</phase>
          <azimuth>347.0</azimuth>
          <distance>2.6</distance>
          <takeoffAngle>
            <value>49.0</value>
          </takeoffAngle>
          <timeResidual>0.0</timeResidual>
          <timeWeight>1.0</timeWeight>
        </arrival>
        <arrival publicID="smi:local/c37d6e94-8081-49d2-842e-cb4a814fc12d">
          <pickID>smi:local/None</pickID>
          <phase>P</phase>
          <azimuth>347.0</azimuth>
          <distance>2.6</distance>
          <takeoffAngle>
            <value>49.0</value>
          </takeoffAngle>
          <timeResidual>-0.02</timeResidual>
          <timeWeight>1.0</timeWeight>
        </arrival>
        <arrival publicID="smi:local/d12c0c50-026e-4f49-bda8-1c7255247e7d">
          <pickID>smi:local/None</pickID>
          <phase>P</phase>
          <azimuth>30.0</azimuth>
          <distance>0.5</distance>
          <takeoffAngle>
            <value>147.0</value>
          </takeoffAngle>
          <timeResidual>0.06</timeResidual>
          <timeWeight>1.0</timeWeight>
        </arrival>
        <arrival publicID="smi:local/bf13771d-df01-4755-86e4-68ff0c099e9a">
          <pickID>smi:local/None</pickID>
          <phase>P</phase>
          <azimuth>319.0</azimuth>
          <distance>0.5</distance>
          <takeoffAngle>
            <value>151.0</value>
          </takeoffAngle>
          <timeResidual>0.02</timeResidual>
          <timeWeight>1.0</timeWeight>
        </arrival>
        <arrival publicID="smi:local/fadc8ef7-fb90-4ed8-b11b-138b1a45cc75">
          <pickID>smi:local/None</pickID>
          <phase>P</phase>
          <azimuth>286.0</azimuth>
          <distance>0.30000000000000004</distance>
          <takeoffAngle>
            <value>162.0</value>
          </takeoffAngle>
          <timeResidual>0.03</timeResidual>
          <timeWeight>1.0</timeWeight>
        </arrival>
        <arrival publicID="smi:local/301d9c91-ad53-495b-ab41-e87f5f4f842f">
          <pickID>smi:local/None</pickID>
          <phase>P</phase>
          <azimuth>295.0</azimuth>
          <distance>2.8000000000000003</distance>
          <takeoffAngle>
            <value>49.0</value>
          </takeoffAngle>
          <timeResidual>0.0</timeResidual>
          <timeWeight>1.0</timeWeight>
        </arrival>
      </origin>
      <magnitude publicID="smi:local/magnitude/61029178">
        <mag>
          <value>-0.6</value>
        </mag>
      </magnitude>
      <pick publicID="smi:local/4e293b26-0e96-49b5-9c12-27c0233f02d7">
        <time>
          <value>2005-05-10T02:41:46.430000Z</value>
        </time>
        <waveformID networkCode="AV" stationCode="AUE" locationCode="" channelCode="EHZ"></waveformID>
        <phaseHint>P</phaseHint>
      </pick>
      <pick publicID="smi:local/5c94657b-f816-4f82-93b7-7928ccf37779">
        <time>
          <value>2005-05-10T02:41:46.890000Z</value>
        </time>
        <waveformID networkCode="AV" stationCode="AUI" locationCode="" channelCode="EHN"></waveformID>
        <phaseHint>S</phaseHint>
      </pick>
      <pick publicID="smi:local/3191bb6e-2f7d-4f9a-9ede-ba78dd1b0f4e">
        <time>
          <value>2005-05-10T02:41:46.230000Z</value>
        </time>
        <waveformID networkCode="AV" stationCode="AUI" locationCode="" channelCode="EHZ"></waveformID>
        <phaseHint>P</phaseHint>
      </pick>
      <pick publicID="smi:local/8aa6c4aa-a356-493b-a274-a2b59f2e1276">
        <time>
          <value>2005-05-10T02:41:46.940000Z</value>
        </time>
        <waveformID networkCode="AV" stationCode="AUL" locationCode="" channelCode="BHN"></waveformID>
        <phaseHint>S</phaseHint>
      </pick>
      <pick publicID="smi:local/c9c90640-2c33-467c-84df-b6a1172f412c">
        <time>
          <value>2005-05-10T02:41:46.230000Z</value>
        </time>
        <waveformID networkCode="AV" stationCode="AUL" locationCode="" channelCode="BHZ"></waveformID>
        <phaseHint>P</phaseHint>
      </pick>
      <pick publicID="smi:local/179bfecb-afd5-4148-bf13-f4cedc49ef71">
        <time>
          <value>2005-05-10T02:41:45.850000Z</value>
        </time>
        <waveformID networkCode="AV" stationCode="AUP" locationCode="" channelCode="EHZ"></waveformID>
        <phaseHint>P</phaseHint>
      </pick>
      <pick publicID="smi:local/d5e0e073-1061-4c0f-bbbc-bafc4c63100d">
        <time>
          <value>2005-05-10T02:41:45.890000Z</value>
        </time>
        <waveformID networkCode="AV" stationCode="AUR" locationCode="" channelCode="EHZ"></waveformID>
        <phaseHint>P</phaseHint>
      </pick>
      <pick publicID="smi:local/cf98e858-8f34-466d-8024-fec64424ef05">
        <time>
          <value>2005-05-10T02:41:45.870000Z</value>
        </time>
        <waveformID networkCode="AV" stationCode="AUS" locationCode="" channelCode="EHZ"></waveformID>
        <phaseHint>P</phaseHint>
      </pick>
      <pick publicID="smi:local/55b7f797-0d24-4cea-a79e-7ab9ecf793de">
        <time>
          <value>2005-05-10T02:41:46.290000Z</value>
        </time>
        <waveformID networkCode="AV" stationCode="AUW" locationCode="" channelCode="EHZ"></waveformID>
        <phaseHint>P</phaseHint>
      </pick>
    </event>
    <event publicID="smi:local/53d8b7c6-6614-4a5c-a18e-fe65141c7284">
      <origin publicID="smi:local/394cf271-bde0-4518-b948-30be437bba09">
        <time>
          <value>2005-05-19T00:54:48.670000Z</value>
        </time>
        <latitude/>
        <longitude/>
        <comment id="smi:local/fb01f22b-baf1-493c-b2cd-cb2c507686af">
          <text>CLUSTER 3 EVENT; NOT IN PEC</text>
        </comment>
      </origin>
    </event>
    <event publicID="smi:local/01e28598-79fd-4f08-82db-73390426b842">
      <origin publicID="smi:local/03379580-4ad5-4767-9eae-fe6473245658">
        <time>
          <value>2005-05-19T10:30:39.810000Z</value>
        </time>
        <latitude/>
        <longitude/>
        <comment id="smi:local/8b447bfc-4c08-46ac-b871-2ee05f09f370">
          <text>CLUSTER 3 CORE EVENT; NOT IN PEC</text>
        </comment>
      </origin>
    </event>
    <event publicID="smi:local/03ad8820-6218-4fdb-84a5-ff61313c74e8">
      <origin publicID="smi:local/33d29d9c-016c-453e-8596-b6163f0b734f">
        <time>
          <value>2005-05-20T10:12:27.230000Z</value>
        </time>
        <latitude/>
        <longitude/>
        <comment id="smi:local/639edfd2-4739-4dd0-a233-9c8d91dee9a9">
          <text>CLUSTER 4 EVENT; NOT IN PEC</text>
        </comment>
      </origin>
    </event>
    <event publicID="smi:local/972637bb-34a1-467d-a7c5-7fc2ce6ad7e4">
      <origin publicID="smi:local/e2eb58d2-c379-4434-acbb-146cffbc02e6">
        <time>
          <value>2005-05-20T12:26:36.220000Z</value>
        </time>
        <latitude/>
        <longitude/>
        <comment id="smi:local/02fb3287-9c29-45a9-99d0-3306bdba9a2c">
          <text>CLUSTER 4 EVENT; NOT IN PEC</text>
        </comment>
      </origin>
    </event>
    <event publicID="smi:local/55c55924-1b3c-454c-bfcc-c8c4c984bbaa">
      <origin publicID="smi:local/36a440c0-7da5-41f9-9bf6-739bd189149c">
        <time>
          <value>2005-05-20T12:40:23.810000Z</value>
        </time>
        <latitude/>
        <longitude/>
        <comment id="smi:local/4613f837-3748-4200-961e-612be7de4273">
          <text>CLUSTER 4 CORE EVENT; NOT IN PEC</text>
        </comment>
      </origin>
    </event>
    <event publicID="smi:local/d16fdc1e-3d8e-4cf9-8e6f-2661543755e0">
      <origin publicID="smi:local/7f242fba-63a8-41c0-b777-b03d8a00638b">
        <time>
          <value>2005-05-20T12:43:52.350000Z</value>
        </time>
        <latitude/>
        <longitude/>
        <comment id="smi:local/268ef7f0-12cf-4dee-b476-5288a23917be">
          <text>CLUSTER 4 EVENT; NOT IN PEC</text>
        </comment>
      </origin>
    </event>
    <event publicID="smi:local/7db1f326-3ac8-4b83-a1e5-9817f2e29f82">
      <origin publicID="smi:local/46de55d7-e7ef-4697-945f-742253c0ce7b">
        <time>
          <value>2005-05-20T13:45:00.850000Z</value>
        </time>
        <latitude/>
        <longitude/>
        <comment id="smi:local/28625e42-cb79-4862-9725-1a45adfdff8d">
          <text>CLUSTER 4 EVENT; NOT IN PEC</text>
        </comment>
      </origin>
    </event>
    <event publicID="smi:local/fad3c2a4-0cdc-4192-b33d-ad99af55a672">
      <origin publicID="smi:local/6f06a924-01bc-48f2-9537-ce1a73d3e864">
        <time>
          <value>2005-05-21T06:39:55.650000Z</value>
        </time>
        <latitude/>
        <longitude/>
        <comment id="smi:local/737ee4d7-182f-456e-857d-47a2b5f267d4">
          <text>CLUSTER 4 EVENT; NOT IN PEC</text>
        </comment>
      </origin>
    </event>
    <event publicID="smi:local/9459400c-dc29-445b-b4c8-ac4b1fa55f15">
      <origin publicID="smi:local/3e3713c9-fa19-4abe-b2fa-cb6b927e5fb2">
        <time>
          <value>2005-05-21T08:06:33.540000Z</value>
        </time>
        <latitude/>
        <longitude/>
        <comment id="smi:local/ba940b70-2bc2-4ded-b4ee-98763c78ec05">
          <text>CLUSTER 4 EVENT; NOT IN PEC</text>
        </comment>
      </origin>
    </event>
    <event publicID="smi:local/0d72b158-3448-4ae6-9788-720758840fba">
      <origin publicID="smi:local/a46ba246-cc5f-4187-a9d2-bbf3da43395e">
        <time>
          <value>2005-05-22T01:01:55.650000Z</value>
        </time>
        <latitude/>
        <longitude/>
        <comment id="smi:local/c94aa4c0-33d2-41da-b40e-9995646c598e">
          <text>CLUSTER 4 EVENT; NOT IN PEC</text>
        </comment>
      </origin>
    </event>
    <event publicID="smi:local/bbebe8ce-a7af-48c1-a21d-08b5e1c672bf">
      <origin publicID="smi:local/79dd7f34-75c4-4faa-9a7d-d37bbdaa902c">
        <time>
          <value>2005-05-23T00:46:08.260000Z</value>
        </time>
        <latitude/>
        <longitude/>
        <comment id="smi:local/3f680b2e-6c88-4cd6-af57-f714d989327c">
          <text>CLUSTER 4 EVENT; NOT IN PEC</text>
        </comment>
      </origin>
    </event>
    <event publicID="smi:local/dd71b615-2b87-42c3-9c40-20d06259efe4">
      <origin publicID="smi:local/238de118-ff37-4a2d-af0c-fc0fd11ee6e2">
        <time>
          <value>2005-05-29T16:48:06.400000Z</value>
        </time>
        <latitude/>
        <longitude/>
        <comment id="smi:local/c7fbd06c-2dbe-4eb6-8bf5-8a15394c32a1">
          <text>CLUSTER 4 EVENT; NOT IN PEC</text>
        </comment>
      </origin>
    </event>
    <event publicID="smi:local/event/61040828">
      <preferredOriginID>smi:local/origin/61040828</preferredOriginID>
      <preferredMagnitudeID>smi:local/magnitude/61040828</preferredMagnitudeID>
      <origin publicID="smi:local/origin/61040828">
        <time>
          <value>2005-05-26T11:40:46.680000Z</value>
        </time>
        <latitude>
          <value>59.361</value>
        </latitude>
        <longitude>
          <value>-153.43116666666666</value>
        </longitude>
        <depth>
          <value>-0.8</value>
        </depth>
        <quality>
          <standardError>0.06</standardError>
        </quality>
        <comment id="smi:local/8fc06d72-185d-4a04-a86d-bcc5d22361e7">
          <text>CLUSTER 5 EVENT; IN PEC, REDPY DETECTION TIME = 2005-05-26T11:40:46.840000Z</text>
        </comment>
        <arrival publicID="smi:local/660c65f8-d607-47ef-b6aa-5b7ae20d55aa">
          <pickID>smi:local/None</pickID>
          <phase>P</phase>
          <azimuth>69.0</azimuth>
          <distance>3.3000000000000003</distance>
          <takeoffAngle>
            <value>42.0</value>
          </takeoffAngle>
          <timeResidual>0.04</timeResidual>
          <timeWeight>-1.0</timeWeight>
        </arrival>
        <arrival publicID="smi:local/b8def7eb-0b31-4bfb-a3fe-4d8959a466e1">
          <pickID>smi:local/None</pickID>
          <phase>P</phase>
          <azimuth>286.0</azimuth>
          <distance>0.8</distance>
          <takeoffAngle>
            <value>95.0</value>
          </takeoffAngle>
          <timeResidual>0.06</timeResidual>
          <timeWeight>1.0</timeWeight>
        </arrival>
        <arrival publicID="smi:local/8a4d01aa-2ea6-44c7-9cee-41a9604d5a03">
          <pickID>smi:local/None</pickID>
          <phase>S</phase>
          <azimuth>350.0</azimuth>
          <distance>2.3000000000000003</distance>
          <takeoffAngle>
            <value>61.0</value>
          </takeoffAngle>
          <timeResidual>0.0</timeResidual>
          <timeWeight>-1.0</timeWeight>
        </arrival>
        <arrival publicID="smi:local/82d79cc8-e61c-42de-9fca-34492b65dd8f">
          <pickID>smi:local/None</pickID>
          <phase>P</phase>
          <azimuth>68.0</azimuth>
          <distance>0.5</distance>
          <takeoffAngle>
            <value>113.0</value>
          </takeoffAngle>
          <timeResidual>-0.08</timeResidual>
          <timeWeight>1.0</timeWeight>
        </arrival>
        <arrival publicID="smi:local/64fd3a52-0423-42e3-84fc-04bf27d3d52c">
          <pickID>smi:local/None</pickID>
          <phase>P</phase>
          <azimuth>312.0</azimuth>
          <distance>0.2</distance>
          <takeoffAngle>
            <value>155.0</value>
          </takeoffAngle>
          <timeResidual>-0.04</timeResidual>
          <timeWeight>1.0</timeWeight>
        </arrival>
        <arrival publicID="smi:local/879c8383-9ef1-41e1-96a1-2080aafb443a">
          <pickID>smi:local/None</pickID>
          <phase>P</phase>
          <azimuth>207.0</azimuth>
          <distance>0.2</distance>
          <takeoffAngle>
            <value>154.0</value>
          </takeoffAngle>
          <timeResidual>-0.07</timeResidual>
          <timeWeight>1.0</timeWeight>
        </arrival>
      </origin>
      <magnitude publicID="smi:local/magnitude/61040828">
        <mag>
          <value>-0.2</value>
        </mag>
      </magnitude>
      <pick publicID="smi:local/27fc5666-dbd2-4a79-96bd-07b7b9e4b2ea">
        <time>
          <value>2005-05-26T11:40:47.940000Z</value>
        </time>
        <waveformID networkCode="AV" stationCode="AUE" locationCode="" channelCode="EHZ"></waveformID>
        <phaseHint>P</phaseHint>
      </pick>
      <pick publicID="smi:local/009fea1f-18d3-4f85-ab58-3cc4a6e2c6d1">
        <time>
          <value>2005-05-26T11:40:47.100000Z</value>
        </time>
        <waveformID networkCode="AV" stationCode="AUH" locationCode="" channelCode="EHZ"></waveformID>
        <phaseHint>P</phaseHint>
      </pick>
      <pick publicID="smi:local/acc5af19-2424-4118-8c9b-3bd24d70596d">
        <time>
          <value>2005-05-26T11:40:48.350000Z</value>
        </time>
        <waveformID networkCode="AV" stationCode="AUL" locationCode="" channelCode="BHN"></waveformID>
        <phaseHint>S</phaseHint>
      </pick>
      <pick publicID="smi:local/5db62e6f-1b42-4c14-81ed-e58c84983729">
        <time>
          <value>2005-05-26T11:40:46.840000Z</value>
        </time>
        <waveformID networkCode="AV" stationCode="AUP" locationCode="" channelCode="EHZ"></waveformID>
        <phaseHint>P</phaseHint>
      </pick>
      <pick publicID="smi:local/8ebf4da0-c495-4ca0-b395-3bd7a9fdfee6">
        <time>
          <value>2005-05-26T11:40:46.840000Z</value>
        </time>
        <waveformID networkCode="AV" stationCode="AUR" locationCode="" channelCode="EHZ"></waveformID>
        <phaseHint>P</phaseHint>
      </pick>
