<?xml version='1.0' encoding='utf-8'?>
<q:quakeml xmlns="http://quakeml.org/xmlns/bed/1.2" xmlns:q="http://quakeml.org/xmlns/quakeml/1.2">
  <eventParameters publicID="smi:local/e688d4fc-f764-44bf-b2a3-cbe93a3d92f7">
    <event publicID="smi:local/event/222">
      <preferredOriginID>smi:local/origin/222</preferredOriginID>
      <preferredMagnitudeID>smi:local/magnitude/222</preferredMagnitudeID>
      <origin publicID="smi:local/origin/222">
        <time>
          <value>2012-09-15T07:46:46.442000Z</value>
        </time>
        <latitude>
          <value>35.653041</value>
        </latitude>
        <longitude>
          <value>-98.260951</value>
        </longitude>
        <depth>
          <value>4.875581</value>
        </depth>
        <comment id="smi:local/2a5e39b3-6034-4e1a-b0b4-47839e1134ca">
          <text>Cluster 0 event; in analyst catalog, REDPy detection time = 2012-09-15T07:46:48.130000Z</text>
        </comment>
      </origin>
      <magnitude publicID="smi:local/magnitude/222">
        <mag>
          <value>0.4</value>
        </mag>
      </magnitude>
      <pick publicID="smi:local/2ed75f72-0ff0-4e06-8ba0-e00ae4319663">
        <time>
          <value>2012-09-15T07:46:48.254000Z</value>
        </time>
        <waveformID networkCode="JP" stationCode="ST6" locationCode="00" channelCode="HHZ"></waveformID>
        <phaseHint>P</phaseHint>
      </pick>
      <pick publicID="smi:local/7d5a9f8b-e6e4-4483-a412-9308c70179e7">
        <time>
          <value>2012-09-15T07:46:48.201000Z</value>
        </time>
        <waveformID networkCode="JP" stationCode="ST7" locationCode="00" channelCode="HHZ"></waveformID>
        <phaseHint>P</phaseHint>
      </pick>
      <pick publicID="smi:local/8a9bb738-d17c-4ef2-8f6c-4693b1554dcb">
        <time>
          <value>2012-09-15T07:46:47.859000Z</value>
        </time>
        <waveformID networkCode="JP" stationCode="ST8" locationCode="00" channelCode="HHZ"></waveformID>
        <phaseHint>P</phaseHint>
      </pick>
      <pick publicID="smi:local/9d4e227a-18dd-47da-a698-c67dde54748b">
        <time>
          <value>2012-09-15T07:46:47.885000Z</value>
        </time>
        <waveformID networkCode="JP" stationCode="ST9" locationCode="00" channelCode="HHZ"></waveformID>
        <phaseHint>P</phaseHint>
      </pick>
      <pick publicID="smi:local/5d2c7fb7-3a24-4f3a-bf6d-ef513db9ff26">
        <time>
          <value>2012-09-15T07:46:48.608000Z</value>
        </time>
        <waveformID networkCode="JP" stationCode="ST11" locationCode="00" channelCode="HHZ"></waveformID>
        <phaseHint>P</phaseHint>
      </pick>
      <pick publicID="smi:local/5c4f9005-ebdb-4767-8f03-aba01ddac3e4">
        <time>
          <value>2012-09-15T07:46:48.301000Z</value>
        </time>
        <waveformID networkCode="JP" stationCode="ST12" locationCode="00" channelCode="HHZ"></waveformID>
        <phaseHint>P</phaseHint>
      </pick>
      <pick publicID="smi:local/d42af355-6dee-4bc4-955c-7578887b2fee">
        <time>
          <value>2012-09-15T07:46:48.130000Z</value>
        </time>
        <waveformID networkCode="JP" stationCode="ST13" locationCode="00" channelCode="HHZ"></waveformID>
        <phaseHint>P</phaseHint>
      </pick>
      <pick publicID="smi:local/7d0ac87b-9d27-40fe-8038-0d85fd0e8554">
        <time>
          <value>2012-09-15T07:46:48.424000Z</value>
        </time>
        <waveformID networkCode="JP" stationCode="ST14" locationCode="00" channelCode="HHZ"></waveformID>
        <phaseHint>P</phaseHint>
      </pick>
      <pick publicID="smi:local/0b85dde9-8e98-43cb-bda7-312667cb52c1">
        <time>
          <value>2012-09-15T07:46:49.610000Z</value>
        </time>
        <waveformID networkCode="JP" stationCode="ST6" locationCode="00" channelCode="HHN"></waveformID>
        <phaseHint>S</phaseHint>
      </pick>
      <pick publicID="smi:local/c44591fd-e65a-4ba2-998b-3834d040a9e9">
        <time>
          <value>2012-09-15T07:46:49.352000Z</value>
        </time>
        <waveformID networkCode="JP" stationCode="ST7" locationCode="00" channelCode="HHN"></waveformID>
        <phaseHint>S</phaseHint>
      </pick>
      <pick publicID="smi:local/1cd36861-05c6-44ea-a290-e28e6b52e520">
        <time>
          <value>2012-09-15T07:46:49.023000Z</value>
        </time>
        <waveformID networkCode="JP" stationCode="ST8" locationCode="00" channelCode="HHN"></waveformID>
        <phaseHint>S</phaseHint>
      </pick>
      <pick publicID="smi:local/ede0d9bf-d0f2-4dfc-94ef-d00de4d0c604">
        <time>
          <value>2012-09-15T07:46:49.019000Z</value>
        </time>
        <waveformID networkCode="JP" stationCode="ST9" locationCode="00" channelCode="HHN"></waveformID>
        <phaseHint>S</phaseHint>
      </pick>
      <pick publicID="smi:local/9def6c6f-93a1-4eba-a886-0fea67774d7f">
        <time>
          <value>2012-09-15T07:46:50.171000Z</value>
        </time>
        <waveformID networkCode="JP" stationCode="ST11" locationCode="00" channelCode="HHN"></waveformID>
        <phaseHint>S</phaseHint>
      </pick>
      <pick publicID="smi:local/2bc5c922-f722-4d32-9008-bb25119b9645">
        <time>
          <value>2012-09-15T07:46:49.726000Z</value>
        </time>
        <waveformID networkCode="JP" stationCode="ST12" locationCode="00" channelCode="HHN"></waveformID>
        <phaseHint>S</phaseHint>
      </pick>
      <pick publicID="smi:local/f5d2a07c-71ac-4629-bd83-62ab1b0b96ae">
        <time>
          <value>2012-09-15T07:46:49.472000Z</value>
        </time>
        <waveformID networkCode="JP" stationCode="ST13" locationCode="00" channelCode="HHN"></waveformID>
        <phaseHint>S</phaseHint>
      </pick>
      <pick publicID="smi:local/e5ba4ebe-10eb-4841-b890-b2f949f4aa21">
        <time>
          <value>2012-09-15T07:46:49.585000Z</value>
        </time>
        <waveformID networkCode="JP" stationCode="ST14" locationCode="00" channelCode="HHN"></waveformID>
        <phaseHint>S</phaseHint>
      </pick>
    </event>
    <event publicID="smi:local/event/221">
      <preferredOriginID>smi:local/origin/221</preferredOriginID>
      <preferredMagnitudeID>smi:local/magnitude/221</preferredMagnitudeID>
      <origin publicID="smi:local/origin/221">
        <time>
          <value>2012-09-15T07:47:13.498000Z</value>
        </time>
        <latitude>
          <value>35.653681</value>
        </latitude>
        <longitude>
          <value>-98.263175</value>
        </longitude>
        <depth>
          <value>4.272382</value>
        </depth>
        <comment id="smi:local/36b276f8-039a-4efc-b064-2b3aeba776a4">
          <text>Cluster 0 event; in analyst catalog, REDPy detection time = 2012-09-15T07:47:15.250000Z</text>
        </comment>
      </origin>
      <magnitude publicID="smi:local/magnitude/221">
        <mag>
          <value>0.42</value>
        </mag>
      </magnitude>
      <pick publicID="smi:local/e42f9fcb-c1c2-4464-b313-f551152a6ee0">
        <time>
          <value>2012-09-15T07:47:15.175000Z</value>
        </time>
        <waveformID networkCode="JP" stationCode="ST6" locationCode="00" channelCode="HHZ"></waveformID>
        <phaseHint>P</phaseHint>
      </pick>
      <pick publicID="smi:local/93dacd8d-b738-4926-9001-7909a2acd19e">
        <time>
          <value>2012-09-15T07:47:14.813000Z</value>
        </time>
        <waveformID networkCode="JP" stationCode="ST7" locationCode="00" channelCode="HHZ"></waveformID>
        <phaseHint>P</phaseHint>
      </pick>
      <pick publicID="smi:local/940152ea-de0f-49c1-96cf-93936fb2b5c9">
        <time>
          <value>2012-09-15T07:47:14.846000Z</value>
        </time>
        <waveformID networkCode="JP" stationCode="ST8" locationCode="00" channelCode="HHZ"></waveformID>
        <phaseHint>P</phaseHint>
      </pick>
      <pick publicID="smi:local/f3f23fd1-0f8a-4b0e-bafd-e220cf7c7db6">
        <time>
          <value>2012-09-15T07:47:15.128000Z</value>
        </time>
        <waveformID networkCode="JP" stationCode="ST9" locationCode="00" channelCode="HHZ"></waveformID>
        <phaseHint>P</phaseHint>
      </pick>
      <pick publicID="smi:local/39ba0828-b512-4c00-88aa-e4b2a8e86aee">
        <time>
          <value>2012-09-15T07:47:15.247000Z</value>
        </time>
        <waveformID networkCode="JP" stationCode="ST10" locationCode="00" channelCode="HHZ"></waveformID>
        <phaseHint>P</phaseHint>
      </pick>
      <pick publicID="smi:local/1692d25c-469e-43a1-ae78-dcb6cf8c1b15">
        <time>
          <value>2012-09-15T07:47:15.865000Z</value>
        </time>
        <waveformID networkCode="JP" stationCode="ST11" locationCode="00" channelCode="HHZ"></waveformID>
        <phaseHint>P</phaseHint>
      </pick>
      <pick publicID="smi:local/c27392b0-f991-4764-8490-a49aff784b08">
        <time>
          <value>2012-09-15T07:47:15.229000Z</value>
        </time>
        <waveformID networkCode="JP" stationCode="ST12" locationCode="00" channelCode="HHZ"></waveformID>
        <phaseHint>P</phaseHint>
      </pick>
      <pick publicID="smi:local/38c2cb37-47a0-44bd-a297-cc4cc874ec11">
        <time>
          <value>2012-09-15T07:47:15.096000Z</value>
        </time>
        <waveformID networkCode="JP" stationCode="ST13" locationCode="00" channelCode="HHZ"></waveformID>
        <phaseHint>P</phaseHint>
      </pick>
      <pick publicID="smi:local/ca3b370d-0cc4-4a09-9de5-2468ac166a7e">
        <time>
          <value>2012-09-15T07:47:16.555000Z</value>
        </time>
        <waveformID networkCode="JP" stationCode="ST6" locationCode="00" channelCode="HHN"></waveformID>
        <phaseHint>S</phaseHint>
      </pick>
      <pick publicID="smi:local/180aaf29-417a-4408-9f5f-9286fc74b9e2">
        <time>
          <value>2012-09-15T07:47:16.260000Z</value>
        </time>
        <waveformID networkCode="JP" stationCode="ST7" locationCode="00" channelCode="HHN"></waveformID>
        <phaseHint>S</phaseHint>
      </pick>
      <pick publicID="smi:local/f0d90dc3-05a9-475d-8813-27fe1caab0ff">
        <time>
          <value>2012-09-15T07:47:15.931000Z</value>
        </time>
        <waveformID networkCode="JP" stationCode="ST8" locationCode="00" channelCode="HHN"></waveformID>
        <phaseHint>S</phaseHint>
      </pick>
      <pick publicID="smi:local/84ae4339-af52-41f1-8a30-8ab3d3d2bbdb">
        <time>
          <value>2012-09-15T07:47:15.970000Z</value>
        </time>
        <waveformID networkCode="JP" stationCode="ST9" locationCode="00" channelCode="HHN"></waveformID>
        <phaseHint>S</phaseHint>
      </pick>
      <pick publicID="smi:local/bc127a37-65e6-43c3-a52f-1afb8f117b30">
        <time>
          <value>2012-09-15T07:47:16.276000Z</value>
        </time>
        <waveformID networkCode="JP" stationCode="ST10" locationCode="00" channelCode="HHN"></waveformID>
        <phaseHint>S</phaseHint>
      </pick>
      <pick publicID="smi:local/56b98606-7182-4a91-a7c9-e7979bef0d8a">
        <time>
          <value>2012-09-15T07:47:17.118000Z</value>
        </time>
        <waveformID networkCode="JP" stationCode="ST11" locationCode="00" channelCode="HHN"></waveformID>
        <phaseHint>S</phaseHint>
      </pick>
      <pick publicID="smi:local/ff791fda-005c-4d3f-a2e9-822d0cc1e6c7">
        <time>
          <value>2012-09-15T07:47:16.697000Z</value>
        </time>
        <waveformID networkCode="JP" stationCode="ST12" locationCode="00" channelCode="HHN"></waveformID>
        <phaseHint>S</phaseHint>
      </pick>
      <pick publicID="smi:local/377c9405-d144-4716-ae1c-98ceea67db5c">
        <time>
          <value>2012-09-15T07:47:16.455000Z</value>
        </time>
        <waveformID networkCode="JP" stationCode="ST13" locationCode="00" channelCode="HHN"></waveformID>
        <phaseHint>S</phaseHint>
      </pick>
    </event>
    <event publicID="smi:local/event/220">
      <preferredOriginID>smi:local/origin/220</preferredOriginID>
      <preferredMagnitudeID>smi:local/magnitude/220</preferredMagnitudeID>
      <origin publicID="smi:local/origin/220">
        <time>
          <value>2012-09-15T07:50:35.284000Z</value>
        </time>
        <latitude>
          <value>35.656843</value>
        </latitude>
        <longitude>
          <value>-98.25959</value>
        </longitude>
        <depth>
          <value>4.25958</value>
        </depth>
        <comment id="smi:local/244d4768-0e10-4537-8a43-3898a487c0dd">
          <text>Cluster 0 event; in analyst catalog, REDPy detection time = 2012-09-15T07:50:36.990000Z</text>
        </comment>
      </origin>
      <magnitude publicID="smi:local/magnitude/220">
        <mag>
          <value>0.24</value>
        </mag>
      </magnitude>
      <pick publicID="smi:local/499a7192-e111-4c84-b83d-d11b04545176">
        <time>
          <value>2012-09-15T07:50:37.282000Z</value>
        </time>
        <waveformID networkCode="JP" stationCode="ST6" locationCode="00" channelCode="HHZ"></waveformID>
        <phaseHint>P</phaseHint>
      </pick>
      <pick publicID="smi:local/eea202a5-559c-4e6a-a21b-35052c2862b3">
        <time>
          <value>2012-09-15T07:50:37.251000Z</value>
        </time>
        <waveformID networkCode="JP" stationCode="ST7" locationCode="00" channelCode="HHZ"></waveformID>
        <phaseHint>P</phaseHint>
      </pick>
      <pick publicID="smi:local/feedc6be-8de2-4adf-a59f-76baa47428aa">
        <time>
          <value>2012-09-15T07:50:36.615000Z</value>
        </time>
        <waveformID networkCode="JP" stationCode="ST8" locationCode="00" channelCode="HHZ"></waveformID>
        <phaseHint>P</phaseHint>
      </pick>
      <pick publicID="smi:local/070e07fc-4af7-4a13-92e7-fd32e404a72a">
        <time>
          <value>2012-09-15T07:50:36.625000Z</value>
        </time>
        <waveformID networkCode="JP" stationCode="ST9" locationCode="00" channelCode="HHZ"></waveformID>
        <phaseHint>P</phaseHint>
      </pick>
      <pick publicID="smi:local/ebcf7c1f-ffba-4517-9db2-b9554b35913e">
        <time>
          <value>2012-09-15T07:50:37.338000Z</value>
        </time>
        <waveformID networkCode="JP" stationCode="ST11" locationCode="00" channelCode="HHZ"></waveformID>
        <phaseHint>P</phaseHint>
      </pick>
      <pick publicID="smi:local/acc664fd-ec77-40d3-8674-3b2be5bc1d6b">
        <time>
          <value>2012-09-15T07:50:36.998000Z</value>
        </time>
        <waveformID networkCode="JP" stationCode="ST12" locationCode="00" channelCode="HHZ"></waveformID>
        <phaseHint>P</phaseHint>
      </pick>
      <pick publicID="smi:local/49ae8130-c11d-4c0c-a734-8b8e610b1f92">
        <time>
          <value>2012-09-15T07:50:36.855000Z</value>
        </time>
        <waveformID networkCode="JP" stationCode="ST13" locationCode="00" channelCode="HHZ"></waveformID>
        <phaseHint>P</phaseHint>
      </pick>
      <pick publicID="smi:local/5622c352-5316-4e36-8db9-aaadde21e1e5">
        <time>
          <value>2012-09-15T07:50:38.376000Z</value>
        </time>
        <waveformID networkCode="JP" stationCode="ST6" locationCode="00" channelCode="HHN"></waveformID>
        <phaseHint>S</phaseHint>
      </pick>
      <pick publicID="smi:local/6d0c376b-a04a-4f81-9649-1fd93ebe0f65">
        <time>
          <value>2012-09-15T07:50:38.105000Z</value>
        </time>
        <waveformID networkCode="JP" stationCode="ST7" locationCode="00" channelCode="HHN"></waveformID>
        <phaseHint>S</phaseHint>
      </pick>
      <pick publicID="smi:local/7478a05f-82a5-42a6-a1fb-5b1989b70235">
        <time>
          <value>2012-09-15T07:50:37.740000Z</value>
        </time>
        <waveformID networkCode="JP" stationCode="ST8" locationCode="00" channelCode="HHN"></waveformID>
        <phaseHint>S</phaseHint>
      </pick>
      <pick publicID="smi:local/d9fde1e0-5c18-4317-90dc-a2d1eccec5ed">
        <time>
          <value>2012-09-15T07:50:37.876000Z</value>
        </time>
        <waveformID networkCode="JP" stationCode="ST9" locationCode="00" channelCode="HHN"></waveformID>
        <phaseHint>S</phaseHint>
      </pick>
      <pick publicID="smi:local/2d2273ee-c675-4d05-96bf-7a44ad08ce68">
        <time>
          <value>2012-09-15T07:50:38.929000Z</value>
        </time>
        <waveformID networkCode="JP" stationCode="ST11" locationCode="00" channelCode="HHN"></waveformID>
        <phaseHint>S</phaseHint>
      </pick>
      <pick publicID="smi:local/e874e482-be5f-4733-b7ad-9709e952b53c">
        <time>
          <value>2012-09-15T07:50:38.491000Z</value>
        </time>
        <waveformID networkCode="JP" stationCode="ST12" locationCode="00" channelCode="HHN"></waveformID>
        <phaseHint>S</phaseHint>
      </pick>
      <pick publicID="smi:local/55e9eda7-5556-46bd-b006-c32c615fd058">
        <time>
          <value>2012-09-15T07:50:38.157000Z</value>
        </time>
        <waveformID networkCode="JP" stationCode="ST13" locationCode="00" channelCode="HHN"></waveformID>
        <phaseHint>S</phaseHint>
      </pick>
    </event>
    <event publicID="smi:local/event/218">
      <preferredOriginID>smi:local/origin/218</preferredOriginID>
      <preferredMagnitudeID>smi:local/magnitude/218</preferredMagnitudeID>
      <origin publicID="smi:local/origin/218">
        <time>
          <value>2012-09-15T07:52:26.700000Z</value>
        </time>
        <latitude>
          <value>35.658628</value>
        </latitude>
        <longitude>
          <value>-98.262356</value>
        </longitude>
        <depth>
          <value>4.725924</value>
        </depth>
        <comment id="smi:local/5bbb7ba2-7cfa-4181-9b68-5f757312d9c7">
          <text>Cluster 0 event; in analyst catalog, REDPy detection time = 2012-09-15T07:52:28.200000Z</text>
        </comment>
      </origin>
      <magnitude publicID="smi:local/magnitude/218">
        <mag>
          <value>0.63</value>
        </mag>
      </magnitude>
      <pick publicID="smi:local/943b85cb-8a19-4b62-a8b2-efc1435b71ba">
        <time>
          <value>2012-09-15T07:52:29.657000Z</value>
        </time>
        <waveformID networkCode="JP" stationCode="ST4" locationCode="00" channelCode="HHZ"></waveformID>
        <phaseHint>P</phaseHint>
      </pick>
      <pick publicID="smi:local/70dc5178-85b2-4167-951b-478dd4106d7b">
        <time>
          <value>2012-09-15T07:52:28.330000Z</value>
        </time>
        <waveformID networkCode="JP" stationCode="ST6" locationCode="00" channelCode="HHZ"></waveformID>
        <phaseHint>P</phaseHint>
      </pick>
      <pick publicID="smi:local/21b21d59-d170-4853-9130-b3d84762991f">
        <time>
          <value>2012-09-15T07:52:29.420000Z</value>
        </time>
        <waveformID networkCode="JP" stationCode="ST7" locationCode="00" channelCode="HHZ"></waveformID>
        <phaseHint>P</phaseHint>
      </pick>
      <pick publicID="smi:local/b193f88f-5e21-4389-b191-678fd160e138">
        <time>
          <value>2012-09-15T07:52:27.980000Z</value>
        </time>
        <waveformID networkCode="JP" stationCode="ST8" locationCode="00" channelCode="HHZ"></waveformID>
        <phaseHint>P</phaseHint>
      </pick>
      <pick publicID="smi:local/f2bc39d2-8454-4d70-9da1-b8986f6d0173">
        <time>
          <value>2012-09-15T07:52:27.986000Z</value>
        </time>
        <waveformID networkCode="JP" stationCode="ST9" locationCode="00" channelCode="HHZ"></waveformID>
        <phaseHint>P</phaseHint>
      </pick>
      <pick publicID="smi:local/ec0c420c-0715-4301-b20e-22b5be5ae0d7">
        <time>
          <value>2012-09-15T07:52:29.430000Z</value>
        </time>
        <waveformID networkCode="JP" stationCode="ST10" locationCode="00" channelCode="HHZ"></waveformID>
        <phaseHint>P</phaseHint>
      </pick>
      <pick publicID="smi:local/2353a32e-bc60-4575-b796-32d15d3f1c17">
        <time>
          <value>2012-09-15T07:52:28.631000Z</value>
        </time>
