<?xml version='1.0' encoding='utf-8'?>
<q:quakeml xmlns="http://quakeml.org/xmlns/bed/1.2" xmlns:q="http://quakeml.org/xmlns/quakeml/1.2">
  <eventParameters publicID="smi:local/038bfc45-0eb4-450c-821c-b605f490b9f2">
    <event publicID="smi:local/event/1">
      <preferredOriginID>smi:local/origin/1</preferredOriginID>
      <preferredMagnitudeID>smi:local/magnitude/1</preferredMagnitudeID>
      <origin publicID="smi:local/origin/1">
        <time>
          <value>2012-10-04T12:32:25.478000Z</value>
        </time>
        <latitude>
          <value>35.656684</value>
        </latitude>
        <longitude>
          <value>-98.257011</value>
        </longitude>
        <depth>
          <value>5.392826</value>
        </depth>
      </origin>
      <magnitude publicID="smi:local/magnitude/1">
        <mag>
          <value>0.27</value>
        </mag>
      </magnitude>
      <pick publicID="smi:local/dfe730e6-2684-43b4-b1ec-dcd9b81a3cb0">
        <time>
          <value>2012-10-04T12:32:27.415000Z</value>
        </time>
        <waveformID networkCode="JP" stationCode="ST6" locationCode="00" channelCode="HHZ"></waveformID>
        <phaseHint>P</phaseHint>
      </pick>
      <pick publicID="smi:local/e3b747cf-bc81-4360-b228-5c79dfed23f3">
        <time>
          <value>2012-10-04T12:32:27.233000Z</value>
        </time>
        <waveformID networkCode="JP" stationCode="ST7" locationCode="00" channelCode="HHZ"></waveformID>
        <phaseHint>P</phaseHint>
      </pick>
      <pick publicID="smi:local/a3e390fe-4903-4c23-9a02-fce2405eb8da">
        <time>
          <value>2012-10-04T12:32:27.073000Z</value>
        </time>
        <waveformID networkCode="JP" stationCode="ST8" locationCode="00" channelCode="HHZ"></waveformID>
        <phaseHint>P</phaseHint>
      </pick>
      <pick publicID="smi:local/ca5d79c5-7b48-417d-851e-5e78356f5d08">
        <time>
          <value>2012-10-04T12:32:27.211000Z</value>
        </time>
        <waveformID networkCode="JP" stationCode="ST10" locationCode="00" channelCode="HHZ"></waveformID>
        <phaseHint>P</phaseHint>
      </pick>
      <pick publicID="smi:local/a811f785-4b59-4060-85d7-2acd61938a13">
        <time>
          <value>2012-10-04T12:32:27.451000Z</value>
        </time>
        <waveformID networkCode="JP" stationCode="ST12" locationCode="00" channelCode="HHZ"></waveformID>
        <phaseHint>P</phaseHint>
      </pick>
      <pick publicID="smi:local/b9368dbc-1353-488f-b4aa-20bb160e5522">
        <time>
          <value>2012-10-04T12:32:28.881000Z</value>
        </time>
        <waveformID networkCode="JP" stationCode="ST6" locationCode="00" channelCode="HHN"></waveformID>
        <phaseHint>S</phaseHint>
      </pick>
      <pick publicID="smi:local/2c1c47c1-f030-4348-a01c-1960bc489a6a">
        <time>
          <value>2012-10-04T12:32:28.594000Z</value>
        </time>
        <waveformID networkCode="JP" stationCode="ST7" locationCode="00" channelCode="HHN"></waveformID>
        <phaseHint>S</phaseHint>
      </pick>
      <pick publicID="smi:local/9f452995-b6db-4de1-b7e5-6f279ccd47f2">
        <time>
          <value>2012-10-04T12:32:28.225000Z</value>
        </time>
        <waveformID networkCode="JP" stationCode="ST8" locationCode="00" channelCode="HHN"></waveformID>
        <phaseHint>S</phaseHint>
      </pick>
      <pick publicID="smi:local/e2a16e23-636e-473c-a941-e7bbb8e3143a">
        <time>
          <value>2012-10-04T12:32:28.486000Z</value>
        </time>
        <waveformID networkCode="JP" stationCode="ST10" locationCode="00" channelCode="HHN"></waveformID>
        <phaseHint>S</phaseHint>
      </pick>
      <pick publicID="smi:local/98c6e261-1ffe-4db7-b602-49d52803a377">
        <time>
          <value>2012-10-04T12:32:28.830000Z</value>
        </time>
        <waveformID networkCode="JP" stationCode="ST12" locationCode="00" channelCode="HHN"></waveformID>
        <phaseHint>S</phaseHint>
      </pick>
    </event>
    <event publicID="smi:local/event/2">
      <preferredOriginID>smi:local/origin/2</preferredOriginID>
      <preferredMagnitudeID>smi:local/magnitude/2</preferredMagnitudeID>
      <origin publicID="smi:local/origin/2">
        <time>
          <value>2012-10-04T00:53:49.930000Z</value>
        </time>
        <latitude>
          <value>35.656984</value>
        </latitude>
        <longitude>
          <value>-98.257898</value>
        </longitude>
        <depth>
          <value>5.064557</value>
        </depth>
      </origin>
      <magnitude publicID="smi:local/magnitude/2">
        <mag>
          <value>0.42</value>
        </mag>
      </magnitude>
      <pick publicID="smi:local/066bd8bc-49b0-4e34-ab9c-8c922bd7a4fb">
        <time>
          <value>2012-10-04T00:53:51.838000Z</value>
        </time>
        <waveformID networkCode="JP" stationCode="ST6" locationCode="00" channelCode="HHZ"></waveformID>
        <phaseHint>P</phaseHint>
      </pick>
      <pick publicID="smi:local/a4110c1d-cc08-4d8b-9416-b4d0beb9dd01">
        <time>
          <value>2012-10-04T00:53:51.683000Z</value>
        </time>
        <waveformID networkCode="JP" stationCode="ST7" locationCode="00" channelCode="HHZ"></waveformID>
        <phaseHint>P</phaseHint>
      </pick>
      <pick publicID="smi:local/e4846dc3-0fe4-4a28-8891-033bfa39718a">
        <time>
          <value>2012-10-04T00:53:51.466000Z</value>
        </time>
        <waveformID networkCode="JP" stationCode="ST8" locationCode="00" channelCode="HHZ"></waveformID>
        <phaseHint>P</phaseHint>
      </pick>
      <pick publicID="smi:local/0028523a-dfb0-446a-a3eb-22f6b8fba7f7">
        <time>
          <value>2012-10-04T00:53:51.631000Z</value>
        </time>
        <waveformID networkCode="JP" stationCode="ST10" locationCode="00" channelCode="HHZ"></waveformID>
        <phaseHint>P</phaseHint>
      </pick>
      <pick publicID="smi:local/a43d13ab-69cb-4d95-b6d5-2a9a928746c3">
        <time>
          <value>2012-10-04T00:53:52.163000Z</value>
        </time>
        <waveformID networkCode="JP" stationCode="ST11" locationCode="00" channelCode="HHZ"></waveformID>
        <phaseHint>P</phaseHint>
      </pick>
      <pick publicID="smi:local/fd03a491-a99f-44de-a5ed-a40262d3d98e">
        <time>
          <value>2012-10-04T00:53:51.779000Z</value>
        </time>
        <waveformID networkCode="JP" stationCode="ST12" locationCode="00" channelCode="HHZ"></waveformID>
        <phaseHint>P</phaseHint>
      </pick>
      <pick publicID="smi:local/f64fd651-071e-4b8b-9083-e8053986344e">
        <time>
          <value>2012-10-04T00:53:51.620000Z</value>
        </time>
        <waveformID networkCode="JP" stationCode="ST14" locationCode="00" channelCode="HHZ"></waveformID>
        <phaseHint>P</phaseHint>
      </pick>
      <pick publicID="smi:local/a17baf41-580a-425c-aeb6-01738106f957">
        <time>
          <value>2012-10-04T00:53:53.227000Z</value>
        </time>
        <waveformID networkCode="JP" stationCode="ST6" locationCode="00" channelCode="HHN"></waveformID>
        <phaseHint>S</phaseHint>
      </pick>
      <pick publicID="smi:local/46460049-063a-4dfc-a9e3-3f1492b837d4">
        <time>
          <value>2012-10-04T00:53:52.953000Z</value>
        </time>
        <waveformID networkCode="JP" stationCode="ST7" locationCode="00" channelCode="HHN"></waveformID>
        <phaseHint>S</phaseHint>
      </pick>
      <pick publicID="smi:local/f9889466-253f-45e0-9e67-a46ef15cc7c3">
        <time>
          <value>2012-10-04T00:53:52.610000Z</value>
        </time>
        <waveformID networkCode="JP" stationCode="ST8" locationCode="00" channelCode="HHN"></waveformID>
        <phaseHint>S</phaseHint>
      </pick>
      <pick publicID="smi:local/34c0b025-c8b6-4969-8dbf-9ee196ab6b76">
        <time>
          <value>2012-10-04T00:53:52.901000Z</value>
        </time>
        <waveformID networkCode="JP" stationCode="ST10" locationCode="00" channelCode="HHN"></waveformID>
        <phaseHint>S</phaseHint>
      </pick>
      <pick publicID="smi:local/9f1f2d99-3203-4f8c-810a-3fee99d1b40c">
        <time>
          <value>2012-10-04T00:53:53.725000Z</value>
        </time>
        <waveformID networkCode="JP" stationCode="ST11" locationCode="00" channelCode="HHN"></waveformID>
        <phaseHint>S</phaseHint>
      </pick>
      <pick publicID="smi:local/ce4fd73c-6765-4c55-a733-7fb4902ca9a7">
        <time>
          <value>2012-10-04T00:53:53.210000Z</value>
        </time>
        <waveformID networkCode="JP" stationCode="ST12" locationCode="00" channelCode="HHN"></waveformID>
        <phaseHint>S</phaseHint>
      </pick>
      <pick publicID="smi:local/24a535b7-e4a3-4e8b-b6fd-8279a17b74bb">
        <time>
          <value>2012-10-04T00:53:52.940000Z</value>
        </time>
        <waveformID networkCode="JP" stationCode="ST14" locationCode="00" channelCode="HHN"></waveformID>
        <phaseHint>S</phaseHint>
      </pick>
    </event>
    <event publicID="smi:local/event/4">
      <preferredOriginID>smi:local/origin/4</preferredOriginID>
      <preferredMagnitudeID>smi:local/magnitude/4</preferredMagnitudeID>
      <origin publicID="smi:local/origin/4">
        <time>
          <value>2012-10-03T15:01:17.179000Z</value>
        </time>
        <latitude>
          <value>35.657663</value>
        </latitude>
        <longitude>
          <value>-98.257523</value>
        </longitude>
        <depth>
          <value>5.378806</value>
        </depth>
      </origin>
      <magnitude publicID="smi:local/magnitude/4">
        <mag>
          <value>0.28</value>
        </mag>
      </magnitude>
      <pick publicID="smi:local/3d405451-d598-4fad-baa1-84d1129321e2">
        <time>
          <value>2012-10-03T15:01:19.098000Z</value>
        </time>
        <waveformID networkCode="JP" stationCode="ST6" locationCode="00" channelCode="HHZ"></waveformID>
        <phaseHint>P</phaseHint>
      </pick>
      <pick publicID="smi:local/84bf3c2b-3fa5-453f-9846-0311a1b78dc0">
        <time>
          <value>2012-10-03T15:01:18.991000Z</value>
        </time>
        <waveformID networkCode="JP" stationCode="ST7" locationCode="00" channelCode="HHZ"></waveformID>
        <phaseHint>P</phaseHint>
      </pick>
      <pick publicID="smi:local/d3032aff-fab7-4b29-8810-9eee202bb6bf">
        <time>
          <value>2012-10-03T15:01:18.809000Z</value>
        </time>
        <waveformID networkCode="JP" stationCode="ST8" locationCode="00" channelCode="HHZ"></waveformID>
        <phaseHint>P</phaseHint>
      </pick>
      <pick publicID="smi:local/6d34a44c-bf18-4427-9169-c89fc2f0769e">
        <time>
          <value>2012-10-03T15:01:19.119000Z</value>
        </time>
        <waveformID networkCode="JP" stationCode="ST9" locationCode="00" channelCode="HHZ"></waveformID>
        <phaseHint>P</phaseHint>
      </pick>
      <pick publicID="smi:local/8bb62bfc-7422-4bd0-8fbd-dfaad4c1fe4b">
        <time>
          <value>2012-10-03T15:01:18.918000Z</value>
        </time>
        <waveformID networkCode="JP" stationCode="ST12" locationCode="00" channelCode="HHZ"></waveformID>
        <phaseHint>P</phaseHint>
      </pick>
      <pick publicID="smi:local/78df1bc1-84b5-429d-8ece-3de09d4f8a0b">
        <time>
          <value>2012-10-03T15:01:20.537000Z</value>
        </time>
        <waveformID networkCode="JP" stationCode="ST6" locationCode="00" channelCode="HHN"></waveformID>
        <phaseHint>S</phaseHint>
      </pick>
      <pick publicID="smi:local/e979367d-8802-464b-bcdf-832821680b33">
        <time>
          <value>2012-10-03T15:01:20.279000Z</value>
        </time>
        <waveformID networkCode="JP" stationCode="ST7" locationCode="00" channelCode="HHN"></waveformID>
        <phaseHint>S</phaseHint>
      </pick>
      <pick publicID="smi:local/bd712279-9657-4de6-b113-4a721e8c1bb8">
        <time>
          <value>2012-10-03T15:01:20.006000Z</value>
        </time>
        <waveformID networkCode="JP" stationCode="ST8" locationCode="00" channelCode="HHN"></waveformID>
        <phaseHint>S</phaseHint>
      </pick>
      <pick publicID="smi:local/02380a3b-ea4d-46f0-ae68-ef61be6722ec">
        <time>
          <value>2012-10-03T15:01:19.974000Z</value>
        </time>
        <waveformID networkCode="JP" stationCode="ST9" locationCode="00" channelCode="HHN"></waveformID>
        <phaseHint>S</phaseHint>
      </pick>
      <pick publicID="smi:local/89791ac6-7051-4f4a-89cf-a27eb127c082">
        <time>
          <value>2012-10-03T15:01:20.518000Z</value>
        </time>
        <waveformID networkCode="JP" stationCode="ST12" locationCode="00" channelCode="HHN"></waveformID>
        <phaseHint>S</phaseHint>
      </pick>
      <pick publicID="smi:local/af934a3f-3c5c-4365-886a-3bb5aeb3c261">
        <time>
          <value>2012-10-03T15:01:20.199000Z</value>
        </time>
        <waveformID networkCode="JP" stationCode="ST13" locationCode="00" channelCode="HHN"></waveformID>
        <phaseHint>S</phaseHint>
      </pick>
    </event>
    <event publicID="smi:local/event/5">
      <preferredOriginID>smi:local/origin/5</preferredOriginID>
      <preferredMagnitudeID>smi:local/magnitude/5</preferredMagnitudeID>
      <origin publicID="smi:local/origin/5">
        <time>
          <value>2012-10-02T08:32:19.196000Z</value>
        </time>
        <latitude>
          <value>35.657006</value>
        </latitude>
        <longitude>
          <value>-98.257867</value>
        </longitude>
        <depth>
          <value>4.980737</value>
        </depth>
      </origin>
      <magnitude publicID="smi:local/magnitude/5">
        <mag>
          <value>0.19</value>
        </mag>
      </magnitude>
      <pick publicID="smi:local/8e65b405-5a8b-4d85-bad6-a5ce3b26d872">
        <time>
          <value>2012-10-02T08:32:20.924000Z</value>
        </time>
        <waveformID networkCode="JP" stationCode="ST3" locationCode="00" channelCode="HHZ"></waveformID>
        <phaseHint>P</phaseHint>
      </pick>
      <pick publicID="smi:local/ab93b9ff-0674-4542-a991-c74968ad24db">
        <time>
          <value>2012-10-02T08:32:20.877000Z</value>
        </time>
        <waveformID networkCode="JP" stationCode="ST7" locationCode="00" channelCode="HHZ"></waveformID>
        <phaseHint>P</phaseHint>
      </pick>
      <pick publicID="smi:local/7c717cb5-c58c-4c2c-a901-6f1403864c0c">
        <time>
          <value>2012-10-02T08:32:21.406000Z</value>
        </time>
        <waveformID networkCode="JP" stationCode="ST10" locationCode="00" channelCode="HHZ"></waveformID>
        <phaseHint>P</phaseHint>
      </pick>
      <pick publicID="smi:local/602f85d1-027d-4c17-9389-a084f09bab54">
        <time>
          <value>2012-10-02T08:32:21.173000Z</value>
        </time>
        <waveformID networkCode="JP" stationCode="ST11" locationCode="00" channelCode="HHZ"></waveformID>
        <phaseHint>P</phaseHint>
      </pick>
      <pick publicID="smi:local/e9afe725-6ca2-43ab-b54f-65a65ad3312c">
        <time>
          <value>2012-10-02T08:32:20.870000Z</value>
        </time>
        <waveformID networkCode="JP" stationCode="ST12" locationCode="00" channelCode="HHZ"></waveformID>
        <phaseHint>P</phaseHint>
      </pick>
      <pick publicID="smi:local/70d9f344-2dc0-499e-9c8d-fa4762c82c14">
        <time>
          <value>2012-10-02T08:32:20.877000Z</value>
        </time>
        <waveformID networkCode="JP" stationCode="ST13" locationCode="00" channelCode="HHZ"></waveformID>
        <phaseHint>P</phaseHint>
      </pick>
      <pick publicID="smi:local/e4c3d859-c27c-4d01-bdd5-9117753bef07">
        <time>
          <value>2012-10-02T08:32:24.145000Z</value>
        </time>
        <waveformID networkCode="JP" stationCode="ST3" locationCode="00" channelCode="HHN"></waveformID>
        <phaseHint>S</phaseHint>
      </pick>
      <pick publicID="smi:local/063ad1a4-19f1-4f7a-809d-566920e3b85f">
        <time>
          <value>2012-10-02T08:32:22.200000Z</value>
        </time>
        <waveformID networkCode="JP" stationCode="ST7" locationCode="00" channelCode="HHN"></waveformID>
        <phaseHint>S</phaseHint>
      </pick>
      <pick publicID="smi:local/c056d779-31c6-4c82-8e80-6cd6f3ca0604">
        <time>
          <value>2012-10-02T08:32:22.153000Z</value>
        </time>
        <waveformID networkCode="JP" stationCode="ST10" locationCode="00" channelCode="HHN"></waveformID>
        <phaseHint>S</phaseHint>
      </pick>
      <pick publicID="smi:local/1ee7f93e-e621-4e30-8b1d-9b2309a013a2">
        <time>
          <value>2012-10-02T08:32:22.947000Z</value>
        </time>
        <waveformID networkCode="JP" stationCode="ST11" locationCode="00" channelCode="HHN"></waveformID>
        <phaseHint>S</phaseHint>
      </pick>
      <pick publicID="smi:local/8738e89a-6125-4086-be91-9450bc32e569">
        <time>
          <value>2012-10-02T08:32:22.465000Z</value>
        </time>
        <waveformID networkCode="JP" stationCode="ST12" locationCode="00" channelCode="HHN"></waveformID>
        <phaseHint>S</phaseHint>
      </pick>
      <pick publicID="smi:local/1a61a482-6fbc-47d5-9f98-22088fd80e49">
        <time>
          <value>2012-10-02T08:32:22.169000Z</value>
        </time>
        <waveformID networkCode="JP" stationCode="ST13" locationCode="00" channelCode="HHN"></waveformID>
        <phaseHint>S</phaseHint>
      </pick>
      <pick publicID="smi:local/166e7323-39ca-4036-be21-79d4f9a4014e">
        <time>
          <value>2012-10-02T08:32:22.169000Z</value>
        </time>
        <waveformID networkCode="JP" stationCode="ST14" locationCode="00" channelCode="HHN"></waveformID>
        <phaseHint>S</phaseHint>
      </pick>
    </event>
    <event publicID="smi:local/event/6">
      <preferredOriginID>smi:local/origin/6</preferredOriginID>
      <preferredMagnitudeID>smi:local/magnitude/6</preferredMagnitudeID>
      <origin publicID="smi:local/origin/6">
        <time>
          <value>2012-10-02T07:35:52.429000Z</value>
        </time>
        <latitude>
          <value>35.656975</value>
        </latitude>
        <longitude>
          <value>-98.258227</value>
        </longitude>
        <depth>
          <value>5.123993</value>
        </depth>
      </origin>
      <magnitude publicID="smi:local/magnitude/6">
        <mag>
          <value>0.72</value>
        </mag>
      </magnitude>
      <pick publicID="smi:local/828b7045-4dd6-439f-9905-39267ab3fe20">
        <time>
          <value>2012-10-02T07:35:55.140000Z</value>
        </time>
        <waveformID networkCode="JP" stationCode="ST1" locationCode="00" channelCode="HHZ"></waveformID>
        <phaseHint>P</phaseHint>
      </pick>
      <pick publicID="smi:local/a971698d-c17c-43f4-9fa8-c6f34f288bec">
        <time>
          <value>2012-10-02T07:35:55.180000Z</value>
        </time>
        <waveformID networkCode="JP" stationCode="ST2" locationCode="00" channelCode="HHZ"></waveformID>
        <phaseHint>P</phaseHint>
      </pick>
      <pick publicID="smi:local/444f90ef-d2df-4794-b19d-cef5a7ab0f33">
        <time>
          <value>2012-10-02T07:35:55.270000Z</value>
        </time>
        <waveformID networkCode="JP" stationCode="ST3" locationCode="00" channelCode="HHZ"></waveformID>
        <phaseHint>P</phaseHint>
      </pick>
      <pick publicID="smi:local/c008bcf7-2070-4783-a444-204ff5b53407">
        <time>
          <value>2012-10-02T07:35:54.196000Z</value>
        </time>
        <waveformID networkCode="JP" stationCode="ST7" locationCode="00" channelCode="HHZ"></waveformID>
        <phaseHint>P</phaseHint>
      </pick>
      <pick publicID="smi:local/57f20d9b-37ae-4a17-8e23-227c1d578cd6">
        <time>
          <value>2012-10-02T07:35:53.990000Z</value>
        </time>
        <waveformID networkCode="JP" stationCode="ST8" locationCode="00" channelCode="HHZ"></waveformID>
        <phaseHint>P</phaseHint>
      </pick>
      <pick publicID="smi:local/8fa57375-691f-4e90-b5bb-772d71357d76">
        <time>
