<?xml version='1.0' encoding='utf-8'?>
<q:quakeml xmlns="http://quakeml.org/xmlns/bed/1.2" xmlns:q="http://quakeml.org/xmlns/quakeml/1.2">
  <eventParameters publicID="smi:local/543d2721-4763-4c94-a2d3-ab77f4e452da">
    <event publicID="smi:local/event/1">
      <preferredOriginID>smi:local/origin/1</preferredOriginID>
      <preferredMagnitudeID>smi:local/magnitude/1</preferredMagnitudeID>
      <origin publicID="smi:local/origin/1">
        <time>
          <value>2012-10-04T12:32:25.478000Z</value>
        </time>
        <latitude>
          <value>35.656684</value>
        </latitude>
        <longitude>
          <value>-98.257011</value>
        </longitude>
        <depth>
          <value>5.392826</value>
        </depth>
      </origin>
      <magnitude publicID="smi:local/magnitude/1">
        <mag>
          <value>0.27</value>
        </mag>
      </magnitude>
      <pick publicID="smi:local/dfe730e6-2684-43b4-b1ec-dcd9b81a3cb0">
        <time>
          <value>2012-10-04T12:32:27.415000Z</value>
        </time>
        <waveformID networkCode="JP" stationCode="ST6" locationCode="00" channelCode="HHZ"></waveformID>
        <phaseHint>P</phaseHint>
      </pick>
      <pick publicID="smi:local/e3b747cf-bc81-4360-b228-5c79dfed23f3">
        <time>
          <value>2012-10-04T12:32:27.233000Z</value>
        </time>
        <waveformID networkCode="JP" stationCode="ST7" locationCode="00" channelCode="HHZ"></waveformID>
        <phaseHint>P</phaseHint>
      </pick>
      <pick publicID="smi:local/a3e390fe-4903-4c23-9a02-fce2405eb8da">
        <time>
          <value>2012-10-04T12:32:27.073000Z</value>
        </time>
        <waveformID networkCode="JP" stationCode="ST8" locationCode="00" channelCode="HHZ"></waveformID>
        <phaseHint>P</phaseHint>
      </pick>
      <pick publicID="smi:local/ca5d79c5-7b48-417d-851e-5e78356f5d08">
        <time>
          <value>2012-10-04T12:32:27.211000Z</value>
        </time>
        <waveformID networkCode="JP" stationCode="ST10" locationCode="00" channelCode="HHZ"></waveformID>
        <phaseHint>P</phaseHint>
      </pick>
      <pick publicID="smi:local/a811f785-4b59-4060-85d7-2acd61938a13">
        <time>
          <value>2012-10-04T12:32:27.451000Z</value>
        </time>
        <waveformID networkCode="JP" stationCode="ST12" locationCode="00" channelCode="HHZ"></waveformID>
        <phaseHint>P</phaseHint>
      </pick>
      <pick publicID="smi:local/b9368dbc-1353-488f-b4aa-20bb160e5522">
        <time>
          <value>2012-10-04T12:32:28.881000Z</value>
        </time>
        <waveformID networkCode="JP" stationCode="ST6" locationCode="00" channelCode="HHN"></waveformID>
        <phaseHint>S</phaseHint>
      </pick>
      <pick publicID="smi:local/2c1c47c1-f030-4348-a01c-1960bc489a6a">
        <time>
          <value>2012-10-04T12:32:28.594000Z</value>
        </time>
        <waveformID networkCode="JP" stationCode="ST7" locationCode="00" channelCode="HHN"></waveformID>
        <phaseHint>S</phaseHint>
      </pick>
      <pick publicID="smi:local/9f452995-b6db-4de1-b7e5-6f279ccd47f2">
        <time>
          <value>2012-10-04T12:32:28.225000Z</value>
        </time>
        <waveformID networkCode="JP" stationCode="ST8" locationCode="00" channelCode="HHN"></waveformID>
        <phaseHint>S</phaseHint>
      </pick>
      <pick publicID="smi:local/e2a16e23-636e-473c-a941-e7bbb8e3143a">
        <time>
          <value>2012-10-04T12:32:28.486000Z</value>
        </time>
        <waveformID networkCode="JP" stationCode="ST10" locationCode="00" channelCode="HHN"></waveformID>
        <phaseHint>S</phaseHint>
      </pick>
      <pick publicID="smi:local/98c6e261-1ffe-4db7-b602-49d52803a377">
        <time>
          <value>2012-10-04T12:32:28.830000Z</value>
        </time>
        <waveformID networkCode="JP" stationCode="ST12" locationCode="00" channelCode="HHN"></waveformID>
        <phaseHint>S</phaseHint>
      </pick>
    </event>
    <event publicID="smi:local/event/2">
      <preferredOriginID>smi:local/origin/2</preferredOriginID>
      <preferredMagnitudeID>smi:local/magnitude/2</preferredMagnitudeID>
      <origin publicID="smi:local/origin/2">
        <time>
          <value>2012-10-04T00:53:49.930000Z</value>
        </time>
        <latitude>
          <value>35.656984</value>
        </latitude>
        <longitude>
          <value>-98.257898</value>
        </longitude>
        <depth>
          <value>5.064557</value>
        </depth>
      </origin>
      <magnitude publicID="smi:local/magnitude/2">
        <mag>
          <value>0.42</value>
        </mag>
      </magnitude>
      <pick publicID="smi:local/066bd8bc-49b0-4e34-ab9c-8c922bd7a4fb">
        <time>
          <value>2012-10-04T00:53:51.838000Z</value>
        </time>
        <waveformID networkCode="JP" stationCode="ST6" locationCode="00" channelCode="HHZ"></waveformID>
        <phaseHint>P</phaseHint>
      </pick>
      <pick publicID="smi:local/a4110c1d-cc08-4d8b-9416-b4d0beb9dd01">
        <time>
          <value>2012-10-04T00:53:51.683000Z</value>
        </time>
        <waveformID networkCode="JP" stationCode="ST7" locationCode="00" channelCode="HHZ"></waveformID>
        <phaseHint>P</phaseHint>
      </pick>
      <pick publicID="smi:local/e4846dc3-0fe4-4a28-8891-033bfa39718a">
        <time>
          <value>2012-10-04T00:53:51.466000Z</value>
        </time>
        <waveformID networkCode="JP" stationCode="ST8" locationCode="00" channelCode="HHZ"></waveformID>
        <phaseHint>P</phaseHint>
      </pick>
      <pick publicID="smi:local/0028523a-dfb0-446a-a3eb-22f6b8fba7f7">
        <time>
          <value>2012-10-04T00:53:51.631000Z</value>
        </time>
        <waveformID networkCode="JP" stationCode="ST10" locationCode="00" channelCode="HHZ"></waveformID>
        <phaseHint>P</phaseHint>
      </pick>
      <pick publicID="smi:local/a43d13ab-69cb-4d95-b6d5-2a9a928746c3">
        <time>
          <value>2012-10-04T00:53:52.163000Z</value>
        </time>
        <waveformID networkCode="JP" stationCode="ST11" locationCode="00" channelCode="HHZ"></waveformID>
        <phaseHint>P</phaseHint>
      </pick>
      <pick publicID="smi:local/fd03a491-a99f-44de-a5ed-a40262d3d98e">
        <time>
          <value>2012-10-04T00:53:51.779000Z</value>
        </time>
        <waveformID networkCode="JP" stationCode="ST12" locationCode="00" channelCode="HHZ"></waveformID>
        <phaseHint>P</phaseHint>
      </pick>
      <pick publicID="smi:local/f64fd651-071e-4b8b-9083-e8053986344e">
        <time>
          <value>2012-10-04T00:53:51.620000Z</value>
        </time>
        <waveformID networkCode="JP" stationCode="ST14" locationCode="00" channelCode="HHZ"></waveformID>
        <phaseHint>P</phaseHint>
      </pick>
      <pick publicID="smi:local/a17baf41-580a-425c-aeb6-01738106f957">
        <time>
          <value>2012-10-04T00:53:53.227000Z</value>
        </time>
        <waveformID networkCode="JP" stationCode="ST6" locationCode="00" channelCode="HHN"></waveformID>
        <phaseHint>S</phaseHint>
      </pick>
      <pick publicID="smi:local/46460049-063a-4dfc-a9e3-3f1492b837d4">
        <time>
          <value>2012-10-04T00:53:52.953000Z</value>
        </time>
        <waveformID networkCode="JP" stationCode="ST7" locationCode="00" channelCode="HHN"></waveformID>
        <phaseHint>S</phaseHint>
      </pick>
      <pick publicID="smi:local/f9889466-253f-45e0-9e67-a46ef15cc7c3">
        <time>
          <value>2012-10-04T00:53:52.610000Z</value>
        </time>
        <waveformID networkCode="JP" stationCode="ST8" locationCode="00" channelCode="HHN"></waveformID>
        <phaseHint>S</phaseHint>
      </pick>
      <pick publicID="smi:local/34c0b025-c8b6-4969-8dbf-9ee196ab6b76">
        <time>
          <value>2012-10-04T00:53:52.901000Z</value>
        </time>
        <waveformID networkCode="JP" stationCode="ST10" locationCode="00" channelCode="HHN"></waveformID>
        <phaseHint>S</phaseHint>
      </pick>
      <pick publicID="smi:local/9f1f2d99-3203-4f8c-810a-3fee99d1b40c">
        <time>
          <value>2012-10-04T00:53:53.725000Z</value>
        </time>
        <waveformID networkCode="JP" stationCode="ST11" locationCode="00" channelCode="HHN"></waveformID>
        <phaseHint>S</phaseHint>
      </pick>
      <pick publicID="smi:local/ce4fd73c-6765-4c55-a733-7fb4902ca9a7">
        <time>
          <value>2012-10-04T00:53:53.210000Z</value>
        </time>
        <waveformID networkCode="JP" stationCode="ST12" locationCode="00" channelCode="HHN"></waveformID>
        <phaseHint>S</phaseHint>
      </pick>
      <pick publicID="smi:local/24a535b7-e4a3-4e8b-b6fd-8279a17b74bb">
        <time>
          <value>2012-10-04T00:53:52.940000Z</value>
        </time>
        <waveformID networkCode="JP" stationCode="ST14" locationCode="00" channelCode="HHN"></waveformID>
        <phaseHint>S</phaseHint>
      </pick>
    </event>
    <event publicID="smi:local/event/3">
      <preferredOriginID>smi:local/origin/3</preferredOriginID>
      <preferredMagnitudeID>smi:local/magnitude/3</preferredMagnitudeID>
      <origin publicID="smi:local/origin/3">
        <time>
          <value>2012-10-03T15:57:51.615000Z</value>
        </time>
        <latitude>
          <value>35.655555</value>
        </latitude>
        <longitude>
          <value>-98.25827</value>
        </longitude>
        <depth>
          <value>5.089246</value>
        </depth>
      </origin>
      <magnitude publicID="smi:local/magnitude/3">
        <mag>
          <value>0.87</value>
        </mag>
      </magnitude>
      <pick publicID="smi:local/8df2deee-8c7d-43d0-980f-71f473971db9">
        <time>
          <value>2012-10-03T15:57:54.310000Z</value>
        </time>
        <waveformID networkCode="JP" stationCode="ST1" locationCode="00" channelCode="HHZ"></waveformID>
        <phaseHint>P</phaseHint>
      </pick>
      <pick publicID="smi:local/7a9d1d5c-346f-4515-a3e9-5ca050d1bc83">
        <time>
          <value>2012-10-03T15:57:54.350000Z</value>
        </time>
        <waveformID networkCode="JP" stationCode="ST2" locationCode="00" channelCode="HHZ"></waveformID>
        <phaseHint>P</phaseHint>
      </pick>
      <pick publicID="smi:local/dec2d487-6bbb-4a8f-8355-2639edfb0ee5">
        <time>
          <value>2012-10-03T15:57:54.490000Z</value>
        </time>
        <waveformID networkCode="JP" stationCode="ST3" locationCode="00" channelCode="HHZ"></waveformID>
        <phaseHint>P</phaseHint>
      </pick>
      <pick publicID="smi:local/5624e798-d613-4b23-9811-d0e13600cd72">
        <time>
          <value>2012-10-03T15:57:54.720000Z</value>
        </time>
        <waveformID networkCode="JP" stationCode="ST4" locationCode="00" channelCode="HHZ"></waveformID>
        <phaseHint>P</phaseHint>
      </pick>
      <pick publicID="smi:local/811bffcc-0ee5-4d65-b278-5eaae77ae462">
        <time>
          <value>2012-10-03T15:57:54.899000Z</value>
        </time>
        <waveformID networkCode="JP" stationCode="ST5" locationCode="00" channelCode="HHZ"></waveformID>
        <phaseHint>P</phaseHint>
      </pick>
      <pick publicID="smi:local/a41e9d95-4652-40b3-b61d-8ea2353a9654">
        <time>
          <value>2012-10-03T15:57:53.471000Z</value>
        </time>
        <waveformID networkCode="JP" stationCode="ST6" locationCode="00" channelCode="HHZ"></waveformID>
        <phaseHint>P</phaseHint>
      </pick>
      <pick publicID="smi:local/7272a982-d6fb-4126-afc0-306fd5601f50">
        <time>
          <value>2012-10-03T15:57:53.130000Z</value>
        </time>
        <waveformID networkCode="JP" stationCode="ST7" locationCode="00" channelCode="HHZ"></waveformID>
        <phaseHint>P</phaseHint>
      </pick>
      <pick publicID="smi:local/5bf5c89f-da5c-4e8e-879b-ac7cbccdaea6">
        <time>
          <value>2012-10-03T15:57:53.140000Z</value>
        </time>
        <waveformID networkCode="JP" stationCode="ST8" locationCode="00" channelCode="HHZ"></waveformID>
        <phaseHint>P</phaseHint>
      </pick>
      <pick publicID="smi:local/91e84406-2a60-4fe2-ac4b-08525be30ea5">
        <time>
          <value>2012-10-03T15:57:53.300000Z</value>
        </time>
        <waveformID networkCode="JP" stationCode="ST9" locationCode="00" channelCode="HHZ"></waveformID>
        <phaseHint>P</phaseHint>
      </pick>
      <pick publicID="smi:local/1c2dc590-fdeb-4da7-84b6-5fd2858fbb78">
        <time>
          <value>2012-10-03T15:57:53.488000Z</value>
        </time>
        <waveformID networkCode="JP" stationCode="ST10" locationCode="00" channelCode="HHZ"></waveformID>
        <phaseHint>P</phaseHint>
      </pick>
      <pick publicID="smi:local/38a622e7-1170-4d05-bf76-dbe610807b57">
        <time>
          <value>2012-10-03T15:57:53.330000Z</value>
        </time>
        <waveformID networkCode="JP" stationCode="ST12" locationCode="00" channelCode="HHZ"></waveformID>
        <phaseHint>P</phaseHint>
      </pick>
      <pick publicID="smi:local/b7f54c83-a890-4013-9cc4-816fcf9ebf15">
        <time>
          <value>2012-10-03T15:57:53.350000Z</value>
        </time>
        <waveformID networkCode="JP" stationCode="ST13" locationCode="00" channelCode="HHZ"></waveformID>
        <phaseHint>P</phaseHint>
      </pick>
      <pick publicID="smi:local/c0586a33-193a-4f46-8885-1f342059e61d">
        <time>
          <value>2012-10-03T15:57:53.513000Z</value>
        </time>
        <waveformID networkCode="JP" stationCode="ST14" locationCode="00" channelCode="HHZ"></waveformID>
        <phaseHint>P</phaseHint>
      </pick>
      <pick publicID="smi:local/d940ba74-7b2d-48d5-98f7-26dda271df2a">
        <time>
          <value>2012-10-03T15:57:56.350000Z</value>
        </time>
        <waveformID networkCode="JP" stationCode="ST1" locationCode="00" channelCode="HHN"></waveformID>
        <phaseHint>S</phaseHint>
      </pick>
      <pick publicID="smi:local/03c70fc2-cd5a-4c8f-aae1-8368645a11ba">
        <time>
          <value>2012-10-03T15:57:56.346000Z</value>
        </time>
        <waveformID networkCode="JP" stationCode="ST2" locationCode="00" channelCode="HHN"></waveformID>
        <phaseHint>S</phaseHint>
      </pick>
      <pick publicID="smi:local/1f8f830f-3592-409b-9fd6-84daa34b0882">
        <time>
          <value>2012-10-03T15:57:56.490000Z</value>
        </time>
        <waveformID networkCode="JP" stationCode="ST3" locationCode="00" channelCode="HHN"></waveformID>
        <phaseHint>S</phaseHint>
      </pick>
      <pick publicID="smi:local/133d1a1c-ea90-4d6a-92c5-54597f5d5420">
        <time>
          <value>2012-10-03T15:57:56.870000Z</value>
        </time>
        <waveformID networkCode="JP" stationCode="ST4" locationCode="00" channelCode="HHN"></waveformID>
        <phaseHint>S</phaseHint>
      </pick>
      <pick publicID="smi:local/8ee2b000-7fde-432d-bd56-75ecc896345f">
        <time>
          <value>2012-10-03T15:57:57.152000Z</value>
        </time>
        <waveformID networkCode="JP" stationCode="ST5" locationCode="00" channelCode="HHN"></waveformID>
        <phaseHint>S</phaseHint>
      </pick>
      <pick publicID="smi:local/a0919317-bbc8-4099-9549-a49b980f84e0">
        <time>
          <value>2012-10-03T15:57:54.907000Z</value>
        </time>
        <waveformID networkCode="JP" stationCode="ST6" locationCode="00" channelCode="HHN"></waveformID>
        <phaseHint>S</phaseHint>
      </pick>
      <pick publicID="smi:local/82e841fa-3d3b-4648-8809-9ea1346bffb9">
        <time>
          <value>2012-10-03T15:57:54.625000Z</value>
        </time>
        <waveformID networkCode="JP" stationCode="ST7" locationCode="00" channelCode="HHN"></waveformID>
        <phaseHint>S</phaseHint>
      </pick>
      <pick publicID="smi:local/f6504259-a584-468b-80ba-6bf285236b73">
        <time>
          <value>2012-10-03T15:57:54.243000Z</value>
        </time>
        <waveformID networkCode="JP" stationCode="ST8" locationCode="00" channelCode="HHN"></waveformID>
        <phaseHint>S</phaseHint>
      </pick>
      <pick publicID="smi:local/adecb653-c21a-406f-8347-59015cd3edb3">
        <time>
          <value>2012-10-03T15:57:54.268000Z</value>
        </time>
        <waveformID networkCode="JP" stationCode="ST9" locationCode="00" channelCode="HHN"></waveformID>
        <phaseHint>S</phaseHint>
      </pick>
      <pick publicID="smi:local/301940cc-e10f-4feb-be77-383aa8649148">
        <time>
          <value>2012-10-03T15:57:54.610000Z</value>
        </time>
        <waveformID networkCode="JP" stationCode="ST10" locationCode="00" channelCode="HHN"></waveformID>
        <phaseHint>S</phaseHint>
      </pick>
      <pick publicID="smi:local/3157cf01-0d25-4f9a-a20b-2f02e80f09b2">
        <time>
          <value>2012-10-03T15:57:54.928000Z</value>
        </time>
        <waveformID networkCode="JP" stationCode="ST12" locationCode="00" channelCode="HHN"></waveformID>
        <phaseHint>S</phaseHint>
      </pick>
      <pick publicID="smi:local/c425a0b8-cb11-410a-b64a-721f4b64b79d">
        <time>
          <value>2012-10-03T15:57:54.666000Z</value>
        </time>
        <waveformID networkCode="JP" stationCode="ST13" locationCode="00" channelCode="HHN"></waveformID>
        <phaseHint>S</phaseHint>
      </pick>
      <pick publicID="smi:local/fb558bb3-df7c-4c6a-9d3f-1fd55426b228">
        <time>
          <value>2012-10-03T15:57:55.123000Z</value>
        </time>
        <waveformID networkCode="JP" stationCode="ST14" locationCode="00" channelCode="HHN"></waveformID>
        <phaseHint>S</phaseHint>
      </pick>
    </event>
    <event publicID="smi:local/event/4">
      <preferredOriginID>smi:local/origin/4</preferredOriginID>
      <preferredMagnitudeID>smi:local/magnitude/4</preferredMagnitudeID>
      <origin publicID="smi:local/origin/4">
        <time>
          <value>2012-10-03T15:01:17.179000Z</value>
        </time>
        <latitude>
          <value>35.657663</value>
        </latitude>
        <longitude>
          <value>-98.257523</value>
        </longitude>
        <depth>
          <value>5.378806</value>
        </depth>
      </origin>
      <magnitude publicID="smi:local/magnitude/4">
        <mag>
          <value>0.28</value>
        </mag>
      </magnitude>
      <pick publicID="smi:local/3d405451-d598-4fad-baa1-84d1129321e2">
        <time>
          <value>2012-10-03T15:01:19.098000Z</value>
        </time>
        <waveformID networkCode="JP" stationCode="ST6" locationCode="00" channelCode="HHZ"></waveformID>
        <phaseHint>P</phaseHint>
      </pick>
      <pick publicID="smi:local/84bf3c2b-3fa5-453f-9846-0311a1b78dc0">
        <time>
          <value>2012-10-03T15:01:18.991000Z</value>
        </time>
        <waveformID networkCode="JP" stationCode="ST7" locationCode="00" channelCode="HHZ"></waveformID>
        <phaseHint>P</phaseHint>
      </pick>
      <pick publicID="smi:local/d3032aff-fab7-4b29-8810-9eee202bb6bf">
        <time>
          <value>2012-10-03T15:01:18.809000Z</value>
        </time>
        <waveformID networkCode="JP" stationCode="ST8" locationCode="00" channelCode="HHZ"></waveformID>
        <phaseHint>P</phaseHint>
      </pick>
      <pick publicID="smi:local/6d34a44c-bf18-4427-9169-c89fc2f0769e">
        <time>
          <value>2012-10-03T15:01:19.119000Z</value>
        </time>
        <waveformID networkCode="JP" stationCode="ST9" locationCode="00" channelCode="HHZ"></waveformID>
        <phaseHint>P</phaseHint>
      </pick>
      <pick publicID="smi:local/8bb62bfc-7422-4bd0-8fbd-dfaad4c1fe4b">
        <time>
          <value>2012-10-03T15:01:18.918000Z</value>
        </time>
        <waveformID networkCode="JP" stationCode="ST12" locationCode="00" channelCode="HHZ"></waveformID>
        <phaseHint>P</phaseHint>
      </pick>
      <pick publicID="smi:local/78df1bc1-84b5-429d-8ece-3de09d4f8a0b">
        <time>
          <value>2012-10-03T15:01:20.537000Z</value>
        </time>
