# 2012 10 03 20 39 36.33  37.6055 -119.0038  2.17 0.29 0.56 0.45 0.05   71852420
NCMCV    2.980  0.200 P
NCMCY    1.320  0.200 P
NCMINS    3.290 -0.200 S
NCMINS    1.850  0.200 P
NCMLC    1.830 -0.500 P
NCMMP    1.010  1.000 P
NCMMS    1.520  0.200 P
NCMQ1P    1.000  0.200 P
NCMRD    1.320  0.500 P
# 2012 10 04 04 35 8.77  37.6352 -119.0567  0.06 0.38 0.19 0.53 0.05   71852050
NCMCY    1.620 -1.000 S
NCMCY    0.930  0.500 P
NCMDC    1.720  0.500 P
NCMDY    1.400  0.200 P
NCMINS    1.560  0.500 S
NCMINS    0.830  1.000 P
NCMLI    1.320  0.200 P
NCMMP    1.010  1.000 P
NCMMS    1.020  1.000 P
NCMQ1P    1.040  0.500 P
NCMRD    1.060  1.000 P
# 2012 10 04 04 50 35.93  37.5992 -119.0063  2.18 0.39 0.53 0.62 0.04   71852055
NCMCM    2.430  0.500 P
NCMCV    2.990  0.200 P
NCMDC    2.770  0.200 P
NCMINS    1.880  0.500 P
NCMMP    1.010  1.000 P
NCMMS    1.500  0.200 P
NCMQ1P    0.990  1.000 P
NCMRD    1.310 -1.000 P
# 2012 10 04 05 46 10.13  37.5963 -119.0153  1.37 -0.08 0.60 0.77 0.01   71852380
NCMINS    1.770  0.200 P
NCMMP    0.830 -1.000 P
NCMMS    1.300  0.200 P
NCMQ1P    0.820  0.200 P
NCMRD    1.130 -1.000 P
# 2012 10 04 09 04 31.45  37.6345 -119.0577  0.36 -0.26 0.25 0.49 0.03   71852365
NCMCY    1.140  0.200 P
NCMDY    1.420  0.200 P
NCMINS    1.490  0.200 S
NCMINS    0.890 -1.000 P
NCMMP    1.280  0.200 P
NCMMS    1.060  0.200 P
NCMQ1P    1.300  0.200 P
NCMRD    1.080 -1.000 P
# 2012 10 04 09 47 7.03  37.5952 -119.0150  1.64 -0.05 2.01 0.41 0.01   71852370
NCMCY    1.560  0.200 P
NCMINS    1.830  0.200 P
NCMMP    0.860 -1.000 P
NCMQ1P    0.850  0.200 P
NCMRD    1.180  0.200 P
NCMMS    0.000  0.000 P
# 2012 10 04 11 48 59.21  37.6352 -119.0588  0.26 0.65 0.25 0.56 0.05   71852155
NCMCY    0.890  0.500 P
NCMDC    1.760  0.200 P
NCMDY    1.430  0.200 P
NCMINS    1.520  0.200 S
NCMINS    0.840 -1.000 P
NCMLK    1.980  0.200 P
NCMMP    1.040  1.000 P
NCMMS    1.020  1.000 P
NCMQ1P    1.230  0.200 P
NCMRD    1.060 -1.000 P
# 2012 10 04 17 49 53.53  37.6357 -119.0413  0.26 0.87 0.31 0.45 0.07   71852295
NCMCM    2.680  0.500 P
NCMCY    1.450  0.200 S
NCMCY    0.830  1.000 P
NCMDC    1.730 -1.000 P
NCMINS    1.690 -1.000 S
NCMINS    0.980  1.000 P
NCMLI    1.770  0.200 S
NCMLI    0.980  0.200 P
NCMLK    1.650  0.200 P
NCMMLB    1.660  0.200 P
NCMMP    0.920  1.000 P
NCMMS    0.970  1.000 P
NCMQ1P    0.810  0.500 P
NCMRD    1.120  0.500 P
# 2012 10 05 03 58 46.55  37.6028 -119.0053  2.52 0.45 0.57 0.77 0.06   71852740
NCMCV    3.010  0.500 P
NCMCY    2.720  0.200 S
NCMCY    1.670  0.200 P
NCMINS    3.220  0.500 S
NCMINS    1.910  1.000 P
NCMLC    1.890  0.200 P
NCMMP    1.040  1.000 P
NCMMS    1.510  0.500 P
NCMQ1P    1.030  1.000 P
NCMRD    1.330 -1.000 P
# 2012 10 05 09 02 8.27  37.5898 -119.0012  1.58 0.25 0.71 0.68 0.04   71852610
NCMCM    2.450  0.500 P
NCMCV    3.010 -1.000 P
NCMGPB    2.280  0.500 P
NCMINS    2.020  0.500 P
NCMLC    1.840  0.500 P
NCMMS    1.530  0.500 P
NCMQ1P    1.050  0.500 P
NCMRD    1.380 -1.000 P
# 2012 10 06 03 48 38.04  37.6300 -119.1275  1.25 0.33 0.64 0.54 0.03   71855885
NCMCY    1.900  0.200 P
NCMDC    2.350 -1.000 P
NCMDPB    1.980  0.500 S
NCMDPB    1.130  1.000 P
NCMDY    2.020  0.200 P
NCMGPB    4.060  0.500 P
NCMINS    2.690  0.200 S
NCMINS    1.530  1.000 P
NCMLC    3.580  0.200 P
NCMMP    1.940  1.000 P
NCMMS    2.020  0.200 P
NCMQ1P    2.050  0.500 P
NCMRD    1.590  1.000 P
# 2012 10 06 09 58 7.19  37.5837 -119.0030  1.81 0.53 0.44 0.60 0.06   71853350
CIMLAC    3.310  0.200 P
NCMCB    2.660  0.500 P
NCMCM    2.510  0.500 P
NCMCV    3.050  0.500 P
NCMDC    2.850  0.500 P
NCMDPB    1.880  1.000 P
NCMDR    3.420  0.200 P
NCMDY    2.180  0.200 P
NCMEM    2.360  0.100 P
NCMGPB    2.330  0.500 P
NCMINS    1.990  0.500 P
NCMLC    1.900  0.500 P
NCMLK    2.290  0.500 P
NCMMLB    2.160  0.500 P
NCMMP    1.090  1.000 P
NCMMS    1.590  0.500 P
NCMQ1P    1.730  0.200 S
NCMQ1P    1.070  0.500 P
NCMRD    1.410 -1.000 P
NNORC    5.930  0.500 P
NNRCC    4.970  0.500 P
# 2012 10 06 10 18 43.12  37.5932 -119.0008  1.00 0.23 0.78 0.43 0.05   71855925
NCMCM    2.360  0.200 P
NCMCV    2.920  0.500 P
NCMDPB    3.010  0.500 S
NCMDPB    1.770 -1.000 P
NCMLC    1.780  0.500 P
NCMMP    0.980  1.000 P
NCMMS    1.510  0.200 P
NCMQ1P    0.960  0.500 P
NCMRD    1.290 -1.000 P
# 2012 10 06 10 27 3.21  37.5942 -119.0033  2.71 0.21 0.61 0.80 0.06   71853360
NCMCV    3.080 -0.500 P
NCMCY    1.750  0.500 P
NCMDPB    3.110  0.500 S
NCMDPB    1.880  1.000 P
NCMINS    1.970  1.000 P
NCMMP    1.110  1.000 P
NCMMS    1.580  1.000 P
NCMQ1P    1.100  0.500 P
NCMRD    1.400 -1.000 P
# 2012 10 06 10 43 41.92  37.5938 -119.0083  1.31 0.09 0.81 0.40 0.02   71855935
NCMDPB    2.910 -0.500 S
NCMDPB    1.670 -1.000 P
NCMINS    1.840  0.200 P
NCMMP    0.880  1.000 P
NCMQ1P    0.860  0.500 P
NCMRD    1.200 -1.000 P
# 2012 10 06 11 10 56.34  37.6052 -119.0108  1.82 0.21 0.58 1.09 0.07   71853370
NCMCV    2.850  0.200 P
NCMCY    1.530  0.500 P
NCMDP1    2.840 -1.000 S
NCMINS    3.080 -1.000 S
NCMINS    1.770  1.000 P
NCMLI    1.520  0.200 P
NCMMP    0.910 -1.000 P
NCMMS    1.380  1.000 P
NCMQ1P    0.890  0.500 P
NCMRD    1.190 -1.000 P
# 2012 10 06 11 20 5.03  37.6058 -119.0015  2.04 0.22 0.58 0.70 0.05   71855945
NCMINS    3.240 -0.500 S
NCMINS    1.910 -1.000 P
NCMMP    1.030  0.500 P
NCMMS    1.270  0.200 P
NCMQ1P    1.060  0.200 P
NCMRD    1.330 -1.000 P
# 2012 10 06 11 30 52.09  37.6070 -119.0005  1.32 -0.01 0.68 0.34 0.04   71855955
NCMDPB    2.920 -0.500 S
NCMDPB    1.640 -1.000 P
NCMINS    1.880  0.500 P
NCMMP    0.920 -1.000 P
NCMMS    1.110  0.200 P
NCMQ1P    0.940  0.200 P
NCMRD    1.220  0.500 P
# 2012 10 06 12 33 41.31  37.5957 -119.0388  2.94 -0.18 0.94 0.52 0.05   71855975
NCMINS    3.180  0.200 S
NCMINS    1.830 -0.500 P
NCMMP    1.030 -1.000 P
NCMQ1P    1.070  0.200 P
NCMRD    1.180 -1.000 P
# 2012 10 06 20 51 36.80  37.5898 -119.0008  1.42 1.13 0.29 0.44 0.07   71853675
NCMCB    2.590  0.500 P
NCMCM    2.410  1.000 P
NCMCV    2.970  1.000 P
NCMCY    1.670  0.200 P
NCMDC    2.760  1.000 P
NCMDH1    4.000  1.000 S
NCMDR    3.410  0.200 P
NCMDY    2.020  0.500 P
NCMEM    2.380  0.500 P
NCMGPB    2.260  1.000 P
NCMINS    1.920  1.000 P
NCMLC    1.830  1.000 P
NCMLK    2.180  0.500 P
NCMMLB    2.080  0.200 P
NCMMP    1.020  1.000 P
NCMMS    1.530  0.500 P
NCMMT    5.400  0.200 P
NCMMX1    2.090 -1.000 S
NCMQ1P    1.000  1.000 P
NCMRD    1.320  1.000 P
NNORC    5.860  0.500 P
NNSCH    6.720  0.500 P
# 2012 10 07 04 03 36.42  37.6020 -119.0005  1.09 0.07 3.64 1.95 0.02   71854020
NCMMP    0.900 -1.000 P
NCMMS    1.320 -0.200 P
NCMRD    1.310 -1.000 P
# 2012 10 07 04 34 8.05  37.6337 -119.0487  1.03 0.00 0.23 0.50 0.04   71856055
NCMCM    2.960  0.100 P
NCMCY    1.000  0.200 P
NCMDC    1.780  0.200 P
NCMDY    1.330  0.200 P
NCMEM    2.270  0.200 P
NCMGPB    2.700  0.200 P
NCMINS    1.670  0.200 S
NCMINS    0.980  1.000 P
NCMMP    0.970  1.000 P
NCMMS    1.030  0.500 P
NCMQ1P    0.970  0.500 P
NCMRD    1.130  1.000 P
# 2012 10 07 05 50 52.92  37.6008 -119.0068  2.00 -0.05 0.92 0.56 0.03   71856070
NCMINS    1.900  0.200 P
NCMLC    1.750  0.200 P
NCMMP    0.940 -1.000 P
NCMQ1P    0.940  0.200 P
NCMRD    1.250 -0.500 P
# 2012 10 07 15 24 32.77  37.6098 -119.0042  1.25 0.14 1.12 0.44 0.02   71856100
NCMINS    3.040  0.200 S
NCMINS    1.810  0.200 P
NCMMP    0.840 -1.000 P
NCMMS    1.120  0.200 P
NCMQ1P    0.830  0.200 P
NCMRD    1.130  0.200 P
# 2012 10 08 05 32 0.13  37.6323 -119.0465 13.36 0.50 0.78 0.49 0.08   71856130
NCMCM    3.840  1.000 P
NCMCV    4.260  0.200 P
NCMCY    3.000  0.200 P
NCMDC    3.170 -1.000 P
NCMINS    5.260 -1.000 S
NCMINS    2.870  1.000 P
NCMLC    3.460  1.000 P
NCMMI   11.320  0.200 P
NCMMP    2.920  1.000 P
NCMQ1P    2.860  0.500 P
NCMRD    2.800  1.000 P
NNRCC    6.170  0.200 P
# 2012 10 08 16 04 20.47  37.6175 -119.0242  1.03 -0.12 0.77 0.40 0.02   71856175
NCMINS    2.460  0.200 S
NCMINS    1.410 -1.000 P
NCMMP    0.720 -1.000 P
NCMMS    1.060  0.200 P
NCMQ1P    0.740  0.200 P
NCMRD    1.070 -1.000 P
# 2012 10 08 18 55 44.02  37.5933 -119.0028  1.86 0.23 0.81 0.52 0.05   71855230
NCMCM    2.450  1.000 P
NCMCV    3.000  1.000 P
NCMDP1    3.040  0.500 S
NCMGPB    2.310  0.500 P
NCMLC    1.870  1.000 P
NCMMP    1.050  1.000 P
NCMMS    1.530  0.200 P
NCMMX1    2.160  0.500 S
NCMQ1P    1.050  0.500 P
NCMRD    1.340 -1.000 P
# 2012 10 09 07 35 52.55  37.6105 -119.0137  1.96 0.09 0.50 0.51 0.05   71855695
NCMCM    2.520  0.500 P
NCMDC    2.510  0.200 P
NCMINS    2.810  0.200 S
NCMINS    1.710  1.000 P
NCMLC    1.920 -1.000 P
NCMLI    1.440  0.200 P
NCMMP    0.960  1.000 P
NCMMS    1.360  0.500 P
NCMQ1P    0.940  0.500 P
NCMRD    1.260 -1.000 P
# 2012 10 09 07 35 56.75  37.6168 -119.0125  1.70 0.53 0.38 0.45 0.06   71065659
NCMCM    2.480  0.500 P
NCMDC    2.480  0.500 P
NCMINS    2.780 -1.000 S
NCMINS    1.660  1.000 P
NCMLC    1.870  0.500 P
NCMMP    0.900  1.000 P
NCMMS    1.310  0.500 P
NCMQ1P    0.890  0.500 P
NCMRD    1.220 -1.000 P
# 2012 10 09 09 34 45.58  37.5947 -119.0030  1.75 0.52 0.39 0.56 0.08   71855745
NCMCM    2.420  1.000 P
NCMCV    2.970  1.000 P
NCMCY    2.770 -1.000 S
NCMCY    1.690  0.200 P
NCMDC    2.780  1.000 P
NCMDR    3.390  0.500 P
NCMDY    1.930  0.200 P
NCMGPB    2.260  0.500 P
NCMINS    1.920  0.500 P
NCMLC    1.820  1.000 P
NCMLK    2.160  0.200 P
NCMMP    1.030  1.000 P
NCMMS    1.500  0.500 P
NCMQ1P    1.020  0.500 P
NCMRD    1.340  1.000 P
# 2012 10 09 09 49 16.26  37.6012 -119.0037  2.06 0.40 0.50 0.51 0.05   71855755
NCMCM    2.400 -1.000 P
NCMCY    2.750  0.500 S
NCMCY    1.640  0.200 P
NCMDC    2.840  0.200 P
NCMGPB    2.230  0.200 P
NCMINS    3.180  0.200 S
NCMINS    1.890  0.500 P
NCMLC    1.800  0.500 P
NCMMP    1.010  1.000 P
NCMMS    1.490  0.200 P
NCMQ1P    0.990  1.000 P
NCMRD    1.340 -1.000 P
# 2012 10 09 10 01 26.50  37.5837 -119.0065  2.26 1.20 0.47 0.63 0.06   71855765
CIMLAC    3.380  0.200 P
NCMCB    2.730  1.000 P
NCMCM    2.540  1.000 P
NCMCV    3.090  1.000 P
NCMCY    1.790  0.200 P
NCMDC    2.890  1.000 P
NCMDH1    4.120  1.000 S
NCMDR    3.530  0.500 P
NCMGPB    2.370  1.000 P
NCMINS    2.020  1.000 P
NCMLC    1.940  1.000 P
NCMLI    1.770  0.200 P
NCMLK    2.300  0.500 P
NCMMLB    2.160  1.000 P
NCMMP    1.140  1.000 P
NCMMS    1.620  1.000 P
NCMQ1P    1.130  1.000 P
NCMRD    1.450  1.000 P
NNBEN    7.450  0.500 P
NNORC    5.970  0.500 P
NNRCC    5.060 -1.000 P
NNSCH    6.770  0.200 P
# 2012 10 09 11 24 45.03  37.5997 -119.0053  1.51 0.21 0.76 0.39 0.04   71855785
NCMCM    2.320  0.200 P
NCMINS    1.850  0.200 P
NCMLC    1.730  0.200 P
NCMMP    0.920  1.000 P
NCMMS    1.250  0.200 P
NCMQ1P    0.910  1.000 P
NCMRD    1.250 -1.000 P
# 2012 10 10 01 53 18.74  37.6465 -119.0445 -0.28 0.32 0.30 0.27 0.06   71856320
NCMCY    1.220  0.500 S
NCMCY    0.750  1.000 P
NCMDC    1.510 -1.000 P
NCMDY    1.030  0.500 P
NCMINS    1.330  0.500 S
NCMINS    0.810 -1.000 P
NCMLI    1.050  0.200 P
NCMMP    1.110  0.500 P
NCMMS    0.960  1.000 P
NCMQ1P    1.150  0.500 P
NCMRD    1.360  0.500 P
# 2012 10 10 03 34 46.80  37.6000 -119.0123  1.95 0.01 0.65 0.93 0.03   71856655
NCMDC    2.550  0.200 P
NCMINS    1.800 -1.000 P
NCMMP    0.920 -1.000 P
NCMMS    1.410  0.200 P
NCMQ1P    0.920  0.500 P
NCMRD    1.210 -1.000 P
# 2012 10 10 10 55 2.33  37.6197 -119.0152  2.34 0.44 0.24 0.39 0.06   71856500
CIMLAC    3.380  0.200 P
NCMCB    2.520  1.000 P
NCMCM    2.570  1.000 P
NCMCS    2.390  0.200 P
NCMCV    3.210  0.500 P
NCMCY    2.340  0.200 S
NCMCY    1.270  0.500 P
NCMDC    2.170  1.000 P
NCMDH1    3.430  1.000 S
NCMDR    3.420  1.000 P
NCMDY    2.640  0.200 S
NCMDY    1.530  1.000 P
NCMEM    2.070  1.000 P
NCMGPB    2.350  0.500 P
NCMINS    2.670  0.500 S
NCMINS    1.510  1.000 P
NCMLC    1.980  0.500 P
NCMLI    1.340  0.200 P
NCMLK    1.820  1.000 P
NCMMLB    1.660  0.200 P
NCMMP    1.090  1.000 P
NCMMS    1.320  1.000 P
NCMQ1P    1.070  0.200 P
NCMRD    1.400  1.000 P
# 2012 10 10 14 34 42.27  37.6072 -119.0127  1.61 0.32 0.49 0.23 0.05   71856580
NCMCM    2.470  0.500 P
NCMCY    1.410  0.500 P
NCMDC    2.530  0.200 P
NCMINS    2.760  0.200 S
NCMINS    1.660  1.000 P
NCMLC    1.880  0.200 P
NCMLI    1.490  0.200 P
NCMMP    0.900  1.000 P
NCMMS    1.280  1.000 P
NCMQ1P    0.870  1.000 P
NCMRD    1.220 -1.000 P
# 2012 10 10 18 46 10.87  37.5988 -119.0107  1.78 -0.06 0.57 0.93 0.03   71857575
NCMCY    1.540  0.200 P
NCMINS    3.160  0.200 S
NCMINS    1.860 -0.500 P
NCMMP    0.900 -1.000 P
NCMQ1P    0.890  0.200 P
NCMRD    1.220 -1.000 P
# 2012 10 10 19 18 8.08  37.6310 -119.0448  1.25 0.00 0.47 0.96 0.04   71856750
NCMDC    1.810  0.200 P
NCMINS    1.040 -1.000 P
NCMMP    0.910 -1.000 P
NCMMS    1.040  1.000 P
NCMRD    1.120 -1.000 P
# 2012 10 11 16 32 49.22  37.6033 -119.0103  1.71 -0.07 0.94 31.61 0.03   71857745
NCMCY    1.470  0.200 P
NCMMP    0.910 -1.000 P
NCMMS    1.160  0.200 P
NCMQ1P    0.740  0.200 P
NCMRD    1.250 -1.000 P
# 2012 10 11 16 49 7.35  37.6338 -119.0420  2.34 0.12 0.75 1.15 0.06   71065694
NCMCY    1.030  0.200 P
NCMDC    1.890 -1.000 P
NCMINS    1.200 -1.000 P
NCMMP    1.070  1.000 P
NCMMS    1.260  1.000 P
NCMQ1P    1.050  1.000 P
NCMRD    1.400  0.500 P
# 2012 10 11 16 49 16.04  37.6358 -119.0378  2.03 0.40 0.59 1.13 0.05   71065689
NCMCY    1.010  0.200 P
NCMDC    1.960  0.500 P
NCMDY    1.350  0.200 P
NCMINS    1.170 -1.000 P
NCMLI    1.230  0.200 P
NCMMP    1.040  1.000 P
NCMMS    1.180  1.000 P
NCMQ1P    1.020  1.000 P
NCMRD    1.330 -1.000 P
# 2012 10 11 16 49 29.19  37.6365 -119.0347  1.77 0.33 0.43 1.05 0.05   71857580
NCMCY    0.990  0.200 P
NCMDC    1.880  0.500 P
NCMDP1    2.010  0.200 S
NCMDY    1.150  0.500 P
NCMINS    1.160  1.000 P
NCMLI    0.910  0.200 P
NCMMP    1.020  1.000 P
NCMMS    1.170  1.000 P
NCMQ1P    1.000  1.000 P
NCMRD    1.330 -1.000 P
# 2012 10 11 20 20 47.88  37.6120 -119.0250  1.18 -0.18 0.72 0.34 0.03   71858240
NCMCY    1.280  0.200 P
NCMDC    2.470  0.200 P
NCMINS    1.490  0.200 P
NCMMP    0.740 -1.000 P
NCMMS    1.120  0.500 P
NCMQ1P    0.730  0.500 P
NCMRD    1.060  0.500 P
# 2012 10 11 20 46 0.29  37.6092 -119.0623  6.13 0.32 0.94 0.46 0.06   71858245
NCMDC    2.690 -0.500 P
NCMINS    3.420 -0.500 S
NCMINS    1.860  0.500 P
NCMLI    1.800  0.200 P
NCMMP    1.600  1.000 P
NCMMS    1.920  0.500 P
NCMQ1P    1.610  0.200 P
NCMRD    1.650 -1.000 P
# 2012 10 12 07 49 34.19  37.5963 -119.0043  1.57 0.25 0.59 0.35 0.05   71858260
NCMCM    2.370  0.500 P
NCMDC    2.740  0.200 P
NCMINS    1.910  0.500 P
NCMLC    1.770  0.200 P
NCMMP    1.010  0.500 P
NCMMS    1.270  0.200 P
NCMQ1P    0.970  1.000 P
NCMRD    1.290 -1.000 P
# 2012 10 12 08 02 45.72  37.6355 -119.0287  1.34 0.02 0.26 0.61 0.06   71858300
NCMCY    0.930  0.500 P
NCMDC    1.800  0.500 P
NCMDY    1.240  1.000 P
NCMINS    2.180 -1.000 S
NCMINS    1.130  1.000 P
NCMLI    0.940  0.200 P
NCMLK    1.620  1.000 P
NCMMLB    1.530  0.200 P
NCMMP    0.970  1.000 P
NCMMS    1.170  0.500 P
NCMQ1P    0.940  1.000 P
NCMRD    1.320  0.500 P
# 2012 10 13 04 29 10.62  37.5957 -119.0013  1.56 0.39 0.45 0.26 0.07   71861740
NCMCB    2.580  0.200 P
NCMCM    2.390  1.000 P
NCMCV    2.950  1.000 P
NCMCY    1.680  0.200 P
NCMDC    2.760  0.200 P
NCMDR    3.370  0.200 P
NCMEM    2.360  0.200 P
NCMGPB    2.230  0.200 P
NCMINS    1.890  1.000 P
NCMLC    1.810  1.000 P
NCMLK    2.180  0.500 P
NCMMP    1.010  1.000 P
NCMMS    1.510  0.200 P
NCMMX1    2.050 -1.000 S
NCMQ1P    0.990  1.000 P
NCMRD    1.330  1.000 P
NNBEN    7.380  0.500 P
NNPOC   12.240  0.200 P
NNRCC    4.940  0.200 P
# 2012 10 13 15 25 58.37  37.5977 -119.0118  1.29 0.25 0.48 0.61 0.03   71861750
NCMCY    2.590  0.200 S
NCMCY    1.460  0.200 P
NCMDC    2.730  0.200 P
NCMLI    1.170  0.200 P
NCMMP    0.860 -1.000 P
NCMMS    1.340  0.200 P
NCMQ1P    0.840  0.500 P
NCMRD    1.170 -1.000 P
# 2012 10 13 23 09 10.77  37.6543 -119.0237 -0.03 0.36 0.24 0.33 0.09   71859180
NCMCY    1.310  0.500 S
NCMCY    0.850  1.000 P
NCMDC    1.260  0.200 P
NCMDP1    2.290  0.500 S
NCMDY    0.850  0.200 P
NCMEM    1.760  0.200 P
NCMINS    1.700  0.500 S
NCMINS    1.010  0.200 P
NCMLI    1.060  0.200 P
NCMLK    1.310  0.500 P
NCMMLB    1.180  0.500 P
NCMMP    1.290  0.200 P
NCMMS    1.150  0.500 P
NCMQ1P    1.250  0.200 P
NCMRD    1.670  1.000 P
# 2012 10 14 15 16 16.12  37.6018 -119.0263  1.22 0.33 0.53 0.29 0.09   71859575
NCMDC    2.390  0.500 P
NCMINS    2.830  0.500 S
NCMINS    1.500  0.500 P
NCMMP    0.610  0.500 P
NCMQ1P    0.600  0.500 P
NCMRD    0.930 -1.000 P
# 2012 10 14 15 33 2.81  37.6423 -119.0098  4.78 -0.09 1.24 1.36 0.03   71862565
NCMCY    1.620  0.200 P
NCMDC    1.970  0.200 P
NCMDY    1.510  0.200 P
NCMINS    1.740 -0.500 P
NCMLI    1.610  0.200 P
NCMMP    1.530 -1.000 P
NCMMS    1.660 -1.000 P
NCMRD    1.880 -1.000 P
# 2012 10 14 15 33 27.43  37.6263 -119.0287  0.65 -0.10 0.76 0.66 0.04   71065769
NCMCY    0.970  0.200 P
NCMDC    2.100  0.200 P
NCMMP    0.750  1.000 P
NCMMS    0.870 -1.000 P
NCMQ1P    0.860  0.500 P
NCMRD    1.080 -1.000 P
# 2012 10 14 15 37 36.07  37.6327 -119.0392  0.35 -0.35 0.43 0.66 0.06   71862600
NCMCY    1.090  0.200 P
NCMDC    1.760  0.500 P
NCMDY    1.120  0.200 P
NCMINS    0.990 -1.000 P
NCMLI    1.050  0.200 P
NCMMP    0.840  1.000 P
NCMMS    0.930  1.000 P
NCMQ1P    0.800  1.000 P
NCMRD    1.160 -1.000 P
# 2012 10 14 16 08 20.89  37.6297 -119.0305  1.32 0.05 0.76 0.55 0.04   71862630
NCMCY    1.660  0.200 S
NCMCY    0.830  0.200 P
NCMDC    2.010  0.200 P
NCMDY    1.060  0.200 P
NCMMP    0.870 -1.000 P
NCMMS    1.010 -1.000 P
NCMQ1P    0.840  0.200 P
NCMRD    1.210 -1.000 P
# 2012 10 15 09 20 1.30  37.5743 -119.0132  3.75 0.46 0.43 0.51 0.05   71860130
CIMLAC    3.620  0.100 P
NCMCM    2.740  1.000 P
NCMCV    3.250 -1.000 P
NCMCY    3.440  0.200 S
NCMCY    2.080  0.200 P
NCMDC    3.140  0.500 P
NCMDR    3.840  0.200 P
NCMDY    3.820  0.200 S
NCMDY    2.420  0.200 P
NCMEM    2.930  0.200 P
NCMGPB    2.320  0.100 P
NCMINS    2.270  1.000 P
NCMLC    2.240  0.200 P
NCMMP    1.420  1.000 P
NCMMS    1.920  0.500 P
NCMQ1P    2.280  0.200 S
NCMQ1P    1.430  1.000 P
NCMRD    1.560 -1.000 P
NNORC    6.170  0.200 P
NNSCH    6.750  0.200 P
# 2012 10 15 20 11 54.41  37.5868 -119.0020  1.26 1.26 0.35 0.46 0.06   71860450
CIMLAC    3.410  0.500 P
NCMCB    2.620  0.500 P
NCMCM    2.440  0.500 P
NCMCS    2.560  0.500 P
NCMCV    2.980  1.000 P
NCMCY    1.700  0.200 P
NCMCY    2.730  0.200 S
NCMDC    2.780  1.000 P
NCMDPB    1.840  1.000 P
NCMDR    3.420  0.500 P
NCMDY    2.380  0.100 P
NCMEM    2.380  0.500 P
NCMGPB    2.260  1.000 P
NCMINS    3.170  0.200 S
NCMINS    1.950  0.500 P
NCMLC    1.840  1.000 P
NCMLI    1.660  0.100 P
NCMLK    2.220  0.500 P
NCMMP    1.040  1.000 P
NCMMS    1.520  0.500 P
NCMMT    5.210  0.200 P
NCMMX1    2.090  0.200 S
NCMQ1P    1.660  0.500 S
NCMQ1P    1.020  0.500 P
NCMRD    1.350  1.000 P
NNRCC    4.990  0.200 P
NNSCH    6.750  0.200 P
# 2012 10 15 20 12 29.00  37.5938 -119.0015  1.67 0.36 0.52 0.36 0.07   71860455
CIMLAC    3.330  0.200 P
NCMCB    2.570  0.500 P
NCMCM    2.410  1.000 P
NCMCV    2.970  1.000 P
NCMDC    2.760  0.200 P
NCMDPB    3.050  0.500 S
NCMDPB    1.810  1.000 P
NCMDR    3.470  0.500 P
NCMEM    2.340  0.100 P
NCMGPB    2.240  0.200 P
NCMINS    3.140  0.200 S
NCMINS    1.890  0.500 P
NCMLC    1.790  0.500 P
NCMLI    2.620  0.200 P
NCMLK    2.090  0.100 P
NCMMP    1.010  1.000 P
NCMMS    1.650  0.200 P
NCMMX1    2.030  0.500 S
NCMQ1P    1.750  0.200 S
NCMQ1P    1.010  1.000 P
NCMRD    1.340 -1.000 P
NNRCC    5.000  0.200 P
