# 2012 10 01 00 29 59.50  37.6540 -119.0197  0.14 1.34 0.24 0.29 0.08   71850365
CIMLAC    3.480  1.000 P
NCMCB    2.500  1.000 P
NCMCM    2.800  1.000 P
NCMCS    2.330  1.000 P
NCMCV    3.520  1.000 P
NCMCY    1.310  1.000 S
NCMCY    0.810  1.000 P
NCMDC    1.460  1.000 P
NCMDH1    3.150  1.000 S
NCMDR    3.520  1.000 P
NCMDY    0.780  1.000 P
NCMEM    1.780  1.000 P
NCMGPB    2.490  0.500 P
NCMINS    1.020  1.000 P
NCMLC    2.190  1.000 P
NCMLH    3.890  0.500 P
NCMLI    1.650  0.500 S
NCMLI    0.990  1.000 P
NCMLK    1.280  0.500 P
NCMMLB    1.180  1.000 P
NCMMP    1.260  1.000 P
NCMMS    1.090  1.000 P
NCMMT    6.200  0.200 P
NCMQ1P    1.220  0.500 P
NCMRD    1.650  1.000 P
NNBEN    7.310  0.200 P
NNORC    6.100  1.000 P
NNRCC    5.830  1.000 P
NNSCH    7.800  0.500 P
# 2012 10 01 00 49 16.25  37.6543 -119.0203  0.58 0.49 0.31 0.35 0.06   71850380
NCMCM    2.820  0.200 P
NCMCY    1.330  0.500 S
NCMCY    0.860  1.000 P
NCMDC    1.560  0.200 P
NCMDY    1.580 -1.000 S
NCMDY    0.830  1.000 P
NCMGPB    2.540  0.200 P
NCMINS    1.070  1.000 P
NCMLI    1.150  0.200 P
NCMLK    1.330 -1.000 P
NCMMLB    1.190  0.500 P
NCMMP    1.170  0.200 P
NCMMS    1.130  1.000 P
NCMRD    1.700  1.000 P
# 2012 10 01 00 50 43.41  37.6538 -119.0217  0.35 0.68 0.22 0.21 0.06   71850375
NCMCB    2.510  0.200 P
NCMCM    2.820  1.000 P
NCMCS    2.350  0.500 P
NCMCV    3.530  0.200 P
NCMCY    1.340  0.500 S
NCMCY    0.830  1.000 P
NCMDC    1.480  0.500 P
NCMDH1    3.160  1.000 S
NCMDR    3.550  1.000 P
NCMDY    1.550 -1.000 S
NCMDY    0.810  1.000 P
NCMEM    1.800  1.000 P
NCMGPB    2.540  0.500 P
NCMINS    1.050  1.000 P
NCMLI    1.020  0.500 P
NCMLK    1.310  1.000 P
NCMMLB    1.200  1.000 P
NCMMP    1.280  0.500 P
NCMMS    1.120  0.500 P
NCMQ1P    1.190  0.200 P
NCMRD    1.680  1.000 P
NNRCC    5.930  0.200 P
# 2012 10 01 03 19 56.28  37.6542 -119.0232  0.37 0.27 0.25 0.41 0.05   71065539
NCMCY    1.360  0.500 S
NCMCY    0.850  0.500 P
NCMDC    1.500  0.500 P
NCMDP1    2.290 -1.000 S
NCMDY    1.610  0.500 S
NCMDY    0.830  1.000 P
NCMEM    1.810  0.500 P
NCMINS    1.070  1.000 P
NCMLI    1.070  0.200 P
NCMLK    1.330 -1.000 P
NCMMLB    1.220  0.200 P
NCMMP    1.360  0.200 P
NCMMS    1.150  0.500 P
NCMRD    1.700  0.500 P
# 2012 10 01 03 20 3.92  37.6530 -119.0210  0.41 1.48 0.24 0.32 0.07   71850450
CIMLAC    3.500  0.200 P
NCMCB    2.530  1.000 P
NCMCM    2.820  1.000 P
NCMCS    2.360  1.000 P
NCMCV    3.540  1.000 P
NCMCY    1.340  0.500 S
NCMCY    0.830  1.000 P
NCMDC    1.470  0.500 P
NCMDH1    3.160  1.000 S
NCMDP1    2.260  1.000 S
NCMDR    3.550  1.000 P
NCMDY    1.550  0.200 S
NCMDY    0.810  1.000 P
NCMEM    1.800  1.000 P
NCMGPB    2.500  1.000 P
NCMINS    1.040  0.500 P
NCMLC    2.210  1.000 P
NCMLH    3.920  0.500 P
NCMLI    1.690  0.500 S
NCMLI    1.030  0.500 P
NCMLK    1.300  1.000 P
NCMMLB    1.200  1.000 P
NCMMP    1.290  0.500 P
NCMMS    1.110  1.000 P
NCMQ1P    1.230  0.200 P
NCMRD    1.670  1.000 P
NNBEN    7.350  0.200 P
NNORC    6.160  1.000 P
NNRCC    5.850  1.000 P
NNSCH    7.810  0.500 P
# 2012 10 01 03 46 39.28  37.6537 -119.0232 -0.12 0.54 0.24 0.33 0.07   71850465
NCMCM    2.790  0.500 P
NCMCY    1.270  0.500 S
NCMCY    0.800  1.000 P
NCMDC    1.600  0.500 P
NCMDH1    3.140  1.000 S
NCMDY    1.510  0.200 S
NCMDY    0.780  1.000 P
NCMGPB    2.510  0.200 P
NCMINS    1.000  1.000 P
NCMLI    1.640  0.200 S
NCMLI    1.000  0.200 P
NCMLK    1.280  1.000 P
NCMMLB    1.170  0.500 P
NCMMP    1.290  1.000 P
NCMMS    1.110  0.200 P
NCMQ1P    1.210  0.200 P
NCMRD    1.630  1.000 P
# 2012 10 01 04 13 14.11  37.5893 -119.0062  1.81 0.70 0.42 0.54 0.08   71850480
CIMLAC    3.400  0.200 P
NCMCB    2.660  1.000 P
NCMCM    2.460  1.000 P
NCMCV    3.010  1.000 P
NCMCY    2.800  0.500 S
NCMCY    1.700  0.500 P
NCMDC    2.800  1.000 P
NCMDR    3.450  0.200 P
NCMDY    2.020  0.200 P
NCMGPB    2.310  0.200 P
NCMINS    3.250  0.500 S
NCMINS    1.960  1.000 P
NCMLC    1.870  0.500 P
NCMLI    1.670  0.200 P
NCMLK    2.230  1.000 P
NCMMLB    2.130  0.200 P
NCMMP    1.070  1.000 P
NCMMS    1.540  1.000 P
NCMQ1P    1.060  0.500 P
NCMRD    1.370  1.000 P
NNRCC    5.000  0.200 P
NNSCH    6.770  0.200 P
# 2012 10 01 04 17 36.94  37.5978 -119.0055  1.40 0.36 1.11 0.44 0.04   71851250
NCMDC    2.730  0.200 P
NCMINS    1.870 -0.500 P
NCMMP    0.930 -1.000 P
NCMMS    1.380  0.200 P
NCMQ1P    0.910  0.500 P
NCMRD    1.230 -1.000 P
# 2012 10 01 04 23 12.18  37.6522 -119.0237 -0.43 0.24 0.20 0.28 0.06   71850485
NCMCY    1.260  0.500 S
NCMCY    0.750  0.500 P
NCMDC    1.540  0.500 P
NCMDH1    3.160  1.000 S
NCMDPB    2.210  1.000 S
NCMDPB    1.310  1.000 P
NCMDY    1.450  0.200 S
NCMDY    0.720 -1.000 P
NCMGPB    2.480  0.500 P
NCMINS    0.950  1.000 P
NCMLI    0.990  0.200 P
NCMLK    1.250  0.500 P
NCMMLB    1.140  0.200 P
NCMMP    1.290  0.200 P
NCMMS    1.040  0.200 P
NCMQ1P    1.220  0.200 P
NCMRD    1.590  1.000 P
# 2012 10 01 06 12 34.97  37.6335 -119.0373  0.30 1.67 0.46 0.74 0.07   71850495
NCMCY    0.870 -1.000 P
NCMDC    1.760 -1.000 P
NCMINS    1.730  0.500 S
NCMINS    1.020  1.000 P
NCMMP    0.880  0.500 P
NCMMS    1.020  0.500 P
NCMQ1P    0.870  0.500 P
NCMRD    1.160  0.500 P
# 2012 10 01 06 13 39.12  37.6355 -119.0405  0.56 1.00 0.41 0.60 0.05   71065544
NCMCY    0.870 -1.000 P
NCMDC    1.760 -1.000 P
NCMDPB    1.080  0.500 P
NCMDY    1.170  0.200 P
NCMINS    1.730  0.500 S
NCMINS    1.020  1.000 P
NCMLI    1.000  0.200 P
NCMLK    1.650  0.200 P
NCMMP    0.890  1.000 P
NCMMS    1.030  0.500 P
NCMQ1P    0.870  1.000 P
NCMRD    1.160 -1.000 P
# 2012 10 01 06 14 10.00  37.6322 -119.0352  1.42 0.36 0.34 0.61 0.05   71850500
NCMCY    1.980  0.200 S
NCMCY    0.940  0.500 P
NCMDC    1.830  1.000 P
NCMDPB    2.010  0.500 S
NCMDPB    1.130  1.000 P
NCMDY    1.270  1.000 P
NCMINS    2.020  0.200 S
NCMINS    1.100  1.000 P
NCMLK    1.700  0.500 P
NCMMP    0.940  1.000 P
NCMMS    1.080  1.000 P
NCMQ1P    0.930  1.000 P
NCMRD    1.230 -1.000 P
# 2012 10 01 06 15 24.09  37.6348 -119.0358  0.53 0.65 0.53 0.75 0.05   71851290
NCMCM    2.830  0.200 P
NCMCY    0.850  0.500 P
NCMDC    1.780 -1.000 P
NCMDPB    1.090  0.500 P
NCMDY    1.160  0.200 P
NCMINS    1.030 -1.000 P
NCMMP    0.880  1.000 P
NCMMS    1.020  0.500 P
NCMQ1P    0.870  0.500 P
NCMRD    1.180  0.500 P
# 2012 10 01 06 15 50.00  37.6343 -119.0358  0.89 0.17 0.39 0.81 0.06   71851265
NCMCY    0.880  1.000 P
NCMDC    1.780  0.500 P
NCMDPB    1.950  0.200 S
NCMDPB    1.080 -1.000 P
NCMDY    1.200  0.200 P
NCMINS    1.030  1.000 P
NCMMP    0.900  1.000 P
NCMMS    1.020  1.000 P
NCMQ1P    0.890  0.500 P
NCMRD    1.180 -1.000 P
# 2012 10 01 07 26 13.94  37.6537 -119.0203  0.19 1.07 0.22 0.37 0.06   71850535
CIMLAC    3.480  1.000 P
NCMCB    2.500  1.000 P
NCMCM    2.790  1.000 P
NCMCS    2.330  1.000 P
NCMCV    3.500  0.500 P
NCMCY    0.820  1.000 P
NCMDC    1.460  1.000 P
NCMDH1    3.130  1.000 S
NCMDR    3.500  1.000 P
NCMDY    1.540  0.500 S
NCMDY    0.800  1.000 P
NCMEM    1.770  1.000 P
NCMGPB    2.470  1.000 P
NCMINS    1.030  1.000 P
NCMLC    2.180  1.000 P
NCMLI    1.040  0.200 P
NCMLK    1.280  1.000 P
NCMMLB    1.170  1.000 P
NCMMP    1.250  1.000 P
NCMMS    1.090  1.000 P
NCMQ1P    1.200  0.500 P
NCMRD    1.650  1.000 P
NNBEN    7.410  0.500 P
NNORC    6.120  1.000 P
NNRCC    5.820  0.500 P
# 2012 10 01 07 41 29.76  37.6325 -119.0428  0.48 -0.35 0.52 0.78 0.04   71851310
NCMCY    0.870  0.200 P
NCMDC    1.810 -1.000 P
NCMDY    1.180  0.200 P
NCMINS    1.000 -1.000 P
NCMMP    0.840  1.000 P
NCMMS    1.030  0.500 P
NCMQ1P    0.830  0.500 P
NCMRD    1.120 -1.000 P
# 2012 10 01 09 30 6.41  37.5890 -119.0063  2.26 0.83 0.39 0.55 0.07   71850555
CIMLAC    3.430  0.200 P
NCMCB    2.680  0.500 P
NCMCM    2.500  1.000 P
NCMCV    3.060  1.000 P
NCMCY    2.840  0.500 S
NCMCY    1.730  0.500 P
NCMDC    2.840  1.000 P
NCMDR    3.480  0.200 P
NCMDY    3.510  0.200 S
NCMDY    2.110  0.200 P
NCMGPB    2.330  0.500 P
NCMINS    3.290  0.500 S
NCMINS    2.000  1.000 P
NCMLC    1.920  1.000 P
NCMLI    1.730  0.200 P
NCMLK    2.260  1.000 P
NCMMLB    2.100  0.500 P
NCMMP    1.110  1.000 P
NCMMS    1.590  0.500 P
NCMQ1P    1.090  1.000 P
NCMRD    1.420  1.000 P
NNORC    5.920  0.200 P
NNRCC    5.040  0.500 P
NNSCH    6.810  0.500 P
# 2012 10 01 09 31 42.28  37.6043 -119.0095  1.86 0.26 0.60 0.42 0.07   71851320
NCMCV    2.890  0.200 P
NCMCY    2.640  0.500 S
NCMCY    1.570  0.200 P
NCMDC    2.730  0.200 P
NCMINS    3.080 -1.000 S
NCMINS    1.820  0.500 P
NCMMP    0.880  1.000 P
NCMQ1P    0.880  0.500 P
NCMRD    1.190 -1.000 P
# 2012 10 01 12 27 31.98  37.5970 -119.0012  1.54 0.23 0.51 0.40 0.04   71851330
NCMCV    2.930  0.200 P
NCMCY    2.720  0.500 S
NCMDPB    3.000  0.500 S
NCMDPB    1.770  1.000 P
NCMINS    1.930  0.500 P
NCMLC    1.780 -1.000 P
NCMMP    1.010  1.000 P
NCMMS    1.410  0.200 P
NCMQ1P    0.970  0.500 P
NCMRD    1.280  1.000 P
# 2012 10 01 14 21 1.74  37.6528 -119.0295 -0.73 -0.11 1.05 0.88 0.15   71850650
NCMCY    1.110  0.200 S
NCMCY    0.690  0.200 P
NCMDC    1.380  0.200 P
NCMDY    0.650 -1.000 P
NCMINS    0.920  0.200 P
NCMMP    1.410  1.000 P
NCMMS    0.940  0.500 P
NCMRD    1.480 -1.000 P
# 2012 10 01 15 01 17.72  37.6548 -119.0220  0.08 0.60 0.20 0.18 0.06   71850660
NCMCB    2.530  0.500 P
NCMCM    2.820  0.200 P
NCMCS    2.330  0.200 P
NCMCV    3.550  0.500 P
NCMCY    1.380 -1.000 S
NCMCY    0.830  1.000 P
NCMDC    1.430 -1.000 P
NCMDH1    3.150  1.000 S
NCMDY    1.560  0.500 S
NCMDY    0.790  1.000 P
NCMEM    1.780  0.500 P
NCMGPB    2.510  0.200 P
NCMINS    1.030  1.000 P
NCMLC    2.210  0.200 P
NCMLI    1.070  0.200 P
NCMLK    1.280  0.500 P
NCMMLB    1.170  0.500 P
NCMMP    1.360  0.200 P
NCMMS    1.130  0.500 P
NCMRD    1.680 -1.000 P
# 2012 10 01 15 46 59.12  37.5918 -119.1603  3.96 0.69 0.97 2.59 0.12   71851340
NCMDC    3.230 -1.000 P
NCMINS    4.140  0.200 S
NCMINS    2.430  1.000 P
NCMMP    2.590  1.000 P
NCMMT    4.640  1.000 P
NCMPR   13.370  0.200 P
NCMQ1P    2.700  0.200 P
NCMRD    2.210  1.000 P
NNRCC    7.140  0.200 P
# 2012 10 01 18 58 45.90  37.6057 -119.0052  1.80 0.59 0.49 0.34 0.05   71850765
NCMCM    2.340  0.200 P
NCMDC    2.690  0.200 P
NCMINS    3.140  0.500 S
NCMINS    1.840  0.500 P
NCMLC    1.750  0.200 P
NCMMP    0.950  1.000 P
NCMMS    1.180  0.200 P
NCMQ1P    0.920  1.000 P
NCMRD    1.250 -1.000 P
# 2012 10 02 00 04 45.21  37.6003 -119.0048  1.69 0.16 0.51 0.27 0.05   71850940
NCMCM    2.350 -0.500 P
NCMCY    2.680  0.200 S
NCMCY    1.440  0.200 P
NCMDC    2.700  0.200 P
NCMINS    1.860 -1.000 P
NCMLC    1.770  0.200 P
NCMLI    1.190  0.200 P
NCMMP    0.960  1.000 P
NCMMS    1.440  0.200 P
NCMQ1P    0.960  1.000 P
NCMRD    1.270 -1.000 P
# 2012 10 02 03 00 7.22  37.6368 -119.0562 -1.31 0.36 0.34 0.49 0.07   71851005
NCMCY    1.310  0.200 S
NCMCY    1.000  0.200 P
NCMDC    1.660  0.200 P
NCMDY    1.280 -1.000 P
NCMINS    1.120  0.500 S
NCMINS    0.670 -1.000 P
NCMLI    1.100  0.200 P
NCMMP    0.990  1.000 P
NCMMS    0.880  1.000 P
NCMQ1P    1.110  0.500 P
NCMRD    1.170  0.500 P
# 2012 10 02 04 17 47.40  37.6023 -119.0043  1.53 0.06 0.94 0.36 0.03   71851380
NCMDC    2.690  0.200 P
NCMINS    1.830  0.200 P
NCMMP    0.910 -1.000 P
NCMMS    1.190  0.200 P
NCMQ1P    0.890  0.200 P
NCMRD    1.230  0.500 P
# 2012 10 02 04 23 22.12  37.6313 -119.0263  1.91 0.12 0.52 0.57 0.04   71851055
NCMCM    2.670  0.200 P
NCMCY    1.950  0.200 S
NCMCY    0.990  0.200 P
NCMDY    2.230  0.200 S
NCMDY    1.210  0.200 P
NCMINS    1.320 -1.000 P
NCMLI    1.080  0.200 P
NCMMP    0.990 -1.000 P
NCMMS    1.250  0.500 P
NCMQ1P    0.970  0.500 P
NCMRD    1.350  0.200 P
# 2012 10 02 05 56 20.20  37.6532 -119.0220 -0.25 0.18 0.22 0.28 0.05   71851085
NCMCB    2.550  0.200 P
NCMCM    2.820  0.200 P
NCMCY    1.280  0.500 S
NCMCY    0.770  1.000 P
NCMDC    1.620  0.500 P
NCMDH1    3.230  1.000 S
NCMDY    0.770  1.000 P
NCMEM    1.800  0.500 P
NCMGPB    2.530  0.200 P
NCMINS    0.990  1.000 P
NCMLI    1.000  0.200 P
NCMLK    1.310  1.000 P
NCMMLB    1.200  1.000 P
NCMMP    1.330  0.200 P
NCMMS    0.960  0.200 P
NCMRD    1.630  1.000 P
# 2012 10 02 06 05 11.17  37.6378 -119.0282  1.14 -0.16 0.47 0.97 0.10   71851395
NCMCY    0.800  0.200 P
NCMDC    1.750  0.200 P
NCMDY    1.170 -1.000 P
NCMINS    2.080 -0.500 S
NCMINS    1.060 -1.000 P
NCMLI    0.800  0.200 P
NCMMP    0.900  1.000 P
NCMMS    1.110  1.000 P
NCMQ1P    0.880  0.500 P
NCMRD    1.210  0.500 P
# 2012 10 02 06 10 56.27  37.6358 -119.0295  1.81 0.85 0.26 0.56 0.07   71851090
NCMCM    2.770  0.200 P
NCMCY    1.020  1.000 P
NCMDC    1.880  1.000 P
NCMDP1    2.070  1.000 S
NCMDY    2.310  0.500 S
NCMDY    1.310  1.000 P
NCMINS    2.240  1.000 S
NCMINS    1.200  1.000 P
NCMLI    1.160  0.200 P
NCMLK    1.690  1.000 P
NCMMLB    1.550  1.000 P
NCMMP    1.050  1.000 P
NCMMS    1.160  1.000 P
NCMQ1P    1.020  1.000 P
NCMRD    1.370  0.500 P
# 2012 10 02 07 34 22.55  37.5943 -119.0142  3.03 -0.08 1.25 0.87 0.06   71851405
NCMINS    1.980  0.500 P
NCMMP    1.040 -1.000 P
NCMQ1P    1.030  0.500 P
NCMRD    1.330 -1.000 P
# 2012 10 03 03 38 11.88  37.6568 -119.0222 -0.03 0.63 0.25 0.28 0.07   71851540
CIMLAC    3.520  0.200 P
NCMCB    2.540  1.000 P
NCMCM    2.820  1.000 P
NCMCS    2.360  1.000 P
NCMCV    3.530  0.200 P
NCMCY    1.320  0.500 S
NCMCY    0.790  1.000 P
NCMDC    1.430 -1.000 P
NCMDH1    3.170  1.000 S
NCMDR    3.550  0.500 P
NCMDY    1.530  0.500 S
NCMDY    0.770  1.000 P
NCMEM    1.790  1.000 P
NCMGPB    2.510  0.500 P
NCMINS    1.000  1.000 P
NCMLC    2.220  0.500 P
NCMLI    1.060  0.200 P
NCMLK    1.300  1.000 P
NCMMLB    1.180  1.000 P
NCMMP    1.400  0.500 P
NCMMS    1.130  0.200 P
NCMQ1P    1.240  0.200 P
NCMRD    1.660  1.000 P
# 2012 10 03 03 38 47.65  37.6562 -119.0228 -0.08 0.64 0.23 0.32 0.06   71851545
CIMLAC    3.510  0.200 P
NCMCB    2.540  0.500 P
NCMCM    2.830  0.500 P
NCMCS    2.350  0.500 P
NCMCV    3.540  0.200 P
NCMCY    1.330  0.200 S
NCMCY    0.800  0.500 P
NCMDC    1.440 -1.000 P
NCMDH1    3.190  1.000 S
NCMDP1    2.250  1.000 S
NCMDR    3.550  1.000 P
NCMDY    1.540  0.200 S
NCMDY    0.780 -1.000 P
NCMEM    1.800  1.000 P
NCMGPB    2.510  0.500 P
NCMINS    1.010  1.000 P
NCMLC    2.210  0.500 P
NCMLI    1.050  0.200 P
NCMLK    1.310  1.000 P
NCMMLB    1.190  1.000 P
NCMMP    1.410  0.500 P
NCMMS    1.160  0.200 P
NCMQ1P    1.270  0.200 P
NCMRD    1.670  1.000 P
# 2012 10 03 06 17 3.34  37.6522 -119.0215 -0.19 0.16 0.26 0.42 0.07   71851565
NCMCY    1.260  0.200 S
NCMCY    0.770  0.500 P
NCMDC    1.610  0.500 P
NCMDH1    3.160  1.000 S
NCMDY    1.490  0.200 S
NCMDY    0.780 -1.000 P
NCMINS    0.980  1.000 P
NCMLI    0.660  0.200 P
NCMLK    1.280 -1.000 P
NCMMLB    1.170  0.500 P
NCMMP    1.350  0.500 P
NCMMS    1.040  0.200 P
NCMQ1P    1.210  0.200 P
NCMRD    1.620  1.000 P
# 2012 10 03 07 42 13.01  37.6248 -119.0580  0.09 -0.28 0.27 0.84 0.03   71851730
NCMCY    1.120  0.200 P
NCMINS    1.660  0.200 S
NCMINS    0.950  0.500 P
NCMMS    0.870  0.200 P
NCMQ1P    0.930  0.500 P
NCMRD    0.890 -1.000 P
# 2012 10 03 09 47 41.41  37.6340 -119.0582  0.06 -0.11 0.24 0.50 0.06   71851740
NCMCY    1.800  0.500 S
NCMCY    0.890  0.200 P
NCMDC    1.970  0.500 P
NCMINS    1.550  0.200 S
NCMINS    0.780 -1.000 P
NCMMP    1.090  0.200 P
NCMMS    0.900  0.200 P
NCMQ1P    0.990  0.200 P
NCMRD    1.030 -1.000 P
# 2012 10 03 09 47 45.92  37.6363 -119.0553  0.06 -0.12 0.24 0.55 0.04   71065559
NCMCY    1.590  0.500 S
NCMCY    0.940  0.200 P
NCMDC    1.960  0.200 P
NCMINS    1.600  0.200 S
NCMINS    0.840 -1.000 P
NCMMS    1.040  0.200 P
NCMQ1P    1.230  0.200 P
NCMRD    1.080 -1.000 P
# 2012 10 03 10 29 15.72  37.6353 -119.0588  0.48 0.26 0.21 0.41 0.04   71851640
NCMCM    3.230  0.200 P
NCMCY    1.840  0.200 S
NCMCY    1.090  0.200 P
NCMDC    1.770  0.500 P
NCMDY    1.440  0.200 P
NCMINS    1.630  0.200 S
NCMINS    0.870 -1.000 P
NCMMP    1.080  0.500 P
NCMMS    1.090  0.500 P
NCMQ1P    1.150  0.200 P
NCMRD    1.100 -1.000 P
# 2012 10 03 11 43 29.65  37.6262 -119.0575  0.04 -0.30 0.27 0.75 0.05   71851765
NCMCY    1.000  0.200 P
NCMDC    2.380  0.200 P
NCMINS    1.640  0.500 S
NCMINS    0.960  0.500 P
NCMMP    0.940  0.500 P
NCMMS    0.890  0.200 P
NCMQ1P    0.950  0.200 P
NCMRD    0.900 -1.000 P
# 2012 10 03 12 47 2.21  37.6302 -119.0375  0.97 0.10 0.36 0.67 0.04   71851775
NCMCY    0.930  0.500 P
NCMDC    1.830 -0.500 P
NCMDP1    1.840 -0.500 S
NCMDY    1.300  0.200 P
NCMINS    1.260  0.200 P
NCMMP    0.910  0.500 P
NCMMS    1.040  0.500 P
NCMQ1P    0.830  0.500 P
NCMRD    1.180 -0.500 P
# 2012 10 03 20 28 57.09  37.6313 -119.0448  0.33 0.80 0.36 0.61 0.07   71065624
NCMCY    1.420  0.200 S
NCMCY    1.010  0.500 P
NCMDC    1.810 -1.000 P
NCMINS    1.660  0.500 S
NCMINS    0.990  1.000 P
NCMLI    1.030  1.000 P
NCMLK    1.700  0.500 P
NCMMP    0.840  1.000 P
NCMMS    0.980  1.000 P
NCMQ1P    0.830  1.000 P
NCMRD    1.100 -1.000 P
# 2012 10 03 20 29 7.65  37.6333 -119.0413  0.19 1.66 0.29 0.51 0.05   71851800
NCMCY    0.860  0.500 P
NCMDC    1.790 -1.000 P
NCMINS    1.660  0.500 S
NCMINS    1.010  1.000 P
NCMLI    1.030  0.200 P
NCMLK    1.720  0.500 P
NCMMLB    1.620  0.200 P
NCMMP    0.840  1.000 P
NCMMS    1.010  0.500 P
NCMQ1P    0.830  1.000 P
NCMRD    1.110  1.000 P
# 2012 10 03 20 29 14.12  37.6327 -119.0425  0.66 1.88 0.35 0.61 0.06   71065619
NCMCY    1.550  0.200 S
NCMCY    0.900  1.000 P
NCMDC    1.830 -1.000 P
NCMDP1    1.770  0.500 S
NCMINS    1.730  0.500 S
NCMINS    1.030  1.000 P
NCMLI    1.060  0.500 P
NCMLK    1.690  0.200 P
NCMMP    0.860  1.000 P
NCMMS    1.060  1.000 P
NCMQ1P    0.860  1.000 P
NCMRD    1.120  1.000 P
# 2012 10 03 20 29 27.63  37.6332 -119.0418 -0.30 0.99 0.22 0.54 0.07   71065589
NCMCY    0.790  1.000 P
NCMDC    1.770 -1.000 P
NCMINS    1.610  1.000 S
NCMINS    0.950  1.000 P
NCMLI    0.960  1.000 P
NCMMP    0.810  0.500 P
NCMMS    0.870  0.200 P
NCMQ1P    0.790  1.000 P
NCMRD    1.170  0.200 P
# 2012 10 03 20 29 36.97  37.6323 -119.0392  0.51 1.04 0.40 0.79 0.04   71065584
NCMCY    0.880  0.200 P
NCMDC    1.820 -1.000 P
NCMINS    1.010  0.500 P
NCMLI    1.050  0.200 P
NCMMP    0.860  1.000 P
NCMMS    0.980  0.500 P
NCMQ1P    0.840  0.500 P
# 2012 10 03 20 29 44.45  37.6292 -119.0448  1.65 0.75 0.62 0.93 0.09   71065579
NCMCY    1.110  0.200 P
NCMDC    1.890 -1.000 P
NCMDP1    1.890  0.200 S
NCMINS    1.060  0.500 P
NCMMP    0.940  0.500 P
NCMMS    1.160 -1.000 P
NCMQ1P    0.920  0.200 P
NCMRD    1.240  0.200 P
# 2012 10 03 20 29 59.34  37.6317 -119.0400  0.80 1.65 0.28 0.47 0.06   71851805
NCMCY    1.570  0.200 S
NCMCY    0.890  0.200 P
NCMDC    1.860  1.000 P
NCMDH1    3.720  1.000 S
NCMDY    1.280  0.200 P
NCMEM    2.170  1.000 P
NCMGPB    2.650  0.500 P
NCMINS    1.750  0.200 S
NCMINS    1.050 -1.000 P
NCMLI    1.070  1.000 P
NCMLK    1.750  0.500 P
NCMMLB    1.580  0.200 P
NCMMP    0.890  1.000 P
NCMMS    1.020  0.500 P
NCMQ1P    0.880  1.000 P
NCMRD    1.160  0.500 P
# 2012 10 03 20 30 48.71  37.6307 -119.0407  0.74 0.44 0.24 0.58 0.04   71852430
NCMCY    0.990  0.200 P
NCMDC    1.840 -1.000 P
NCMDP1    1.720 -1.000 S
NCMINS    1.050  0.500 P
NCMLI    1.040  0.500 P
NCMMP    0.860  1.000 P
NCMMS    1.010  0.500 P
NCMQ1P    0.890  0.200 P
NCMRD    1.110 -1.000 P
# 2012 10 03 20 31 38.90  37.6293 -119.0400  1.16 0.98 0.31 0.36 0.07   71851815
NCMCB    2.800  0.200 P
NCMCM    2.960 -1.000 P
NCMCS    2.620  0.200 P
NCMCY    0.940  0.200 P
NCMDC    1.890  1.000 P
NCMDR    3.730  0.200 P
NCMDY    1.330  0.500 P
NCMEM    2.180  0.200 P
NCMGPB    2.680  0.500 P
NCMINS    1.730  0.200 S
NCMINS    1.080  1.000 P
NCMLI    1.100  1.000 P
NCMLK    1.790  0.200 P
NCMMLB    1.620  0.200 P
NCMMP    0.900  0.500 P
NCMMS    1.080  1.000 P
NCMQ1P    0.890  1.000 P
NCMRD    1.270  0.500 P
# 2012 10 03 20 37 35.02  37.6340 -119.0408 -0.04 0.83 0.25 0.44 0.04   71851820
NCMCY    0.850  0.500 P
NCMDC    1.810 -1.000 P
NCMDY    1.100  0.200 P
NCMINS    1.640  0.500 S
NCMINS    0.980  1.000 P
NCMLI    0.790  0.200 P
NCMLK    1.710  0.500 P
NCMMP    0.840  0.500 P
NCMMS    0.900  0.200 P
NCMQ1P    0.820  1.000 P
NCMRD    1.080  1.000 P
