# 2012 10 29 16 52 39.57  37.6242 -119.0440 19.06 1.30 0.80 0.30 0.10   71871105
NCMCB    4.560  0.500 P
NCMCD   10.120  0.500 P
NCMCM    4.490  0.200 P
NCMCV    4.940  1.000 P
NCMCY    3.990  0.200 P
NCMDC    4.020  0.500 P
NCMDPB    6.540  1.000 S
NCMDPB    3.720  1.000 P
NCMDR    5.070  0.500 P
NCMGPB    4.430  0.200 P
NCMINS    6.720  0.500 S
NCMINS    3.770  1.000 P
NCMLC    4.210  0.200 P
NCMMP    3.840  1.000 P
NCMMS    4.120  0.200 P
NCMMT    6.220  0.200 P
NCMPR   14.620  0.500 P
NCMQ1P    3.840  0.500 P
NCMRC    8.990  0.200 P
NCMRD    3.730  0.500 P
NCMTU    9.430  0.200 P
NNBEN    8.310  0.500 P
NNBHP   10.890  0.200 P
NNOMMB    6.580  1.000 S
NNOMMB    3.730  0.500 P
NNORC    6.980  1.000 P
NNRCC    6.480  0.500 P
NNSCH    7.960  0.500 P
# 2012 10 29 17 34 16.79  37.6740 -119.0397 17.74 0.92 0.71 0.58 0.06   71871125
NCMCM    4.400  0.500 P
NCMCV    4.780  0.200 P
NCMDC    3.470 -1.000 P
NCMDPB    6.410  0.500 S
NCMDPB    3.610  0.500 P
NCMDR    4.920  0.200 P
NCMGPB    4.310  1.000 P
NCMINS    6.630  0.200 S
NCMINS    3.740  0.200 P
NCMLC    4.110  0.500 P
NCMMP    3.730  0.500 P
NCMMT    6.940  0.200 P
NCMQ1P    3.850  0.200 P
NCMRD    3.650  0.500 P
NNOMMB    6.480  0.500 S
NNOMMB    3.700  1.000 P
NNORC    6.890  0.500 P
NNRCC    6.390  0.500 P
# 2012 10 29 17 59 25.55  37.6173 -119.0457 18.49 0.92 0.60 0.36 0.08   71871155
NCMCM    4.490  0.500 P
NCMCV    4.890  0.500 P
NCMDC    3.980  1.000 P
NCMDPB    6.380  0.500 S
NCMDPB    3.610  1.000 P
NCMGPB    4.390  0.500 P
NCMINS    6.620  0.500 S
NCMINS    3.690  1.000 P
NCMLC    4.150  1.000 P
NCMMP    3.730  1.000 P
NCMMS    3.990  0.500 P
NCMMT    6.070 -1.000 P
NCMPR   14.700  1.000 P
NCMQ1P    6.470  0.500 S
NCMQ1P    3.710  0.500 P
NCMRD    3.670  1.000 P
NNOMMB    6.410  1.000 S
NNOMMB    3.640  1.000 P
NNRCC    6.480  0.500 P
NNSCH    7.910  0.500 P
# 2012 10 29 18 16 29.84  37.6175 -119.0495 19.36 0.74 0.91 0.35 0.06   71871165
NCMCM    4.630  0.500 P
NCMDC    4.130 -1.000 P
NCMDPB    6.520  0.200 S
NCMDPB    3.760  1.000 P
NCMGPB    4.610  0.200 P
NCMINS    6.750  0.500 S
NCMINS    3.850  1.000 P
NCMLC    4.360  0.500 P
NCMMP    3.890  0.500 P
NCMMS    4.120  0.200 P
NCMPR   14.760  0.500 P
NCMQ1P    3.880  0.200 P
NCMRD    3.830  1.000 P
NNOMMB    6.630  0.500 S
NNOMMB    3.790  0.500 P
NNORC    7.080  0.200 P
NNRCC    6.630  0.500 P
NNSCH    8.070  0.500 P
# 2012 10 29 18 52 15.65  37.6185 -119.0542 19.02 0.84 0.59 0.34 0.10   71871220
NCMCM    4.650  0.500 P
NCMCV    4.930  0.500 P
NCMCY    3.930  0.200 P
NCMDC    4.030  1.000 P
NCMDPB    6.550  0.500 S
NCMDPB    3.710  1.000 P
NCMINS    6.800  1.000 S
NCMINS    3.780  0.500 P
NCMLC    4.330  0.500 P
NCMMP    3.800  0.500 P
NCMMS    4.150  0.500 P
NCMMT    6.290  0.200 P
NCMPR   14.690  0.500 P
NCMQ1P    3.860  0.500 P
NCMRD    3.800  1.000 P
NCMTU    9.590  0.200 P
NNOMMB    6.540  0.500 S
NNOMMB    3.770  0.500 P
NNRCC    6.540  0.500 P
NNSCH    8.020  0.200 P
# 2012 10 29 18 55 50.72  37.6350 -119.0450 18.50 0.63 1.41 0.43 0.08   71871225
NCMCM    4.390  0.200 P
NCMDC    3.890 -1.000 P
NCMDPB    3.570  1.000 P
NCMINS    6.590  0.500 S
NCMINS    3.660  1.000 P
NCMMP    3.680  0.500 P
NCMMS    4.130  0.200 P
NCMPR   14.500  0.500 P
NCMQ1P    3.680  0.500 P
NCMRD    3.680  0.500 P
NNOMMB    6.410 -1.000 S
NNOMMB    3.640  1.000 P
NNRCC    6.450  0.200 P
NNSCH    7.830  0.200 P
# 2012 10 29 19 03 40.09  37.6255 -119.0400 18.25 1.17 1.08 0.36 0.06   71871230
NCMCB    4.400  1.000 P
NCMCM    4.390  1.000 P
NCMCV    4.760  0.500 P
NCMDC    3.880 -1.000 P
NCMDPB    6.290  0.500 S
NCMDPB    3.520  1.000 P
NCMDR    4.910  0.500 P
NCMGPB    4.290  1.000 P
NCMINS    6.520  0.200 S
NCMINS    3.600  0.500 P
NCMLC    4.060  1.000 P
NCMMP    3.620  1.000 P
NCMMS    3.840  1.000 P
NCMQ1P    3.590  1.000 P
NCMRD    3.580  1.000 P
NNOMMB    6.340  1.000 S
NNOMMB    3.560  1.000 P
# 2012 10 29 19 04 53.53  37.6230 -119.0472 18.95 0.93 0.55 0.30 0.08   71871240
NCMCM    4.560  1.000 P
NCMCV    4.920  1.000 P
NCMDC    4.060  1.000 P
NCMDPB    6.530  0.500 S
NCMDPB    3.720  1.000 P
NCMGPB    4.500  0.200 P
NCMINS    6.730  1.000 S
NCMINS    3.790  1.000 P
NCMLC    4.220  0.500 P
NCMMP    3.810  0.500 P
NCMMS    4.030  0.200 P
NCMMT    6.170 -1.000 P
NCMPR   14.710  0.500 P
NCMQ1P    3.790  0.500 P
NCMRD    3.770  1.000 P
NNOMMB    6.560  0.500 S
NNOMMB    3.760  0.500 P
NNORC    7.030  0.200 P
NNRCC    6.460  0.200 P
NNSCH    7.950  0.200 P
# 2012 10 29 19 08 30.27  37.6283 -119.0523 19.12 1.11 0.55 0.31 0.09   71877680
NCMBS1    8.450  0.200 S
NCMCM    4.620  0.200 P
NCMDC    4.060  1.000 P
NCMDPB    6.590  0.500 S
NCMDPB    3.710  0.500 P
NCMHD   15.940  0.500 P
NCMINS    6.860  1.000 S
NCMINS    3.800  1.000 P
NCMMI   11.470  0.500 P
NCMMP    3.890  0.500 P
NCMMS    4.120  0.200 P
NCMMT    6.310  0.500 P
NCMPR   14.730  1.000 P
NCMQ1P    3.870  0.500 P
NCMRC    9.270  0.200 P
NCMRD    3.780  1.000 P
NCMTU    9.580  0.200 P
NNOMMB    6.540  0.500 S
NNOMMB    3.720  1.000 P
NNORC    7.140  0.500 P
NNRCC    6.600  0.500 P
# 2012 10 29 19 24 50.30  37.6397 -119.0235 16.95 0.56 1.07 0.41 0.11   71871260
NCMCM    4.150  1.000 P
NCMCY    3.490  0.200 P
NCMDC    3.730 -1.000 P
NCMDPB    6.080  1.000 S
NCMDPB    3.370  1.000 P
NCMDY    3.600  0.200 P
NCMGPB    4.030  0.500 P
NCMINS    6.240  1.000 S
NCMINS    3.400  0.500 P
NCMLC    3.830  1.000 P
NCMMP    3.480  0.500 P
NCMMS    3.790  1.000 P
NCMQ1P    3.350  0.200 P
NCMRD    3.430  1.000 P
NNOMMB    6.030  1.000 S
NNOMMB    3.370  1.000 P
NNRCC    6.180  0.500 P
NNSCH    7.620  0.200 P
# 2012 10 29 19 47 12.70  37.6328 -119.0355 17.20 0.92 0.79 0.28 0.07   71871290
NCMCB    4.290  0.500 P
NCMCM    4.270  1.000 P
NCMCV    4.680  1.000 P
NCMCY    6.530  0.200 S
NCMCY    3.690  0.200 P
NCMDC    3.780  0.500 P
NCMDPB    6.250  0.500 S
NCMDPB    3.510  0.500 P
NCMDY    4.000  0.200 P
NCMGPB    4.180  0.500 P
NCMINS    6.360 -1.000 S
NCMINS    3.570  0.500 P
NCMLC    3.950  0.500 P
NCMLI    3.660  0.200 P
NCMMI   11.450  0.200 P
NCMMP    3.540  0.500 P
NCMMS    3.750  0.200 P
NCMMT    6.260  0.200 P
NCMPR   14.690  0.500 P
NCMQ1P    3.540  0.200 P
NCMRD    3.510  0.500 P
NNOMMB    6.190 -1.000 S
NNOMMB    3.450  0.500 P
NNORC    6.800  0.200 P
NNSCH    7.840  0.200 P
# 2012 10 29 20 04 58.70  37.6262 -119.0395 18.24 1.08 0.55 0.22 0.06   71871300
NCMCB    4.410  0.200 P
NCMCM    4.430  1.000 P
NCMCV    4.810  1.000 P
NCMDC    3.890  1.000 P
NCMDPB    6.350  1.000 S
NCMDPB    3.610  1.000 P
NCMDR    4.940  0.200 P
NCMGPB    4.310  1.000 P
NCMINS    6.510  0.500 S
NCMINS    3.670  0.500 P
NCMLC    4.100  0.500 P
NCMLI    3.820  0.200 P
NCMMP    3.670  0.200 P
NCMMS    3.790  0.200 P
NCMMT    6.170 -0.500 P
NCMQ1P    3.640  0.200 P
NCMRD    3.680  1.000 P
NNOMMB    6.350  1.000 S
NNOMMB    3.610  0.500 P
NNORC    6.850  0.200 P
NNRCC    6.450  0.500 P
# 2012 10 29 20 07 8.87  37.6357 -119.0225 17.38 0.55 1.69 0.39 0.08   71877660
NCMCM    4.140  1.000 P
NCMCV    4.530  1.000 P
NCMDC    3.740 -0.500 P
NCMDPB    6.100 -1.000 S
NCMDPB    3.410 -1.000 P
NCMGPB    4.050  0.200 P
NCMINS    6.210  0.200 S
NCMINS    3.390  0.200 P
NCMLC    3.820  1.000 P
NCMMP    3.530  0.200 P
NCMMT    5.940  0.200 P
NCMPR   14.720  0.500 P
NCMQ1P    3.370  0.200 P
NCMRD    3.410  0.500 P
NNOMMB    5.990 -1.000 S
NNOMMB    3.340  0.500 P
NNORC    6.580  0.200 P
# 2012 10 29 20 24 47.53  37.6133 -119.0422 17.29 0.74 0.71 0.40 0.11   71871315
NCMCM    4.250  0.500 P
NCMCV    4.630  0.500 P
NCMDC    3.900  0.500 P
NCMDPB    6.190  1.000 S
NCMDPB    3.530  0.500 P
NCMDR    4.780  0.200 P
NCMDY    3.590  0.200 P
NCMGPB    4.160  0.500 P
NCMINS    6.330  1.000 S
NCMINS    3.520  1.000 P
NCMLC    3.930  0.500 P
NCMMP    3.590  0.200 P
NCMMT    6.050  1.000 P
NCMQ1P    3.630  0.200 P
NCMRD    3.540  1.000 P
NNOMMB    6.140  0.500 S
NNOMMB    3.470  0.200 P
NNSCH    7.720  0.200 P
# 2012 10 29 20 26 49.72  37.6205 -119.0330 18.04 0.87 0.79 0.30 0.07   71871320
NCMCM    4.340  0.500 P
NCMCV    4.700  0.200 P
NCMDC    3.930  0.500 P
NCMDPB    6.210  0.500 S
NCMDPB    3.570  1.000 P
NCMDR    4.860  0.500 P
NCMEM    4.210  0.200 P
NCMGPB    4.230  0.500 P
NCMINS    6.440  0.500 S
NCMINS    3.620  0.500 P
NCMLC    4.000  1.000 P
NCMMP    3.620  1.000 P
NCMMS    3.760  0.200 P
NCMMT    6.170  0.200 P
NCMQ1P    3.580  0.500 P
NCMRD    3.610  1.000 P
NCMTU    9.330  0.200 P
NNOMMB    6.200  0.500 S
NNOMMB    3.530  0.500 P
NNORC    6.780  0.200 P
NNRCC    6.350  0.500 P
NNSCH    7.860  0.500 P
# 2012 10 29 20 34 53.03  37.6290 -119.0288 17.46 0.86 0.87 0.31 0.06   71871330
NCMCM    4.220  1.000 P
NCMCV    4.640  0.500 P
NCMDC    3.750 -1.000 P
NCMDPB    6.200  0.500 S
NCMDPB    3.460  1.000 P
NCMGPB    4.150  0.200 P
NCMINS    6.340  0.500 S
NCMINS    3.480  0.500 P
NCMLC    3.910  0.500 P
NCMMP    3.570  0.500 P
NCMPR   14.630  0.500 P
NCMQ1P    3.510  0.200 P
NCMRD    3.540  1.000 P
NNOMMB    6.140 -1.000 S
NNOMMB    3.500  1.000 P
NNRCC    6.250  0.500 P
NNSCH    7.750  0.200 P
# 2012 10 29 20 45 53.75  37.6710 -119.0032 16.31 0.78 1.01 0.38 0.13   71871335
NCMCM    4.180  0.200 P
NCMCV    4.600  0.200 P
NCMDC    3.210  0.200 P
NCMDP1    6.040  0.200 S
NCMGPB    4.080  0.500 P
NCMINS    6.240  0.500 S
NCMINS    3.460  0.200 P
NCMMP    3.500  0.200 P
NCMMT    7.060 -0.500 P
NCMQ1P    3.590  0.200 P
NCMRD    3.460  0.500 P
NNOMMB    6.020 -1.000 S
NNOMMB    3.390  0.200 P
NNRCC    6.190 -0.500 P
NNSCH    7.690  0.200 P
# 2012 10 29 20 54 43.75  37.6255 -119.0340 17.07 0.87 0.71 0.31 0.07   71871355
NCMCM    4.240  1.000 P
NCMCV    4.650  1.000 P
NCMDC    3.750 -1.000 P
NCMDPB    6.190  0.500 S
NCMDPB    3.460  1.000 P
NCMDR    4.780  0.200 P
NCMGPB    4.150  0.500 P
NCMINS    6.300  1.000 S
NCMINS    3.510  1.000 P
NCMLC    3.910  0.500 P
NCMMP    3.570  0.200 P
NCMMS    3.570  0.200 P
NCMMT    6.110  0.200 P
NCMPR   14.640  0.200 P
NCMQ1P    3.600  0.200 P
NCMRD    3.520  1.000 P
NNOMMB    6.110 -1.000 S
NNOMMB    3.430  0.500 P
NNORC    6.770  0.200 P
NNRCC    6.290  0.500 P
NNSCH    7.770  0.500 P
# 2012 10 29 21 09 39.35  37.6267 -119.0328 17.19 0.91 0.58 0.39 0.07   71871365
NCMCM    4.230  1.000 P
NCMCV    4.610  0.500 P
NCMDC    3.730 -1.000 P
NCMDPB    6.200  0.200 S
NCMDPB    3.450  1.000 P
NCMGPB    4.130  0.200 P
NCMINS    6.330 -1.000 S
NCMINS    3.500  1.000 P
NCMLC    3.930  0.500 P
NCMMI   11.270  0.200 P
NCMMP    3.550  0.500 P
NCMMT    6.140  0.500 P
NCMPR   14.660  0.200 P
NCMQ1P    3.540  0.200 P
NCMRD    3.540  1.000 P
NNOMMB    6.120  0.500 S
NNOMMB    3.460  0.500 P
NNRCC    6.280  0.500 P
NNSCH    7.780  0.500 P
# 2012 10 29 21 11 0.34  37.6103 -119.0313 16.91 0.64 0.83 0.60 0.16   71871370
NCMCM    4.100  0.500 P
NCMCV    4.490  1.000 P
NCMDC    3.810  0.200 P
NCMDPB    6.070  1.000 S
NCMDPB    3.630  0.500 P
NCMDR    4.640  0.200 P
NCMGPB    4.010  0.200 P
NCMINS    6.190  1.000 S
NCMINS    3.400  0.500 P
NCMLC    3.780  0.500 P
NCMMP    3.400  0.200 P
NCMMT    5.920 -1.000 P
NCMQ1P    3.590  1.000 P
NCMRD    3.380  0.500 P
NNOMMB    5.970 -1.000 S
NNOMMB    3.350  0.500 P
NNRCC    6.190  0.200 P
NNSCH    7.560  0.500 P
# 2012 10 29 21 14 47.17  37.6335 -119.0548 19.53 0.63 1.48 0.55 0.09   71871375
NCMCM    4.570  0.500 P
NCMDC    4.080 -1.000 P
NCMDPB    6.520 -1.000 S
NCMDPB    3.790  1.000 P
NCMGPB    4.450  0.200 P
NCMINS    6.650  0.500 S
NCMINS    3.820  1.000 P
NCMLC    4.250  0.500 P
NCMMP    3.910  0.500 P
NCMQ1P    3.920  0.200 P
NCMRD    3.860  1.000 P
NNOMMB    6.490  0.500 S
NNOMMB    3.760  1.000 P
NNSCH    8.570  0.200 P
# 2012 10 29 21 36 13.94  37.6318 -119.0340 17.97 0.61 1.46 0.64 0.15   71871385
NCMCM    4.310  0.500 P
NCMDC    3.810 -1.000 P
NCMDPB    6.230  0.500 S
NCMDPB    3.350  0.200 P
NCMGPB    4.180  0.200 P
NCMINS    6.350  0.500 S
NCMINS    3.560  0.500 P
NCMLC    3.970  0.200 P
NCMMP    3.790  0.500 P
NCMPR   14.710  0.500 P
NCMQ1P    3.660  0.500 P
NCMRD    3.430  0.500 P
NNOMMB    6.180  0.200 S
NNOMMB    3.500  0.200 P
NNRCC    6.330 -0.500 P
# 2012 10 29 22 18 12.27  37.6347 -119.0430 18.05 0.59 1.23 0.58 0.11   71877085
NCMCM    4.340  0.200 P
NCMDC    3.960  1.000 P
NCMDP1    6.220  1.000 S
NCMDPB    6.250  1.000 S
NCMDPB    3.420  1.000 P
NCMINS    6.410  1.000 S
NCMINS    3.610  1.000 P
NCMLC    4.560  0.200 P
NCMMT    6.150  0.200 P
NCMQ1P    3.850  0.500 P
NCMRD    3.620  1.000 P
NNOMMB    6.230 -1.000 S
NNOMMB    3.570  1.000 P
# 2012 10 29 22 36 42.07  37.6200 -119.0370 18.31 1.29 0.49 0.45 0.05   71871440
CIMLAC    4.870  0.200 P
NCMCD    9.960  0.200 P
NCMCM    4.410  1.000 P
NCMCV    4.820  1.000 P
NCMDC    3.970  0.500 P
NCMDPB    6.290  0.500 S
NCMDPB    3.620  1.000 P
NCMDR    4.960  0.200 P
NCMDY    3.570  0.200 P
NCMEM    4.330  0.200 P
NCMINS    6.560  0.200 S
NCMINS    3.660  0.500 P
NCMLC    4.100  0.200 P
NCMMI   11.520  0.500 P
NCMMP    3.760  0.200 P
NCMMS    3.900  0.200 P
NCMMT    6.220  0.500 P
NCMPR   14.840  1.000 P
NCMQ1P    3.750  0.200 P
NCMRD    3.700  1.000 P
NCMTU    9.410  0.200 P
NNOMMB    6.260  0.200 S
NNOMMB    3.660  0.500 P
NNORC    6.860  0.200 P
NNRCC    6.460  1.000 P
NNSCH    7.940  1.000 P
# 2012 10 29 22 59 26.95  37.6258 -119.0375 17.23 1.09 0.62 0.31 0.06   71871455
NCMCB    4.230  0.500 P
NCMCM    4.250  1.000 P
NCMCV    4.620  0.200 P
NCMDC    3.770 -1.000 P
NCMDPB    6.130  0.500 S
NCMDPB    3.450  1.000 P
NCMDR    4.740  0.200 P
NCMEM    4.080  0.200 P
NCMGPB    4.130  0.500 P
NCMINS    6.310  0.500 S
NCMINS    3.500  1.000 P
NCMLC    3.910  1.000 P
NCMMP    3.470  1.000 P
NCMMS    3.840  0.500 P
NCMMT    6.050 -0.500 P
NCMQ1P    3.480  1.000 P
NCMRD    3.510  1.000 P
NNOMMB    6.120 -1.000 S
NNOMMB    3.440  1.000 P
NNORC    6.800  0.200 P
NNRCC    6.280  0.200 P
# 2012 10 29 23 05 20.53  37.6283 -119.0397 19.96 0.94 0.72 1.28 0.09   71871460
NCMCM    4.630  0.500 P
NCMCV    5.010  0.500 P
NCMDC    4.170 -1.000 P
NCMDPB    6.540  0.200 S
NCMDPB    3.850  1.000 P
NCMINS    6.660  0.200 S
NCMINS    3.890  1.000 P
NCMMP    3.960  1.000 P
NCMMS    4.290  0.200 P
NCMMT    6.450 -0.500 P
NCMPR   15.120  0.200 P
NCMQ1P    3.940  0.200 P
NCMRD    3.890  1.000 P
NNOMMB    6.470  0.200 S
NNOMMB    3.820  0.200 P
NNRCC    6.650  0.500 P
NNSCH    8.150  0.500 P
# 2012 10 29 23 10 2.70  37.6228 -119.0377 17.02 0.65 0.69 0.33 0.08   71871465
NCMCM    4.260  0.500 P
NCMCV    4.610  0.500 P
NCMDC    3.740 -1.000 P
NCMDPB    6.070  0.200 S
NCMDPB    3.420  1.000 P
NCMHD   15.760  0.500 P
NCMINS    6.260  1.000 S
NCMINS    3.480  1.000 P
NCMMP    3.540  0.500 P
NCMMT    6.010 -0.500 P
NCMPR   14.710  0.500 P
NCMQ1P    3.450  0.500 P
NCMRD    3.470  1.000 P
NNOMMB    6.040 -1.000 S
NNOMMB    3.410  0.500 P
NNRCC    6.210  0.200 P
NNSCH    7.770  0.500 P
# 2012 10 29 23 23 5.92  37.6272 -119.0438 17.90 0.91 0.51 0.26 0.09   71871470
NCMCM    4.370  0.500 P
NCMCV    4.820  0.500 P
NCMCY    3.660  0.200 P
NCMDC    3.920  1.000 P
NCMDPB    6.270  1.000 S
NCMDPB    3.570  1.000 P
NCMGPB    4.270  0.200 P
NCMHD   15.940  0.500 P
NCMINS    6.430  1.000 S
NCMINS    3.620  1.000 P
NCMLC    4.050  0.500 P
NCMMI   11.460  0.500 P
NCMMP    3.600  0.500 P
NCMMS    3.960  0.200 P
NCMMT    6.190 -1.000 P
NCMPR   14.730  0.500 P
NCMQ1P    3.590  0.500 P
NCMRD    3.650  1.000 P
NNOMMB    6.190  0.200 S
NNOMMB    3.570  1.000 P
NNRCC    6.410  0.200 P
NNSCH    7.910  0.500 P
# 2012 10 29 23 30 0.58  37.6247 -119.0383 18.65 1.48 0.44 0.25 0.06   71871475
NCMCB    4.490  0.200 P
NCMCD   10.050  0.200 P
NCMCM    4.500  0.200 P
NCMCV    4.860  0.200 P
NCMCY    7.000  0.200 S
NCMDC    3.990  1.000 P
NCMDPB    6.300  0.200 S
NCMDPB    3.670  1.000 P
NCMDY    7.270  0.200 S
NCMDY    3.910  0.200 P
NCMGPB    4.410  0.500 P
NCMINS    6.520  1.000 S
NCMINS    3.720  1.000 P
NCMLC    4.150  0.200 P
NCMMP    3.690  1.000 P
NCMMS    3.990  0.500 P
NCMMT    6.270 -1.000 P
NCMQ1P    3.700  0.200 P
NCMRD    3.740  1.000 P
NNOMMB    6.380  0.200 S
NNOMMB    3.650  1.000 P
NNORC    6.880  0.200 P
NNRCC    6.510  0.500 P
NNSCH    7.980  0.500 P
# 2012 10 29 23 35 50.77  37.6358 -119.0292 17.44 0.75 1.26 0.35 0.08   71871480
NCMCM    4.430  0.200 P
NCMCY    3.630  0.200 P
NCMDC    3.880  0.500 P
NCMDPB    6.270 -1.000 S
NCMDPB    3.540  1.000 P
NCMINS    6.390  1.000 S
NCMINS    3.570  1.000 P
NCMLC    4.040  0.200 P
NCMMP    3.640  0.500 P
NCMMS    3.850  0.200 P
NCMQ1P    3.630  0.200 P
NCMRD    3.580  1.000 P
NNOMMB    6.240 -1.000 S
NNOMMB    3.500  1.000 P
NNRCC    6.410  0.200 P
NNSCH    7.830  0.500 P
# 2012 10 30 00 04 40.94  37.6192 -119.0375 17.23 0.89 0.55 0.25 0.07   71871505
NCMCM    4.350  0.500 P
NCMCV    4.680  0.500 P
NCMDC    3.810 -1.000 P
NCMDPB    6.130  1.000 S
NCMDPB    3.480  1.000 P
NCMDY    4.040  0.200 P
NCMHD   14.980  0.200 P
NCMINS    6.270  0.500 S
NCMINS    3.510  1.000 P
NCMLC    4.000  0.500 P
NCMMI   11.360  0.200 P
NCMMP    3.550  0.200 P
NCMMS    3.760  0.200 P
NCMMT    6.070  0.500 P
NCMPR   14.560  0.500 P
NCMQ1P    3.520  0.500 P
NCMRD    3.540  1.000 P
NCMTU    9.260  0.200 P
NNOMMB    6.090 -1.000 S
NNOMMB    3.460  1.000 P
NNORC    6.770  0.200 P
NNRCC    6.330  0.500 P
NNSCH    7.820  0.500 P
# 2012 10 30 00 08 1.76  37.6228 -119.0408 18.25 0.94 0.50 0.27 0.06   71871510
NCMCM    4.390  1.000 P
NCMCV    4.790  0.200 P
NCMDC    3.930  1.000 P
NCMDPB    6.300  1.000 S
NCMDPB    3.610  1.000 P
NCMDY    6.970  0.200 S
NCMDY    4.220  0.200 P
NCMGPB    4.310  0.500 P
NCMINS    6.420  0.500 S
NCMINS    3.650  1.000 P
NCMLC    4.080  1.000 P
NCMMI   11.500  0.500 P
NCMMP    3.660  0.500 P
NCMMS    3.910  0.500 P
NCMMT    6.200 -1.000 P
NCMPR   14.840  1.000 P
NCMQ1P    3.620  1.000 P
NCMRD    3.650  1.000 P
NCMTU    9.390  0.200 P
NNOMMB    6.280  0.500 S
NNOMMB    3.600  1.000 P
NNORC    6.900  0.500 P
NNRCC    6.450  0.500 P
NNSCH    7.940  0.500 P
# 2012 10 30 00 15 37.92  37.6162 -119.0363 17.20 1.54 0.37 0.29 0.07   71871515
NCMCB    4.300  0.200 P
NCMCD    9.860  0.200 P
NCMCM    4.250  0.200 P
NCMCS    4.270  0.200 P
NCMCV    4.670  0.200 P
NCMCY    6.640  0.200 S
NCMCY    3.810  0.500 P
NCMDC    3.760  1.000 P
NCMDPB    6.080  1.000 S
NCMDPB    3.450  1.000 P
NCMDY    3.710  0.200 P
NCMGPB    4.160  0.500 P
NCMINS    6.230  0.500 S
NCMINS    3.500  1.000 P
NCMLC    3.920  1.000 P
NCMLI    3.950  0.200 P
NCMLK    3.990  0.200 P
NCMMLB    7.000  0.200 S
NCMMLB    3.970  0.200 P
NCMMP    3.490  1.000 P
NCMMS    3.720  1.000 P
NCMMT    6.020 -1.000 P
NCMQ1P    3.480  1.000 P
NCMRC    8.890  0.200 P
NCMRD    3.510  1.000 P
NNBEN    7.980  0.200 P
NNOMMB    6.070 -1.000 S
NNOMMB    3.420  1.000 P
NNORC    6.730  0.200 P
NNRCC    6.310  1.000 P
NNSCH    7.810  1.000 P
# 2012 10 30 00 44 15.53  37.6183 -119.0372 16.53 0.73 0.58 0.41 0.09   71871525
NCMCM    4.180  1.000 P
NCMCV    4.580  1.000 P
NCMCY    3.580  0.200 P
NCMDC    3.820  0.500 P
NCMDPB    5.960  0.500 S
NCMDPB    3.380  1.000 P
NCMDR    4.730  0.200 P
NCMHD   15.680  0.500 P
NCMINS    6.140  1.000 S
NCMINS    3.420  1.000 P
NCMLC    3.920  1.000 P
NCMMP    3.500  0.500 P
NCMMS    3.790  0.500 P
NCMMT    6.000 -1.000 P
NCMPR   14.560  0.200 P
NCMQ1P    3.510  0.500 P
NCMRD    3.430  1.000 P
NNOMMB    5.960 -1.000 S
NNOMMB    3.430  1.000 P
NNORC    6.670  0.200 P
NNRCC    6.110  0.200 P
NNSCH    7.740  1.000 P
# 2012 10 30 01 02 53.92  37.6258 -119.0322 18.23 0.91 0.42 0.26 0.06   71871535
NCMCM    4.380  1.000 P
NCMCV    4.710  0.200 P
NCMDC    3.900 -1.000 P
NCMDPB    6.420 -1.000 S
NCMDPB    3.640  1.000 P
NCMDR    4.890  1.000 P
NCMDY    3.900  0.200 P
NCMGPB    4.230  0.200 P
NCMHD   15.980  0.200 P
NCMINS    6.510  0.500 S
NCMINS    3.670  1.000 P
NCMLC    4.060  0.200 P
NCMMI   11.490  0.200 P
NCMMP    3.760  0.200 P
NCMMS    4.220  0.200 P
NCMMT    6.260  0.500 P
NCMPR   14.760  1.000 P
NCMQ1P    3.720  0.200 P
NCMRD    3.700  1.000 P
NCMTU    9.360  0.200 P
NNBEN    8.130  0.200 P
NNMLN   10.990  0.500 P
NNOMMB    6.310  0.500 S
NNOMMB    3.580  0.500 P
NNRCC    6.410  0.500 P
NNSCH    7.910  0.500 P
