# 2012 10 15 20 18 17.93  37.5862 -119.0015  1.29 1.19 0.32 0.49 0.06   71860460
CIMLAC    3.320  0.200 P
NCMCB    2.610  1.000 P
NCMCM    2.420  1.000 P
NCMCS    2.550  0.500 P
NCMCV    3.000  1.000 P
NCMCY    2.540  0.200 S
NCMCY    1.710  0.200 P
NCMDC    2.790  0.500 P
NCMDH1    3.990  0.200 S
NCMDPB    3.090  0.200 S
NCMDPB    1.840  1.000 P
NCMDR    3.410  1.000 P
NCMDY    2.000  0.200 P
NCMEM    2.380  0.500 P
NCMGPB    2.260  1.000 P
NCMINS    3.070  0.200 S
NCMINS    1.930  0.500 P
NCMLC    1.840  1.000 P
NCMLI    1.620  0.200 P
NCMLK    2.190  0.500 P
NCMMP    1.050  1.000 P
NCMMS    1.510  1.000 P
NCMMT    5.210  0.100 P
NCMMX1    2.070  0.500 S
NCMQ1P    1.650  0.200 S
NCMQ1P    1.020  1.000 P
NCMRD    1.370  1.000 P
NNBEN    7.370  0.200 P
NNORC    5.880  0.500 P
NNRCC    4.940  0.500 P
NNSCH    6.780  0.200 P
# 2012 10 15 21 10 0.26  37.5943 -119.0042  1.25 0.36 0.73 0.38 0.03   71862670
NCMDC    2.690  0.200 P
NCMDPB    2.940  0.500 S
NCMDPB    1.710  1.000 P
NCMINS    2.000  0.500 P
NCMMP    0.910  1.000 P
NCMQ1P    0.920  0.500 P
NCMRD    1.240 -1.000 P
# 2012 10 15 21 42 48.39  37.5853 -119.0588  0.38 -0.29 0.75 0.32 0.03   71862730
NCMCY    1.910  0.200 P
NCMDC    3.010  0.200 P
NCMDPB    2.120  0.200 S
NCMDPB    1.270 -1.000 P
NCMMP    0.970  0.500 P
NCMMS    1.570  0.200 P
NCMRD    0.710 -1.000 P
# 2012 10 15 22 10 36.40  37.5962 -119.0012  1.56 0.02 0.70 0.61 0.04   71860515
NCMCM    2.370 -1.000 P
NCMDC    2.660  0.200 P
NCMDPB    2.990  0.500 S
NCMDPB    1.780  1.000 P
NCMINS    1.920  0.500 P
NCMLC    1.770  0.500 P
NCMMP    0.990  0.500 P
NCMQ1P    1.600 -0.500 S
NCMQ1P    1.020  0.200 P
NCMRD    1.300 -1.000 P
# 2012 10 16 04 04 43.54  37.6243 -119.0463 -0.59 -0.23 0.16 0.63 0.04   71862750
NCMCY    1.420  0.200 S
NCMCY    0.980  0.500 P
NCMDC    2.190  0.200 P
NCMDPB    1.430 -1.000 S
NCMDPB    0.780  1.000 P
NCMDY    1.390  0.200 P
NCMINS    0.970  0.500 P
NCMLI    1.040  0.200 P
NCMMP    0.740  0.200 P
NCMMS    0.720  1.000 P
NCMQ1P    0.790  0.200 P
NCMRD    0.900  0.500 P
# 2012 10 16 07 45 29.83  37.5972 -119.0117  1.37 -0.11 0.68 0.35 0.03   71862775
CIMLAC    1.670  0.500 P
NCMDPB    2.830  0.500 S
NCMDPB    1.610  1.000 P
NCMDR    3.110  0.100 P
NCMDY    1.930  0.200 P
NCMINS    2.960  0.500 S
NCMINS    1.770  0.500 P
NCMMP    0.830  0.500 P
NCMQ1P    1.440  0.500 S
NCMQ1P    0.830  0.500 P
NCMRD    1.160 -1.000 P
# 2012 10 16 11 19 16.15  37.5915 -119.0072  1.05 0.05 0.67 0.35 0.03   71862780
NCMDC    2.870  0.200 P
NCMDPB    2.930  0.200 S
NCMDPB    1.690 -1.000 P
NCMINS    1.860  0.200 P
NCMMP    0.900  1.000 P
NCMMS    1.390  0.200 P
NCMQ1P    0.880  0.500 P
NCMRD    1.220 -1.000 P
# 2012 10 17 11 55 51.61  37.6232 -119.0520 -0.18 -0.42 0.22 0.67 0.04   71865080
NCMCY    1.630  0.200 S
NCMDC    2.280  0.200 P
NCMDPB    1.300 -1.000 S
NCMDPB    0.770  1.000 P
NCMINS    1.610  0.200 S
NCMINS    0.940  0.500 P
NCMMP    0.720  0.200 P
NCMMS    0.900  0.200 P
NCMQ1P    0.820  0.500 P
NCMRD    0.870  1.000 P
# 2012 10 17 13 41 54.06  37.6387 -119.0350 -1.15 -0.01 0.37 0.43 0.05   71865090
NCMCY    0.930  0.500 S
NCMCY    0.580 -1.000 P
NCMDC    1.630  0.200 P
NCMDPB    1.750  0.200 S
NCMDPB    1.020 -1.000 P
NCMDY    1.050  0.200 P
NCMINS    0.910  1.000 P
NCMLI    0.850  0.200 P
NCMMP    0.930  0.200 P
NCMMS    0.540  1.000 P
NCMQ1P    0.920  0.200 P
NCMRD    1.220 -1.000 P
# 2012 10 17 19 18 2.77  37.6005 -119.0042  1.73 0.25 0.44 0.47 0.05   71865105
NCMCY    2.650 -1.000 S
NCMCY    1.290  0.500 P
NCMDC    2.580  0.200 P
NCMDPB    2.940 -1.000 S
NCMDPB    1.710  1.000 P
NCMINS    1.880  0.500 P
NCMMP    0.950  1.000 P
NCMMS    1.450  0.500 P
NCMQ1P    0.930  0.500 P
NCMRD    1.260  1.000 P
# 2012 10 17 23 30 31.35  37.6463 -119.0463 -0.14 0.24 0.21 0.36 0.07   71861350
NCMCM    3.210  0.200 P
NCMCY    1.150  0.200 S
NCMCY    0.740  1.000 P
NCMDC    1.540 -1.000 P
NCMDPB    1.590 -1.000 S
NCMDPB    0.990  0.500 P
NCMDY    1.120  0.200 P
NCMEM    2.220  0.500 P
NCMINS    1.090  0.500 S
NCMINS    0.700  1.000 P
NCMLC    2.540  0.500 P
NCMLI    1.040  0.200 P
NCMMP    1.100  0.500 P
NCMMS    0.940  1.000 P
NCMQ1P    1.170  1.000 P
NCMRD    1.340  1.000 P
# 2012 10 18 03 00 9.73  37.5898 -119.0030  2.06 0.76 0.52 0.58 0.06   71861430
NCMCB    2.620  0.200 P
NCMCM    2.450  1.000 P
NCMCV    3.020  1.000 P
NCMCY    1.740  0.200 P
NCMDC    2.820  0.500 P
NCMDH1    4.020  1.000 S
NCMDPB    3.110  0.500 S
NCMDPB    1.870  1.000 P
NCMDR    3.440  0.500 P
NCMEM    2.410  0.200 P
NCMGPB    2.290  1.000 P
NCMINS    3.230  0.200 S
NCMINS    1.970  1.000 P
NCMLC    1.860  1.000 P
NCMLK    2.260  0.500 P
NCMMLB    2.080  0.200 P
NCMMP    1.070  1.000 P
NCMMS    1.550  0.200 P
NCMMT    5.280  0.200 P
NCMQ1P    1.050  1.000 P
NCMRD    1.390 -1.000 P
NNORC    5.890  0.200 P
NNRCC    5.000  0.200 P
# 2012 10 18 05 24 9.42  37.5970 -119.0080  1.04 -0.15 0.60 0.33 0.03   71865115
NCMCY    1.480  0.200 P
NCMDC    2.600  0.200 P
NCMDPB    2.880 -1.000 S
NCMDPB    1.650  1.000 P
NCMINS    1.810  0.500 P
NCMMP    0.890  0.200 P
NCMMS    1.410  0.200 P
NCMQ1P    0.850  0.500 P
NCMRD    1.190 -1.000 P
# 2012 10 18 05 55 23.27  37.5962 -119.0053  1.13 -0.02 0.42 0.31 0.03   71865140
NCMCM    2.270  0.200 P
NCMCY    2.660  0.500 S
NCMCY    1.440  0.200 P
NCMDC    2.660  0.200 P
NCMDPB    2.940  0.500 S
NCMDPB    1.700  1.000 P
NCMINS    1.870  0.500 P
NCMLI    1.320  0.200 P
NCMMP    0.900  1.000 P
NCMMS    1.290  0.200 P
NCMQ1P    0.890  1.000 P
NCMRD    1.230 -1.000 P
# 2012 10 18 06 28 15.98  37.5955 -119.0007  1.27 0.09 0.44 0.36 0.05   71861510
NCMCM    2.350 -1.000 P
NCMCY    2.680  0.500 S
NCMCY    1.540  0.200 P
NCMDC    2.730  0.200 P
NCMDPB    3.020  0.500 S
NCMDPB    1.780  1.000 P
NCMDY    1.880  0.200 P
NCMINS    3.250  0.200 S
NCMINS    1.910  0.500 P
NCMLC    1.800  0.200 P
NCMMP    0.970  1.000 P
NCMMS    1.490  0.500 P
NCMQ1P    0.950  1.000 P
NCMRD    1.280 -1.000 P
# 2012 10 18 14 28 15.94  37.6478 -119.0467 -0.53 0.32 0.20 0.33 0.05   71865225
NCMCY    1.110  0.200 S
NCMCY    0.710  0.500 P
NCMDC    1.550 -0.500 P
NCMINS    1.070  0.200 S
NCMINS    0.690 -1.000 P
NCMLI    0.800  0.200 P
NCMMP    1.110  0.500 P
NCMMS    0.920 -1.000 P
NCMQ1P    1.140  0.500 P
NCMRD    1.320 -1.000 P
# 2012 10 18 15 18 7.84  37.5937 -119.0037  1.96 0.32 0.63 0.38 0.03   71865255
NCMCV    2.910  0.200 P
NCMCY    2.780  0.200 S
NCMCY    1.510  0.200 P
NCMDC    2.750  0.200 P
NCMGPB    2.310  0.200 P
NCMINS    3.240  0.200 S
NCMINS    1.990 -0.500 P
NCMLC    1.850  0.500 P
NCMMP    1.030  1.000 P
NCMMS    1.550  0.200 P
NCMQ1P    1.020  0.500 P
NCMRD    1.330 -1.000 P
# 2012 10 19 01 10 18.91  37.6360 -119.0362  0.25 0.58 0.38 0.74 0.05   71065784
NCMCY    0.860  0.200 P
NCMDC    1.750  0.200 P
NCMDPB    1.770 -0.500 S
NCMDPB    0.980  0.500 P
NCMDY    1.000  0.200 P
NCMINS    1.740 -0.500 S
NCMINS    0.970  0.500 P
NCMMP    0.880  0.500 P
NCMMS    0.940  0.500 P
NCMQ1P    0.810  0.500 P
NCMRD    1.140  0.200 P
# 2012 10 19 01 10 28.79  37.6368 -119.0375  0.14 0.53 0.38 0.72 0.09   71065779
NCMCY    0.830  0.200 P
NCMDC    1.730 -0.500 P
NCMDPB    1.790  0.200 S
NCMDPB    0.950 -1.000 P
NCMDY    1.070  0.200 P
NCMINS    1.670  0.500 S
NCMINS    0.930  1.000 P
NCMLI    0.890  0.200 P
NCMMP    0.820  0.500 P
NCMMS    0.970  1.000 P
NCMQ1P    0.770  0.500 P
NCMRD    1.300  0.500 P
# 2012 10 19 01 10 38.46  37.6317 -119.0378  1.17 0.75 0.46 0.76 0.06   71861995
NCMCY    0.940  1.000 P
NCMDC    1.830 -1.000 P
NCMDPB    1.080 -1.000 P
NCMDY    1.240  0.200 P
NCMINS    1.070  1.000 P
NCMMP    0.920  1.000 P
NCMMS    1.100  1.000 P
NCMQ1P    0.900  1.000 P
NCMRD    1.150 -1.000 P
# 2012 10 19 01 11 41.71  37.6338 -119.0375  0.70 0.54 0.41 0.69 0.05   71861985
NCMCY    0.920  0.500 P
NCMDC    1.790 -1.000 P
NCMDPB    1.050 -1.000 P
NCMDY    1.310  0.200 P
NCMINS    1.760  0.200 S
NCMINS    1.040  1.000 P
NCMLI    0.910  0.200 P
NCMMP    0.900  1.000 P
NCMMS    1.020  0.500 P
NCMQ1P    0.850  0.500 P
NCMRD    1.140 -1.000 P
# 2012 10 19 01 15 10.29  37.6333 -119.0393  0.62 1.10 0.40 0.69 0.04   71861990
NCMCY    0.890  0.500 P
NCMDC    1.790 -1.000 P
NCMDPB    1.820  0.200 S
NCMDPB    1.050  0.500 P
NCMDY    1.240  0.200 P
NCMINS    1.030 -1.000 P
NCMLI    1.040  0.200 P
NCMMP    0.880  1.000 P
NCMMS    1.020  0.500 P
NCMQ1P    0.870  0.500 P
NCMRD    1.170  0.500 P
# 2012 10 19 01 15 13.81  37.6355 -119.0385 -0.53 0.27 0.40 0.85 0.04   71065789
NCMCY    0.850  0.200 P
NCMDC    1.900  0.200 P
NCMDPB    1.730  0.200 S
NCMDPB    0.950  0.500 P
NCMINS    0.930 -1.000 P
NCMMP    0.810  0.500 P
NCMMS    0.570  0.200 P
NCMQ1P    0.770  0.500 P
NCMRD    1.040  0.200 P
# 2012 10 19 16 05 50.73  37.5923 -119.0028  1.87 0.46 0.55 0.51 0.06   71862475
NCMCM    2.430  1.000 P
NCMCV    3.000  1.000 P
NCMCY    1.680  0.500 P
NCMDC    2.830  0.500 P
NCMDH1    4.030  1.000 S
NCMGPB    2.270  0.500 P
NCMINS    1.970  0.200 P
NCMLC    1.840  1.000 P
NCMMP    1.050  1.000 P
NCMMS    1.530  1.000 P
NCMQ1P    1.030  0.500 P
NCMRD    1.370 -1.000 P
# 2012 10 20 00 45 50.40  37.5868 -119.0012  1.18 0.52 0.41 0.53 0.05   71862865
NCMCB    2.600  0.500 P
NCMCM    2.400  0.500 P
NCMCS    2.830  0.200 P
NCMCV    2.980  1.000 P
NCMCY    1.720  0.200 P
NCMDC    2.800 -1.000 P
NCMDH1    4.000  0.200 S
NCMDR    3.430  0.500 P
NCMDY    2.580  0.200 P
NCMEM    2.400  0.500 P
NCMGPB    2.260  1.000 P
NCMINS    1.940  0.500 P
NCMLC    1.820  1.000 P
NCMLK    2.450  0.200 P
NCMMP    1.030  1.000 P
NCMMS    1.520  0.500 P
NCMMX1    2.080  0.500 S
NCMQ1P    1.680  0.500 S
NCMQ1P    1.020  0.500 P
NCMRD    1.340 -1.000 P
# 2012 10 20 04 42 18.23  37.5923 -119.0017  1.27 0.25 0.49 0.49 0.03   71862965
NCMCM    2.380  0.200 P
NCMDC    2.740  0.500 P
NCMDPB    3.020  0.500 S
NCMDPB    1.780  1.000 P
NCMINS    1.910  0.200 P
NCMLC    1.780 -1.000 P
NCMMP    0.990  0.500 P
NCMQ1P    0.970  0.500 P
NCMRD    1.290 -1.000 P
# 2012 10 20 04 49 59.06  37.6348 -119.0378  1.58 -0.36 0.56 1.04 0.06   71065834
NCMCY    0.900  0.200 P
NCMDC    1.830 -1.000 P
NCMDPB    1.110 -1.000 P
NCMINS    1.080 -1.000 P
NCMMP    1.000  0.500 P
NCMMS    1.110 -1.000 P
NCMQ1P    0.930 -1.000 P
NCMRD    1.220  0.500 P
# 2012 10 20 04 50 3.84  37.6355 -119.0368  0.42 0.26 0.37 0.55 0.05   71862970
NCMCY    0.870  0.200 P
NCMDC    1.770 -0.500 P
NCMDPB    1.800  0.200 S
NCMDPB    1.040  1.000 P
NCMINS    1.740  0.500 S
NCMINS    1.010  1.000 P
NCMMP    0.890  0.500 P
NCMMS    0.950  0.500 P
NCMQ1P    0.870  0.500 P
NCMRD    1.150 -1.000 P
# 2012 10 20 06 59 14.45  37.6023 -119.0150  1.02 -0.01 0.61 0.45 0.02   71865815
NCMDPB    2.560 -0.500 S
NCMDPB    1.490 -1.000 P
NCMINS    1.780  0.200 P
NCMLC    1.870  0.200 P
NCMMP    0.750  1.000 P
NCMMS    1.160  0.200 P
NCMQ1P    0.730  1.000 P
NCMRD    1.100 -1.000 P
# 2012 10 20 10 55 30.10  37.6405 -119.0318  1.44 0.10 0.42 0.47 0.07   71865845
NCMCY    0.910  0.200 P
NCMDC    1.890  0.200 P
NCMDPB    1.940  0.200 S
NCMDPB    1.160  1.000 P
NCMINS    1.130 -1.000 P
NCMMP    1.030  1.000 P
NCMMS    1.160  1.000 P
NCMQ1P    1.020  1.000 P
NCMRD    1.280  1.000 P
# 2012 10 20 10 55 49.55  37.6363 -119.0338  1.30 -0.36 0.48 0.51 0.06   71065839
NCMCY    0.990  0.200 P
NCMDC    1.820 -1.000 P
NCMDPB    1.080  1.000 P
NCMINS    1.070  1.000 P
NCMMP    0.950  1.000 P
NCMMS    1.090  1.000 P
NCMQ1P    0.940  1.000 P
NCMRD    1.200  1.000 P
# 2012 10 20 10 56 27.82  37.6308 -119.0392  2.31 0.47 0.39 0.41 0.06   71863100
NCMCY    2.100  0.500 S
NCMCY    1.050  0.200 P
NCMDC    1.940 -1.000 P
NCMDPB    2.070 -1.000 S
NCMDPB    1.220  0.500 P
NCMINS    1.180  1.000 P
NCMMP    1.090  1.000 P
NCMMS    1.210  1.000 P
NCMQ1P    1.070  1.000 P
NCMRD    1.340  0.500 P
# 2012 10 20 12 55 32.49  37.6273 -119.0047  0.99 0.55 0.29 0.60 0.07   71863150
NCMCY    1.070  0.200 P
NCMDC    2.010  1.000 P
NCMDPB    1.530  1.000 P
NCMDY    1.330  0.500 P
NCMINS    2.290  0.200 S
NCMINS    1.410  1.000 P
NCMLC    1.810  0.200 P
NCMLI    1.090  0.200 P
NCMLK    1.510  0.500 P
NCMMLB    1.340  0.200 P
NCMMP    1.010  0.200 P
NCMMS    1.150  1.000 P
NCMQ1P    0.930  0.500 P
NCMRD    1.450 -1.000 P
# 2012 10 20 14 26 57.79  37.5898 -119.0113  0.78 -0.07 0.60 0.40 0.02   71865880
NCMDC    2.810  0.200 P
NCMDPB    2.890 -0.500 S
NCMDPB    1.650 -1.000 P
NCMINS    1.920  0.200 P
NCMMP    0.830  1.000 P
NCMMS    1.490  0.200 P
NCMQ1P    0.810  0.500 P
NCMRD    1.150 -1.000 P
# 2012 10 20 14 27 9.30  37.6117 -119.0240  1.94 -0.08 1.57 0.38 0.03   71065844
NCMCY    1.230  0.200 P
NCMDC    2.390 -0.200 P
NCMMP    0.890 -1.000 P
NCMMS    1.020  0.200 P
NCMQ1P    0.820  0.500 P
NCMRD    1.150 -1.000 P
# 2012 10 20 14 35 22.70  37.5948 -119.0013  1.06 0.26 0.36 0.31 0.04   71863185
NCMCM    2.330  0.500 P
NCMCY    2.710 -0.500 S
NCMCY    1.480  0.200 P
NCMDC    2.830  0.200 P
NCMDPB    2.990  0.500 S
NCMDPB    1.750  1.000 P
NCMGPB    2.160  0.500 P
NCMINS    2.180  0.200 P
NCMLC    1.740  0.200 P
NCMMP    0.940  1.000 P
NCMMS    1.460  0.200 P
NCMQ1P    0.920  0.500 P
NCMRD    1.270 -1.000 P
# 2012 10 20 18 03 23.80  37.5807 -119.0343 -0.55 -0.25 0.82 0.30 0.06   71865905
CIMLAC    3.690  0.200 P
NCMCY    1.700  1.000 P
NCMDPB    2.880  1.000 S
NCMDPB    1.660  1.000 P
NCMMP    0.860 -1.000 P
NCMMS    1.220  1.000 P
NCMRD    0.810  1.000 P
# 2012 10 21 04 37 31.37  37.5868 -119.0025  1.38 0.01 0.72 1.28 0.04   71865930
NCMCY    1.860  0.200 P
NCMDC    2.820  0.200 P
NCMDPB    3.230 -1.000 S
NCMDPB    1.850 -1.000 P
NCMINS    1.990  0.500 P
NCMMP    1.040 -0.500 P
NCMMS    1.510  0.200 P
NCMQ1P    1.070  0.200 P
NCMRD    1.330 -1.000 P
# 2012 10 21 07 43 34.28  37.6282 -119.1272  3.61 0.70 0.48 0.73 0.12   71865950
NCMBS1    7.210 -1.000 S
NCMCM    4.560  0.200 P
NCMCV    5.100  0.200 P
NCMCY    2.210  0.200 P
NCMDC    2.570  1.000 P
NCMDPB    2.230  0.200 S
NCMDPB    1.330  1.000 P
NCMINS    2.940  0.500 S
NCMINS    1.740  1.000 P
NCMMI   10.120  0.200 P
NCMMP    2.170  1.000 P
NCMMS    2.220  1.000 P
NCMMT    5.080 -1.000 P
NCMQ1P    2.230  1.000 P
NCMRD    1.770  1.000 P
NNRCC    7.150  0.200 P
# 2012 10 21 17 04 19.85  37.6320 -119.1220  1.54 0.47 0.40 0.60 0.05   71864170
NCMCM    4.260  0.200 P
NCMDC    2.360 -1.000 P
NCMINS    2.730 -1.000 S
NCMINS    1.520  1.000 P
NCMLC    3.620  0.200 P
NCMMP    1.960  0.200 P
NCMRD    1.550 -1.000 P
# 2012 10 22 05 05 23.79  37.6190 -119.0198  0.74 -0.10 0.44 0.94 0.02   71866035
NCMCY    1.180  0.200 P
NCMINS    1.420  0.500 P
NCMMP    0.710 -1.000 P
NCMMS    0.960  0.200 P
NCMQ1P    0.680  0.500 P
NCMRD    1.120 -1.000 P
# 2012 10 22 09 35 43.57  37.6557 -119.0232 -2.40 0.82 0.30 1.16 0.02   71864795
NCMCY    0.480  0.200 P
NCMDC    1.570 -1.000 P
NCMDPB    1.350  0.200 P
NCMDY    0.340 -0.200 P
NCMINS    1.610  0.200 S
NCMINS    0.980 -0.500 P
NCMMP    1.270 -1.000 P
NCMMS    0.860  0.500 P
NCMRD    1.960  0.200 P
# 2012 10 22 09 36 2.86  37.6387 -119.0463 -2.57 0.37 0.24 2.97 0.04   71065849
NCMCY    0.320  0.200 P
NCMDP1    1.220 -1.000 S
NCMDPB    0.660  0.200 P
NCMINS    1.230  0.200 S
NCMINS    0.540 -0.500 P
NCMMP    0.860 -1.000 P
NCMMS    0.460 -1.000 P
NCMQ1P    0.750  0.200 P
# 2012 10 22 09 36 30.59  37.6405 -119.0442 -2.07 0.26 0.31 0.73 0.03   71065859
NCMCY    0.520  0.200 P
NCMDC    1.960 -0.200 P
NCMDPB    1.310  0.200 S
NCMDPB    0.630  0.200 P
NCMINS    1.230  0.200 S
NCMINS    0.610 -1.000 P
NCMMP    0.880  1.000 P
NCMMS    0.470  0.500 P
NCMQ1P    0.800  0.200 P
NCMRD    1.200  0.200 P
# 2012 10 22 09 36 36.16  37.6305 -119.0335  1.38 0.61 0.29 0.50 0.05   71065854
NCMCY    0.950  0.500 P
NCMDC    1.830  0.500 P
NCMDPB    1.960 -1.000 S
NCMDPB    1.150  0.500 P
NCMDY    1.280  0.200 P
NCMINS    1.870  0.500 S
NCMINS    1.130  0.500 P
NCMMP    0.920  0.500 P
NCMMS    1.070  1.000 P
NCMQ1P    0.890  0.500 P
NCMRD    1.200 -1.000 P
# 2012 10 22 09 36 55.10  37.6338 -119.0353  0.99 0.80 0.32 0.50 0.07   71864790
NCMCY    1.850  0.200 S
NCMCY    0.940  0.500 P
NCMDC    1.810 -1.000 P
NCMDPB    1.940  0.500 S
NCMDPB    1.120  0.500 P
NCMDY    1.270  0.200 P
NCMINS    1.850  0.500 S
NCMINS    1.090  1.000 P
NCMMLB    1.520  0.200 P
NCMMP    0.930  0.500 P
NCMMS    1.050  1.000 P
NCMQ1P    0.940  0.200 P
NCMRD    1.170  1.000 P
# 2012 10 22 14 39 49.88  37.6273 -119.0273  1.83 0.62 0.21 0.36 0.05   71864990
NCMCM    2.790  0.500 P
NCMCV    3.410  0.200 P
NCMCY    1.950  0.200 S
NCMCY    1.100  1.000 P
NCMDC    1.970 -1.000 P
NCMDPB    2.150  0.500 S
NCMDPB    1.270  0.500 P
NCMDY    2.490  0.200 S
NCMDY    1.480  0.200 P
NCMINS    2.080  0.500 S
NCMINS    1.290  0.500 P
NCMLC    2.220  0.200 P
NCMLI    1.200  0.200 P
NCMMP    1.130  0.500 P
NCMMS    1.210  0.200 P
NCMQ1P    0.750  0.200 P
NCMRD    1.310  0.500 P
# 2012 10 22 14 40 26.49  37.6377 -119.0438 -0.17 0.26 0.51 0.61 0.09   71878080
NCMCY    1.350 -1.000 S
NCMCY    0.610  1.000 P
NCMDPB    1.590 -1.000 S
NCMDPB    0.780  1.000 P
NCMDY    2.040 -1.000 S
NCMDY    1.080  1.000 P
NCMINS    1.540 -1.000 S
NCMINS    0.770  1.000 P
NCMQ1P    1.050  0.200 P
# 2012 10 22 14 40 33.34  37.6403 -119.0417  0.33 0.79 0.46 0.57 0.07   71066054
NCMCY    1.430 -1.000 S
NCMCY    0.690  1.000 P
NCMDPB    1.670 -1.000 S
NCMDPB    0.860  1.000 P
NCMDY    1.160 -1.000 P
NCMINS    1.620 -1.000 S
NCMINS    0.850  1.000 P
NCMQ1P    0.740  0.200 P
# 2012 10 22 14 42 14.26  37.6243 -119.0303  2.38 0.82 0.26 0.30 0.08   71864995
CIMLAC    2.730  0.200 P
NCMCB    2.790  0.200 P
NCMCM    2.920  0.200 P
NCMCV    3.260  0.200 P
NCMCY    1.890  0.200 S
NCMCY    1.150  1.000 P
NCMDC    2.030  1.000 P
NCMDH1    3.070  1.000 S
NCMDPB    2.150  0.500 S
NCMDPB    1.280  1.000 P
NCMDR    2.720  1.000 P
NCMDY    2.590  0.200 S
NCMDY    1.540  1.000 P
NCMEM    2.230  0.200 P
NCMGPB    2.670  0.200 P
NCMINS    2.130  0.200 S
NCMINS    1.300  0.500 P
NCMLC    2.280  0.200 P
NCMLH    3.910  0.200 P
NCMLI    1.270  0.200 P
NCMLK    1.970  0.500 P
NCMMLB    1.820  0.200 P
NCMMP    1.110  0.500 P
NCMMS    1.250  1.000 P
NCMMT    5.650  0.500 P
NCMQ1P    1.070  1.000 P
NCMRD    1.330  1.000 P
NNORC    5.000  0.200 P
NNRCC    5.590  0.500 P
# 2012 10 22 14 42 41.87  37.6337 -119.0312  1.15 0.61 0.23 0.48 0.10   71865000
NCMCM    2.690  0.500 P
NCMCV    3.340  0.500 P
NCMCY    1.020  0.500 P
NCMDC    1.880  1.000 P
NCMDPB    2.020  0.500 S
NCMDPB    1.170  1.000 P
NCMDY    2.460  0.200 S
NCMDY    1.340  0.500 P
NCMGPB    2.480  0.500 P
NCMINS    1.970 -1.000 S
NCMINS    1.160  0.500 P
NCMLC    2.090  0.500 P
NCMLI    1.190  0.200 P
NCMMP    1.020  0.500 P
NCMMS    1.110  1.000 P
NCMQ1P    1.020  0.500 P
NCMRD    1.240  0.500 P
# 2012 10 22 15 11 50.65  37.6310 -119.0343  1.08 0.25 0.33 0.61 0.08   71865020
NCMCY    1.700  0.200 S
NCMCY    0.960  1.000 P
NCMDC    1.830 -1.000 P
NCMDPB    1.920 -1.000 S
NCMDPB    1.180  1.000 P
NCMDY    1.360  0.500 P
NCMINS    1.890  0.500 S
NCMINS    1.120  1.000 P
NCMMP    0.980  0.200 P
NCMMS    1.040  1.000 P
NCMRD    1.120 -1.000 P
# 2012 10 22 15 12 59.11  37.6337 -119.0267  1.10 0.10 0.32 0.57 0.05   71865025
NCMCM    2.690 -0.500 P
NCMCY    1.100  0.200 P
NCMDC    1.890 -1.000 P
NCMINS    2.000  0.200 S
NCMINS    1.170  1.000 P
NCMLC    2.130  0.200 P
NCMMP    1.060  0.200 P
NCMMS    1.100  0.200 P
NCMQ1P    1.060  0.200 P
NCMRD    1.310  0.500 P
# 2012 10 22 15 32 47.10  37.6000 -119.0043  2.02 0.65 0.57 0.56 0.04   71865035
NCMCM    2.410  0.500 P
NCMCY    2.730 -0.500 S
NCMLC    1.820 -1.000 P
NCMMP    1.010  1.000 P
NCMMS    1.240  0.200 P
NCMQ1P    1.000  0.500 P
NCMRD    1.320  0.500 P
# 2012 10 22 15 34 46.04  37.6303 -119.0287  1.80 0.75 0.34 0.52 0.06   71865040
NCMCM    2.720  0.200 P
NCMCY    1.150  0.200 P
NCMDC    1.900 -1.000 P
NCMDPB    2.080  0.500 S
NCMDPB    1.250  0.500 P
NCMDY    1.360  0.200 P
NCMINS    2.030  0.200 S
NCMINS    1.200  0.500 P
NCMLI    0.990  0.200 P
NCMMP    1.060  0.500 P
NCMMS    1.160  1.000 P
NCMQ1P    1.110  0.200 P
NCMRD    1.280 -1.000 P
