# 2012 10 29 11 52 29.05  37.6217 -119.0482 18.88 0.87 0.80 0.27 0.06   71870810
NCMCM    4.560  1.000 P
NCMCV    4.860  0.200 P
NCMDC    4.050 -1.000 P
NCMDPB    3.770  0.200 P
NCMDR    5.090  0.500 P
NCMINS    6.810 -1.000 S
NCMINS    3.820  1.000 P
NCMLC    4.250  1.000 P
NCMMP    3.840  0.200 P
NCMMS    3.760  0.200 P
NCMMT    6.160  0.200 P
NCMPR   14.520  0.500 P
NCMRD    3.770 -1.000 P
NNOMMB    6.660 -1.000 S
NNOMMB    3.800  0.500 P
NNORC    6.960  0.200 P
NNRCC    6.490  0.500 P
NNSCH    7.930  0.200 P
# 2012 10 29 12 10 30.21  37.6217 -119.0453 20.72 0.81 0.79 0.33 0.07   71870815
NCMCM    4.850  0.200 P
NCMDC    4.270  0.500 P
NCMDPB    7.000 -1.000 S
NCMDPB    3.980  1.000 P
NCMHD   15.760  0.200 P
NCMINS    7.190  0.200 S
NCMINS    4.100  0.200 P
NCMMP    4.080  0.200 P
NCMMS    4.010  0.200 P
NCMMT    6.330 -0.500 P
NCMPR   14.730  1.000 P
NCMQ1P    4.040  0.200 P
NCMRD    4.020  1.000 P
NNOMMB    7.040 -1.000 S
NNOMMB    4.030  0.500 P
NNRCC    6.630  0.200 P
NNSCH    8.090  0.200 P
# 2012 10 29 12 17 1.20  37.6247 -119.0545 20.50 0.89 0.86 0.26 0.09   71870825
NCMCD   10.300  0.200 P
NCMCM    4.860  1.000 P
NCMCV    5.230  1.000 P
NCMDC    4.380  0.200 P
NCMDPB    7.090  0.200 S
NCMDPB    4.160  0.200 P
NCMGPB    4.770  1.000 P
NCMHD   15.710  0.200 P
NCMINS    7.190  1.000 S
NCMINS    4.130  1.000 P
NCMLC    4.550  1.000 P
NCMMI   11.380 -1.000 P
NCMMP    4.080  0.500 P
NCMMS    4.040  0.200 P
NCMPR   14.740  1.000 P
NCMQ1P    4.070  0.200 P
NCMRD    4.060  1.000 P
NNOMMB    6.980  1.000 S
NNOMMB    4.030  0.200 P
NNORC    7.270  0.500 P
NNRCC    6.750  1.000 P
NNSCH    8.160  0.200 P
# 2012 10 29 12 20 35.31  37.6207 -119.0372 19.70 0.83 0.79 0.44 0.06   71065954
NCMCM    4.580  0.500 P
NCMCV    4.960  0.500 P
NCMDC    4.110 -1.000 P
NCMDPB    6.830  0.500 S
NCMDPB    3.790  1.000 P
NCMDR    5.130  0.200 P
NCMGPB    4.530  0.500 P
NCMINS    6.920  0.500 S
NCMINS    3.880  0.500 P
NCMLC    4.260  0.500 P
NCMMP    4.000  0.200 P
NCMQ1P    3.990  0.200 P
NCMRD    3.860  1.000 P
NNOMMB    6.760  0.500 S
NNOMMB    3.850  0.500 P
NNRCC    6.490  0.500 P
NNSCH    7.990  0.500 P
# 2012 10 29 12 20 40.84  37.6123 -119.0438 21.39 1.02 0.73 0.38 0.08   71870830
NCMCM    4.890  0.200 P
NCMCV    5.260  0.200 P
NCMDC    4.500 -1.000 P
NCMDPB    7.360 -1.000 S
NCMDPB    4.130  0.500 P
NCMGPB    4.810  0.500 P
NCMINS    7.450  0.500 S
NCMINS    4.170  1.000 P
NCMLC    4.570  0.200 P
NCMLI    4.300  0.200 P
NCMMP    4.160  1.000 P
NCMMS    4.290  0.200 P
NCMMT    6.320  0.200 P
NCMQ1P    4.160  0.500 P
NCMRD    4.120  1.000 P
NNOMMB    7.280 -1.000 S
NNOMMB    4.150  0.500 P
NNSCH    8.190  0.200 P
# 2012 10 29 12 32 12.81  37.6280 -119.0400 18.32 0.66 0.75 0.31 0.06   71870835
NCMCM    4.430 -1.000 P
NCMCY    3.640  0.200 P
NCMDC    3.950 -1.000 P
NCMDPB    6.490  0.200 S
NCMDPB    3.670  0.200 P
NCMGPB    4.330  0.200 P
NCMINS    6.660 -1.000 S
NCMINS    3.700  0.500 P
NCMLC    4.100  0.200 P
NCMLI    3.630  0.200 P
NCMMP    3.660  0.200 P
NCMQ1P    3.670  0.200 P
NCMRD    3.610 -1.000 P
NNOMMB    6.440 -1.000 S
NNOMMB    3.640  1.000 P
NNRCC    6.430  0.200 P
# 2012 10 29 12 41 47.14  37.6055 -119.0418 16.76 1.04 0.56 31.61 0.10   71870845
NCMCB    4.200  0.200 P
NCMCM    4.220  1.000 P
NCMCV    4.590  1.000 P
NCMDC    3.740  1.000 P
NCMDPB    6.210  0.200 S
NCMDPB    3.350  1.000 P
NCMDR    4.690  0.200 P
NCMGPB    4.130  0.500 P
NCMINS    6.460  1.000 S
NCMINS    3.460  1.000 P
NCMLC    3.890  1.000 P
NCMLH    5.360  0.500 P
NCMMP    3.470  1.000 P
NCMMS    3.690  1.000 P
NCMMT    5.750 -1.000 P
NCMQ1P    3.430  0.500 P
NCMRD    3.430  1.000 P
NNOMMB    6.300  1.000 S
NNOMMB    3.420  1.000 P
NNRCC    6.170  0.500 P
# 2012 10 29 12 43 33.32  37.6252 -119.0427 19.91 1.12 0.63 0.32 0.09   71870850
NCMCM    4.660  0.500 P
NCMCV    5.040  1.000 P
NCMDC    4.140  1.000 P
NCMDPB    6.870  0.200 S
NCMDPB    3.930  1.000 P
NCMDR    5.180  0.500 P
NCMEM    4.420  0.200 P
NCMGPB    4.550  0.200 P
NCMHD   15.740  0.500 P
NCMINS    6.940  1.000 S
NCMINS    3.960  1.000 P
NCMLC    4.330  0.200 P
NCMLK    4.060  0.200 P
NCMMI   11.440  0.500 P
NCMMP    3.930  0.500 P
NCMMS    4.000  0.200 P
NCMMT    6.310  0.500 P
NCMPR   14.730  1.000 P
NCMQ1P    3.930  0.500 P
NCMRD    3.880  1.000 P
NNOMMB    6.780  1.000 S
NNOMMB    3.890  1.000 P
NNORC    7.260  0.200 P
NNRCC    6.620  0.500 P
NNSCH    8.060  0.500 P
# 2012 10 29 12 48 50.68  37.6138 -119.0452 19.88 1.17 0.62 0.28 0.05   71870860
NCMCD   10.130  0.500 P
NCMCM    4.670  1.000 P
NCMCV    5.060  1.000 P
NCMDC    4.160 -1.000 P
NCMDPB    6.940  0.200 S
NCMDPB    3.890  1.000 P
NCMDR    5.190  1.000 P
NCMDY    4.020  0.200 P
NCMGPB    4.570  1.000 P
NCMHD   15.610  0.200 P
NCMLC    4.350  0.500 P
NCMLH    5.790  0.200 P
NCMMI   11.320  0.500 P
NCMMP    3.920  0.500 P
NCMMS    3.920  0.200 P
NCMMT    6.220  0.200 P
NCMPR   14.640  0.200 P
NCMQ1P    3.900  0.500 P
NCMRD    3.880  1.000 P
NNOMMB    6.800 -1.000 S
NNOMMB    3.890  0.500 P
NNORC    7.060  0.500 P
NNPOC   13.020  0.200 P
NNRCC    6.620  1.000 P
NNSCH    8.010  0.200 P
# 2012 10 29 12 52 43.18  37.6132 -119.0492 18.30 0.99 0.47 0.30 0.06   71870865
CIMLAC    4.930  0.200 P
NCMCB    4.490  0.500 P
NCMCM    4.480  1.000 P
NCMCV    4.850  0.500 P
NCMDC    3.990  1.000 P
NCMDPB    6.400  0.500 S
NCMDPB    3.660  1.000 P
NCMDR    5.000  0.200 P
NCMGPB    4.380  1.000 P
NCMHD   15.680  0.200 P
NCMINS    6.690  1.000 S
NCMINS    3.740  1.000 P
NCMLC    4.160  1.000 P
NCMMI   11.100  0.200 P
NCMMP    3.700  0.500 P
NCMMS    3.740  0.200 P
NCMMT    5.980 -1.000 P
NCMPR   14.480  1.000 P
NCMQ1P    3.690  0.500 P
NCMRD    3.650  1.000 P
NNOMMB    6.480 -1.000 S
NNOMMB    3.650  1.000 P
NNORC    6.910  0.200 P
NNRCC    6.410  0.500 P
NNSCH    7.840  0.200 P
# 2012 10 29 13 08 32.95  37.6348 -119.0423 19.01 0.99 1.04 0.38 0.09   71870880
CIMLAC    4.980  0.200 P
NCMCM    4.530  1.000 P
NCMCV    4.910  0.500 P
NCMDC    4.070 -1.000 P
NCMDPB    6.520  0.500 S
NCMDPB    3.650  0.500 P
NCMDR    5.050  0.500 P
NCMGPB    4.400  0.500 P
NCMINS    6.770  1.000 S
NCMINS    3.760  1.000 P
NCMLC    4.200  0.500 P
NCMMP    3.760  1.000 P
NCMMS    4.000  0.200 P
NCMQ1P    3.720  0.500 P
NCMRD    3.730  1.000 P
NNOMMB    6.590  1.000 S
NNOMMB    3.710  0.500 P
# 2012 10 29 13 14 45.30  37.6437 -119.0432 21.74 0.79 1.47 0.36 0.10   71870890
NCMCM    4.930  1.000 P
NCMCV    5.290  1.000 P
NCMDC    4.470  0.500 P
NCMDPB    7.210  0.200 S
NCMDPB    4.130  1.000 P
NCMGPB    4.870  0.500 P
NCMINS    7.510 -1.000 S
NCMINS    4.220  0.200 P
NCMLC    4.620  0.500 P
NCMMP    4.200  0.200 P
NCMQ1P    4.180  0.500 P
NCMRD    4.160 -1.000 P
NNOMMB    7.330  1.000 S
NNOMMB    4.170  0.500 P
NNRCC    6.810  0.200 P
NNSCH    8.190  0.200 P
# 2012 10 29 13 20 5.67  37.6258 -119.0447 19.22 0.88 0.64 0.30 0.08   71870910
NCMCM    4.570  1.000 P
NCMCV    4.960  0.500 P
NCMCY    3.860  0.200 P
NCMDC    4.090 -1.000 P
NCMDPB    6.550  0.200 S
NCMDPB    3.700  0.500 P
NCMDR    5.120  0.200 P
NCMGPB    4.490  0.500 P
NCMHD   15.670  0.200 P
NCMINS    6.840  1.000 S
NCMINS    3.830  0.500 P
NCMLC    4.290  0.500 P
NCMMP    3.820  0.500 P
NCMMS    4.130  0.200 P
NCMMT    6.130  0.500 P
NCMPR   14.630  1.000 P
NCMQ1P    3.810  1.000 P
NCMRD    3.780  1.000 P
NNOMMB    6.640  1.000 S
NNOMMB    3.780  1.000 P
NNPOC   13.070  0.200 P
NNRCC    6.550  0.500 P
NNSCH    7.960  0.200 P
# 2012 10 29 13 32 25.75  37.6252 -119.0660 20.88 1.19 0.66 0.46 0.06   71870925
NCMCM    4.900  0.200 P
NCMCV    5.520  0.500 P
NCMDC    4.330  0.500 P
NCMDPB    7.180  0.200 S
NCMDPB    3.990  0.500 P
NCMDR    5.670  0.200 P
NCMGPB    4.850  0.500 P
NCMHD   15.870  0.200 P
NCMINS    7.180  0.200 S
NCMINS    4.110  0.500 P
NCMLC    4.590 -1.000 P
NCMMP    4.070  0.500 P
NCMMS    4.480  0.200 P
NCMMT    6.360 -0.500 P
NCMPR   14.940  0.500 P
NCMQ1P    4.120  0.200 P
NCMRD    4.020  1.000 P
NNOMMB    4.010  0.500 P
# 2012 10 29 13 38 9.07  37.6277 -119.0647 20.23 1.06 0.61 0.26 0.08   71870930
NCMCM    4.860  0.500 P
NCMCV    5.320  0.200 P
NCMDC    4.310  0.200 P
NCMDPB    6.920  0.200 S
NCMDPB    3.990  0.500 P
NCMDR    5.450  0.200 P
NCMGPB    4.710  0.500 P
NCMINS    7.150 -1.000 S
NCMINS    4.020  1.000 P
NCMLC    4.600  0.500 P
NCMMLB    4.520  0.200 P
NCMMP    4.050  0.500 P
NCMMS    4.230  0.200 P
NCMMT    6.260 -1.000 P
NCMPR   14.920  1.000 P
NCMQ1P    4.070  0.200 P
NCMRD    3.970  1.000 P
NNOMMB    6.970  0.500 S
NNOMMB    4.010  0.500 P
NNSCH    8.320  0.200 P
# 2012 10 29 13 38 18.83  37.6225 -119.0515 19.77 0.66 1.13 0.56 0.08   71065959
NCMDC    4.120  0.500 P
NCMDPB    7.220  0.200 S
NCMDPB    3.900  0.500 P
NCMHD   14.590  0.200 P
NCMINS    7.130  0.200 S
NCMINS    3.860  0.500 P
NCMMI   11.110  0.200 P
NCMMP    3.890  0.200 P
NCMMT    6.230  0.500 P
NCMPR   13.880  0.200 P
NCMQ1P    4.150  0.200 P
NCMRD    4.060  0.200 P
NNOMMB    7.060  0.200 S
NNOMMB    3.830  0.500 P
NNRCC    6.740 -0.200 P
# 2012 10 29 13 39 51.98  37.6160 -119.0545 18.56 0.78 0.62 0.38 0.05   71870935
NCMCM    4.520  0.500 P
NCMCV    4.890  0.200 P
NCMDC    4.010 -1.000 P
NCMDPB    6.490  0.500 S
NCMDPB    3.640  0.500 P
NCMHD   15.460  0.500 P
NCMINS    6.730  0.500 S
NCMINS    3.770  1.000 P
NCMLC    4.210  0.500 P
NCMMP    3.740  0.500 P
NCMMS    4.000  0.200 P
NCMMT    5.980 -0.500 P
NCMQ1P    3.730  0.200 P
NCMRD    3.680  1.000 P
NNOMMB    6.530 -1.000 S
NNOMMB    3.720  1.000 P
# 2012 10 29 13 41 27.04  37.6118 -119.0598 21.13 0.81 1.20 0.47 0.05   71870940
NCMCM    4.910 -0.500 P
NCMDC    4.400 -1.000 P
NCMDPB    6.860  0.200 S
NCMDPB    4.070  0.500 P
NCMINS    7.120  0.500 S
NCMINS    4.120  0.500 P
NCMLC    4.570  0.200 P
NCMMP    4.100  0.500 P
NCMQ1P    4.120  0.500 P
NCMRD    4.040 -1.000 P
NNOMMB    6.950  0.500 S
NNOMMB    4.060  1.000 P
NNSCH    8.280  0.200 P
# 2012 10 29 13 57 2.75  37.6178 -119.0658 20.06 0.86 1.00 0.39 0.07   71870955
NCMDC    4.230 -1.000 P
NCMDPB    6.600  0.200 S
NCMDPB    3.830  0.500 P
NCMHD   15.620  0.200 P
NCMINS    7.040  0.500 S
NCMINS    3.990  0.500 P
NCMLC    4.450  0.200 P
NCMMP    3.900  0.500 P
NCMMT    6.180 -0.500 P
NCMPR   14.700  0.200 P
NCMQ1P    3.930  0.500 P
NCMRD    3.860  1.000 P
NNOMMB    6.820  0.200 S
NNOMMB    3.900  1.000 P
NNSCH    8.120  0.200 P
# 2012 10 29 13 58 2.18  37.6218 -119.0427 18.60 0.87 0.85 0.30 0.07   71870960
NCMCM    4.440  1.000 P
NCMCV    4.820  0.200 P
NCMDC    4.070  0.500 P
NCMDPB    6.480  0.500 S
NCMDPB    3.640  0.500 P
NCMGPB    4.360  1.000 P
NCMINS    6.710 -1.000 S
NCMINS    3.750  0.500 P
NCMLC    4.160  0.200 P
NCMMP    3.720  0.500 P
NCMMS    3.660  0.200 P
NCMMT    6.090  0.200 P
NCMQ1P    3.720  0.500 P
NCMRD    3.700  1.000 P
NNOMMB    6.550 -1.000 S
NNOMMB    3.710  0.500 P
NNRCC    6.410  0.200 P
NNSCH    7.880  0.500 P
# 2012 10 29 14 03 26.30  37.6160 -119.0458 21.42 0.85 0.45 0.31 0.06   71065964
NCMCM    4.890  0.500 P
NCMCV    5.230  0.200 P
NCMDC    4.430 -1.000 P
NCMDPB    7.250  0.200 S
NCMDPB    4.140  0.200 P
NCMINS    7.440  0.200 S
NCMINS    4.200  1.000 P
NCMMP    4.180  0.200 P
NCMMT    6.370 -0.500 P
NCMQ1P    4.290  0.200 P
NCMRD    4.050  0.200 P
NNOMMB    7.300 -0.500 S
NNOMMB    4.120  0.200 P
NNRCC    6.740 -0.500 P
NNSCH    8.140  0.200 P
# 2012 10 29 14 03 52.77  37.6133 -119.0592 18.97 0.82 0.43 0.32 0.06   71870965
NCMCM    4.610 -1.000 P
NCMDC    4.110 -1.000 P
NCMDPB    6.630  0.200 S
NCMDPB    3.750  0.500 P
NCMGPB    4.520  0.200 P
NCMHD   15.520  0.500 P
NCMINS    6.910  0.500 S
NCMINS    3.820  0.500 P
NCMLC    4.300  0.500 P
NCMMI   11.160 -1.000 P
NCMMP    3.800  0.500 P
NCMMS    3.860  0.500 P
NCMMT    6.060 -1.000 P
NCMPR   14.590  1.000 P
NCMQ1P    3.780  0.500 P
NCMRD    3.760  1.000 P
NNOMMB    6.620 -1.000 S
NNOMMB    3.790  1.000 P
NNRCC    6.590  0.200 P
NNSCH    7.970  0.200 P
# 2012 10 29 14 08 50.49  37.6120 -119.0633 20.25 0.79 1.07 0.35 0.03   71870970
NCMCM    4.760  0.200 P
NCMDC    4.280 -1.000 P
NCMDPB    6.650  0.200 S
NCMDPB    3.860  1.000 P
NCMGPB    4.690  0.200 P
NCMINS    7.080  0.200 S
NCMINS    4.080  0.200 P
NCMLC    4.450  0.200 P
NCMMP    3.950  0.500 P
NCMMS    4.200  0.500 P
NCMQ1P    3.940  0.200 P
NCMRD    3.910 -1.000 P
NNOMMB    6.750  0.200 S
NNOMMB    3.960  1.000 P
NNRCC    6.970  0.200 P
NNSCH    8.220  0.200 P
# 2012 10 29 14 19 18.19  37.6188 -119.0523 18.88 0.98 0.52 0.27 0.09   71870985
NCMCM    4.640  0.200 P
NCMCV    4.990 -1.000 P
NCMCY    4.040  0.200 P
NCMDC    4.080 -1.000 P
NCMDPB    6.470  0.200 S
NCMDPB    3.730  0.500 P
NCMDR    5.070  0.200 P
NCMDY    3.880  0.200 P
NCMHD   15.650  0.200 P
NCMINS    6.750  1.000 S
NCMINS    3.830  0.500 P
NCMLI    3.990  0.200 P
NCMMI   11.180  0.500 P
NCMMP    3.770  0.500 P
NCMMS    4.020  0.500 P
NCMMT    6.080 -1.000 P
NCMPR   14.560  0.500 P
NCMQ1P    3.760  0.500 P
NCMRD    3.740  1.000 P
NNOMMB    6.550  1.000 S
NNOMMB    3.770  1.000 P
NNORC    7.020  0.200 P
NNRCC    6.530  0.200 P
NNSCH    7.980  0.200 P
# 2012 10 29 14 33 25.76  37.6330 -119.0352 18.24 0.64 0.90 0.37 0.07   71870995
NCMCM    4.440  0.200 P
NCMDC    3.930 -1.000 P
NCMDPB    6.370  0.500 S
NCMDPB    3.540  0.500 P
NCMDY    3.710  0.200 P
NCMGPB    4.210  0.200 P
NCMINS    6.650  1.000 S
NCMINS    3.700  1.000 P
NCMLC    4.130  0.500 P
NCMMP    3.650  1.000 P
NCMMS    3.890  0.200 P
NCMPR   14.460  1.000 P
NCMQ1P    3.650  0.200 P
NCMRD    3.620  1.000 P
NNOMMB    6.410 -1.000 S
NNOMMB    3.630  1.000 P
NNRCC    6.450  0.500 P
# 2012 10 29 14 37 30.53  37.6152 -119.0505 19.18 1.21 0.46 0.23 0.08   71871000
NCMCM    4.590  1.000 P
NCMCV    4.940  0.200 P
NCMCY    6.930  0.200 S
NCMCY    4.000  0.200 P
NCMDC    4.130 -1.000 P
NCMDPB    6.570  1.000 S
NCMDPB    3.680  0.500 P
NCMDR    5.130  0.200 P
NCMDY    4.080  0.200 P
NCMEM    4.320  0.200 P
NCMGPB    4.550  0.500 P
NCMHD   15.570  1.000 P
NCMINS    6.830  0.500 S
NCMINS    3.820  0.500 P
NCMLC    4.290  0.500 P
NCMMI   11.260  0.500 P
NCMMP    3.800  0.500 P
NCMMS    4.070  0.500 P
NCMMT    6.090 -1.000 P
NCMPR   14.600  1.000 P
NCMQ1P    3.790  0.500 P
NCMRD    3.760  1.000 P
NNBEN    8.400  0.200 P
NNOMMB    6.610  1.000 S
NNOMMB    3.770  0.500 P
NNORC    6.920  0.200 P
NNRCC    6.530  0.200 P
NNSCH    8.010  0.200 P
# 2012 10 29 14 59 39.04  37.6170 -119.0357 21.27 1.00 0.80 0.30 0.06   71871010
NCMCM    4.810  1.000 P
NCMCV    5.170  1.000 P
NCMDC    4.370 -1.000 P
NCMDPB    7.300  0.200 S
NCMDPB    4.090  0.500 P
NCMGPB    4.750  0.500 P
NCMINS    7.360  1.000 S
NCMINS    4.110  0.500 P
NCMLC    4.520  1.000 P
NCMMP    4.100  0.500 P
NCMMS    4.470  0.200 P
NCMMT    6.320  0.200 P
NCMPR   14.730  0.200 P
NCMQ1P    4.110  1.000 P
NCMRD    4.090  1.000 P
NNOMMB    7.170 -1.000 S
NNOMMB    4.060  0.500 P
NNRCC    6.660  1.000 P
NNSCH    8.040  0.500 P
# 2012 10 29 15 02 49.16  37.6150 -119.0528 19.65 0.96 0.41 0.51 0.08   71871015
NCMCM    4.690  0.500 P
NCMDC    4.200 -1.000 P
NCMDPB    6.570  0.200 S
NCMDPB    3.740  0.500 P
NCMDR    5.330  0.500 P
NCMHD   15.590  0.200 P
NCMINS    6.880  0.500 S
NCMINS    3.910  1.000 P
NCMLC    4.360  0.500 P
NCMMI   11.310  0.200 P
NCMMP    3.880  0.500 P
NCMMS    4.100  0.500 P
NCMMT    6.160 -1.000 P
NCMPR   14.680  1.000 P
NCMQ1P    3.870  1.000 P
NCMRD    3.710  0.500 P
NNOMMB    6.700  0.200 S
NNOMMB    3.750  0.500 P
NNORC    7.100  0.200 P
NNRCC    6.630  0.200 P
NNSCH    8.030  0.500 P
# 2012 10 29 15 14 9.19  37.6107 -119.0558 19.27 0.96 0.59 0.55 0.07   71871020
NCMCM    4.690  0.500 P
NCMCV    5.110  0.200 P
NCMDC    4.090  0.500 P
NCMDPB    6.740  0.200 S
NCMDPB    3.760  1.000 P
NCMDR    5.370  0.200 P
NCMHD   15.600  0.100 P
NCMINS    6.860  0.200 S
NCMINS    3.800  0.500 P
NCMLC    4.430  0.500 P
NCMMI   11.320 -0.500 P
NCMMP    3.800  1.000 P
NCMMS    3.930  0.200 P
NCMMT    6.030  0.500 P
NCMPR   14.550  0.500 P
NCMQ1P    3.790  0.200 P
NCMRD    3.720  1.000 P
NNOMMB    6.650  0.200 S
NNOMMB    3.720  0.500 P
NNORC    7.150  0.500 P
NNRCC    6.650  0.500 P
NNSCH    8.030  0.500 P
# 2012 10 29 15 21 26.12  37.6357 -119.0402 18.85 1.24 1.14 0.33 0.08   71871025
NCMCB    4.530  0.200 P
NCMCM    4.500  0.500 P
NCMCV    4.880  0.500 P
NCMCY    4.000  0.200 P
NCMDC    4.020  0.500 P
NCMDPB    6.610  0.500 S
NCMDPB    3.730  0.500 P
NCMDY    3.560  0.200 P
NCMGPB    4.450  1.000 P
NCMINS    6.710  0.500 S
NCMINS    3.770  1.000 P
NCMLC    4.210  1.000 P
NCMLI    3.780  0.200 P
NCMMP    3.780  1.000 P
NCMMS    4.020  0.200 P
NCMMT    6.280  0.200 P
NCMQ1P    3.750  0.500 P
NCMRD    3.720  0.500 P
NNOMMB    6.590  1.000 S
NNOMMB    3.720  0.500 P
NNRCC    6.520  0.500 P
# 2012 10 29 15 45 13.77  37.6187 -119.0587 19.47 0.76 1.00 0.27 0.05   71871035
NCMCM    4.670  0.200 P
NCMDC    4.140 -1.000 P
NCMDPB    6.570  0.500 S
NCMDPB    3.740  0.500 P
NCMHD   15.750  0.500 P
NCMINS    6.920  0.200 S
NCMINS    3.900  1.000 P
NCMLC    4.360  0.200 P
NCMMP    3.860  0.200 P
NCMMS    3.760  0.200 P
NCMMT    6.130 -1.000 P
NCMQ1P    3.870  0.500 P
NCMRD    3.800  1.000 P
NNOMMB    6.720  0.500 S
NNOMMB    3.830  1.000 P
# 2012 10 29 16 05 57.71  37.6145 -119.0592 19.12 0.85 0.78 0.46 0.05   71871045
NCMCM    4.690  0.200 P
NCMCV    5.070  0.200 P
NCMDC    4.120 -1.000 P
NCMDPB    6.680  0.200 S
NCMDPB    3.790  0.500 P
NCMDR    5.310  0.200 P
NCMGPB    4.510  0.200 P
NCMHD   15.560  0.200 P
NCMINS    6.900  0.200 S
NCMINS    3.830  1.000 P
NCMMP    3.770  0.500 P
NCMMT    6.050 -1.000 P
NCMPR   14.530  0.500 P
NCMQ1P    3.780  0.200 P
NCMRD    3.720  1.000 P
NNOMMB    6.730 -0.500 S
NNOMMB    3.760  1.000 P
# 2012 10 29 16 07 55.87  37.6163 -119.0567 19.36 0.81 0.75 0.33 0.07   71877715
NCMDC    4.150  1.000 P
NCMDPB    6.580  0.200 S
NCMDPB    3.770  1.000 P
NCMHD   15.740  0.500 P
NCMINS    6.940  1.000 S
NCMINS    3.870  1.000 P
NCMLC    4.280 -1.000 P
NCMMI   11.230  0.500 P
NCMMP    3.840  1.000 P
NCMMT    6.070 -1.000 P
NCMPR   14.480  0.200 P
NCMRD    3.790  1.000 P
NNOMMB    6.600  0.500 S
NNOMMB    3.810  1.000 P
NNRCC    6.660  0.200 P
# 2012 10 29 16 27 46.14  37.5742 -119.0485 14.25 0.85 0.95 1.28 0.17   71871060
NCMCM    4.080  0.200 P
NCMCV    4.340  0.200 P
NCMDC    3.460  0.200 P
NCMDP1    4.020  0.200 S
NCMDPB    4.200  0.200 S
NCMDPB    3.210  0.200 P
NCMGPB    3.780  0.200 P
NCMINS    3.310  0.200 P
NCMLC    3.730  0.200 P
NCMMP    3.220  0.200 P
NCMMS    2.550  0.200 P
NCMMT    4.980 -0.200 P
NCMQ1P    3.110  0.500 P
NCMRD    3.300  0.200 P
NNBHP   10.370  0.200 P
NNOMMB    3.200  0.200 P
NNORC    7.040  0.200 P
NNRCC    6.020  0.200 P
NNSCH    7.250  0.200 P
# 2012 10 29 16 29 5.46  37.6213 -119.0435 18.27 1.08 0.55 0.43 0.11   71871065
NCMCM    4.430  0.500 P
NCMCV    4.810 -1.000 P
NCMDC    3.920 -1.000 P
NCMGPB    4.280  0.200 P
NCMHD   16.090  0.200 P
NCMINS    6.580 -1.000 S
NCMINS    3.680  0.500 P
NCMLC    4.120  0.200 P
NCMMI   11.700  0.200 P
NCMMP    3.730  1.000 P
NCMMS    3.640  0.200 P
NCMMT    6.090 -1.000 P
NCMPR   14.530  0.500 P
NCMQ1P    3.730  0.200 P
NCMRD    3.650  0.500 P
NNBHP   10.770  0.200 P
NNOMMB    6.460  0.200 S
NNOMMB    3.650  0.500 P
NNRCC    6.420  0.200 P
NNSCH    7.880  0.200 P
# 2012 10 29 16 31 30.53  37.6283 -119.0487 18.96 0.67 1.08 0.40 0.07   71871070
NCMCM    4.550  0.200 P
NCMDC    4.000 -1.000 P
NCMDPB    6.520  0.500 S
NCMDPB    3.660  1.000 P
NCMGPB    4.490  0.200 P
NCMINS    6.740  0.500 S
NCMINS    3.760  1.000 P
NCMLC    4.250  0.500 P
NCMMP    3.770  0.500 P
NCMMS    4.020  0.200 P
NCMPR   14.600  0.500 P
NCMQ1P    3.780  0.200 P
NCMRD    3.720  1.000 P
NNOMMB    6.550 -1.000 S
NNOMMB    3.700  1.000 P
