# 2012 10 30 01 10 45.14  37.6167 -119.0460 18.85 0.94 0.68 0.29 0.05   71871540
NCMCM    4.540  1.000 P
NCMCV    4.950  0.500 P
NCMDC    4.050 -1.000 P
NCMDPB    6.410  0.500 S
NCMDPB    3.670  1.000 P
NCMDR    5.020  0.200 P
NCMGPB    4.520  0.200 P
NCMINS    6.650  0.500 S
NCMINS    3.780  1.000 P
NCMLC    4.250  0.500 P
NCMMP    3.770  0.200 P
NCMMS    4.130  0.200 P
NCMMT    6.110  0.200 P
NCMPR   14.650  0.500 P
NCMQ1P    3.940  0.500 P
NCMRD    3.780  1.000 P
NNOMMB    6.490  0.500 S
NNOMMB    3.740  0.500 P
NNRCC    6.570  0.500 P
NNSCH    8.000 -1.000 P
# 2012 10 30 01 41 27.66  37.6310 -119.0258 17.38 0.76 1.00 0.32 0.05   71871550
NCMCM    4.210  1.000 P
NCMCV    4.590  1.000 P
NCMDC    3.760  0.500 P
NCMDPB    6.210  0.500 S
NCMDPB    3.460  0.500 P
NCMINS    6.270  0.200 S
NCMINS    3.530  0.500 P
NCMLC    3.930  1.000 P
NCMMP    3.700  0.200 P
NCMMS    3.800  0.200 P
NCMMT    6.080  0.200 P
NCMPR   14.670  0.500 P
NCMQ1P    3.750  0.200 P
NCMRD    3.540  0.500 P
NNOMMB    6.100 -1.000 S
NNOMMB    3.440  1.000 P
NNORC    6.650  0.200 P
NNRCC    6.280  0.500 P
CIMLAC    0.000  0.000 P
NCMDR    0.000  0.000 P
NNSCH    0.000  0.000 P
# 2012 10 30 02 36 44.06  37.6202 -119.0365 17.52 1.56 0.43 0.24 0.08   71871570
CIMLAC    4.770  0.200 P
NCMCB    4.320  0.200 P
NCMCD    9.920  0.200 P
NCMCM    4.320  1.000 P
NCMCV    4.710  1.000 P
NCMCY    3.680  0.200 P
NCMDC    3.820  1.000 P
NCMDPB    6.110  1.000 S
NCMDPB    3.500  1.000 P
NCMDR    4.830  0.500 P
NCMDY    3.730  0.200 P
NCMGPB    4.220  0.500 P
NCMHD   15.720  0.500 P
NCMINS    6.280  1.000 S
NCMINS    3.550  1.000 P
NCMLC    4.000  0.500 P
NCMMP    3.560  1.000 P
NCMMS    3.790  0.500 P
NCMMT    6.110 -1.000 P
NCMPR   14.730  1.000 P
NCMQ1P    3.530  0.500 P
NCMRD    3.560  1.000 P
NCMTU    9.290  0.200 P
NNBEN    8.100  0.200 P
NNOMMB    6.090  1.000 S
NNOMMB    3.490  1.000 P
NNORC    6.800  1.000 P
NNRCC    6.350  1.000 P
NNSCH    7.850  1.000 P
# 2012 10 30 03 10 53.83  37.6385 -119.0617 18.52 0.93 0.85 0.36 0.08   71877075
NCMCM    4.460  0.200 P
NCMDC    3.880 -1.000 P
NCMDPB    3.400  0.200 P
NCMINS    6.540  0.200 S
NCMINS    3.630  1.000 P
NCMMS    4.020  0.500 P
NCMMT    6.350 -0.500 P
NCMPR   14.900  1.000 P
NCMQ1P    3.710  0.200 P
NCMRD    3.710  0.500 P
NNBEN    8.380  0.200 P
NNMLN   11.400  0.200 P
NNOMMB    3.670  0.500 P
NNRCC    6.550  0.200 P
# 2012 10 30 03 12 2.42  37.6152 -119.0410 17.72 1.16 0.53 0.22 0.09   71871585
NCMCM    4.350  1.000 P
NCMCV    4.760  1.000 P
NCMDC    3.810  0.500 P
NCMDP1    6.110  0.500 S
NCMFB   10.780  0.200 P
NCMINS    6.350  0.500 S
NCMINS    3.660  0.500 P
NCMLC    4.010  0.200 P
NCMMI   11.350  0.200 P
NCMMP    3.710  0.200 P
NCMMS    3.870  0.200 P
NCMMT    6.210  0.200 P
NCMPR   14.940  0.200 P
NCMQ1P    3.690  0.500 P
NCMRD    3.650  0.500 P
NCMTU    9.420  0.200 P
NNOMMB    6.210 -1.000 S
NNOMMB    3.640  0.500 P
NNSCH    7.900  0.200 P
# 2012 10 30 04 37 11.71  37.6358 -119.0350 16.24 0.67 0.73 0.29 0.07   71877065
NCMCM    4.150 -1.000 P
NCMCV    4.590  0.200 P
NCMCY    3.350  0.200 P
NCMDC    3.610 -1.000 P
NCMDPB    5.940  1.000 S
NCMDPB    3.320  1.000 P
NCMDR    4.650  0.200 P
NCMINS    6.060  1.000 S
NCMINS    3.350  1.000 P
NCMMI   11.240  0.200 P
NCMMP    3.450  0.200 P
NCMMS    3.290  0.200 P
NCMMT    6.040  0.200 P
NCMPR   14.560  0.200 P
NCMQ1P    3.470  0.200 P
NCMRD    3.410  1.000 P
NNOMMB    5.920 -1.000 S
NNOMMB    3.360  0.500 P
NNRCC    6.210  0.200 P
# 2012 10 30 05 09 52.50  37.6208 -119.0470 18.78 0.80 0.51 0.25 0.05   71871645
NCMCD   10.220  0.200 P
NCMCM    4.590  0.500 P
NCMCV    4.940  1.000 P
NCMDC    4.030  0.500 P
NCMDPB    6.430  0.500 S
NCMDPB    3.660  1.000 P
NCMINS    6.600  0.500 S
NCMINS    3.740  0.500 P
NCMLC    4.250  0.500 P
NCMMP    3.660  0.200 P
NCMMS    3.930  0.200 P
NCMMT    6.170 -1.000 P
NCMPR   14.740  1.000 P
NCMQ1P    3.740  0.200 P
NCMRD    3.730  1.000 P
NNOMMB    6.440  0.500 S
NNOMMB    3.730  1.000 P
NNRCC    6.590  0.200 P
NNSCH    8.080  0.500 P
# 2012 10 30 06 50 19.74  37.6312 -119.0335 16.50 0.72 0.78 0.27 0.08   71871705
NCMCM    4.150  1.000 P
NCMDC    3.640 -1.000 P
NCMDPB    5.970  1.000 S
NCMDPB    3.340  0.500 P
NCMDY    3.760  0.200 P
NCMGPB    4.060  0.200 P
NCMINS    6.060  1.000 S
NCMINS    3.400  1.000 P
NCMLC    3.840  0.500 P
NCMMP    3.510  0.200 P
NCMPR   14.590  0.200 P
NCMQ1P    3.390  0.200 P
NCMRD    3.410  1.000 P
NNOMMB    5.910 -1.000 S
NNOMMB    3.380  0.500 P
NNORC    6.720  0.200 P
NNRCC    6.230  0.200 P
NNSCH    7.780  0.500 P
# 2012 10 30 09 05 35.24  37.6183 -119.0085 -0.34 0.06 0.44 0.31 0.06   71873470
NCMCY    1.180  0.200 P
NCMDC    2.360  0.200 P
NCMDPB    2.340  0.200 S
NCMDPB    1.470  1.000 P
NCMINS    2.330  0.500 S
NCMINS    1.490 -1.000 P
NCMMP    0.750  0.200 P
NCMMS    1.020  0.500 P
NCMQ1P    0.670  0.500 P
NCMRD    1.260  1.000 P
NNOMMB    0.890 -1.000 S
NNOMMB    0.610  0.500 P
# 2012 10 30 09 43 38.96  37.6443 -119.0475 16.65 0.61 1.60 0.45 0.08   71873425
NCMCM    4.120  0.200 P
NCMCV    4.530  0.200 P
NCMDC    3.580 -1.000 P
NCMDPB    5.870  1.000 S
NCMDPB    3.330  1.000 P
NCMHD   15.710  0.200 P
NCMINS    6.020 -1.000 S
NCMINS    3.350  1.000 P
NCMPR   14.550  0.500 P
NCMRD    3.350  1.000 P
NNBEN    8.010  0.200 P
NNOMMB    5.900  0.200 S
NNOMMB    3.400  0.500 P
# 2012 10 30 14 38 11.67  37.6323 -119.0172  1.62 0.33 0.26 0.40 0.07   71871880
NCMCB    2.550  0.200 P
NCMCM    2.670  1.000 P
NCMCV    3.330  1.000 P
NCMCY    1.150  0.500 P
NCMDC    1.900  1.000 P
NCMDPB    2.340  0.500 S
NCMDPB    1.320  1.000 P
NCMDR    3.490  0.200 P
NCMEM    2.010  0.500 P
NCMGPB    2.410  0.200 P
NCMINS    1.260  1.000 P
NCMLC    2.080  1.000 P
NCMLI    0.920  0.200 P
NCMLK    1.680  0.200 P
NCMMP    1.060  1.000 P
NCMMS    1.200  1.000 P
NCMQ1P    1.000  0.500 P
NCMRD    1.370  1.000 P
NNOMMB    1.630  1.000 S
NNOMMB    0.980  1.000 P
# 2012 10 30 15 30 47.47  37.6348 -119.0198  1.35 0.04 0.30 0.63 0.06   71873410
NCMCM    2.640  0.500 P
NCMDC    1.870  1.000 P
NCMDPB    2.230  0.200 S
NCMDPB    1.290  1.000 P
NCMINS    1.210  1.000 P
NCMLK    1.660  0.500 P
NCMMP    1.000  0.500 P
NCMMS    1.160  0.500 P
NCMQ1P    0.980  0.500 P
NCMRD    1.330  1.000 P
NNOMMB    1.580  0.500 S
NNOMMB    1.000  0.500 P
# 2012 10 30 21 49 27.14  37.6243 -119.0443 10.23 0.40 0.81 0.67 0.23   71873385
NCMCB    6.070  0.200 S
NCMCB    3.790  0.200 P
NCMCM    3.710  0.200 P
NCMCV    4.300  0.200 P
NCMCY    4.080  0.200 S
NCMCY    2.510  0.200 P
NCMDC    3.070  0.500 P
NCMEM    3.320  0.500 P
NCMINS    4.100  1.000 S
NCMINS    2.320  1.000 P
NCMMI   11.780  0.200 P
NCMMLB    2.830  0.500 P
NCMMP    2.340  1.000 P
NCMMS    2.260  0.200 P
NCMMT    6.590  0.200 P
NCMQ1P    5.330  0.200 S
NCMQ1P    2.530  0.200 P
NCMRD    2.290  1.000 P
NNOMMB    4.100 -1.000 S
NNOMMB    2.270  1.000 P
# 2012 10 30 22 34 26.69  37.6338 -119.0172  1.24 0.35 0.19 0.40 0.07   71872115
NCMCB    2.430  0.200 P
NCMCM    2.640  1.000 P
NCMCV    3.290  0.200 P
NCMCY    1.070  0.200 P
NCMDC    1.860  1.000 P
NCMDH1    3.400  1.000 S
NCMDY    1.340  0.200 P
NCMEM    1.970  0.500 P
NCMGPB    2.360  0.500 P
NCMINS    2.350  0.200 S
NCMINS    1.210  1.000 P
NCMLC    2.020  0.200 P
NCMLI    1.030  0.200 P
NCMLK    1.680  0.200 P
NCMMLB    1.540  0.200 P
NCMMP    1.000  1.000 P
NCMMS    1.140  1.000 P
NCMQ1P    0.960  1.000 P
NCMRD    1.340  1.000 P
NNOMMB    1.590 -1.000 S
NNOMMB    0.980  0.200 P
# 2012 10 31 08 30 36.04  37.6515 -119.0312 -0.95 -0.10 0.13 0.22 0.04   71873355
NCMCY    1.000 -0.500 S
NCMCY    0.610  0.200 P
NCMDC    1.490  0.200 P
NCMDPB    2.060  0.500 S
NCMDPB    1.190  1.000 P
NCMDY    1.450  0.200 S
NCMDY    0.720 -1.000 P
NCMEM    1.970  0.200 P
NCMINS    1.440  0.200 S
NCMINS    0.860 -1.000 P
NCMLK    1.280  0.200 P
NCMMLB    1.370  0.200 P
NCMMP    1.060  0.200 P
NCMMS    0.890  0.200 P
NCMRD    1.480  0.500 P
NNOMMB    0.950  0.500 P
# 2012 10 31 09 17 2.53  37.6365 -119.0342 16.25 0.55 0.93 0.44 0.07   71873330
NCMCM    4.110  0.200 P
NCMCV    4.500  0.200 P
NCMDC    3.550 -1.000 P
NCMDPB    5.870 -1.000 S
NCMDPB    3.280  1.000 P
NCMINS    5.970  1.000 S
NCMINS    3.330  1.000 P
NCMMP    3.440  0.200 P
NCMMT    6.180  0.200 P
NCMPR   14.600  0.500 P
NCMRD    3.340  1.000 P
NNOMMB    5.840 -1.000 S
NNOMMB    3.310  0.500 P
NNRCC    6.180  0.200 P
# 2012 10 31 10 40 58.18  37.5705 -119.0195  3.48 0.48 0.70 0.40 0.07   71873275
NCMCV    3.310 -0.500 P
NCMDC    3.160 -1.000 P
NCMDPB    1.980  1.000 P
NCMINS    2.230  1.000 P
NCMLI    2.010  0.200 P
NCMMP    1.490  1.000 P
NCMMS    1.950  0.200 P
NCMQ1P    1.510  0.500 P
NCMRD    1.470 -1.000 P
NNOMMB    2.500  0.500 S
NNOMMB    1.490  0.500 P
# 2012 10 31 15 25 37.82  37.6070 -119.0530 18.87 0.81 1.17 0.39 0.06   71872545
NCMCM    4.620  1.000 P
NCMDC    4.070  0.200 P
NCMDPB    6.420  1.000 S
NCMDPB    3.670  1.000 P
NCMGPB    4.520  0.500 P
NCMHD   15.250  0.200 P
NCMINS    7.100  0.200 S
NCMINS    3.800  0.500 P
NCMLC    4.280  1.000 P
NCMMP    3.770  0.200 P
NCMRD    3.670  1.000 P
NNOMMB    6.540 -1.000 S
NNOMMB    3.730  1.000 P
NNRCC    6.530 -1.000 P
NNSCH    7.900  0.500 P
# 2012 10 31 23 24 30.39  37.6223 -119.1087 20.24 0.98 0.72 0.78 0.07   71872810
NCMCM    5.000  0.200 P
NCMCV    5.440  0.200 P
NCMDC    4.450  0.500 P
NCMGPB    4.980  0.200 P
NCMINS    4.170  0.500 P
NCMLC    4.740  0.500 P
NCMMI   11.230  0.200 P
NCMMS    4.170  0.200 P
NCMMT    6.130 -1.000 P
NCMRD    4.090  1.000 P
NNOMMB    7.080  0.500 S
NNOMMB    4.150  1.000 P
NNPOC   12.780  0.200 P
NNRCC    6.920  0.200 P
NNSCH    8.260  0.200 P
# 2012 10 31 23 40 0.14  37.6045 -119.0603 20.42 1.25 0.59 0.28 0.08   71872820
NCMCM    4.930  0.200 P
NCMCY    4.110  0.200 P
NCMDC    4.360 -1.000 P
NCMHD   15.280  0.200 P
NCMINS    7.120  0.200 S
NCMINS    4.080  0.500 P
NCMMI   11.120  0.500 P
NCMMP    3.970  1.000 P
NCMMT    6.030 -1.000 P
NCMRD    3.950  1.000 P
NCMTU    9.660  0.200 P
NNOMMB    6.950  1.000 S
NNOMMB    4.010  1.000 P
NNRCC    6.790  0.500 P
NNSCH    8.110  0.500 P
# 2012 10 31 23 59 26.37  37.6153 -119.0652 19.42 0.61 1.72 0.42 0.10   71872830
NCMCY    3.770  0.200 P
NCMDC    4.110 -1.000 P
NCMGPB    4.610  0.200 P
NCMINS    3.910  0.200 P
NCMLC    4.390  0.200 P
NCMMP    3.950  0.100 P
NCMQ1P    3.890  0.200 P
NCMRD    3.740 -0.500 P
NNOMMB    6.740 -1.000 S
NNOMMB    3.800 -1.000 P
# 2012 11 01 03 33 39.32  37.6058 -119.0817 21.33 0.89 0.83 0.30 0.05   71873195
NCMCM    5.090  0.500 P
NCMCV    5.540  0.200 P
NCMDC    4.340  0.200 P
NCMINS    4.200  0.500 P
NCMLC    4.760  0.200 P
NCMMP    4.160  0.200 P
NCMMT    6.150  0.500 P
NCMPR   14.690  0.200 P
NCMRD    4.120  0.500 P
NNOMMB    7.180  0.500 S
NNOMMB    4.180  1.000 P
NNRCC    6.960  0.200 P
# 2012 11 02 07 16 18.17  37.6277 -119.0172  0.51 0.32 0.29 0.51 0.08   71873785
NCMDC    1.950  1.000 P
NCMDPB    2.080  0.200 S
NCMDPB    1.270  1.000 P
NCMDY    2.210  0.200 S
NCMDY    1.270  0.500 P
NCMINS    1.200  1.000 P
NCMMP    0.830  1.000 P
NCMMS    0.980  1.000 P
NCMQ1P    0.780  1.000 P
NCMRD    1.240  1.000 P
NNOMMB    1.250 -1.000 S
NNOMMB    0.770  0.500 P
# 2012 11 02 14 55 53.97  37.5860 -119.1168 28.76 1.10 2.31 0.73 0.15   71873940
NCMCB    5.990  0.200 P
NCMCM    6.320  0.200 P
NCMDC    5.850  1.000 P
NCMDP1    9.440  1.000 S
NCMDPB    9.360  1.000 S
NCMDPB    5.070  1.000 P
NCMINS    9.810  1.000 S
NCMINS    5.520  1.000 P
NCMMLB    6.200  1.000 P
NCMMT    5.350  0.200 P
NCMRD    5.440  1.000 P
NNOMMB    9.530 -1.000 S
# 2012 11 03 09 44 37.06  37.6575 -119.1595 12.61 0.60 0.98 0.59 0.15   71876165
NCMCB    4.880  0.200 P
NCMCY    6.120  1.000 S
NCMDC    3.380  1.000 P
NCMDP1    5.280  1.000 S
NCMDPB    5.310  1.000 S
NCMDPB    2.890  0.500 P
NCMDY    6.650  0.200 S
NCMDY    3.820  0.200 P
NCMEM    4.430  1.000 P
NCMEM    7.200  0.200 S
NCMINS    5.480  1.000 S
NCMINS    2.920  1.000 P
NCMLI    6.410  1.000 S
NCMLI    3.830  1.000 P
NCMMI    9.980  0.200 P
NCMMLB    6.640  0.200 S
NCMMP    3.290  1.000 P
NCMMS    3.730  1.000 P
NCMPR   12.600  0.200 P
NCMQ1P    3.300  0.200 P
NCMRD    3.160  1.000 P
NNOMMB    5.600  0.200 S
NNOMMB    3.390  0.500 P
# 2012 11 03 13 18 18.31  37.6008 -119.0620 19.92 0.82 0.84 0.30 0.04   71876210
NCMCM    4.790  1.000 P
NCMCV    5.160  1.000 P
NCMDC    4.290 -1.000 P
NCMDPB    6.650  0.200 S
NCMDPB    3.800  0.200 P
NCMGPB    4.710  0.500 P
NCMINS    3.990  0.200 P
NCMLC    4.450  1.000 P
NCMMI   11.020  0.200 P
NCMMP    3.930  0.500 P
NCMPR   13.920  0.200 P
NCMQ1P    3.940  0.200 P
NCMRD    3.870  1.000 P
NNBEN    8.630  0.200 P
NNOMMB    3.920  1.000 P
NNORC    7.290  0.200 P
NNRCC    6.730 -1.000 P
# 2012 11 03 13 21 44.95  37.6043 -119.0580 19.21 0.74 0.87 0.43 0.04   71876245
NCMCM    4.690  1.000 P
NCMCV    5.050  1.000 P
NCMDC    4.180 -1.000 P
NCMDPB    6.490  0.500 S
NCMDPB    3.710  1.000 P
NCMGPB    4.590  0.500 P
NCMHD   14.190  0.200 P
NCMINS    6.860  0.200 S
NCMINS    3.860  0.100 P
NCMLC    4.330  1.000 P
NCMMI   10.960  0.200 P
NCMMP    3.700  0.500 P
NCMMT    5.840  0.200 P
NCMPR   13.780  0.200 P
NCMRD    3.750  1.000 P
NNOMMB    6.640  0.500 S
NNOMMB    3.810  1.000 P
NNRCC    6.620  0.500 P
# 2012 11 03 15 26 24.92  37.6148 -119.0500 18.72 0.77 0.53 0.57 0.06   71876250
NCMCM    4.570  1.000 P
NCMCV    4.900  0.200 P
NCMDC    4.060 -1.000 P
NCMDPB    6.340  0.200 S
NCMDPB    3.620  1.000 P
NCMDR    5.100  0.200 P
NCMGPB    4.440  1.000 P
NCMINS    3.810  0.200 P
NCMLC    4.230  1.000 P
NCMMI   11.190  0.200 P
NCMMP    3.720  0.500 P
NCMMT    6.140  0.200 P
NCMPR   14.170  0.200 P
NCMQ1P    3.700  0.200 P
NCMRD    3.640  1.000 P
NNBEN    8.420  0.200 P
NNOMMB    6.450  0.200 S
NNOMMB    3.680  1.000 P
NNRCC    6.500  1.000 P
# 2012 11 03 16 59 12.19  37.6098 -119.0560 18.61 0.64 0.91 0.33 0.03   71876265
NCMCM    4.600  0.500 P
NCMDC    4.030 -1.000 P
NCMDPB    6.400 -1.000 S
NCMDPB    3.620  1.000 P
NCMMI   10.870  0.200 P
NCMMP    3.750  0.200 P
NCMMT    5.970  0.200 P
NCMPR   13.710  0.500 P
NCMQ1P    3.710  0.200 P
NCMRD    3.630  1.000 P
NNOMMB    6.540  0.200 S
NNOMMB    3.700  1.000 P
NNRCC    6.540  0.500 P
# 2012 11 03 21 07 33.23  37.6102 -119.0677 19.46 0.80 0.75 0.38 0.08   71876330
NCMCM    4.730  0.200 P
NCMCV    5.120  0.200 P
NCMDC    4.200 -0.500 P
NCMDPB    6.530 -0.500 S
NCMDPB    3.780  0.500 P
NCMHD   15.380  0.200 P
NCMLC    4.400  0.200 P
NCMMI   11.080  0.200 P
NCMMP    3.890  0.200 P
NCMMT    5.950  0.200 P
NCMPR   14.850  0.200 P
NCMQ1P    3.900  0.200 P
NCMRD    3.790  0.500 P
NNOMMB    6.680  0.200 S
NNOMMB    3.810  0.500 P
NNORC    7.220  0.200 P
# 2012 11 04 02 24 54.61  37.6433 -119.0407 11.64 0.52 0.77 0.46 0.15   71876350
NCMCM    3.760 -1.000 P
NCMCV    4.130  0.200 P
NCMDC    2.980  1.000 P
NCMDP1    4.480  0.200 S
NCMDPB    4.470  1.000 S
NCMDPB    2.460  1.000 P
NCMINS    4.570  1.000 S
NCMINS    2.530  1.000 P
NCMLI    2.730  0.200 P
NCMPR   14.410  0.200 P
NCMQ1P    2.900  0.200 P
NCMRD    2.500  1.000 P
NNOMMB    4.500 -1.000 S
NNOMMB    2.500  1.000 P
NNRCC    6.250  0.200 P
# 2012 11 04 02 25 34.70  37.6343 -119.0287 11.52 0.40 0.36 0.26 0.07   71066034
NCMCM    3.550 -1.000 P
NCMCV    4.130  0.200 P
NCMCY    2.590  0.200 P
NCMDC    2.930  1.000 P
NCMDP1    4.520  0.500 S
NCMDPB    4.560  1.000 S
NCMDPB    2.620  1.000 P
NCMDY    2.740  0.200 P
NCMHD   15.600  0.200 P
NCMINS    4.740  1.000 S
NCMINS    2.650  1.000 P
NCMMI   11.480  0.200 P
NCMMS    2.740  0.200 P
NCMMT    6.140  0.200 P
NCMPR   14.830  0.200 P
NCMQ1P    2.600  0.200 P
NCMRD    2.600  1.000 P
NCMTU    8.960  0.200 P
NNOMMB    4.530 -1.000 S
NNOMMB    2.450  1.000 P
NNORC    6.260  0.200 P
# 2012 11 04 04 59 24.09  37.6105 -119.0637 19.74 0.66 0.98 0.46 0.09   71876355
NCMCM    4.800  0.200 P
NCMDC    4.190  0.500 P
NCMDPB    6.670 -1.000 S
NCMDPB    3.780  0.500 P
NCMINS    7.130  0.200 S
NCMINS    4.080  0.500 P
NCMMP    3.960  0.200 P
NCMMT    5.940 -0.500 P
NCMRD    3.870  0.500 P
NNOMMB    6.790 -1.000 S
NNOMMB    3.900  1.000 P
# 2012 11 04 05 26 31.63  37.6095 -119.0682 19.82 0.65 1.10 0.47 0.08   71876365
NCMCM    4.910  0.500 P
NCMDC    4.220 -1.000 P
NCMDPB    6.650  0.500 S
NCMDPB    3.790  0.500 P
NCMINS    4.030  0.500 P
NCMMI   10.670  0.200 P
NCMMP    3.970  0.500 P
NCMMT    5.910 -0.500 P
NCMPR   13.690  0.200 P
NCMQ1P    3.920  0.200 P
NCMRD    3.820  0.500 P
NNOMMB    6.790  1.000 S
NNOMMB    3.900  1.000 P
# 2012 11 04 07 16 50.36  37.6163 -119.0572 19.32 0.82 0.82 0.31 0.03   71877045
NCMCM    4.690 -1.000 P
NCMDC    4.110 -1.000 P
NCMDPB    6.570  1.000 S
NCMDPB    3.680  0.200 P
NCMINS    3.960  0.200 P
NCMLC    4.360  0.500 P
NCMMP    3.860  0.200 P
NCMMT    6.170  0.200 P
NCMRD    3.740  1.000 P
NCMTU    9.480  0.200 P
NNOMMB    6.730 -1.000 S
NNOMMB    3.780  1.000 P
NNRCC    6.600  0.200 P
# 2012 11 04 07 20 13.25  37.6325 -119.0503 12.19 0.27 0.89 0.45 0.11   71877025
NCMCM    3.980  0.200 P
NCMDC    3.030  1.000 P
NCMDP1    4.490  1.000 S
NCMDPB    4.570  1.000 S
NCMDPB    2.480  1.000 P
NCMINS    4.740  1.000 S
NCMINS    2.870  1.000 P
NCMMT    6.130  0.200 P
NCMQ1P    2.870  0.200 P
NCMRD    2.570  1.000 P
NNOMMB    4.660 -1.000 S
NNOMMB    2.570  0.200 P
# 2012 11 04 07 24 28.84  37.6260 -119.1108 25.66 0.82 2.79 0.88 0.23   71877000
NCMCM    5.570  0.200 P
NCMDC    5.040  1.000 P
NCMDPB    8.300  1.000 S
NCMDPB    4.680  1.000 P
NCMDY    4.840  0.200 P
NCMINS    8.600  1.000 S
NCMINS    4.620  1.000 P
NCMLI   10.010  0.200 S
NCMLI    5.530  0.200 P
NCMMT    6.340  0.200 P
NCMPR   12.520  0.200 P
NCMRD    5.290  1.000 P
NNOMMB    8.680 -1.000 S
NNOMMB    5.760  0.200 P
# 2012 11 04 08 26 13.05  37.6200 -119.0625 19.57 0.84 1.01 0.33 0.05   71875105
NCMCM    4.760  0.500 P
NCMCY    3.770  0.200 P
NCMDC    4.180  0.500 P
NCMDPB    6.650 -1.000 S
NCMDPB    3.750  0.500 P
NCMDY    4.400  0.200 P
NCMHD   15.160  0.200 P
NCMINS    7.020  0.200 S
NCMINS    3.960  0.200 P
NCMLC    4.420  0.500 P
NCMLI    3.860  0.200 P
NCMMP    3.870  0.500 P
NCMMS    3.980  0.200 P
NCMQ1P    3.890  0.200 P
NCMRD    3.800 -1.000 P
NNOMMB    6.780  0.500 S
NNOMMB    3.870  0.500 P
# 2012 11 04 09 28 21.90  37.6120 -119.0582 19.75 0.85 0.81 0.30 0.06   71875150
NCMCM    4.760  1.000 P
NCMCV    5.140  0.200 P
NCMDC    4.180 -1.000 P
NCMDPB    6.660  0.200 S
NCMDPB    3.700  0.200 P
NCMDY    4.360  0.200 P
NCMGPB    4.670  0.200 P
NCMHD   15.130  0.500 P
NCMINS    7.020  0.200 S
NCMINS    3.950  0.500 P
NCMLC    4.420  0.500 P
NCMMP    3.870  0.500 P
NCMQ1P    3.880  0.500 P
NCMRD    3.800 -1.000 P
NNOMMB    6.790 -1.000 S
NNOMMB    3.850  0.500 P
NNORC    7.250  0.200 P
NNPOC   13.010  0.200 P
NNRCC    6.680  0.500 P
NNSCH    8.010  0.200 P
# 2012 11 04 12 55 6.56  37.6213 -119.0362  9.41 0.22 1.26 0.97 0.17   71876395
NCMDC    3.000  1.000 P
NCMDPB    3.890 -1.000 S
NCMINS    4.200  1.000 S
NCMINS    2.100  0.200 P
NCMMP    1.950  1.000 P
NNOMMB    4.030 -1.000 S
NNOMMB    1.930  1.000 P
# 2012 11 06 05 18 43.62  37.6185 -119.0673 12.86 0.44 0.63 0.45 0.12   71876880
NCMCM    4.000  1.000 P
NCMCV    4.400  0.200 P
NCMCY    3.080  0.200 P
NCMDC    3.180  1.000 P
NCMDPB    4.810  1.000 S
NCMDPB    2.790  1.000 P
NCMDY    3.060  0.200 P
NCMINS    5.050  1.000 S
NCMINS    2.900  1.000 P
NCMLI    3.030  0.200 P
NCMMI   10.880  0.200 P
NCMMP    2.910  1.000 P
NCMMS    3.160  0.200 P
NCMMT    5.570  1.000 P
NCMQ1P    2.900  1.000 P
NCMRD    2.760  1.000 P
NNOMMB    4.970  1.000 S
NNOMMB    2.740  1.000 P
# 2012 11 06 05 27 12.43  37.6257 -119.0567 14.84 0.63 0.70 0.40 0.08   71876895
NCMCM    4.300  0.500 P
NCMCV    4.600  0.500 P
NCMDC    3.400  1.000 P
NCMDPB    5.300  1.000 S
NCMDPB    3.010  1.000 P
NCMDY    6.280  0.200 S
NCMDY    3.800  0.200 P
NCMINS    5.610  1.000 S
NCMINS    3.050  1.000 P
NCMLC    3.820  0.200 P
NCMMS    3.260  0.200 P
NCMQ1P    3.180  0.200 P
NCMRD    3.150  1.000 P
NNOMMB    5.470 -1.000 S
NNOMMB    3.020  1.000 P
NNORC    6.940  0.200 P
