# 2012 11 06 11 40 9.48  37.5860 -119.0072  0.75 -0.14 0.73 0.60 0.10   71876920
NCMCY    1.550  0.200 P
NCMDC    2.930  0.200 P
NCMDPB    3.010  0.500 S
NCMDPB    1.740 -1.000 P
NCMINS    2.190  0.200 P
NCMLI    1.680  0.200 P
NCMMP    1.000  0.500 P
NCMMS    1.260  0.200 P
NCMQ1P    1.000  0.500 P
NCMRD    1.270 -1.000 P
NNOMMB    1.510 -1.000 S
NNOMMB    0.880  0.500 P
# 2012 11 06 14 00 43.92  37.6325 -119.0403  1.56 -0.31 0.68 0.95 0.08   71876935
NCMCY    1.820  0.200 S
NCMCY    1.010  0.500 P
NCMDPB    1.060 -1.000 P
NCMDY    1.190  0.100 P
NCMINS    1.100 -1.000 P
NCMMP    0.990  1.000 P
NCMMS    1.170  1.000 P
NCMQ1P    1.000  0.500 P
NCMRD    1.210  0.200 P
NNOMMB    1.000  0.500 P
# 2012 11 06 14 00 47.86  37.6370 -119.0305  2.85 -0.23 1.07 1.93 0.07   71066044
NCMDPB    1.290 -1.000 P
NCMINS    1.310 -1.000 P
NCMMP    1.180  1.000 P
NCMMS    1.360  1.000 P
NCMQ1P    1.180  0.500 P
NCMRD    1.410  0.500 P
NNOMMB    2.050 -0.500 S
NNOMMB    1.250 -1.000 P
# 2012 11 06 21 53 43.65  37.5908 -119.0033  1.65 0.66 0.38 0.30 0.07   71877020
CIMLAC    3.220  0.200 P
NCMCB    2.600  0.500 P
NCMCM    2.440  1.000 P
NCMCS    2.620  0.100 P
NCMCV    3.000  1.000 P
NCMCY    1.660  0.500 P
NCMDC    2.750  0.500 P
NCMDH1    3.990  0.500 S
NCMDPB    3.000  0.500 S
NCMDPB    1.800  1.000 P
NCMDR    3.420  0.500 P
NCMEM    2.420  0.200 P
NCMGPB    2.260  0.500 P
NCMINS    3.210  0.500 S
NCMINS    1.910  1.000 P
NCMLC    1.850  0.500 P
NCMLI    1.640  0.200 P
NCMLK    2.210  1.000 P
NCMLM    4.220  0.200 P
NCMMLB    2.100  0.200 P
NCMMP    1.030  1.000 P
NCMMS    1.500  1.000 P
NCMMX1    2.130  0.500 S
NCMQ1P    1.020  1.000 P
NCMRD    1.330  1.000 P
NNOMMB    1.490  0.500 S
NNOMMB    0.920  1.000 P
NNORC    5.890  0.200 P
NNRCC    4.950  0.200 P
# 2012 11 09 17 34 25.53  37.5945 -119.0053  0.49 -0.16 0.76 0.68 0.02   71879085
NCMDPB    1.660 -1.000 P
NCMMP    0.820  0.500 P
NCMQ1P    0.850  0.200 P
NCMRD    1.180 -1.000 P
NNOMMB    1.270 -1.000 S
NNOMMB    0.740 -1.000 P
# 2012 11 09 21 32 23.45  37.6162 -119.0912 19.92 0.93 0.76 0.39 0.08   71879090
NCMCM    4.870  0.200 P
NCMCV    5.280  0.200 P
NCMDC    4.330  0.200 P
NCMDP1    6.600  0.500 S
NCMDPB    3.880  0.500 P
NCMHD   15.270  0.200 P
NCMINS    4.070  0.200 P
NCMMT    6.000 -0.500 P
NCMPR   14.440  0.500 P
NCMRD    3.830  0.500 P
NNOMMB    7.060  0.500 S
NNOMMB    3.870  0.500 P
NNPOC   13.350  0.200 P
NNRCC    6.740  0.200 P
NNSCH    8.100  0.200 P
# 2012 11 10 00 18 10.29  37.5975 -119.0683 20.18 0.94 0.46 0.22 0.05   71879280
NCMCM    4.880  1.000 P
NCMCV    5.280  1.000 P
NCMDC    4.310  0.500 P
NCMDPB    6.910  0.500 S
NCMDPB    3.900  0.500 P
NCMGPB    4.930  0.200 P
NCMHD   15.330  0.200 P
NCMINS    6.950  0.200 S
NCMINS    4.120  0.500 P
NCMLC    4.560  0.200 P
NCMMI   11.070 -0.500 P
NCMMP    3.870  0.200 P
NCMMT    6.050  0.500 P
NCMPR   14.490  0.500 P
NCMRD    3.890  0.500 P
NNOMMB    6.980  0.200 S
NNOMMB    3.970  0.500 P
NNPOC   13.140  0.200 P
NNRCC    6.820  0.500 P
NNSCH    8.200  0.200 P
# 2012 11 10 09 38 52.64  37.6512 -119.1738  7.98 0.43 4.78 5.96 0.52   71886971
NCMDC    3.100 -1.000 P
NCMDP1    4.410 -1.000 S
NCMINS    2.010  1.000 P
NCMLI    5.710 -1.000 S
NCMQ1P    3.850  1.000 P
NCMRD    2.010  1.000 P
# 2012 11 10 12 37 34.66  37.6327 -119.0745 13.61 0.45 1.70 0.73 0.16   71887001
NCMCM    4.190 -1.000 P
NCMDC    3.390  1.000 P
NCMDPB    5.120  1.000 S
NCMDPB    2.680  0.500 P
NCMINS    5.050  1.000 S
NCMINS    2.970  1.000 P
NCMRD    2.740  1.000 P
# 2012 11 10 16 50 20.52  37.6197 -119.0147  2.77 2.26 0.25 0.31 0.05   71879745
BKHELL   17.600  1.000 P
CIMLAC    3.340  1.000 P
NCMBE   16.770  0.100 P
NCMCB    2.530  1.000 P
NCMCM    2.590  1.000 P
NCMCS    2.410  1.000 P
NCMCV    3.240  1.000 P
NCMCY    1.300  1.000 P
NCMDC    2.190  1.000 P
NCMDH1    3.460  1.000 S
NCMDPB    2.530  0.200 S
NCMDPB    1.540  1.000 P
NCMDR    3.460  1.000 P
NCMDY    1.540  1.000 P
NCMEM    2.090  1.000 P
NCMGPB    2.350  1.000 P
NCMHD   16.270  0.100 P
NCMINS    2.710  0.200 S
NCMINS    1.530  1.000 P
NCMLC    2.010  1.000 P
NCMLH    3.990  1.000 P
NCMLI    1.340  1.000 P
NCMLM    3.240  0.200 P
NCMMI   11.720 -1.000 P
NCMMLB    1.680  1.000 P
NCMMP    1.080  1.000 P
NCMMS    1.320  1.000 P
NCMMX1    2.220  0.500 S
NCMPR   15.250  1.000 P
NCMQ1P    1.060  1.000 P
NCMRC    8.220  0.200 P
NCMRD    1.420  1.000 P
NCMTU    8.820  0.200 P
NCMYL   21.470  0.200 P
NNBON   12.930  1.000 P
NNOMMB    1.580  0.500 S
NNOMMB    1.010  1.000 P
NNWAK   18.130  0.200 P
# 2012 11 10 16 53 33.17  37.6225 -119.0118  1.84 0.38 0.24 0.34 0.06   71879755
NCMCB    2.450  0.200 P
NCMCM    2.520  0.500 P
NCMCV    3.160  0.500 P
NCMCY    1.260  0.200 P
NCMDC    2.130  1.000 P
NCMDH1    3.370  1.000 S
NCMDPB    2.460  0.500 S
NCMDPB    1.470  1.000 P
NCMDR    3.380  0.200 P
NCMDY    1.490  0.500 P
NCMEM    2.000  0.500 P
NCMEM    3.470  0.500 S
NCMGPB    2.270  0.500 P
NCMINS    2.640  0.200 S
NCMINS    1.460  1.000 P
NCMLC    1.930  1.000 P
NCMMP    1.000  1.000 P
NCMMS    1.300  0.500 P
NCMMX1    2.130  0.200 S
NCMQ1P    0.970  0.500 P
NCMRD    1.360  1.000 P
NNOMMB    1.530  0.500 S
NNOMMB    1.000  0.200 P
# 2012 11 10 18 05 26.65  37.6342 -119.0543  7.74 0.09 0.61 0.42 0.10   71887011
NCMBS1    6.810  0.200 S
NCMCM    3.440  1.000 P
NCMDC    2.480 -1.000 P
NCMDP1    3.220  1.000 S
NCMDPB    3.210  1.000 S
NCMDPB    1.820  1.000 P
NCMDY    4.030  0.200 S
NCMDY    2.340  0.200 P
NCMEM    3.320  0.200 P
NCMINS    3.620  0.200 S
NCMINS    1.970  1.000 P
NCMLC    2.920  0.200 P
NCMLI    2.410  0.200 P
NCMMP    1.990  1.000 P
NCMPR   14.830  0.200 P
NCMQ1P    3.670  0.500 S
NCMQ1P    1.990  0.500 P
NCMRD    1.900  1.000 P
NNOMMB    3.530 -1.000 S
NNOMMB    2.000  1.000 P
# 2012 11 10 18 33 11.53  37.6302 -119.0195  0.03 0.24 0.42 0.51 0.05   71887031
NCMDC    1.790  0.200 P
NCMDPB    2.130  0.200 S
NCMDPB    1.270 -1.000 P
NCMINS    1.090  0.500 P
NCMLI    0.710  0.500 P
NCMMP    0.790  0.500 P
NCMMS    0.830 -1.000 P
NCMQ1P    0.720  1.000 P
NCMRD    1.280  0.500 P
NNOMMB    0.660  0.500 P
# 2012 11 10 21 00 42.46  37.6237 -119.0128  1.45 0.41 0.28 0.33 0.05   71879920
NCMCM    2.500  0.500 P
NCMCV    3.130  0.500 P
NCMDC    2.110  1.000 P
NCMDH1    3.360  1.000 S
NCMDPB    2.440  1.000 S
NCMDPB    1.450  1.000 P
NCMDY    1.460  0.200 P
NCMEM    1.990  1.000 P
NCMGPB    2.270  0.200 P
NCMINS    2.620  0.500 S
NCMINS    1.460  1.000 P
NCMLC    1.910  0.500 P
NCMLI    0.870  0.200 P
NCMMP    0.990  0.200 P
NCMMS    1.160  0.200 P
NCMQ1P    1.000  0.200 P
NCMRD    1.330  1.000 P
NNOMMB    1.480 -1.000 S
NNOMMB    0.880  1.000 P
# 2012 11 11 05 30 31.02  37.5968 -119.0055  0.77 0.06 0.70 0.70 0.05   71880205
NCMDPB    2.880 -0.500 S
NCMDPB    1.650 -1.000 P
NCMINS    1.790  0.200 P
NCMMP    0.860  1.000 P
NCMMS    1.330  0.500 P
NCMQ1P    0.850  1.000 P
NCMRD    1.160 -1.000 P
NNOMMB    1.310 -1.000 S
NNOMMB    0.750  0.500 P
# 2012 11 11 14 11 43.09  37.6400 -119.1017  8.33 0.15 1.97 0.50 0.09   71887876
NCMDC    2.580 -1.000 P
NCMDP1    3.320  0.500 S
NCMDPB    3.350 -1.000 S
NCMDPB    1.980  1.000 P
NCMINS    2.100  1.000 P
NCMMP    2.170  0.500 P
NCMRD    2.080  1.000 P
# 2012 11 11 16 05 43.10  37.6185 -119.0867 12.81 0.49 1.00 0.42 0.12   71889576
NCMCB    7.460  0.200 S
NCMCB    4.090  0.200 P
NCMCM    4.200  1.000 P
NCMCV    4.520  0.500 P
NCMDC    3.230  1.000 P
NCMDPB    4.810  1.000 S
NCMDPB    2.570  1.000 P
NCMDY    2.960  0.200 P
NCMEM    3.960  1.000 P
NCMINS    5.060  1.000 S
NCMINS    2.740  1.000 P
NCMMP    3.000  0.500 P
NCMQ1P    2.980  1.000 P
NCMRD    2.700  1.000 P
NNOMMB    5.100  1.000 S
NNOMMB    2.930  1.000 P
# 2012 11 11 19 54 36.53  37.5913 -119.0752  9.52 0.19 1.15 0.66 0.21   71889601
NCMCM    4.060  0.200 P
NCMDC    3.510  1.000 P
NCMDPB    4.200  1.000 S
NCMDPB    2.120  1.000 P
NCMINS    4.420  1.000 S
NCMINS    2.210  1.000 P
NCMMP    2.330  0.200 P
NCMQ1P    2.420  0.200 P
NCMRD    2.280  1.000 P
NNOMMB    4.290 -1.000 S
NNOMMB    2.230  0.200 P
# 2012 11 11 19 55 26.62  37.6288 -119.0725 13.37 0.71 0.83 0.45 0.10   71066254
NCMCM    4.020  0.200 P
NCMCV    4.670  0.200 P
NCMCY    2.780  0.200 P
NCMDC    3.180  1.000 P
NCMDPB    4.820  1.000 S
NCMDPB    2.780  1.000 P
NCMINS    5.110  1.000 S
NCMINS    2.880  1.000 P
NCMMP    3.010  0.500 P
NCMMS    2.940  0.200 P
NCMQ1P    3.050  0.200 P
NCMRD    2.740  1.000 P
NNOMMB    5.140 -1.000 S
NNOMMB    2.900  1.000 P
# 2012 11 12 16 49 39.64  37.6493 -119.0663 13.79 0.67 0.99 0.44 0.12   71889626
NCMCM    4.830  0.200 P
NCMCV    4.670 -1.000 P
NCMDC    3.210 -1.000 P
NCMDPB    4.900  1.000 S
NCMDPB    2.810  1.000 P
NCMDY    6.360  0.200 S
NCMINS    5.180  1.000 S
NCMINS    3.010  1.000 P
NCMMS    3.460  0.200 P
NCMQ1P    3.300  0.200 P
NCMRD    2.950  1.000 P
NNOMMB    4.960  1.000 S
NNOMMB    2.960  1.000 P
# 2012 11 13 05 42 49.95  37.6117 -119.0602 21.43 0.83 0.89 0.43 0.11   71889646
NCMCM    4.860 -1.000 P
NCMCV    5.360  0.200 P
NCMDC    4.410 -1.000 P
NCMDPB    4.080  1.000 P
NCMGPB    4.850  0.200 P
NCMHD   15.310  1.000 P
NCMINS    4.080  0.200 P
NCMLC    4.600  0.200 P
NCMMI   11.240 -0.500 P
NCMMP    4.540  0.500 P
NCMMS    4.710  0.200 P
NCMPR   14.500  0.200 P
NCMQ1P    4.270  0.200 P
NCMRD    4.330  0.200 P
NNBEN    8.660  0.200 P
NNOMMB    4.360  1.000 P
NNWAK   16.350  0.200 P
# 2012 11 13 08 17 30.41  37.6290 -119.0597 -2.74 0.10 0.37 10.97 0.16   71889706
NCMINS    1.350  0.200 S
NCMINS    0.560  0.200 P
NCMLI    0.750  0.200 P
NCMMP    0.810  1.000 P
NCMMS    0.620 -1.000 P
NCMQ1P    1.530  1.000 S
NCMQ1P    1.090  1.000 P
NCMRD    0.640  1.000 P
NNOMMB    1.200  0.200 P
# 2012 11 13 08 31 56.89  37.5910 -119.0067  2.49 0.23 0.80 0.37 0.05   71881560
NCMCM    2.510  0.200 P
NCMCY    1.680  0.200 P
NCMDC    2.890  0.200 P
NCMDPB    1.820  1.000 P
NCMINS    1.990 -1.000 P
NCMMP    1.140  1.000 P
NCMMS    1.620  0.500 P
NCMQ1P    1.140  1.000 P
NCMRD    1.310 -1.000 P
NNOMMB    1.790  0.500 S
NNOMMB    1.080  1.000 P
# 2012 11 13 22 10 50.08  37.6210 -119.0493 18.07 0.61 0.92 0.44 0.07   71887596
NCMCM    4.720  0.200 P
NCMDC    3.920 -1.000 P
NCMDPB    6.390 -1.000 S
NCMDPB    3.550  1.000 P
NCMHD   14.960  0.200 P
NCMINS    6.540  1.000 S
NCMINS    3.670  1.000 P
NCMLC    4.310  0.200 P
NCMMS    3.410  0.200 P
NCMMT    5.990 -0.500 P
NCMPR   14.530  1.000 P
NCMRD    3.610  1.000 P
NNOMMB    6.380 -1.000 S
NNOMMB    3.630  1.000 P
# 2012 11 14 01 54 37.35  37.6842 -119.1217 11.07 0.41 1.65 0.78 0.16   71887621
NCMCY    5.600  0.200 S
NCMDC    2.760 -1.000 P
NCMDP1    4.870  1.000 S
NCMDPB    4.600  1.000 S
NCMDPB    2.330  1.000 P
NCMDY    3.370  0.500 P
NCMINS    4.890  1.000 S
NCMINS    2.590  1.000 P
NCMLI    5.660  0.200 S
NCMMS    3.000  0.200 P
NCMQ1P    5.320 -1.000 S
NCMQ1P    3.370  1.000 P
NCMRD    3.120  1.000 P
NNOMMB    4.480  1.000 S
NNOMMB    2.320  0.200 P
# 2012 11 14 07 25 31.54  37.6263 -119.0123  1.78 -0.03 0.33 0.46 0.09   71887636
NCMCM    2.540  0.200 P
NCMDC    2.140  0.500 P
NCMDPB    2.460 -1.000 S
NCMDPB    1.480  1.000 P
NCMINS    2.640  0.200 S
NCMINS    1.470  1.000 P
NCMLC    1.970  0.200 P
NCMLI    1.070  0.200 P
NCMMP    1.060  0.200 P
NCMMS    1.300  0.200 P
NCMQ1P    0.910  0.200 P
NCMRD    1.370  1.000 P
NNOMMB    1.520 -1.000 S
NNOMMB    0.940  1.000 P
# 2012 11 14 19 26 24.31  37.6132 -119.0628 17.61 0.93 0.64 0.37 0.07   71887651
NCMCM    4.510  1.000 P
NCMCV    4.940  1.000 P
NCMDC    3.920 -1.000 P
NCMDPB    3.390  0.500 P
NCMDR    5.100  0.200 P
NCMGPB    4.390  1.000 P
NCMHD   15.430  0.500 P
NCMINS    6.250  0.500 S
NCMINS    3.540  1.000 P
NCMLC    4.160  1.000 P
NCMMI   11.040  0.200 P
NCMMP    3.570  1.000 P
NCMMT    5.840 -0.500 P
NCMPR   14.450  1.000 P
NCMQ1P    3.570  0.500 P
NCMRD    3.490  1.000 P
NNOMMB    6.130  0.500 S
NNOMMB    3.570  1.000 P
NNORC    7.220  0.200 P
NNRCC    6.560  0.500 P
NNWAK   17.840  1.000 P
# 2012 11 14 19 40 21.36  37.6135 -119.0583 16.06 0.72 0.66 0.39 0.06   71066164
NCMCM    4.290  0.500 P
NCMCV    4.730  1.000 P
NCMDC    3.680 -1.000 P
NCMDPB    3.170  1.000 P
NCMDR    4.890  0.500 P
NCMGPB    4.170  0.500 P
NCMINS    6.040 -1.000 S
NCMINS    3.320  0.500 P
NCMLC    3.940  1.000 P
NCMMP    3.320  0.500 P
NCMMT    5.690  0.200 P
NCMPR   14.300  0.500 P
NCMQ1P    3.350  0.500 P
NCMRD    3.260  1.000 P
NNOMMB    5.950  0.500 S
NNOMMB    3.380  0.500 P
NNORC    6.980  0.200 P
NNRCC    6.340  0.200 P
NNSCH    7.830  0.500 P
# 2012 11 14 23 11 36.29  37.6108 -119.0628 17.70 0.94 0.38 0.21 0.06   71886346
NCMCM    4.520  0.200 P
NCMCV    4.990  0.200 P
NCMDC    3.950 -1.000 P
NCMDPB    3.530  0.500 P
NCMGPB    4.540  0.500 P
NCMHD   15.460  1.000 P
NCMINS    6.290  0.500 S
NCMINS    3.620  1.000 P
NCMLC    4.240  0.200 P
NCMMI   11.040  0.200 P
NCMMP    3.630  0.200 P
NCMMS    3.810  0.200 P
NCMMT    5.870 -1.000 P
NCMPR   14.490  1.000 P
NCMQ1P    3.650  0.200 P
NCMRD    3.570  1.000 P
NNOMMB    6.230  0.500 S
NNOMMB    3.640  0.500 P
NNRCC    6.630  0.500 P
NNSCH    8.060 -1.000 P
# 2012 11 15 15 44 21.70  37.6120 -119.0220  0.96 -0.12 0.65 0.90 0.04   71887701
NCMDC    2.290  0.200 P
NCMDPB    2.240  0.200 S
NCMDPB    1.330 -1.000 P
NCMINS    1.410  0.500 P
NCMMP    0.710  0.500 P
NCMMS    1.080  0.200 P
NCMQ1P    0.680 -0.500 P
NCMRD    1.050 -1.000 P
# 2012 11 15 18 01 53.36  37.6500 -119.0583 12.60 0.37 1.35 0.41 0.10   71887711
NCMCY    2.780  0.200 P
NCMDC    2.930 -1.000 P
NCMDP1    4.590  1.000 S
NCMDPB    4.690  1.000 S
NCMDPB    2.730  1.000 P
NCMEM    3.250  0.200 P
NCMINS    4.900  1.000 S
NCMINS    2.650  1.000 P
NCMMP    2.800  0.200 P
NCMMT    6.250  0.200 P
NCMPR   14.080  0.200 P
NCMQ1P    2.940  0.200 P
NCMRD    2.680  1.000 P
NNOMMB    4.580  0.200 S
NNOMMB    2.790  0.500 P
# 2012 11 17 02 26 53.92  37.6145 -119.1122 13.76 0.55 0.92 0.50 0.14   71889761
NCMCM    4.380  0.200 P
NCMCY    3.610  0.200 P
NCMDC    3.390  1.000 P
NCMDP1    4.880  1.000 S
NCMDPB    5.150  1.000 S
NCMDPB    2.830  1.000 P
NCMDY    6.600  0.200 S
NCMDY    3.580  0.200 P
NCMINS    5.430  1.000 S
NCMINS    3.210  1.000 P
NCMMS    3.640  0.200 P
NCMQ1P    6.460  0.200 S
NCMQ1P    3.520  0.200 P
NCMRD    2.950  1.000 P
# 2012 11 17 02 27 19.61  37.6377 -119.1118 12.57 0.60 1.87 1.08 0.40   71066259
NCMCM    3.920  0.200 P
NCMCY    5.540  0.200 S
NCMDC    2.810 -1.000 P
NCMDPB    4.560  1.000 S
NCMDPB    2.450  1.000 P
NCMHD   15.850  1.000 P
NCMINS    5.740  1.000 S
NCMINS    2.480  1.000 P
NCMMP    2.890  0.200 P
NCMMS    3.150  0.200 P
NCMPR   14.710  1.000 P
NCMQ1P    5.740  1.000 S
NCMQ1P    3.660  1.000 P
NCMRD    2.530  1.000 P
# 2012 11 18 05 09 29.57  37.6325 -119.0240 16.33 0.86 0.80 0.52 0.07   71888581
NCMCM    4.150  0.200 P
NCMDC    3.670  0.500 P
NCMDPB    5.930  0.500 S
NCMDPB    3.340  1.000 P
NCMGPB    4.070  0.200 P
NCMINS    6.060  0.500 S
NCMINS    3.380  1.000 P
NCMMP    3.610  0.500 P
NCMPR   14.680  0.500 P
NCMQ1P    3.470  0.200 P
NCMRD    3.390 -1.000 P
NNPOC   12.620  0.200 P
NNRCC    6.220 -0.500 P
NNSCH    7.760  0.200 P
# 2012 11 18 11 42 9.23  37.6422 -119.0627 17.84 0.96 1.06 0.36 0.13   71890151
NCMCM    4.460  0.200 P
NCMDC    3.980  0.500 P
NCMDPB    6.130  1.000 S
NCMDPB    3.510  1.000 P
NCMHD   16.000  0.200 P
NCMINS    6.240  1.000 S
NCMINS    3.570  1.000 P
NCMMI   11.530  0.500 P
NCMMP    3.660  0.500 P
NCMMT    6.190 -1.000 P
NCMPR   14.820  1.000 P
NCMQ1P    3.660  0.200 P
NCMRD    3.570  1.000 P
NNBEN    8.200  0.200 P
# 2012 11 18 13 21 16.77  37.6318 -119.0493 19.53 0.69 1.71 0.61 0.06   71888856
NCMCM    4.610  0.200 P
NCMDC    4.100  0.500 P
NCMDPB    6.340  0.500 S
NCMDPB    3.790  1.000 P
NCMINS    6.540  0.500 S
NCMINS    3.830  1.000 P
NCMLC    4.300 -0.500 P
NCMMP    3.880  0.500 P
NCMRD    3.820 -1.000 P
# 2012 11 18 14 26 47.87  37.6477 -119.0248 17.27 0.70 1.51 0.73 0.09   71888881
NCMCM    4.320  0.200 P
NCMDC    3.750  0.500 P
NCMDPB    6.090  1.000 S
NCMDPB    3.480 -1.000 P
NCMDY    3.370  0.200 P
NCMGPB    4.220  0.200 P
NCMINS    6.220  0.500 S
NCMINS    3.530  0.500 P
NCMLC    3.940  0.200 P
NCMQ1P    3.760  0.200 P
NCMRD    3.520  0.500 P
NNSCH    7.970 -0.500 P
# 2012 11 18 14 33 17.08  37.6327 -119.0418 18.22 1.24 0.54 0.33 0.07   71888886
NCMCB    4.460  0.200 P
NCMCM    4.460  1.000 P
NCMCV    4.880  0.200 P
NCMCY    3.600  0.200 P
NCMDC    3.930  0.500 P
NCMDPB    6.240  1.000 S
NCMDPB    3.600  1.000 P
NCMDR    4.980  0.200 P
NCMGPB    4.370  0.500 P
NCMINS    6.350  1.000 S
NCMINS    3.700  1.000 P
NCMLC    4.130  0.500 P
NCMMP    3.800  0.500 P
NCMMS    3.820  0.200 P
NCMMT    6.350 -1.000 P
NCMQ1P    3.750  0.200 P
NCMRD    3.740  0.500 P
NNBEN    8.290  0.200 P
NNRCC    6.560  1.000 P
NNSCH    8.100  1.000 P
# 2012 11 18 15 47 21.93  37.6307 -119.0398 18.61 1.50 0.47 0.40 0.05   71888911
NCMCM    4.480  1.000 P
NCMCV    4.880  1.000 P
NCMDC    3.950 -1.000 P
NCMGPB    4.370  1.000 P
NCMINS    6.340  1.000 S
NCMINS    3.700  1.000 P
NCMLC    4.140  0.500 P
NCMMP    3.740  0.500 P
NCMMS    3.840  0.200 P
NCMMT    6.360 -1.000 P
NCMQ1P    3.710  0.200 P
NCMRD    3.750  1.000 P
NNBEN    8.370  0.200 P
NNOMMB    6.240  0.500 S
NNORC    7.040  0.200 P
NNSCH    8.100 -1.000 P
# 2012 11 18 17 48 46.32  37.6235 -119.0523 19.21 0.96 1.57 0.67 0.11   71888971
NCMCM    4.500  0.500 P
NCMCV    4.790  0.500 P
NCMDC    4.170 -1.000 P
NCMDPB    6.430 -1.000 S
NCMDPB    3.670  1.000 P
NCMGPB    4.500  1.000 P
NCMINS    3.830  1.000 P
NCMLC    4.300  1.000 P
NCMMP    3.870  0.500 P
NCMMS    4.220  0.200 P
NCMQ1P    3.920  0.200 P
NCMRD    3.680  0.500 P
NNOMMB    6.330  0.500 S
NNOMMB    3.810  0.500 P
# 2012 11 18 21 41 2.14  37.6272 -119.0368 17.98 1.23 0.45 0.24 0.08   71889071
NCMCB    4.340  0.200 P
NCMCM    4.360  1.000 P
NCMCV    4.740  0.200 P
NCMCY    3.720  0.200 P
NCMDC    3.820  1.000 P
NCMDP1    6.020  0.500 S
NCMDPB    3.540  1.000 P
NCMGPB    4.250  1.000 P
NCMINS    6.240  0.200 S
NCMINS    3.600  1.000 P
NCMLC    4.020  1.000 P
NCMMP    3.690  0.200 P
NCMMT    6.230 -1.000 P
NCMRD    3.610  1.000 P
NNOMMB    6.130  1.000 S
NNOMMB    3.570  0.200 P
NNORC    6.920  0.200 P
NNRCC    6.450  1.000 P
NNSCH    7.990  1.000 P
# 2012 11 19 01 55 40.23  37.6458 -119.0547 17.56 0.74 1.11 0.50 0.10   71889161
NCMCM    4.290 -0.500 P
NCMDC    3.780  0.500 P
NCMDPB    6.130  0.500 S
NCMDPB    3.510  1.000 P
NCMINS    6.240 -1.000 S
NCMINS    3.570  1.000 P
NCMMT    6.220 -0.500 P
NCMPR   14.790  0.500 P
NCMRD    3.580  1.000 P
NNOMMB    6.080  0.200 S
NNOMMB    3.570  0.500 P
# 2012 11 19 07 12 45.01  37.6517 -119.0445 16.95 1.01 0.75 0.28 0.09   71889241
CIMLAC    4.770  0.200 P
NCMCB    4.300  0.200 P
NCMCM    4.230  0.500 P
NCMCV    4.690  0.200 P
NCMDC    3.630  0.500 P
NCMDPB    6.040  1.000 S
NCMDPB    3.370  0.500 P
NCMHD   16.080  0.200 P
NCMINS    6.200 -1.000 S
NCMINS    3.500  0.500 P
NCMLC    3.970  1.000 P
NCMLH    5.440  0.200 P
NCMLI    3.680  0.200 P
NCMMI   11.480  0.500 P
NCMMP    3.560  0.500 P
NCMMS    3.620  0.200 P
NCMMT    6.170  0.200 P
NCMPR   14.760  1.000 P
NCMQ1P    3.630  0.500 P
NCMRD    3.490  0.500 P
NNBEN    8.140  0.200 P
NNOMMB    6.090  1.000 S
NNOMMB    3.540  1.000 P
NNORC    6.810  0.200 P
NNRCC    6.360  0.500 P
NNSCH    7.920  0.500 P
# 2012 11 20 02 33 24.75  37.5945 -119.0088  1.01 -0.27 1.05 0.99 0.05   71890171
NCMDPB    2.850  0.200 S
NCMDPB    1.620 -1.000 P
NCMINS    1.730  0.200 P
NCMMP    0.900  1.000 P
NCMQ1P    0.870  1.000 P
NCMRD    1.130 -1.000 P
NNOMMB    1.400 -1.000 S
NNOMMB    0.800 -1.000 P
# 2012 11 20 02 39 19.26  37.6552 -119.0405 12.14 0.33 1.26 0.62 0.18   71890176
NCMDC    2.990 -1.000 P
NCMDPB    4.590  1.000 S
NCMDPB    2.560  0.500 P
NCMINS    4.790 -1.000 S
NCMINS    2.640  1.000 P
NCMLI    2.930  0.200 P
NCMMLB    2.800  0.200 P
NCMMS    2.930  0.200 P
NCMRD    2.700 -1.000 P
NNOMMB    4.800 -1.000 S
NNOMMB    2.820  0.200 P
