# 2012 10 22 16 25 42.53  37.6325 -119.0305  0.99 0.50 0.36 0.65 0.06   71865060
NCMCY    0.850  0.200 P
NCMDC    1.840 -1.000 P
NCMDPB    1.200  1.000 P
NCMDY    1.300  0.200 P
NCMINS    1.950  0.200 S
NCMINS    1.130  1.000 P
NCMLI    1.110  0.200 P
NCMMP    0.970  0.500 P
NCMMS    1.050  0.500 P
NCMQ1P    0.950  0.500 P
NCMRD    1.180  1.000 P
# 2012 10 23 04 45 18.27  37.5998 -119.0012  1.43 0.30 0.77 0.40 0.04   71866160
NCMCM    2.340  0.200 P
NCMCV    2.900  0.200 P
NCMINS    1.870  0.500 P
NCMLC    1.740  0.500 P
NCMMP    0.980  0.500 P
NCMQ1P    0.960  0.500 P
NCMRD    1.290 -1.000 P
# 2012 10 23 09 59 29.92  37.6292 -119.0793 18.36 1.22 1.44 0.55 0.06   71865675
NCMCM    4.420  0.200 P
NCMDC    3.900  0.200 P
NCMGPB    4.310  0.200 P
NCMHD   15.550  0.200 P
NCMINS    6.590 -1.000 S
NCMINS    3.660 -1.000 P
NCMMI   11.170  0.200 P
NCMMP    3.660  0.200 P
NCMPR   14.540 -1.000 P
NCMRD    3.600 -1.000 P
NNORC    6.850  0.200 P
# 2012 10 23 15 46 39.18  37.6303 -119.0958 20.38 0.85 0.95 0.61 0.10   71866180
NCMCM    4.710  0.500 P
NCMCV    5.260  0.200 P
NCMDC    4.310  1.000 P
NCMGPB    4.870 -1.000 P
NCMINS    7.080  1.000 S
NCMINS    4.120  1.000 P
NCMLC    4.600  0.200 P
NCMMI   11.270  0.200 P
NCMRD    4.050  0.500 P
NNBEN    8.680  0.200 P
# 2012 10 23 18 04 59.12  37.6148 -119.0512 20.08 0.81 0.87 31.61 0.02   71865925
NCMCM    4.710 -1.000 P
NCMCV    5.090  0.200 P
NCMDC    4.210 -1.000 P
NCMINS    6.900  0.500 S
NCMINS    3.980  0.200 P
NCMLC    4.390  1.000 P
NCMMP    3.780  0.200 P
NCMQ1P    3.990  0.200 P
NCMRD    3.900 -1.000 P
# 2012 10 23 19 09 43.42  37.6147 -119.0477 18.76 1.49 0.73 0.51 0.07   71865985
NCMCB    4.590  0.500 P
NCMCM    4.540  1.000 P
NCMCV    4.930  1.000 P
NCMDC    4.040  1.000 P
NCMDR    5.090  1.000 P
NCMGPB    4.450  1.000 P
NCMINS    6.710  1.000 S
NCMINS    3.800  1.000 P
NCMLC    4.220  1.000 P
NCMMP    3.760  0.500 P
NCMRD    3.740  1.000 P
NCMTU    9.420  1.000 P
NNORC    6.960  0.200 P
NNRCC    6.510  0.500 P
NNSCH    7.950  1.000 P
# 2012 10 23 19 37 26.36  37.5825 -119.0013  3.15 0.47 1.04 0.87 0.05   71866545
NCMCV    3.260 -0.200 P
NCMCY    1.950  0.200 P
NCMDC    3.090  0.200 P
NCMINS    2.160  0.200 P
NCMMP    1.250  1.000 P
NCMMS    1.650  0.200 P
NCMQ1P    1.240  0.500 P
NCMRD    1.550 -1.000 P
# 2012 10 24 04 02 22.18  37.5540 -119.0913 13.37 0.91 2.39 1.64 0.13   71866565
NCMCM    4.560  1.000 P
NCMCV    4.820  1.000 P
NCMDC    3.520  1.000 P
NCMDP1    5.440  1.000 S
NCMDPB    5.680  1.000 S
NCMDPB    3.050  1.000 P
NCMINS    5.970 -1.000 S
NCMINS    3.520  1.000 P
NCMLC    4.120  1.000 P
NCMPR   15.220  0.200 P
NCMRD    2.860 -1.000 P
# 2012 10 24 04 52 25.81  37.5993 -119.0032  1.32 0.17 0.62 0.35 0.04   71866675
NCMCV    2.910  0.200 P
NCMCY    1.350  0.200 P
NCMDPB    2.960 -1.000 S
NCMDPB    1.720  1.000 P
NCMINS    1.850  0.200 P
NCMLC    1.730 -0.500 P
NCMMP    0.920  1.000 P
NCMMS    1.470  0.200 P
NCMQ1P    0.910  0.500 P
NCMRD    1.260 -1.000 P
# 2012 10 24 10 26 42.23  37.5925 -119.0042  1.15 0.22 0.54 0.43 0.04   71866380
NCMCM    2.330  0.200 P
NCMCY    1.590  0.200 P
NCMDPB    3.020 -1.000 S
NCMDPB    1.760  1.000 P
NCMINS    3.250  0.200 S
NCMLC    1.740  0.500 P
NCMMP    0.940  1.000 P
NCMQ1P    0.930  1.000 P
NCMRD    1.270  1.000 P
# 2012 10 24 13 51 1.14  37.5882 -119.0178  2.06 -0.20 0.86 0.49 0.03   71866880
NCMCY    1.570  0.200 P
NCMDC    2.840  0.200 P
NCMDPB    2.920 -1.000 S
NCMDPB    1.670 -1.000 P
NCMMP    0.910  0.500 P
NCMQ1P    0.920  0.200 P
NCMRD    1.200 -1.000 P
# 2012 10 25 04 24 19.09  37.6367 -119.0352 -1.23 0.12 0.41 0.51 0.06   71867045
NCMCY    0.910 -1.000 S
NCMDC    1.900  0.200 P
NCMDPB    1.750  0.500 S
NCMDPB    1.050  1.000 P
NCMINS    1.480  0.500 S
NCMINS    0.920  1.000 P
NCMMP    0.920  0.200 P
NCMMS    0.610  1.000 P
NCMQ1P    1.040  0.200 P
NCMRD    1.250  1.000 P
# 2012 10 26 04 14 59.53  37.6318 -119.1387 12.43 0.58 2.61 1.98 0.35   71868310
NCMDC    3.220  1.000 P
NCMDPB    4.640  1.000 S
NCMDPB    2.320  1.000 P
NCMINS    4.610  1.000 S
NCMQ1P    5.670  1.000 S
NCMQ1P    4.300  0.200 P
NCMRD    3.310  1.000 P
NNOMMB    5.690 -1.000 S
NNOMMB    4.770  0.200 P
# 2012 10 26 07 33 57.27  37.6477 -119.0173  0.27 -0.07 0.22 0.58 0.07   71868385
NCMCY    0.630  0.200 P
NCMDC    1.680  0.200 P
NCMDPB    2.250  0.500 S
NCMDPB    1.330  1.000 P
NCMDY    1.510  0.200 S
NCMDY    0.920  0.500 P
NCMINS    1.630  0.500 S
NCMINS    1.010  0.500 P
NCMLI    1.060  0.200 P
NCMLK    1.220  0.500 P
NCMMLB    1.160  0.200 P
NCMMS    1.030  0.200 P
NCMQ1P    1.140  0.200 P
NCMRD    1.590  1.000 P
NNOMMB    1.760  0.500 S
NNOMMB    1.060  0.200 P
# 2012 10 26 16 57 0.52  37.6482 -119.0415 -0.70 -0.32 0.25 0.61 0.09   71868365
NCMCY    0.860  0.200 S
NCMCY    0.550  0.200 P
NCMDC    1.560  0.200 P
NCMDPB    1.760  0.500 S
NCMDPB    1.080  0.500 P
NCMDY    0.990 -1.000 P
NCMINS    1.050  0.200 S
NCMINS    0.640 -1.000 P
NCMMS    0.850  0.500 P
NCMQ1P    1.150  0.500 P
NCMRD    1.580  0.200 P
NNOMMB    1.870  0.500 S
NNOMMB    1.160 -1.000 P
# 2012 10 27 00 01 1.29  37.6307 -119.0198  2.10 0.33 0.25 0.45 0.07   71868760
NCMCB    2.550  0.200 P
NCMCM    2.710  1.000 P
NCMCV    3.360  0.500 P
NCMCY    1.100  0.500 P
NCMDC    1.920  1.000 P
NCMDH1    3.470  1.000 S
NCMDPB    1.350  1.000 P
NCMDY    1.370  1.000 P
NCMEM    2.050  0.200 P
NCMGPB    2.410  0.200 P
NCMINS    1.290  1.000 P
NCMLC    2.100  0.500 P
NCMLI    1.220  0.500 P
NCMLK    1.690  0.200 P
NCMMP    1.080  1.000 P
NCMMS    1.230  1.000 P
NCMQ1P    1.040  1.000 P
NCMRD    1.390  1.000 P
NNOMMB    1.660  0.500 S
NNOMMB    1.060  0.500 P
# 2012 10 27 04 26 48.06  37.6423 -119.0888 13.41 0.47 0.66 0.33 0.10   71871170
NCMCV    4.580  0.200 P
NCMCY    5.730  0.200 S
NCMCY    3.120  0.200 P
NCMDC    3.130  1.000 P
NCMDP1    4.870  1.000 S
NCMDPB    4.780  1.000 S
NCMDPB    2.780  1.000 P
NCMDR    5.000  0.200 P
NCMDY    3.600  0.200 P
NCMGPB    4.450  0.200 P
NCMHD   15.030  0.200 P
NCMINS    5.150  1.000 S
NCMINS    2.860  1.000 P
NCMLC    3.830  0.200 P
NCMLI    3.360  0.200 P
NCMLK    3.460  0.200 P
NCMMLB    3.720  0.200 P
NCMMP    3.150  0.200 P
NCMMT    6.090  0.200 P
NCMRD    2.910  1.000 P
NNOMMB    2.780  0.200 P
NNORC    7.160  0.200 P
# 2012 10 27 06 00 13.97  37.5965 -119.0037  1.05 0.35 0.64 0.38 0.05   71065929
NCMCY    2.650  0.200 S
NCMCY    1.550  0.500 P
NCMDPB    2.920  0.500 S
NCMDPB    1.700  1.000 P
NCMINS    3.090  0.500 S
NCMINS    1.800  0.500 P
NCMMP    0.910  1.000 P
NCMMS    1.390  1.000 P
NCMQ1P    0.900  1.000 P
NCMRD    1.210 -1.000 P
NNOMMB    1.380 -1.000 S
NNOMMB    0.810  1.000 P
# 2012 10 27 06 02 47.38  37.5987 -119.0045  1.02 -0.02 0.64 0.54 0.05   71868955
NCMCY    1.530  0.200 P
NCMDPB    2.890 -0.500 S
NCMDPB    1.670  1.000 P
NCMINS    1.770  0.500 P
NCMMP    0.880  1.000 P
NCMMS    1.380  0.200 P
NCMQ1P    0.870  1.000 P
NCMRD    1.180 -1.000 P
NNOMMB    1.340 -1.000 S
NNOMMB    0.770  0.500 P
# 2012 10 27 09 25 55.60  37.6247 -119.1358  2.22 0.21 0.52 1.11 0.07   71871325
NCMCY    2.050  0.200 P
NCMDC    2.600 -1.000 P
NCMDPB    2.240  0.200 S
NCMDPB    1.350 -1.000 P
NCMINS    2.980  0.200 S
NCMINS    1.770  1.000 P
NCMMP    2.220  0.500 P
NCMPR   13.600 -1.000 P
NCMQ1P    2.260  0.200 P
NCMRD    1.780  1.000 P
NNOMMB    4.140  0.200 S
NNOMMB    2.470  0.500 P
# 2012 10 27 10 10 31.55  37.5975 -119.0082  0.89 -0.06 0.46 0.54 0.04   71869075
NCMDC    2.630  0.200 P
NCMDPB    2.860 -1.000 S
NCMDPB    1.620  1.000 P
NCMGPB    2.400  0.200 P
NCMINS    1.820  0.500 P
NCMMP    0.840  1.000 P
NCMMS    1.290  0.200 P
NCMQ1P    0.840  1.000 P
NCMRD    1.160 -1.000 P
NNOMMB    1.310  0.500 S
NNOMMB    0.750  0.500 P
# 2012 10 27 19 45 53.31  37.5812 -119.0317  4.14 0.17 0.42 0.34 0.10   71871390
NCMCM    2.900  0.500 P
NCMCV    3.370  0.500 P
NCMCY    3.570  0.200 S
NCMCY    2.130  0.200 P
NCMDC    3.180  0.200 P
NCMDPB    1.960  0.500 P
NCMDY    2.640  0.200 P
NCMGPB    2.820  0.500 P
NCMINS    3.790 -1.000 S
NCMINS    2.380  0.200 P
NCMLC    2.380  1.000 P
NCMMP    1.490  1.000 P
NCMMS    1.990  0.200 P
NCMQ1P    1.550  0.500 P
NCMRD    1.410  1.000 P
NNOMMB    2.590 -1.000 S
NNOMMB    1.530  0.500 P
# 2012 10 27 22 55 19.74  37.6302 -119.0390 18.08 0.52 1.14 0.49 0.07   71871405
NCMDC    3.880 -1.000 P
NCMDPB    6.280  1.000 S
NCMDPB    3.520  1.000 P
NCMINS    6.530  1.000 S
NCMINS    3.600  0.500 P
NCMMI   11.190  0.200 P
NCMMT    5.920  0.200 P
NCMQ1P    3.630  0.200 P
NCMRD    3.550  1.000 P
NNOMMB    6.310 -1.000 S
NNOMMB    3.580  0.500 P
# 2012 10 27 23 51 47.52  37.6243 -119.0595 18.81 0.68 1.01 0.40 0.10   71871435
NCMCM    4.590  0.500 P
NCMDC    4.040  1.000 P
NCMDPB    6.460  1.000 S
NCMDPB    3.670  1.000 P
NCMINS    6.690  1.000 S
NCMINS    3.770  1.000 P
NCMMP    3.800  0.500 P
NCMMS    4.090  0.200 P
NCMMT    6.080 -1.000 P
NCMPR   13.720  1.000 P
NCMRD    3.790  1.000 P
NNOMMB    6.490  1.000 S
NNOMMB    3.710  0.500 P
NNRCC    6.520  0.200 P
# 2012 10 28 00 31 27.60  37.6452 -119.0593 18.09 0.72 1.52 0.43 0.06   71871450
NCMCM    4.450  0.200 P
NCMDC    3.880  0.500 P
NCMDPB    6.250  0.500 S
NCMDPB    3.520  0.500 P
NCMINS    6.500 -1.000 S
NCMINS    3.610  1.000 P
NCMLC    4.110  0.200 P
NCMMP    3.620  0.200 P
NCMMT    5.920  0.200 P
NCMPR   13.600  0.200 P
NCMQ1P    3.630  1.000 P
NCMRD    3.530  0.500 P
NNRCC    6.330  0.200 P
# 2012 10 28 00 43 36.67  37.6353 -119.0218  0.88 -0.06 0.27 0.65 0.08   71869575
NCMCM    2.610  0.500 P
NCMCY    1.070  0.200 P
NCMDC    1.840 -1.000 P
NCMDPB    1.270  1.000 P
NCMINS    1.210  1.000 P
NCMLI    0.780  0.200 P
NCMMP    1.000  1.000 P
NCMMS    1.150  0.500 P
NCMQ1P    0.980  0.500 P
NCMRD    1.300  1.000 P
NNOMMB    1.590 -1.000 S
NNOMMB    1.000  0.200 P
# 2012 10 29 01 05 12.07  37.6348 -119.0330  9.47 0.39 0.38 0.38 0.07   71871500
NCMBS1    6.800  0.200 S
NCMCM    3.410  1.000 P
NCMCV    3.880  1.000 P
NCMDC    2.660  1.000 P
NCMDP1    3.990  1.000 S
NCMDPB    3.970  1.000 S
NCMDPB    2.220  1.000 P
NCMEM    2.630  0.500 P
NCMINS    4.140  1.000 S
NCMINS    2.360  1.000 P
NCMLC    3.010  0.100 P
NCMMP    2.460  0.200 P
NCMMS    2.290  0.200 P
NCMPR   14.530  0.500 P
NCMQ1P    2.320  0.200 P
NCMRD    2.250  1.000 P
NNOMMB    4.030 -1.000 S
NNOMMB    2.240  1.000 P
NNRCC    6.350  0.200 P
# 2012 10 29 01 41 2.56  37.6233 -119.0798 21.45 0.89 1.30 0.45 0.13   71870480
NCMCM    4.930  0.500 P
NCMCV    5.310  0.200 P
NCMDC    4.510 -1.000 P
NCMDPB    7.410  0.500 S
NCMDPB    4.190  0.500 P
NCMINS    7.410  1.000 S
NCMINS    4.200  1.000 P
NCMMP    4.250  0.200 P
NCMMS    4.030  0.200 P
NCMQ1P    4.220  0.200 P
NCMRD    4.160  0.500 P
NNOMMB    4.190  0.200 P
NNRCC    6.810  0.200 P
# 2012 10 29 02 03 51.47  37.6127 -119.0498 19.85 1.13 0.60 0.20 0.05   71870495
CIMLAC    5.160  0.200 P
NCMCB    4.750  0.200 P
NCMCM    4.710  1.000 P
NCMCV    5.060  1.000 P
NCMCY    4.160  0.200 P
NCMDC    4.230  1.000 P
NCMDPB    6.810  1.000 S
NCMDPB    3.840  1.000 P
NCMDR    5.260  0.500 P
NCMDY    4.360  0.500 P
NCMGPB    4.620  1.000 P
NCMINS    7.130  1.000 S
NCMINS    3.970  1.000 P
NCMLC    4.450  0.500 P
NCMLI    3.790  0.200 P
NCMMP    4.030  0.500 P
NCMMS    4.230  0.200 P
NCMMT    6.130  0.500 P
NCMMX1    7.200  1.000 S
NCMQ1P    4.000  0.200 P
NCMRD    3.890  1.000 P
NNOMMB    6.910  1.000 S
NNOMMB    3.910  1.000 P
NNORC    7.110  0.200 P
NNRCC    6.600  1.000 P
# 2012 10 29 03 14 21.32  37.6297 -119.0548 20.18 0.66 0.91 0.31 0.05   71871945
NCMCM    4.760 -1.000 P
NCMDC    4.300  0.200 P
NCMDPB    6.950  0.200 S
NCMDPB    3.930  0.500 P
NCMINS    7.160 -1.000 S
NCMINS    3.990 -1.000 P
NCMLC    4.450  0.200 P
NCMMP    3.960  0.200 P
NCMMT    6.210  0.200 P
NCMPR   14.580  0.500 P
NCMQ1P    3.980  0.500 P
NCMRD    3.940  1.000 P
NNOMMB    7.050  0.200 S
NNOMMB    3.900  0.200 P
# 2012 10 29 03 16 26.67  37.6202 -119.0523 20.76 0.86 0.71 0.34 0.07   71870525
NCMCM    4.800  1.000 P
NCMCV    5.160  0.500 P
NCMDC    4.320  1.000 P
NCMDPB    7.070  1.000 S
NCMDPB    3.920  1.000 P
NCMDR    5.340  1.000 P
NCMGPB    4.720  0.500 P
NCMINS    7.220  1.000 S
NCMINS    4.070  1.000 P
NCMLC    4.510  1.000 P
NCMMP    4.040  1.000 P
NCMMT    6.240 -1.000 P
NCMQ1P    4.040  1.000 P
NCMRD    4.010  1.000 P
NNOMMB    7.090  1.000 S
NNOMMB    4.010  1.000 P
NNRCC    6.710  0.500 P
# 2012 10 29 03 57 0.78  37.6258 -119.0227  3.16 0.42 0.58 1.56 0.05   71870535
NCMCM    2.840  0.200 P
NCMDPB    1.460  1.000 P
NCMINS    1.480 -1.000 P
NCMLK    1.960  0.500 P
NCMMLB    1.770  0.200 P
NCMMP    1.130  1.000 P
NCMMS    1.360  1.000 P
NCMQ1P    1.120  1.000 P
NCMRD    1.430 -1.000 P
NNOMMB    1.110  1.000 P
# 2012 10 29 05 08 37.17  37.6155 -119.0463 19.88 1.02 0.77 0.42 0.08   71870575
NCMCM    4.700  1.000 P
NCMCV    5.060  1.000 P
NCMDC    4.200  1.000 P
NCMDPB    6.770  1.000 S
NCMDPB    3.950  0.200 P
NCMDR    5.170  0.200 P
NCMGPB    4.620  1.000 P
NCMINS    7.050  1.000 S
NCMINS    3.970  1.000 P
NCMLC    4.390  1.000 P
NCMMP    3.970  1.000 P
NCMMS    3.880  0.200 P
NCMMT    6.140  0.500 P
NCMPR   14.600  0.200 P
NCMRD    3.890  1.000 P
NNOMMB    6.870  1.000 S
NNOMMB    3.880  0.500 P
NNORC    7.100  0.200 P
NNRCC    6.600  1.000 P
NNSCH    7.990  1.000 P
# 2012 10 29 05 33 6.21  37.6218 -119.0513 19.72 0.82 0.61 0.22 0.06   71871980
NCMCM    4.720  1.000 P
NCMCV    5.090  0.500 P
NCMDC    4.080  0.500 P
NCMDPB    6.770  1.000 S
NCMDPB    3.880  0.500 P
NCMDY    4.050  0.200 P
NCMGPB    4.540  0.200 P
NCMINS    7.080  1.000 S
NCMINS    3.810  0.500 P
NCMLC    4.410  0.200 P
NCMLI    3.910  0.200 P
NCMMP    3.940  0.200 P
NCMMS    4.010  0.200 P
NCMMT    6.150 -0.500 P
NCMPR   14.670  0.200 P
NCMQ1P    3.830  0.200 P
NCMRD    3.930  1.000 P
NNOMMB    6.860 -1.000 S
NNOMMB    3.840  0.500 P
NNRCC    6.650  0.500 P
# 2012 10 29 06 48 1.13  37.6293 -119.0443 19.33 0.75 1.02 0.40 0.07   71870620
NCMCM    4.580  0.500 P
NCMCY    3.700  0.200 P
NCMDC    4.120 -1.000 P
NCMDPB    6.660  1.000 S
NCMDPB    3.760  0.500 P
NCMINS    6.930  1.000 S
NCMINS    3.860  1.000 P
NCMMI   11.080  0.200 P
NCMMP    3.780  0.200 P
NCMMS    3.850  0.200 P
NCMQ1P    3.850  0.200 P
NCMRD    3.790  1.000 P
NNOMMB    6.750 -1.000 S
NNOMMB    3.810  1.000 P
NNRCC    6.520  0.200 P
# 2012 10 29 07 03 41.18  37.6203 -119.0492 19.38 0.65 0.91 0.45 0.06   71872055
NCMCM    4.620 -1.000 P
NCMDC    4.120 -1.000 P
NCMDPB    6.860  0.500 S
NCMDPB    3.730  1.000 P
NCMGPB    4.540  0.200 P
NCMINS    6.940  0.500 S
NCMINS    3.860  1.000 P
NCMLC    4.310  0.200 P
NCMLI    3.840  0.200 P
NCMMP    3.760  0.200 P
NCMMS    3.860  0.200 P
NCMPR   14.510  0.500 P
NCMQ1P    3.830  0.500 P
NCMRD    3.810  1.000 P
NNOMMB    6.740 -1.000 S
NNOMMB    3.810  1.000 P
# 2012 10 29 07 09 10.96  37.6300 -119.0710 21.24 1.44 0.55 0.31 0.09   71872060
NCMBS1    8.960 -1.000 S
NCMCM    4.980  0.500 P
NCMCV    5.440  0.500 P
NCMDC    4.370  0.500 P
NCMDPB    7.270  0.500 S
NCMDPB    4.010  0.500 P
NCMDR    5.590  1.000 P
NCMFB   11.170  0.500 P
NCMGPB    4.980  1.000 P
NCMHD   15.610  0.200 P
NCMINS    7.510 -1.000 S
NCMINS    4.070  0.500 P
NCMMI   11.390  0.200 P
NCMMP    4.070  0.200 P
NCMMT    6.290  0.500 P
NCMPR   14.690  1.000 P
NCMQ1P    4.010  0.500 P
NCMRD    4.000  0.500 P
NNBEN    8.750  0.500 P
NNMLN   11.560  0.200 P
NNOMMB    7.390  0.500 S
NNOMMB    4.020  0.500 P
NNORC    7.440  0.500 P
NNPOC   13.310  0.200 P
NNRCC    6.710  0.200 P
# 2012 10 29 08 17 0.01  37.6255 -119.0465 19.92 1.03 0.75 0.31 0.07   71870665
NCMCM    4.730  0.200 P
NCMCV    5.090  0.500 P
NCMCY    3.870  0.200 P
NCMDC    4.120  0.200 P
NCMDR    5.250 -1.000 P
NCMGPB    4.640  0.500 P
NCMINS    7.070  1.000 S
NCMINS    4.000  0.500 P
NCMLC    4.420  0.500 P
NCMLI    3.970  0.200 P
NCMMP    3.700  0.200 P
NCMPR   14.790  0.200 P
NCMQ1P    3.970  0.200 P
NCMRD    3.920  0.500 P
NNOMMB    6.900 -1.000 S
NNOMMB    3.970  0.500 P
NNRCC    6.630  0.500 P
NNSCH    8.020  0.500 P
# 2012 10 29 08 18 55.31  37.6310 -119.0460 19.70 1.40 0.66 0.28 0.06   71870660
CIMLAC    5.080  0.200 P
NCMCB    4.680  0.200 P
NCMCD   10.030  0.200 P
NCMCM    4.640  0.500 P
NCMCV    5.000  0.500 P
NCMCY    3.860  0.200 P
NCMDC    4.080  1.000 P
NCMDPB    6.800  0.500 S
NCMDPB    3.840  1.000 P
NCMDR    5.150  0.500 P
NCMDY    4.130  0.200 P
NCMGPB    4.570  0.500 P
NCMINS    7.050 -1.000 S
NCMINS    3.910  1.000 P
NCMLC    4.340  0.500 P
NCMLH    5.710  0.200 P
NCMMP    3.920  0.500 P
NCMMS    3.970  0.500 P
NCMMT    6.280  0.200 P
NCMQ1P    3.920  0.500 P
NCMRD    3.850  0.500 P
NNOMMB    6.870 -1.000 S
NNOMMB    3.840  1.000 P
NNORC    7.010  0.200 P
NNRCC    6.460  0.200 P
NNSCH    7.890  0.200 P
# 2012 10 29 09 17 32.43  37.6315 -119.0447 19.33 0.72 0.90 0.32 0.06   71872085
NCMCM    4.600  0.500 P
NCMCV    4.970  0.200 P
NCMCY    3.730  0.200 P
NCMDC    4.110  0.500 P
NCMINS    6.860  0.500 S
NCMINS    3.830  0.500 P
NCMLC    4.290  1.000 P
NCMMP    3.890  0.200 P
NCMQ1P    3.950  0.200 P
NCMRD    3.780  1.000 P
NNOMMB    6.690 -1.000 S
NNOMMB    3.780  1.000 P
NNRCC    6.550  0.200 P
# 2012 10 29 09 26 22.74  37.6270 -119.0435 19.85 0.96 0.86 0.30 0.10   71870695
CIMLAC    5.140  0.200 P
NCMCM    4.570  0.500 P
NCMCV    5.040  0.500 P
NCMCY    3.950  0.200 P
NCMDC    4.180  1.000 P
NCMDP1    6.720  0.500 S
NCMDR    5.200  0.500 P
NCMGPB    4.580  0.500 P
NCMHD   15.830  0.200 P
NCMINS    6.960  1.000 S
NCMINS    3.940  1.000 P
NCMLC    4.350  0.500 P
NCMMI   11.270  0.200 P
NCMMP    3.920  0.200 P
NCMPR   14.590  0.500 P
NCMQ1P    3.890  0.200 P
NCMRD    3.870  1.000 P
NNOMMB    6.790  1.000 S
NNOMMB    3.850  0.500 P
NNORC    7.080  0.200 P
NNRCC    6.600  0.500 P
NNSCH    8.050  0.500 P
# 2012 10 29 09 34 10.73  37.6148 -119.0502 19.68 0.75 1.05 0.51 0.06   71870710
NCMCM    4.660  1.000 P
NCMDC    4.210  0.500 P
NCMDPB    6.750  0.200 S
NCMDPB    3.770  1.000 P
NCMGPB    4.580  0.500 P
NCMINS    6.940  0.500 S
NCMINS    3.910  0.500 P
NCMLC    4.340  1.000 P
NCMMP    3.910  0.200 P
NCMMS    3.760  0.200 P
NCMQ1P    3.880  0.200 P
NCMRD    3.860 -1.000 P
NNOMMB    6.770 -0.500 S
NNOMMB    3.870  0.500 P
NNRCC    6.590  0.200 P
NNSCH    8.040  0.200 P
# 2012 10 29 09 52 55.40  37.6233 -119.0527 19.61 0.92 0.71 0.29 0.05   71872105
CIMLAC    5.110  0.200 P
NCMCM    4.680  1.000 P
NCMCV    5.040  0.500 P
NCMCY    3.710  0.200 P
NCMDC    4.220  0.500 P
NCMDR    5.190  0.500 P
NCMGPB    4.560  0.500 P
NCMHD   15.930  0.200 P
NCMINS    6.930  0.500 S
NCMINS    3.920  1.000 P
NCMLC    4.360  1.000 P
NCMMI   11.380  0.200 P
NCMMP    3.890  0.200 P
NCMMS    3.710  0.500 P
NCMMT    6.180 -0.500 P
NCMPR   14.630  1.000 P
NCMQ1P    3.900  0.500 P
NCMRD    3.870  1.000 P
NNOMMB    6.860  0.200 S
NNOMMB    3.850  1.000 P
NNRCC    6.600  0.200 P
# 2012 10 29 10 03 43.70  37.6138 -119.0392 20.87 0.93 0.56 0.31 0.07   71870755
NCMCM    4.730  0.200 P
NCMCV    5.070  0.200 P
NCMDC    4.340 -1.000 P
NCMDP1    7.030  0.500 S
NCMDR    5.220  0.200 P
NCMGPB    4.630  0.500 P
NCMINS    7.240  0.200 S
NCMINS    4.230  0.200 P
NCMMI   11.470  0.200 P
NCMMP    4.050  0.200 P
NCMMT    6.290 -0.500 P
NCMPR   14.690  1.000 P
NCMQ1P    4.050  0.500 P
NCMRD    4.010  1.000 P
NNOMMB    7.000  1.000 S
NNOMMB    4.030  0.200 P
NNRCC    6.600 -0.500 P
# 2012 10 29 10 08 8.42  37.6228 -119.0437 19.63 0.66 0.94 0.43 0.04   71870765
NCMCM    4.570 -1.000 P
NCMDC    4.110 -1.000 P
NCMDPB    3.810  0.200 P
NCMINS    6.950  0.500 S
NCMINS    3.880  0.500 P
NCMLC    4.260  0.200 P
NCMMP    3.780  0.200 P
NCMQ1P    3.880  0.200 P
NCMRD    3.840 -1.000 P
NNOMMB    6.800 -1.000 S
NNOMMB    3.850  0.500 P
# 2012 10 29 11 22 7.80  37.6148 -119.0480 19.57 0.89 0.92 0.30 0.06   71870795
NCMCM    4.630  0.500 P
NCMCV    4.990  0.500 P
NCMDC    4.140 -1.000 P
NCMGPB    4.550  0.500 P
NCMINS    6.950  0.500 S
NCMINS    3.910  1.000 P
NCMLC    4.320  0.500 P
NCMMP    3.880  0.500 P
NCMMT    6.130  0.200 P
NCMPR   13.970  0.500 P
NCMQ1P    3.890  0.200 P
NCMRD    3.840  0.500 P
NNOMMB    6.750 -1.000 S
NNOMMB    3.890  0.200 P
NNRCC    6.570  0.500 P
NNSCH    8.010  0.500 P
